#  2023   5  6  6 37  14.316549  -1.606081843  101.143432475   1.28125  0  0  0  0.00540289  2892
M11  0.61155100  1.000  P
M11  1.08635100  1.000  S
M05  1.53915100  1.000  P
M05  2.78735100  1.000  S
M14  0.78115100  1.000  P
M14  1.35375100  1.000  S
M06  0.27515100  1.000  P
M06  0.73325100  1.000  S
#  2023   5 15 17 26  39.816585  -1.637754502  101.153425806   2.15483  0  0  0  0.01379090  2893
M06  0.69721500  1.000  P
M06  1.20461500  1.000  S
M11  0.77881500  1.000  P
M11  1.35711500  1.000  S
M09  0.92971500  1.000  P
M09  1.54611500  1.000  S
M13  0.98991500  1.000  P
M13  1.63091500  1.000  S
M12  1.45801500  1.000  P
M12  2.53441500  1.000  S
#  2023   5 15 17 32  30.396144  -1.637484418  101.154361355   2.11222  0  0  0  0.02410370  2894
M06  0.70175600  1.000  P
M06  1.21555600  1.000  S
M11  0.76665600  1.000  P
M11  1.36275600  1.000  S
M09  0.93175600  1.000  P
M09  1.54765600  1.000  S
M13  0.99235600  1.000  P
M13  1.73275600  1.000  S
M05  1.32465600  1.000  P
M05  2.28885600  1.000  S
M12  1.50185600  1.000  P
M12  2.60265600  1.000  S
#  2023   5 19 22 49  48.464110  -1.650750651  101.141073222   0.96875  0  0  0  0.03198300  2895
M06  0.75179000  1.000  P
M06  1.30139000  1.000  S
M14  0.77709000  1.000  P
M14  1.36549000  1.000  S
M11  0.88879000  1.000  P
M11  1.53619000  1.000  S
M09  0.99389000  1.000  P
M09  1.79339000  1.000  S
M13  1.07749000  1.000  P
M13  1.91189000  1.000  S
M08  1.22579000  1.000  P
M08  2.17909000  1.000  S
M05  1.37629000  1.000  P
M05  2.41039000  1.000  S
M01  1.49559000  1.000  P
M01  2.57359000  1.000  S
#  2023   5 19 22 54  49.029475  -1.637888605  101.153827023   2.22585  0  0  0  0.01946360  2896
M06  0.71692500  1.000  P
M06  1.24042500  1.000  S
M11  0.80502500  1.000  P
M11  1.37022500  1.000  S
M09  0.95112500  1.000  P
M09  1.67872500  1.000  S
M13  1.10602500  1.000  P
M13  1.90242500  1.000  S
M05  1.14542500  1.000  P
M05  1.99912500  1.000  S
#  2023   5 19 22 54  53.533470  -1.639509969  101.147411583   2.41051  0  0  0  0.01317340  2897
M06  0.69733000  1.000  P
M06  1.19823000  1.000  S
M11  0.81833000  1.000  P
M11  1.39813000  1.000  S
M09  0.90633000  1.000  P
M09  1.56093000  1.000  S
M13  0.97503000  1.000  P
M13  1.65913000  1.000  S
M05  1.27943000  1.000  P
M05  2.18063000  1.000  S
#  2023   5 25  3 57  54.805766  -1.602893437  101.104658777   7.92898  0  0  0  0.03140490  2898
M05  1.89433400  1.000  P
M05  3.19643400  1.000  S
M01  1.93973400  1.000  P
M01  3.27973400  1.000  S
M10  1.97373400  1.000  P
M10  3.26463400  1.000  S
M12  1.92143400  1.000  P
M12  3.16453400  1.000  S
M13  2.01703400  1.000  P
M13  3.36083400  1.000  S
M03  1.84533400  1.000  P
M03  3.09163400  1.000  S
M09  2.13963400  1.000  P
M09  3.60073400  1.000  S
M02  2.17003400  1.000  P
M02  3.60433400  1.000  S
M08  2.05973400  1.000  P
M08  3.46313400  1.000  S
M14  2.14063400  1.000  P
M14  3.57763400  1.000  S
M11  2.18743400  1.000  P
M11  3.66673400  1.000  S
M06  2.33623400  1.000  P
M06  3.92563400  1.000  S
#  2023   5 25  3 58  41.261401  -1.604500713  101.111612431   6.76420  0  0  0  0.04859630  2899
M05  1.62389900  1.000  P
M05  2.71069900  1.000  S
M10  1.50869900  1.000  P
M10  2.49929900  1.000  S
M12  1.62689900  1.000  P
M12  2.69989900  1.000  S
M13  1.71329900  1.000  P
M13  2.85949900  1.000  S
M09  1.83669900  1.000  P
M09  3.09009900  1.000  S
M08  1.73269900  1.000  P
M08  2.86529900  1.000  S
M02  1.85849900  1.000  P
M02  3.12499900  1.000  S
M14  2.17649900  1.000  P
M14  3.65959900  1.000  S
M11  2.03289900  1.000  P
M11  3.45499900  1.000  S
M06  2.00119900  1.000  P
M06  3.36859900  1.000  S
#  2023   5 27 15 41  24.023228  -1.645353807  101.155238772   1.50852  0  0  0  0.02044970  2900
M06  0.64737200  1.000  P
M06  1.17377200  1.000  S
M11  0.86637200  1.000  P
M11  1.48677200  1.000  S
M09  0.75757200  1.000  P
M09  1.41667200  1.000  S
M08  1.24937200  1.000  P
M08  2.13507200  1.000  S
M05  1.70447200  1.000  P
M05  3.02807200  1.000  S
#  2023   5 27 15 42   8.603672  -1.643695744  101.133378367   2.11222  0  0  0  0.02072070  2901
M06  0.69572800  1.000  P
M06  1.22282800  1.000  S
M14  0.74682800  1.000  P
M14  1.31722800  1.000  S
M11  0.88152800  1.000  P
M11  1.53612800  1.000  S
M09  0.93382800  1.000  P
M09  1.58142800  1.000  S
M13  0.94912800  1.000  P
M13  1.60102800  1.000  S
M05  1.19912800  1.000  P
M05  2.12112800  1.000  S
M08  1.18152800  1.000  P
M08  2.03992800  1.000  S
M12  1.46842800  1.000  P
M12  2.57722800  1.000  S
#  2023   5 28 12 27   6.912541  -1.607300151  101.136348187   1.66477  0  0  0  0.01321890  2902
M09  1.78145900  1.000  P
M09  3.04185900  1.000  S
M11  1.54675900  1.000  P
M11  2.70595900  1.000  S
M02  0.93965900  1.000  P
M02  1.67885900  1.000  S
M06  0.97975900  1.000  P
M06  1.67855900  1.000  S
#  2023   5 28 18 49  16.228186  -1.630801857  101.144494553   1.08594  0  0  0  0.00278075  2903
M06  0.36811400  1.000  P
M06  0.63801400  1.000  S
M14  0.44261400  1.000  P
M14  0.78571400  1.000  S
M09  0.50911400  1.000  P
M09  0.89001400  1.000  S
M05  0.55451400  1.000  P
M05  0.97411400  1.000  S
