NLLOC "./loc/SEML.20230528.184916.grid0" "LOCATED" "Location completed."
PUBLIC_ID None
SIGNATURE "Arham Zakki Edelo - edelo.17034@mhs.its.ac.id   obs:./obs/2023_05.obs   NLLoc:v7.00.10(30Aug2020)   run:28Dec2023 20h01m23"
COMMENT "SEML"
GRID  2001 2001 1001  727 9811 -2  0.01 0.01 0.01 PROB_DENSITY
SEARCH OCTREE nInitial 4851 nEvaluated 20019 smallestNodeSide 0.007440/0.007440/0.007102 oct_tree_integral 2.564786e-03 scatter_volume 2.564786e-03
HYPOCENTER  x 738.589 y 9819.62 z -0.164063  OT 16.2282  ix -1 iy -1 iz -1 MAXIMUM_LIKELIHOOD
GEOGRAPHIC  OT 2023 05 28  18 49 16.228186  Lat 9819.619792 Long 738.588542 Depth -0.164063
QUALITY  Pmax 2.00058e+23 MFmin 36.0337 MFmax 44.8126 RMS 0.00278075 Nphs 8 Gap 236.349 Dist 0.574791 Mamp -9.90 0 Mdur -9.90 0
VPVSRATIO  VpVsRatio 1.69337  Npair 4  Diff 0.149786
STATISTICS  ExpectX 738.034395 Y 9819.805442 Z -0.146165  CovXX 0.841368 XY -0.272874 XZ -0.0299721 YY 0.0953762 YZ 0.007464 ZZ 0.00875313 EllAz1  199.458 Dip1  -35.5779 Len1  0.127901 Az2  195.421 Dip2  54.3547 Len2  0.181272 Len3  1.813392e+00
STAT_GEOG  ExpectLat 9819.805442 Long 738.034395 Depth -0.146165
TRANSFORM  NONE
QML_OriginQuality  assocPhCt 8  usedPhCt 8  assocStaCt -1  usedStaCt 4  depthPhCt -1  stdErr 0.00278075  azGap 236.349  secAzGap 236.349  gtLevel -  minDist 0.574791 maxDist 3.3855 medDist 1.32209
QML_OriginUncertainty  horUnc -1  minHorUnc 0.119591  maxHorUnc 1.46295  azMaxHorUnc 108.094
QML_ConfidenceEllipsoid  semiMajorAxisLength 1.81339  semiMinorAxisLength 0.127901  semiIntermediateAxisLength 0.181272  majorAxisPlunge -1.91214  majorAxisAzimuth 108.09  majorAxisRotation 324.339
FOCALMECH  Hyp  9819.619792 738.588542 -0.164063 Mech  0 0 0 mf  0 nObs -1
PHASE ID Ins Cmp On Pha  FM Date     HrMn   Sec     Err  ErrMag    Coda      Amp       Per       PriorWt  >   TTpred    Res       Weight    StaLoc(X  Y         Z)        SDist    SAzim  RAz  RDip RQual    Tcorr       TTerr
M06          ?    BHZ  i P      d 20230528 1849   16.5963 GAU  1.08e-03 -1.00e+00 -1.00e+00 -1.00e+00    1.0000 >    0.3667    0.0014    1.5535  738.3100 9819.1170   -1.3960    0.5748 208.99 209.0 154.0 10     0.0000    0.0073
M06          ?    BHN  e S      ? 20230528 1849   16.8662 GAU  3.01e-03 -1.00e+00 -1.00e+00 -1.00e+00    1.0000 >    0.6403   -0.0023    1.3240  738.3100 9819.1170   -1.3960    0.5748 208.99 209.0 154.7 10     0.0000    0.0128
M14          ?    BHZ  e P      c 20230528 1849   16.6708 GAU  5.28e-03 -1.00e+00 -1.00e+00 -1.00e+00    1.0000 >    0.4468   -0.0041    1.4083  737.5530 9820.0110   -1.3980    1.1070 290.70 290.7 136.2 10     0.0000    0.0089
M14          ?    BHE  e S      ? 20230528 1849   17.0139 GAU  1.66e-03 -1.00e+00  3.86e+02 -1.00e+00    1.0000 >    0.7803    0.0055    1.1616  737.5530 9820.0110   -1.3980    1.1070 290.70 290.7 137.7 10     0.0000    0.0156
M09          ?    BHZ  e P      d 20230528 1849   16.7373 GAU  8.61e-04 -1.00e+00  1.86e+02 -1.00e+00    1.0000 >    0.5093   -0.0002    1.4695  737.8820 9820.9850   -1.2700    1.5372 332.64 332.6 122.6 10     0.0000    0.0102
M09          ?    BHE  e S      ? 20230528 1849   17.1182 GAU  6.93e-03 -1.00e+00  3.58e+02 -1.00e+00    1.0000 >    0.8909   -0.0009    1.0832  737.8820 9820.9850   -1.2700    1.5372 332.64 332.6 124.7 10     0.0000    0.0178
M05          ?    BHZ  i P      d 20230528 1849   16.7827 GAU  3.29e-03 -1.00e+00  1.65e+02 -1.00e+00    1.0000 >    0.9430   -0.3885    0.0000  736.2660 9822.0830   -1.1500    3.3855 316.68 316.7 101.0 10     0.0000    0.0189
M05          ?    BHN  i S      ? 20230528 1849   17.2023 GAU  1.30e-03 -1.00e+00  2.78e+02 -1.00e+00    1.0000 >    1.6575   -0.6833    0.0000  736.2660 9822.0830   -1.1500    3.3855 316.68 316.7 104.4 10     0.0000    0.0331
END_PHASE
END_NLLOC

