NLLOC "./loc/SEML.20230515.173231.grid0" "LOCATED" "Location completed."
PUBLIC_ID None
SIGNATURE "Arham Zakki Edelo - edelo.17034@mhs.its.ac.id   obs:./obs/2023_05.obs   NLLoc:v7.00.10(30Aug2020)   run:28Dec2023 20h01m19"
COMMENT "SEML"
GRID  2001 2001 1001  727 9811 -2  0.01 0.01 0.01 PROB_DENSITY
SEARCH OCTREE nInitial 4851 nEvaluated 20011 smallestNodeSide 0.014881/0.014881/0.014205 oct_tree_integral 3.985847e-02 scatter_volume 3.969809e-02
HYPOCENTER  x 739.686 y 9818.88 z 0.862216  OT 30.3961  ix -1 iy -1 iz -1 MAXIMUM_LIKELIHOOD
GEOGRAPHIC  OT 2023 05 15  17 32 30.396144  Lat 9818.879464 Long 739.686012 Depth 0.862216
QUALITY  Pmax 7.20061e+34 MFmin 40.9183 MFmax 48.7519 RMS 0.0241037 Nphs 12 Gap 311.993 Dist 1.39636 Mamp -9.90 0 Mdur -9.90 0
VPVSRATIO  VpVsRatio 1.69493  Npair 6  Diff 0.587004
STATISTICS  ExpectX 739.690601 Y 9818.862294 Z 0.809850  CovXX 0.0646707 XY 0.0165498 XZ -0.0115767 YY 0.0247658 YZ -0.00871943 ZZ 0.0277291 EllAz1  348.181 Dip1  28.6313 Len1  0.240896 Az2  312.637 Dip2  -56.1408 Len2  0.302823 Len3  5.136753e-01
STAT_GEOG  ExpectLat 9818.862294 Long 739.690601 Depth 0.809850
TRANSFORM  NONE
QML_OriginQuality  assocPhCt 12  usedPhCt 12  assocStaCt -1  usedStaCt 6  depthPhCt -1  stdErr 0.0241037  azGap 311.993  secAzGap 311.993  gtLevel -  minDist 1.39636 maxDist 5.3185 medDist 3.21486
QML_OriginUncertainty  horUnc -1  minHorUnc 0.207917  maxHorUnc 0.403081  azMaxHorUnc 70.1628
QML_ConfidenceEllipsoid  semiMajorAxisLength 0.513675  semiMinorAxisLength 0.240896  semiIntermediateAxisLength 0.302823  majorAxisPlunge -16.5158  majorAxisAzimuth 68.8651  majorAxisRotation 145.461
FOCALMECH  Hyp  9818.879464 739.686012 0.862216 Mech  0 0 0 mf  0 nObs -1
PHASE ID Ins Cmp On Pha  FM Date     HrMn   Sec     Err  ErrMag    Coda      Amp       Per       PriorWt  >   TTpred    Res       Weight    StaLoc(X  Y         Z)        SDist    SAzim  RAz  RDip RQual    Tcorr       TTerr
M06          ?    BHZ  i P      d 20230515 1732   31.0979 GAU  7.11e-04 -1.00e+00 -1.00e+00 -1.00e+00    1.0000 >    0.7015    0.0003    1.6199  738.3100 9819.1170   -1.3960    1.3964 279.79 279.8 147.3 10     0.0000    0.0140
M06          ?    BHN  i S      ? 20230515 1732   31.6117 GAU  1.60e-03 -1.00e+00 -1.00e+00 -1.00e+00    1.0000 >    1.2072    0.0084    1.4285  738.3100 9819.1170   -1.3960    1.3964 279.79 279.8 144.6 10     0.0000    0.0241
M11          ?    BHZ  i P      d 20230515 1732   31.1628 GAU  2.42e-03 -1.00e+00  2.02e+01 -1.00e+00    1.0000 >    0.7824   -0.0157    1.3580  738.4670 9820.4900   -1.3120    2.0199 322.88 322.9 135.6 10     0.0000    0.0156
M11          ?    BHN  i S      ? 20230515 1732   31.7589 GAU  1.99e-03 -1.00e+00 -1.00e+00 -1.00e+00    1.0000 >    1.3458    0.0170    1.2871  738.4670 9820.4900   -1.3120    2.0199 322.88 322.9 131.6 10     0.0000    0.0269
M09          ?    BHZ  i P      c 20230515 1732   31.3279 GAU  3.17e-03 -1.00e+00  1.03e+02 -1.00e+00    1.0000 >    0.9212    0.0105    1.4865  737.8820 9820.9850   -1.2700    2.7727 319.41 319.4 125.3 10     0.0000    0.0184
M09          ?    BHE  i S      ? 20230515 1732   31.9438 GAU  1.55e-03 -1.00e+00  3.62e+02 -1.00e+00    1.0000 >    1.5829   -0.0352    0.9003  737.8820 9820.9850   -1.2700    2.7727 319.41 319.4 119.6 10     0.0000    0.0317
M13          ?    BHZ  i P      d 20230515 1732   31.3885 GAU  3.34e-03 -1.00e+00  7.43e+00 -1.00e+00    1.0000 >    1.1073   -0.1149    0.1185  737.1780 9821.5410   -1.2220    3.6570 316.70 316.7 117.0 10     0.0000    0.0221
M13          ?    BHE  i S      ? 20230515 1732   32.1289 GAU  1.84e-03 -1.00e+00 -1.00e+00 -1.00e+00    1.0000 >    1.8990   -0.1662    0.0897  737.1780 9821.5410   -1.2220    3.6570 316.70 316.7 109.5 10     0.0000    0.0380
M05          ?    BHZ  i P      c 20230515 1732   31.7208 GAU  2.96e-03 -1.00e+00  1.13e+02 -1.00e+00    1.0000 >    1.3388   -0.0142    1.2917  736.2660 9822.0830   -1.1500    4.6861 313.13 313.1 110.1 10     0.0000    0.0268
M05          ?    BHE  e S      ? 20230515 1732   32.6850 GAU  3.49e-03 -1.00e+00 -1.00e+00 -1.00e+00    1.0000 >    2.2871    0.0018    1.0841  736.2660 9822.0830   -1.1500    4.6861 313.13 313.1 101.7 10     0.0000    0.0457
M12          ?    BHZ  e P      c 20230515 1732   31.8980 GAU  4.56e-03 -1.00e+00 -1.00e+00 -1.00e+00    1.0000 >    1.4725    0.0293    1.0619  736.8520 9823.3800   -0.9890    5.3185 327.80 327.8 106.0 10     0.0000    0.0295
M12          ?    BHE  e S      ? 20230515 1732   32.9988 GAU  1.08e-02 -1.00e+00  5.23e+01 -1.00e+00    1.0000 >    2.5032    0.0995    0.2740  736.8520 9823.3800   -0.9890    5.3185 327.80 327.8  98.2 10     0.0000    0.0501
END_PHASE
END_NLLOC

