NLLOC "./loc/SEML.20230525.035842.grid0" "LOCATED" "Location completed."
PUBLIC_ID None
SIGNATURE "Arham Zakki Edelo - edelo.17034@mhs.its.ac.id   obs:./obs/2023_05.obs   NLLoc:v7.00.10(30Aug2020)   run:28Dec2023 20h01m22"
COMMENT "SEML"
GRID  2001 2001 1001  727 9811 -2  0.01 0.01 0.01 PROB_DENSITY
SEARCH OCTREE nInitial 4851 nEvaluated 20011 smallestNodeSide 0.029762/0.029762/0.028409 oct_tree_integral 4.130548e-01 scatter_volume 4.130548e-01
HYPOCENTER  x 734.932 y 9822.53 z 5.5142  OT 41.2614  ix -1 iy -1 iz -1 MAXIMUM_LIKELIHOOD
GEOGRAPHIC  OT 2023 05 25  03 58 41.261401  Lat 9822.532738 Long 734.931548 Depth 5.514205
QUALITY  Pmax 8.21401e+60 MFmin 53.4541 MFmax 58.5596 RMS 0.0485963 Nphs 20 Gap 274.236 Dist 1.4082 Mamp -9.90 0 Mdur -9.90 0
VPVSRATIO  VpVsRatio 1.77174  Npair 10  Diff 0.492508
STATISTICS  ExpectX 734.717138 Y 9822.531973 Z 5.431468  CovXX 0.465067 XY 0.0495828 XZ 0.133241 YY 0.0648593 YZ 0.0162982 ZZ 0.092243 EllAz1  82.3411 Dip1  -72.3382 Len1  0.418034 Az2  352.976 Dip2  0.202104 Len2  0.455623 Len3  1.346816e+00
STAT_GEOG  ExpectLat 9822.531973 Long 734.717138 Depth 5.431468
TRANSFORM  NONE
QML_OriginQuality  assocPhCt 20  usedPhCt 20  assocStaCt -1  usedStaCt 10  depthPhCt -1  stdErr 0.0485963  azGap 274.236  secAzGap 274.236  gtLevel -  minDist 1.4082 maxDist 4.80429 medDist 3.33455
QML_OriginUncertainty  horUnc -1  minHorUnc 0.367775  maxHorUnc 1.04095  azMaxHorUnc 83.0416
QML_ConfidenceEllipsoid  semiMajorAxisLength 1.34682  semiMinorAxisLength 0.418034  semiIntermediateAxisLength 0.455623  majorAxisPlunge 17.6606  majorAxisAzimuth 83.0402  majorAxisRotation 269.827
FOCALMECH  Hyp  9822.532738 734.931548 5.514205 Mech  0 0 0 mf  0 nObs -1
PHASE ID Ins Cmp On Pha  FM Date     HrMn   Sec     Err  ErrMag    Coda      Amp       Per       PriorWt  >   TTpred    Res       Weight    StaLoc(X  Y         Z)        SDist    SAzim  RAz  RDip RQual    Tcorr       TTerr
M05          ?    BHZ  e P      d 20230525 0358   42.8853 GAU  2.52e-03 -1.00e+00  3.93e+02 -1.00e+00    1.0000 >    1.6209    0.0030    1.6879  736.2660 9822.0830   -1.1500    1.4082 108.62 108.6 167.2 10     0.0000    0.0324
M05          ?    BHN  e S      ? 20230525 0358   43.9721 GAU  1.37e-03 -1.00e+00  3.08e+02 -1.00e+00    1.0000 >    2.7036    0.0071    1.4286  736.2660 9822.0830   -1.1500    1.4082 108.62 108.6 167.0 10     0.0000    0.0541
M10          ?    BHZ  e P      c 20230525 0358   42.7701 GAU  2.90e-03 -1.00e+00  7.84e+02 -1.00e+00    1.0000 >    1.6739   -0.1652    0.1354  736.5490 9821.3650   -1.2200    1.9949 125.83 125.8 162.4 10     0.0000    0.0335
M10          ?    BHN  e S      ? 20230525 0358   43.7607 GAU  1.55e-03 -1.00e+00 -1.00e+00 -1.00e+00    1.0000 >    2.7929   -0.2936    0.0248  736.5490 9821.3650   -1.2200    1.9949 125.83 125.8 162.2 10     0.0000    0.0559
M12          ?    BHZ  e P      c 20230525 0358   42.8883 GAU  3.22e-03 -1.00e+00 -1.00e+00 -1.00e+00    1.0000 >    1.6202    0.0067    1.6765  736.8520 9823.3800   -0.9890    2.0990  66.19  66.2 160.9 10     0.0000    0.0324
M12          ?    BHE  e S      ? 20230525 0358   43.9613 GAU  2.91e-03 -1.00e+00  2.58e+02 -1.00e+00    1.0000 >    2.6994    0.0005    1.4356  736.8520 9823.3800   -0.9890    2.0990  66.19  66.2 160.7 10     0.0000    0.0540
M13          ?    BHZ  e P      c 20230525 0358   42.9747 GAU  1.05e-03 -1.00e+00 -1.00e+00 -1.00e+00    1.0000 >    1.7087    0.0046    1.6657  737.1780 9821.5410   -1.2220    2.4556 113.82 113.8 158.6 10     0.0000    0.0342
M13          ?    BHE  e S      ? 20230525 0358   44.1209 GAU  2.25e-03 -1.00e+00 -1.00e+00 -1.00e+00    1.0000 >    2.8508    0.0087    1.3933  737.1780 9821.5410   -1.2220    2.4556 113.82 113.8 158.3 10     0.0000    0.0570
M09          ?    BHZ  e P      c 20230525 0358   43.0981 GAU  3.63e-03 -1.00e+00 -1.00e+00 -1.00e+00    1.0000 >    1.8026    0.0341    1.3980  737.8820 9820.9850   -1.2700    3.3318 117.68 117.7 152.0 10     0.0000    0.0361
M09          ?    BHN  e S      ? 20230525 0358   44.3515 GAU  7.95e-04 -1.00e+00  5.08e+02 -1.00e+00    1.0000 >    3.0076    0.0825    0.8446  737.8820 9820.9850   -1.2700    3.3318 117.68 117.7 151.7 10     0.0000    0.0602
M08          ?    BHZ  i P      d 20230525 0358   42.9941 GAU  2.00e-03 -1.00e+00  3.44e+02 -1.00e+00    1.0000 >    1.7731   -0.0404    1.3314  738.2480 9822.1600   -1.1510    3.3373  96.41  96.4 151.6 10     0.0000    0.0355
M08          ?    BHE  e S      ? 20230525 0358   44.1267 GAU  7.45e-04 -1.00e+00 -1.00e+00 -1.00e+00    1.0000 >    2.9564   -0.0911    0.7613  738.2480 9822.1600   -1.1510    3.3373  96.41  96.4 151.3 10     0.0000    0.0591
M02          ?    BHZ  i P      d 20230525 0358   43.1199 GAU  7.76e-04 -1.00e+00  3.02e+02 -1.00e+00    1.0000 >    1.8820   -0.0236    1.5232  736.5970 9819.4060   -1.4960    3.5426 151.96 152.0 151.2 10     0.0000    0.0376
M02          ?    BHE  e S      ? 20230525 0358   44.3864 GAU  1.12e-03 -1.00e+00 -1.00e+00 -1.00e+00    1.0000 >    3.1439   -0.0189    1.3084  736.5970 9819.4060   -1.4960    3.5426 151.96 152.0 150.8 10     0.0000    0.0629
M14          ?    BHZ  e P      c 20230525 0358   43.4379 GAU  2.17e-03 -1.00e+00 -1.00e+00 -1.00e+00    1.0000 >    1.8677    0.3088    0.1143  737.5530 9820.0110   -1.3980    3.6375 133.89 133.9 150.2 10     0.0000    0.0374
M14          ?    BHE  e S      ? 20230525 0358   44.9210 GAU  7.19e-04 -1.00e+00  3.66e+02 -1.00e+00    1.0000 >    3.1182    0.5414    0.0024  737.5530 9820.0110   -1.3980    3.6375 133.89 133.9 149.8 10     0.0000    0.0624
M11          ?    BHZ  e P      c 20230525 0358   43.2943 GAU  3.23e-03 -1.00e+00 -1.00e+00 -1.00e+00    1.0000 >    1.8980    0.1349    0.2632  738.4670 9820.4900   -1.3120    4.0832 120.02 120.0 146.9 10     0.0000    0.0380
M11          ?    BHN  e S      ? 20230525 0358   44.7164 GAU  1.78e-03 -1.00e+00 -1.00e+00 -1.00e+00    1.0000 >    3.1669    0.2881    0.1363  738.4670 9820.4900   -1.3120    4.0832 120.02 120.0 146.5 10     0.0000    0.0633
M06          ?    BHZ  e P      d 20230525 0358   43.2626 GAU  2.13e-03 -1.00e+00 -1.00e+00 -1.00e+00    1.0000 >    2.0110   -0.0098    1.5839  738.3100 9819.1170   -1.3960    4.8043 135.31 135.3 142.6 10     0.0000    0.0402
M06          ?    BHE  e S      ? 20230525 0358   44.6300 GAU  2.34e-03 -1.00e+00 -1.00e+00 -1.00e+00    1.0000 >    3.3561    0.0124    1.2852  738.3100 9819.1170   -1.3960    4.8043 135.31 135.3 142.1 10     0.0000    0.0671
END_PHASE
END_NLLOC

