NLLOC "./loc/SEML.20230515.172640.grid0" "LOCATED" "Location completed."
PUBLIC_ID None
SIGNATURE "Arham Zakki Edelo - edelo.17034@mhs.its.ac.id   obs:./obs/2023_05.obs   NLLoc:v7.00.10(30Aug2020)   run:28Dec2023 20h01m18"
COMMENT "SEML"
GRID  2001 2001 1001  727 9811 -2  0.01 0.01 0.01 PROB_DENSITY
SEARCH OCTREE nInitial 4851 nEvaluated 20003 smallestNodeSide 0.014881/0.014881/0.014205 oct_tree_integral 4.889512e-02 scatter_volume 4.849116e-02
HYPOCENTER  x 739.582 y 9818.85 z 0.90483  OT 39.8166  ix -1 iy -1 iz -1 MAXIMUM_LIKELIHOOD
GEOGRAPHIC  OT 2023 05 15  17 26 39.816585  Lat 9818.849702 Long 739.581845 Depth 0.904830
QUALITY  Pmax 1.44649e+28 MFmin 34.8627 MFmax 45.3494 RMS 0.0137909 Nphs 10 Gap 312.941 Dist 1.29963 Mamp -9.90 0 Mdur -9.90 0
VPVSRATIO  VpVsRatio 1.77274  Npair 5  Diff 0.569038
STATISTICS  ExpectX 738.871683 Y 9818.762298 Z 0.435711  CovXX 1.98945 XY 0.282598 XZ 1.1767 YY 0.0544432 YZ 0.15743 ZZ 0.841457 EllAz1  169.051 Dip1  -4.75724 Len1  0.215177 Az2  251.44 Dip2  57.8555 Len2  0.620327 Len3  3.123167e+00
STAT_GEOG  ExpectLat 9818.762298 Long 738.871683 Depth 0.435711
TRANSFORM  NONE
QML_OriginQuality  assocPhCt 10  usedPhCt 10  assocStaCt -1  usedStaCt 5  depthPhCt -1  stdErr 0.0137909  azGap 312.941  secAzGap 312.941  gtLevel -  minDist 1.29963 maxDist 5.2892 medDist 2.72928
QML_OriginUncertainty  horUnc -1  minHorUnc 0.179545  maxHorUnc 2.16072  azMaxHorUnc 81.8587
QML_ConfidenceEllipsoid  semiMajorAxisLength 3.12317  semiMinorAxisLength 0.215177  semiIntermediateAxisLength 0.620327  majorAxisPlunge 31.7054  majorAxisAzimuth 81.9977  majorAxisRotation 347.656
FOCALMECH  Hyp  9818.849702 739.581845 0.904830 Mech  0 0 0 mf  0 nObs -1
PHASE ID Ins Cmp On Pha  FM Date     HrMn   Sec     Err  ErrMag    Coda      Amp       Per       PriorWt  >   TTpred    Res       Weight    StaLoc(X  Y         Z)        SDist    SAzim  RAz  RDip RQual    Tcorr       TTerr
M06          ?    BHZ  i P      d 20230515 1726   40.5138 GAU  8.44e-04 -1.00e+00  2.09e+01 -1.00e+00    1.0000 >    0.6978   -0.0006    1.5965  738.3100 9819.1170   -1.3960    1.2996 281.87 281.9 149.7 10     0.0000    0.0140
M06          ?    BHE  e S      ? 20230515 1726   41.0212 GAU  5.20e-04 -1.00e+00 -1.00e+00 -1.00e+00    1.0000 >    1.1995    0.0051    1.3708  738.3100 9819.1170   -1.3960    1.2996 281.87 281.9 147.3 10     0.0000    0.0240
M11          ?    BHZ  e P      d 20230515 1726   40.5954 GAU  8.05e-04 -1.00e+00 -1.00e+00 -1.00e+00    1.0000 >    0.7838   -0.0050    1.5325  738.4670 9820.4900   -1.3120    1.9833 325.80 325.8 136.8 10     0.0000    0.0157
M11          ?    BHN  i S      ? 20230515 1726   41.1737 GAU  3.95e-04 -1.00e+00 -1.00e+00 -1.00e+00    1.0000 >    1.3464    0.0107    1.2611  738.4670 9820.4900   -1.3120    1.9833 325.80 325.8 133.0 10     0.0000    0.0269
M09          ?    BHZ  e P      c 20230515 1726   40.7463 GAU  3.20e-03 -1.00e+00  1.82e+01 -1.00e+00    1.0000 >    0.9186    0.0111    1.4034  737.8820 9820.9850   -1.2700    2.7293 321.48 321.5 126.4 10     0.0000    0.0184
M09          ?    BHE  i S      ? 20230515 1726   41.3627 GAU  2.64e-04 -1.00e+00  3.68e+02 -1.00e+00    1.0000 >    1.5764   -0.0303    0.8951  737.8820 9820.9850   -1.2700    2.7293 321.48 321.5 121.1 10     0.0000    0.0315
M13          ?    BHZ  e P      c 20230515 1726   40.8065 GAU  8.60e-04 -1.00e+00 -1.00e+00 -1.00e+00    1.0000 >    1.1013   -0.1114    0.0303  737.1780 9821.5410   -1.2220    3.6085 318.23 318.2 117.9 10     0.0000    0.0220
M13          ?    BHE  i S      ? 20230515 1726   41.4475 GAU  7.63e-04 -1.00e+00 -1.00e+00 -1.00e+00    1.0000 >    1.8864   -0.2556    0.0007  737.1780 9821.5410   -1.2220    3.6085 318.23 318.2 111.0 10     0.0000    0.0377
M12          ?    BHZ  i P      c 20230515 1726   41.2746 GAU  6.64e-04 -1.00e+00 -1.00e+00 -1.00e+00    1.0000 >    1.4684   -0.0104    1.2090  736.8520 9823.3800   -0.9890    5.2892 328.93 328.9 106.7 10     0.0000    0.0294
M12          ?    BHE  e S      ? 20230515 1726   42.3510 GAU  1.50e-04 -1.00e+00  5.27e+01 -1.00e+00    1.0000 >    2.4940    0.0405    0.7004  736.8520 9823.3800   -0.9890    5.2892 328.93 328.9  99.2 10     0.0000    0.0499
END_PHASE
END_NLLOC

