NLLOC "./loc/SEML.20230519.224949.grid0" "LOCATED" "Location completed."
PUBLIC_ID None
SIGNATURE "Arham Zakki Edelo - edelo.17034@mhs.its.ac.id   obs:./obs/2023_05.obs   NLLoc:v7.00.10(30Aug2020)   run:28Dec2023 20h01m19"
COMMENT "SEML"
GRID  2001 2001 1001  727 9811 -2  0.01 0.01 0.01 PROB_DENSITY
SEARCH OCTREE nInitial 4851 nEvaluated 20019 smallestNodeSide 0.029762/0.029762/0.028409 oct_tree_integral 1.396254e-01 scatter_volume 1.396254e-01
HYPOCENTER  x 738.205 y 9817.41 z -0.28125  OT 48.4641  ix -1 iy -1 iz -1 MAXIMUM_LIKELIHOOD
GEOGRAPHIC  OT 2023 05 19  22 49 48.464110  Lat 9817.413690 Long 738.205357 Depth -0.281250
QUALITY  Pmax 2.15068e+48 MFmin 54.7542 MFmax 64.2802 RMS 0.031983 Nphs 16 Gap 332.584 Dist 1.70652 Mamp -9.90 0 Mdur -9.90 0
VPVSRATIO  VpVsRatio 1.62725  Npair 8  Diff 0.528389
STATISTICS  ExpectX 738.608300 Y 9817.584453 Z 0.228596  CovXX 0.309207 XY 0.127212 XZ 0.325717 YY 0.0879372 YZ 0.171806 ZZ 0.536362 EllAz1  166.875 Dip1  10.3661 Len1  0.302985 Az2  264.682 Dip2  36.5952 Len2  0.525225 Len3  1.711027e+00
STAT_GEOG  ExpectLat 9817.584453 Long 738.608300 Depth 0.228596
TRANSFORM  NONE
QML_OriginQuality  assocPhCt 16  usedPhCt 16  assocStaCt -1  usedStaCt 8  depthPhCt -1  stdErr 0.031983  azGap 332.584  secAzGap 332.584  gtLevel -  minDist 1.70652 maxDist 5.40741 medDist 3.91958
QML_OriginUncertainty  horUnc -1  minHorUnc 0.262595  maxHorUnc 0.918953  azMaxHorUnc 65.5066
QML_ConfidenceEllipsoid  semiMajorAxisLength 1.71103  semiMinorAxisLength 0.302985  semiIntermediateAxisLength 0.525225  majorAxisPlunge 51.4849  majorAxisAzimuth 63.5874  majorAxisRotation 306.634
FOCALMECH  Hyp  9817.413690 738.205357 -0.281250 Mech  0 0 0 mf  0 nObs -1
PHASE ID Ins Cmp On Pha  FM Date     HrMn   Sec     Err  ErrMag    Coda      Amp       Per       PriorWt  >   TTpred    Res       Weight    StaLoc(X  Y         Z)        SDist    SAzim  RAz  RDip RQual    Tcorr       TTerr
M06          ?    BHZ  i P      c 20230519 2249   49.2159 GAU  1.28e-03 -1.00e+00 -1.00e+00 -1.00e+00    1.0000 >    0.5516    0.2002    0.0002  738.3100 9819.1170   -1.3960    1.7065   3.52   3.5 119.1 10     0.0000    0.0110
M06          ?    BHN  i S      ? 20230519 2249   49.7655 GAU  8.17e-04 -1.00e+00 -1.00e+00 -1.00e+00    1.0000 >    0.9609    0.3405    0.0000  738.3100 9819.1170   -1.3960    1.7065   3.52   3.5 121.9 10     0.0000    0.0192
M14          ?    BHZ  e P      c 20230519 2249   49.2412 GAU  2.90e-03 -1.00e+00 -1.00e+00 -1.00e+00    1.0000 >    0.7846   -0.0075    1.6458  737.5530 9820.0110   -1.3980    2.6780 345.90 345.9 106.6 10     0.0000    0.0157
M14          ?    BHE  e S      ? 20230519 2249   49.8296 GAU  1.88e-03 -1.00e+00  3.97e+02 -1.00e+00    1.0000 >    1.3679   -0.0024    1.5399  737.5530 9820.0110   -1.3980    2.6780 345.90 345.9 110.8 10     0.0000    0.0274
M11          ?    BHZ  i P      c 20230519 2249   49.3529 GAU  3.34e-03 -1.00e+00 -1.00e+00 -1.00e+00    1.0000 >    0.8781    0.0107    1.6330  738.4670 9820.4900   -1.3120    3.0874   4.86   4.9 101.7 10     0.0000    0.0176
M11          ?    BHE  e S      ? 20230519 2249   50.0003 GAU  9.36e-04 -1.00e+00 -1.00e+00 -1.00e+00    1.0000 >    1.5337    0.0024    1.4900  738.4670 9820.4900   -1.3120    3.0874   4.86   4.9 106.3 10     0.0000    0.0307
M09          ?    BHZ  i P      c 20230519 2249   49.4580 GAU  1.25e-03 -1.00e+00  1.37e+02 -1.00e+00    1.0000 >    1.0011   -0.0072    1.6143  737.8820 9820.9850   -1.2700    3.5859 354.83 354.8  98.3 10     0.0000    0.0200
M09          ?    BHE  e S      ? 20230519 2249   50.2575 GAU  8.28e-04 -1.00e+00  3.08e+02 -1.00e+00    1.0000 >    1.7520    0.0413    0.9944  737.8820 9820.9850   -1.2700    3.5859 354.83 354.8 102.9 10     0.0000    0.0350
M13          ?    BHZ  e P      c 20230519 2249   49.5416 GAU  8.21e-03 -1.00e+00 -1.00e+00 -1.00e+00    1.0000 >    1.1682   -0.0906    0.4885  737.1780 9821.5410   -1.2220    4.2533 346.02 346.0  95.8 10     0.0000    0.0234
M13          ?    BHE  e S      ? 20230519 2249   50.3760 GAU  2.24e-03 -1.00e+00 -1.00e+00 -1.00e+00    1.0000 >    2.0505   -0.1387    0.2563  737.1780 9821.5410   -1.2220    4.2533 346.02 346.0  99.6 10     0.0000    0.0410
M08          ?    BHZ  e P      d 20230519 2249   49.6899 GAU  4.15e-03 -1.00e+00  2.13e+02 -1.00e+00    1.0000 >    1.2888   -0.0630    0.7083  738.2480 9822.1600   -1.1510    4.7465   0.51   0.5  94.6 10     0.0000    0.0258
M08          ?    BHE  e S      ? 20230519 2249   50.6432 GAU  2.69e-03 -1.00e+00 -1.00e+00 -1.00e+00    1.0000 >    2.2697   -0.0905    0.6215  738.2480 9822.1600   -1.1510    4.7465   0.51   0.5  97.3 10     0.0000    0.0454
M05          ?    BHZ  e P      d 20230519 2249   49.8404 GAU  2.67e-03 -1.00e+00  2.98e+02 -1.00e+00    1.0000 >    1.3687    0.0076    1.5261  736.2660 9822.0830   -1.1500    5.0560 337.44 337.4  94.2 10     0.0000    0.0274
M05          ?    BHE  e S      ? 20230519 2249   50.8745 GAU  1.61e-03 -1.00e+00 -1.00e+00 -1.00e+00    1.0000 >    2.4125   -0.0022    1.2427  736.2660 9822.0830   -1.1500    5.0560 337.44 337.4  96.5 10     0.0000    0.0483
M01          ?    BHZ  i P      d 20230519 2249   49.9597 GAU  7.32e-04 -1.00e+00  4.00e+02 -1.00e+00    1.0000 >    1.4568    0.0389    1.0387  736.4090 9822.5140   -1.1200    5.4074 340.60 340.6  93.7 10     0.0000    0.0291
M01          ?    BHE  e S      ? 20230519 2249   51.0377 GAU  1.50e-03 -1.00e+00  4.56e+02 -1.00e+00    1.0000 >    2.5720    0.0016    1.2002  736.4090 9822.5140   -1.1200    5.4074 340.60 340.6  95.5 10     0.0000    0.0514
END_PHASE
END_NLLOC

