NLLOC "./loc/SEML.20230506.063714.grid0" "LOCATED" "Location completed."
PUBLIC_ID None
SIGNATURE "Arham Zakki Edelo - edelo.17034@mhs.its.ac.id   obs:./obs/2023_05.obs   NLLoc:v7.00.10(30Aug2020)   run:28Dec2023 20h01m18"
COMMENT "SEML"
GRID  2001 2001 1001  727 9811 -2  0.01 0.01 0.01 PROB_DENSITY
SEARCH OCTREE nInitial 4851 nEvaluated 20011 smallestNodeSide 0.029762/0.029762/0.028409 oct_tree_integral 2.284564e-01 scatter_volume 2.284564e-01
HYPOCENTER  x 738.473 y 9822.35 z 0.03125  OT 14.3165  ix -1 iy -1 iz -1 MAXIMUM_LIKELIHOOD
GEOGRAPHIC  OT 2023 05 06  06 37 14.316549  Lat 9822.354167 Long 738.473214 Depth 0.031250
QUALITY  Pmax 2.93055e+18 MFmin 30.9133 MFmax 37.9402 RMS 0.00540289 Nphs 8 Gap 338.75 Dist 1.86418 Mamp -9.90 0 Mdur -9.90 0
VPVSRATIO  VpVsRatio 1.58428  Npair 4  Diff 0.790061
STATISTICS  ExpectX 738.788169 Y 9821.915083 Z 0.074541  CovXX 0.18651 XY -0.325948 XZ 0.303396 YY 0.628269 YZ -0.621862 ZZ 0.868684 EllAz1  237.421 Dip1  -5.2781 Len1  0.201395 Az2  322.46 Dip2  43.1125 Len2  0.714256 Len3  2.322047e+00
STAT_GEOG  ExpectLat 9821.915083 Long 738.788169 Depth 0.074541
TRANSFORM  NONE
QML_OriginQuality  assocPhCt 8  usedPhCt 8  assocStaCt -1  usedStaCt 4  depthPhCt -1  stdErr 0.00540289  azGap 338.75  secAzGap 338.75  gtLevel -  minDist 1.86418 maxDist 3.24128 medDist 2.87933
QML_OriginUncertainty  horUnc -1  minHorUnc 0.177195  maxHorUnc 1.35742  azMaxHorUnc 152.062
QML_ConfidenceEllipsoid  semiMajorAxisLength 2.32205  semiMinorAxisLength 0.201395  semiIntermediateAxisLength 0.714256  majorAxisPlunge 46.4019  majorAxisAzimuth 152.989  majorAxisRotation 70.0284
FOCALMECH  Hyp  9822.354167 738.473214 0.031250 Mech  0 0 0 mf  0 nObs -1
PHASE ID Ins Cmp On Pha  FM Date     HrMn   Sec     Err  ErrMag    Coda      Amp       Per       PriorWt  >   TTpred    Res       Weight    StaLoc(X  Y         Z)        SDist    SAzim  RAz  RDip RQual    Tcorr       TTerr
M11          ?    BHZ  e P      d 20230506 0637   14.9281 GAU  2.99e-03 -1.00e+00  2.33e+02 -1.00e+00    1.0000 >    0.6149   -0.0033    2.2078  738.4670 9820.4900   -1.3120    1.8642 180.19 180.2 122.9 10     0.0000    0.0123
M11          ?    BHN  i S      ? 20230506 0637   15.4029 GAU  7.94e-03 -1.00e+00 -1.00e+00 -1.00e+00    1.0000 >    1.0782    0.0081    1.8844  738.4670 9820.4900   -1.3120    1.8642 180.19 180.2 121.0 10     0.0000    0.0216
M05          ?    BHZ  e P      c 20230506 0637   15.8557 GAU  3.26e-03 -1.00e+00  1.01e+02 -1.00e+00    1.0000 >    0.6714    0.8677    0.0000  736.2660 9822.0830   -1.1500    2.2238 263.00 263.0 114.7 10     0.0000    0.0134
M05          ?    BHN  e S      ? 20230506 0637   17.1039 GAU  1.92e-04 -1.00e+00  2.84e+02 -1.00e+00    1.0000 >    1.1804    1.6069    0.0000  736.2660 9822.0830   -1.1500    2.2238 263.00 263.0 111.5 10     0.0000    0.0236
M14          ?    BHZ  e P      d 20230506 0637   15.0977 GAU  1.91e-03 -1.00e+00  4.71e+02 -1.00e+00    1.0000 >    0.7757    0.0054    2.1665  737.5530 9820.0110   -1.3980    2.5174 201.44 201.4 116.0 10     0.0000    0.0155
M14          ?    BHN  e S      ? 20230506 0637   15.6703 GAU  1.51e-03 -1.00e+00 -1.00e+00 -1.00e+00    1.0000 >    1.3593   -0.0056    1.7413  737.5530 9820.0110   -1.3980    2.5174 201.44 201.4 113.4 10     0.0000    0.0272
M06          ?    BHZ  i P      d 20230506 0637   14.5917 GAU  6.14e-04 -1.00e+00 -1.00e+00 -1.00e+00    1.0000 >    0.9483   -0.6731    0.0000  738.3100 9819.1170   -1.3960    3.2413 182.89 182.9 109.3 10     0.0000    0.0190
M06          ?    BHN  e S      ? 20230506 0637   15.0498 GAU  2.05e-03 -1.00e+00 -1.00e+00 -1.00e+00    1.0000 >    1.6628   -0.9295    0.0000  738.3100 9819.1170   -1.3960    3.2413 182.89 182.9 105.2 10     0.0000    0.0333
END_PHASE
END_NLLOC

