NLLOC "./loc/SEML.20230527.154209.grid0" "LOCATED" "Location completed."
PUBLIC_ID None
SIGNATURE "Arham Zakki Edelo - edelo.17034@mhs.its.ac.id   obs:./obs/2023_05.obs   NLLoc:v7.00.10(30Aug2020)   run:28Dec2023 20h01m23"
COMMENT "SEML"
GRID  2001 2001 1001  727 9811 -2  0.01 0.01 0.01 PROB_DENSITY
SEARCH OCTREE nInitial 4851 nEvaluated 20011 smallestNodeSide 0.014881/0.014881/0.014205 oct_tree_integral 3.507386e-02 scatter_volume 3.507138e-02
HYPOCENTER  x 737.35 y 9818.19 z 0.862216  OT 8.60367  ix -1 iy -1 iz -1 MAXIMUM_LIKELIHOOD
GEOGRAPHIC  OT 2023 05 27  15 42 8.603672  Lat 9818.194940 Long 737.349702 Depth 0.862216
QUALITY  Pmax 2.07446e+51 MFmin 56.2426 MFmax 62.1332 RMS 0.0207207 Nphs 16 Gap 298.262 Dist 1.3313 Mamp -9.90 0 Mdur -9.90 0
VPVSRATIO  VpVsRatio 1.7853  Npair 8  Diff 0.581712
STATISTICS  ExpectX 737.367927 Y 9818.154735 Z 0.850063  CovXX 0.0389127 XY -0.00401356 XZ 0.0150904 YY 0.0183769 YZ -0.00405584 ZZ 0.0239338 EllAz1  129.452 Dip1  -55.2369 Len1  0.222764 Az2  200.133 Dip2  12.9321 Len2  0.251353 Len3  4.170332e-01
STAT_GEOG  ExpectLat 9818.154735 Long 737.367927 Depth 0.850063
TRANSFORM  NONE
QML_OriginQuality  assocPhCt 16  usedPhCt 16  assocStaCt -1  usedStaCt 8  depthPhCt -1  stdErr 0.0207207  azGap 298.262  secAzGap 298.262  gtLevel -  minDist 1.3313 maxDist 5.20889 medDist 3.09542
QML_OriginUncertainty  horUnc -1  minHorUnc 0.201313  maxHorUnc 0.302058  azMaxHorUnc 100.675
QML_ConfidenceEllipsoid  semiMajorAxisLength 0.417033  semiMinorAxisLength 0.222764  semiIntermediateAxisLength 0.251353  majorAxisPlunge 31.6298  majorAxisAzimuth 102.002  majorAxisRotation 276.988
FOCALMECH  Hyp  9818.194940 737.349702 0.862216 Mech  0 0 0 mf  0 nObs -1
PHASE ID Ins Cmp On Pha  FM Date     HrMn   Sec     Err  ErrMag    Coda      Amp       Per       PriorWt  >   TTpred    Res       Weight    StaLoc(X  Y         Z)        SDist    SAzim  RAz  RDip RQual    Tcorr       TTerr
M06          ?    BHZ  i P      d 20230527 1542    9.2994 GAU  1.61e-03 -1.00e+00 -1.00e+00 -1.00e+00    1.0000 >    0.6926    0.0031    1.5914  738.3100 9819.1170   -1.3960    1.3313  46.16  46.2 148.5 10     0.0000    0.0139
M06          ?    BHE  i S      ? 20230527 1542    9.8265 GAU  5.61e-04 -1.00e+00 -1.00e+00 -1.00e+00    1.0000 >    1.1920    0.0308    1.0314  738.3100 9819.1170   -1.3960    1.3313  46.16  46.2 146.0 10     0.0000    0.0238
M14          ?    BHZ  e P      c 20230527 1542    9.3505 GAU  1.29e-03 -1.00e+00 -1.00e+00 -1.00e+00    1.0000 >    0.7676   -0.0208    1.1977  737.5530 9820.0110   -1.3980    1.8274   6.39   6.4 139.7 10     0.0000    0.0154
M14          ?    BHN  e S      ? 20230527 1542    9.9209 GAU  4.51e-04 -1.00e+00  3.99e+02 -1.00e+00    1.0000 >    1.3208   -0.0035    1.3562  737.5530 9820.0110   -1.3980    1.8274   6.39   6.4 136.2 10     0.0000    0.0264
M11          ?    BHZ  e P      d 20230527 1542    9.4852 GAU  1.42e-03 -1.00e+00 -1.00e+00 -1.00e+00    1.0000 >    0.8838   -0.0023    1.5345  738.4670 9820.4900   -1.3120    2.5526  25.96  26.0 128.3 10     0.0000    0.0177
M11          ?    BHN  i S      ? 20230527 1542   10.1398 GAU  1.58e-03 -1.00e+00 -1.00e+00 -1.00e+00    1.0000 >    1.5194    0.0167    1.2115  738.4670 9820.4900   -1.3120    2.5526  25.96  26.0 123.2 10     0.0000    0.0304
M09          ?    BHZ  i P      c 20230527 1542    9.5375 GAU  2.75e-03 -1.00e+00  1.32e+02 -1.00e+00    1.0000 >    0.9354   -0.0016    1.5157  737.8820 9820.9850   -1.2700    2.8404  10.80  10.8 124.6 10     0.0000    0.0187
M09          ?    BHE  e S      ? 20230527 1542   10.1851 GAU  7.99e-04 -1.00e+00  3.80e+02 -1.00e+00    1.0000 >    1.6072   -0.0257    1.0242  737.8820 9820.9850   -1.2700    2.8404  10.80  10.8 118.8 10     0.0000    0.0321
M13          ?    BHZ  i P      c 20230527 1542    9.5528 GAU  1.10e-03 -1.00e+00 -1.00e+00 -1.00e+00    1.0000 >    1.0381   -0.0890    0.0826  737.1780 9821.5410   -1.2220    3.3505 357.06 357.1 119.3 10     0.0000    0.0208
M13          ?    BHE  e S      ? 20230527 1542   10.2047 GAU  6.50e-04 -1.00e+00 -1.00e+00 -1.00e+00    1.0000 >    1.7816   -0.1806    0.0109  737.1780 9821.5410   -1.2220    3.3505 357.06 357.1 112.4 10     0.0000    0.0356
M05          ?    BHZ  e P      d 20230527 1542    9.8028 GAU  1.05e-03 -1.00e+00  2.49e+02 -1.00e+00    1.0000 >    1.1845    0.0146    1.3292  736.2660 9822.0830   -1.1500    4.0363 344.43 344.4 113.6 10     0.0000    0.0237
M05          ?    BHN  e S      ? 20230527 1542   10.7248 GAU  2.56e-04 -1.00e+00  2.60e+02 -1.00e+00    1.0000 >    2.0281    0.0930    0.2947  736.2660 9822.0830   -1.1500    4.0363 344.43 344.4 105.6 10     0.0000    0.0406
M08          ?    BHZ  i P      d 20230527 1542    9.7852 GAU  4.43e-04 -1.00e+00  3.55e+02 -1.00e+00    1.0000 >    1.1915   -0.0099    1.3523  738.2480 9822.1600   -1.1510    4.0655  12.77  12.8 113.5 10     0.0000    0.0238
M08          ?    BHE  e S      ? 20230527 1542   10.6436 GAU  2.14e-04 -1.00e+00 -1.00e+00 -1.00e+00    1.0000 >    2.0400    0.0000    1.1129  738.2480 9822.1600   -1.1510    4.0655  12.77  12.8 105.4 10     0.0000    0.0408
M12          ?    BHZ  i P      c 20230527 1542   10.0721 GAU  5.04e-04 -1.00e+00 -1.00e+00 -1.00e+00    1.0000 >    1.4456    0.0228    1.1542  736.8520 9823.3800   -0.9890    5.2089 354.52 354.5 106.4 10     0.0000    0.0289
M12          ?    BHE  e S      ? 20230527 1542   11.1809 GAU  1.17e-03 -1.00e+00  7.17e+01 -1.00e+00    1.0000 >    2.4587    0.1185    0.2006  736.8520 9823.3800   -0.9890    5.2089 354.52 354.5  98.6 10     0.0000    0.0492
END_PHASE
END_NLLOC

