NLLOC "./loc/SEML.20230528.122707.grid0" "LOCATED" "Location completed."
PUBLIC_ID None
SIGNATURE "Arham Zakki Edelo - edelo.17034@mhs.its.ac.id   obs:./obs/2023_05.obs   NLLoc:v7.00.10(30Aug2020)   run:28Dec2023 20h01m23"
COMMENT "SEML"
GRID  2001 2001 1001  727 9811 -2  0.01 0.01 0.01 PROB_DENSITY
SEARCH OCTREE nInitial 4851 nEvaluated 20019 smallestNodeSide 0.059524/0.059524/0.056818 oct_tree_integral 8.561571e-01 scatter_volume 8.561571e-01
HYPOCENTER  x 737.685 y 9822.22 z 0.414773  OT 6.91254  ix -1 iy -1 iz -1 MAXIMUM_LIKELIHOOD
GEOGRAPHIC  OT 2023 05 28  12 27 6.912541  Lat 9822.220238 Long 737.684524 Depth 0.414773
QUALITY  Pmax 7.42962e+16 MFmin 30.4897 MFmax 39.0386 RMS 0.0132189 Nphs 8 Gap 314.537 Dist 1.25092 Mamp -9.90 0 Mdur -9.90 0
VPVSRATIO  VpVsRatio 1.7844  Npair 4  Diff 0.561649
STATISTICS  ExpectX 736.984542 Y 9820.119826 Z 0.743957  CovXX 3.81642 XY 0.850962 XZ 0.676096 YY 4.10626 YZ 0.559068 ZZ 2.67598 EllAz1  250.884 Dip1  67.9658 Len1  2.87611 Az2  315.268 Dip2  -9.92471 Len2  3.32162 Len3  4.255366e+00
STAT_GEOG  ExpectLat 9820.119826 Long 736.984542 Depth 0.743957
TRANSFORM  NONE
QML_OriginQuality  assocPhCt 8  usedPhCt 8  assocStaCt -1  usedStaCt 4  depthPhCt -1  stdErr 0.0132189  azGap 314.537  secAzGap 327.476  gtLevel -  minDist 1.25092 maxDist 3.16564 medDist 2.458
QML_OriginUncertainty  horUnc -1  minHorUnc 2.6694  maxHorUnc 3.33114  azMaxHorUnc 40.1675
QML_ConfidenceEllipsoid  semiMajorAxisLength 4.25537  semiMinorAxisLength 2.87611  semiIntermediateAxisLength 3.32162  majorAxisPlunge 19.4646  majorAxisAzimuth 41.7229  majorAxisRotation 98.2303
FOCALMECH  Hyp  9822.220238 737.684524 0.414773 Mech  0 0 0 mf  0 nObs -1
PHASE ID Ins Cmp On Pha  FM Date     HrMn   Sec     Err  ErrMag    Coda      Amp       Per       PriorWt  >   TTpred    Res       Weight    StaLoc(X  Y         Z)        SDist    SAzim  RAz  RDip RQual    Tcorr       TTerr
M09          ?    BHZ  e P      d 20230528 1227    8.6940 GAU  1.89e-04 -1.00e+00  1.74e+02 -1.00e+00    1.0000 >    0.5570    1.2244    0.0000  737.8820 9820.9850   -1.2700    1.2509 170.92 170.9 142.5 10     0.0000    0.0111
M09          ?    BHE  e S      ? 20230528 1227    9.9544 GAU  1.62e-03 -1.00e+00  3.55e+02 -1.00e+00    1.0000 >    0.9727    2.0692    0.0000  737.8820 9820.9850   -1.2700    1.2509 170.92 170.9 141.8 10     0.0000    0.0195
M11          ?    BHZ  e P      c 20230528 1227    8.4593 GAU  2.32e-03 -1.00e+00 -1.00e+00 -1.00e+00    1.0000 >    0.6815    0.8652    0.0000  738.4670 9820.4900   -1.3120    1.8989 155.67 155.7 130.5 10     0.0000    0.0136
M11          ?    BHN  e S      ? 20230528 1227    9.6185 GAU  2.53e-04 -1.00e+00 -1.00e+00 -1.00e+00    1.0000 >    1.1897    1.5163    0.0000  738.4670 9820.4900   -1.3120    1.8989 155.67 155.7 129.4 10     0.0000    0.0238
M02          ?    BHZ  e P      c 20230528 1227    7.8522 GAU  2.62e-03 -1.00e+00 -1.00e+00 -1.00e+00    1.0000 >    0.9511   -0.0115    2.1192  736.5970 9819.4060   -1.4960    3.0171 201.13 201.1 119.7 10     0.0000    0.0190
M02          ?    BHE  e S      ? 20230528 1227    8.5914 GAU  1.42e-03 -1.00e+00 -1.00e+00 -1.00e+00    1.0000 >    1.6586    0.0203    1.7941  736.5970 9819.4060   -1.4960    3.0171 201.13 201.1 118.2 10     0.0000    0.0332
M06          ?    BHZ  e P      d 20230528 1227    7.8923 GAU  1.27e-03 -1.00e+00 -1.00e+00 -1.00e+00    1.0000 >    0.9696    0.0101    2.1891  738.3100 9819.1170   -1.3960    3.1656 168.60 168.6 117.0 10     0.0000    0.0194
M06          ?    BHN  e S      ? 20230528 1227    8.5911 GAU  6.86e-04 -1.00e+00 -1.00e+00 -1.00e+00    1.0000 >    1.6918   -0.0132    1.8976  738.3100 9819.1170   -1.3960    3.1656 168.60 168.6 115.3 10     0.0000    0.0338
END_PHASE
END_NLLOC

