NLLOC "./loc/SEML.20230527.154124.grid0" "LOCATED" "Location completed."
PUBLIC_ID None
SIGNATURE "Arham Zakki Edelo - edelo.17034@mhs.its.ac.id   obs:./obs/2023_05.obs   NLLoc:v7.00.10(30Aug2020)   run:28Dec2023 20h01m22"
COMMENT "SEML"
GRID  2001 2001 1001  727 9811 -2  0.01 0.01 0.01 PROB_DENSITY
SEARCH OCTREE nInitial 4851 nEvaluated 20011 smallestNodeSide 0.029762/0.029762/0.028409 oct_tree_integral 1.616947e-01 scatter_volume 1.593960e-01
HYPOCENTER  x 739.783 y 9818.01 z 0.258523  OT 24.0232  ix -1 iy -1 iz -1 MAXIMUM_LIKELIHOOD
GEOGRAPHIC  OT 2023 05 27  15 41 24.023228  Lat 9818.008929 Long 739.782738 Depth 0.258523
QUALITY  Pmax 1.27576e+25 MFmin 33.7086 MFmax 41.9007 RMS 0.0204497 Nphs 10 Gap 327.248 Dist 1.84304 Mamp -9.90 0 Mdur -9.90 0
VPVSRATIO  VpVsRatio 1.71183  Npair 5  Diff 0.797237
STATISTICS  ExpectX 739.715488 Y 9818.020610 Z -0.189984  CovXX 1.04777 XY -0.0208142 XZ -0.302731 YY 0.0493888 YZ -0.12279 ZZ 0.709155 EllAz1  4.78919 Dip1  12.1121 Len1  0.273572 Az2  293.683 Dip2  -56.466 Len2  1.40361 Len3  2.081185e+00
STAT_GEOG  ExpectLat 9818.020610 Long 739.715488 Depth -0.189984
TRANSFORM  NONE
QML_OriginQuality  assocPhCt 10  usedPhCt 10  assocStaCt -1  usedStaCt 5  depthPhCt -1  stdErr 0.0204497  azGap 327.248  secAzGap 327.248  gtLevel -  minDist 1.84304 maxDist 5.38196 medDist 3.53126
QML_OriginUncertainty  horUnc -1  minHorUnc 0.335554  maxHorUnc 1.5527  azMaxHorUnc 91.1938
QML_ConfidenceEllipsoid  semiMajorAxisLength 2.08119  semiMinorAxisLength 0.273572  semiIntermediateAxisLength 1.40361  majorAxisPlunge -30.7326  majorAxisAzimuth 87.459  majorAxisRotation 152.213
FOCALMECH  Hyp  9818.008929 739.782738 0.258523 Mech  0 0 0 mf  0 nObs -1
PHASE ID Ins Cmp On Pha  FM Date     HrMn   Sec     Err  ErrMag    Coda      Amp       Per       PriorWt  >   TTpred    Res       Weight    StaLoc(X  Y         Z)        SDist    SAzim  RAz  RDip RQual    Tcorr       TTerr
M06          ?    BHZ  i P      d 20230527 1541   24.6706 GAU  7.76e-04 -1.00e+00 -1.00e+00 -1.00e+00    1.0000 >    0.6605   -0.0131    1.6867  738.3100 9819.1170   -1.3960    1.8430 306.96 307.0 129.8 10     0.0000    0.0132
M06          ?    BHE  e S      ? 20230527 1541   25.1970 GAU  5.62e-04 -1.00e+00 -1.00e+00 -1.00e+00    1.0000 >    1.1539    0.0198    1.6859  738.3100 9819.1170   -1.3960    1.8430 306.96 307.0 128.7 10     0.0000    0.0231
M11          ?    BHZ  e P      d 20230527 1541   24.8896 GAU  9.49e-04 -1.00e+00  3.04e+01 -1.00e+00    1.0000 >    0.8565    0.0099    1.9621  738.4670 9820.4900   -1.3120    2.8084 332.06 332.1 116.3 10     0.0000    0.0171
M11          ?    BHN  i S      ? 20230527 1541   25.5100 GAU  2.68e-03 -1.00e+00 -1.00e+00 -1.00e+00    1.0000 >    1.4976   -0.0109    1.6435  738.4670 9820.4900   -1.3120    2.8084 332.06 332.1 114.2 10     0.0000    0.0300
M09          ?    BHZ  e P      c 20230527 1541   24.7808 GAU  3.88e-03 -1.00e+00  1.60e+01 -1.00e+00    1.0000 >    1.0227   -0.2651    0.0125  737.8820 9820.9850   -1.2700    3.5313 327.43 327.4 110.1 10     0.0000    0.0205
M09          ?    BHE  e S      ? 20230527 1541   25.4399 GAU  1.82e-03 -1.00e+00  3.49e+02 -1.00e+00    1.0000 >    1.7891   -0.3723    0.0125  737.8820 9820.9850   -1.2700    3.5313 327.43 327.4 107.1 10     0.0000    0.0358
M08          ?    BHZ  e P      d 20230527 1541   25.2726 GAU  3.19e-04 -1.00e+00  3.09e+02 -1.00e+00    1.0000 >    1.2297    0.0196    1.6749  738.2480 9822.1600   -1.1510    4.4257 339.71 339.7 104.2 10     0.0000    0.0246
M08          ?    BHE  e S      ? 20230527 1541   26.1583 GAU  1.81e-04 -1.00e+00 -1.00e+00 -1.00e+00    1.0000 >    2.1528   -0.0177    1.3215  738.2480 9822.1600   -1.1510    4.4257 339.71 339.7 100.2 10     0.0000    0.0431
M05          ?    BHZ  e P      d 20230527 1541   25.7277 GAU  2.70e-03 -1.00e+00  3.41e+02 -1.00e+00    1.0000 >    1.4709    0.2336    0.0002  736.2660 9822.0830   -1.1500    5.3820 319.20 319.2 101.0 10     0.0000    0.0294
M05          ?    BHE  e S      ? 20230527 1541   27.0513 GAU  3.49e-03 -1.00e+00 -1.00e+00 -1.00e+00    1.0000 >    2.5732    0.4548    0.0002  736.2660 9822.0830   -1.1500    5.3820 319.20 319.2  96.8 10     0.0000    0.0515
END_PHASE
END_NLLOC

