NLLOC "./loc/SEML.20230525.035756.grid0" "LOCATED" "Location completed."
PUBLIC_ID None
SIGNATURE "Arham Zakki Edelo - edelo.17034@mhs.its.ac.id   obs:./obs/2023_05.obs   NLLoc:v7.00.10(30Aug2020)   run:28Dec2023 20h01m21"
COMMENT "SEML"
GRID  2001 2001 1001  727 9811 -2  0.01 0.01 0.01 PROB_DENSITY
SEARCH OCTREE nInitial 4851 nEvaluated 20019 smallestNodeSide 0.029762/0.029762/0.028409 oct_tree_integral 4.957124e-01 scatter_volume 4.957124e-01
HYPOCENTER  x 734.158 y 9822.71 z 6.67898  OT 54.8058  ix -1 iy -1 iz -1 MAXIMUM_LIKELIHOOD
GEOGRAPHIC  OT 2023 05 25  03 57 54.805766  Lat 9822.711310 Long 734.157738 Depth 6.678977
QUALITY  Pmax 4.90475e+81 MFmin 59.8675 MFmax 64.3683 RMS 0.0314049 Nphs 24 Gap 292.488 Dist 2.1999 Mamp -9.90 0 Mdur -9.90 0
VPVSRATIO  VpVsRatio 1.73432  Npair 12  Diff 0.346394
STATISTICS  ExpectX 734.125836 Y 9822.703655 Z 6.677047  CovXX 0.272459 XY 0.046168 XZ 0.0882363 YY 0.104731 YZ 0.0100804 ZZ 0.078563 EllAz1  109.647 Dip1  -66.2124 Len1  0.391533 Az2  351.196 Dip2  -11.8597 Len2  0.580428 Len3  1.057645e+00
STAT_GEOG  ExpectLat 9822.703655 Long 734.125836 Depth 6.677047
TRANSFORM  NONE
QML_OriginQuality  assocPhCt 24  usedPhCt 24  assocStaCt -1  usedStaCt 12  depthPhCt -1  stdErr 0.0314049  azGap 292.488  secAzGap 292.488  gtLevel -  minDist 2.1999 maxDist 5.49184 medDist 3.7002
QML_OriginUncertainty  horUnc -1  minHorUnc 0.462151  maxHorUnc 0.808673  azMaxHorUnc 75.5834
QML_ConfidenceEllipsoid  semiMajorAxisLength 1.05764  semiMinorAxisLength 0.391533  semiIntermediateAxisLength 0.580428  majorAxisPlunge 20.3078  majorAxisAzimuth 76.7387  majorAxisRotation 279.675
FOCALMECH  Hyp  9822.711310 734.157738 6.678977 Mech  0 0 0 mf  0 nObs -1
PHASE ID Ins Cmp On Pha  FM Date     HrMn   Sec     Err  ErrMag    Coda      Amp       Per       PriorWt  >   TTpred    Res       Weight    StaLoc(X  Y         Z)        SDist    SAzim  RAz  RDip RQual    Tcorr       TTerr
M05          ?    BHZ  e P      c 20230525 0357   56.7001 GAU  3.85e-03 -1.00e+00  2.67e+01 -1.00e+00    1.0000 >    1.9162   -0.0218    1.2483  736.2660 9822.0830   -1.1500    2.1999 106.60 106.6 163.4 10     0.0000    0.0383
M05          ?    BHE  e S      ? 20230525 0357   58.0022 GAU  6.89e-03 -1.00e+00  1.50e+02 -1.00e+00    1.0000 >    3.1889    0.0075    1.0865  736.2660 9822.0830   -1.1500    2.1999 106.60 106.6 163.2 10     0.0000    0.0638
M01          ?    BHZ  e P      d 20230525 0357   56.7455 GAU  4.81e-03 -1.00e+00  3.05e+02 -1.00e+00    1.0000 >    1.9121    0.0276    1.2291  736.4090 9822.5140   -1.1200    2.2599  95.01  95.0 162.9 10     0.0000    0.0382
M01          ?    BHN  e S      ? 20230525 0357   58.0855 GAU  1.34e-03 -1.00e+00  2.07e+03 -1.00e+00    1.0000 >    3.1816    0.0981    0.5977  736.4090 9822.5140   -1.1200    2.2599  95.01  95.0 162.7 10     0.0000    0.0636
M10          ?    BHZ  e P      d 20230525 0357   56.7795 GAU  5.29e-03 -1.00e+00  1.00e+03 -1.00e+00    1.0000 >    1.9730    0.0008    1.3156  736.5490 9821.3650   -1.2200    2.7442 119.38 119.4 159.7 10     0.0000    0.0395
M10          ?    BHN  e S      ? 20230525 0357   58.0704 GAU  4.01e-03 -1.00e+00 -1.00e+00 -1.00e+00    1.0000 >    3.2845   -0.0198    1.0398  736.5490 9821.3650   -1.2200    2.7442 119.38 119.4 159.5 10     0.0000    0.0657
M12          ?    BHZ  e P      d 20230525 0357   56.7272 GAU  2.76e-03 -1.00e+00 -1.00e+00 -1.00e+00    1.0000 >    1.9150    0.0065    1.3251  736.8520 9823.3800   -0.9890    2.7760  76.06  76.1 159.0 10     0.0000    0.0383
M12          ?    BHE  e S      ? 20230525 0357   57.9703 GAU  2.78e-03 -1.00e+00 -1.00e+00 -1.00e+00    1.0000 >    3.1839   -0.0194    1.0571  736.8520 9823.3800   -0.9890    2.7760  76.06  76.1 158.8 10     0.0000    0.0637
M13          ?    BHZ  i P      d 20230525 0357   56.8228 GAU  3.63e-03 -1.00e+00 -1.00e+00 -1.00e+00    1.0000 >    2.0146    0.0024    1.3094  737.1780 9821.5410   -1.2220    3.2391 111.18 111.2 156.4 10     0.0000    0.0403
M13          ?    BHE  e S      ? 20230525 0357   58.1666 GAU  3.20e-03 -1.00e+00 -1.00e+00 -1.00e+00    1.0000 >    3.3535    0.0073    1.0615  737.1780 9821.5410   -1.2220    3.2391 111.18 111.2 156.2 10     0.0000    0.0671
M03          ?    BHZ  e P      d 20230525 0357   56.6511 GAU  2.78e-03 -1.00e+00  2.08e+03 -1.00e+00    1.0000 >    2.0489   -0.2035    0.0520  736.8800 9820.8540   -1.3350    3.2955 124.30 124.3 156.3 10     0.0000    0.0410
M03          ?    BHE  e S      ? 20230525 0357   57.8974 GAU  3.38e-03 -1.00e+00  1.88e+01 -1.00e+00    1.0000 >    3.4126   -0.3210    0.0228  736.8800 9820.8540   -1.3350    3.2955 124.30 124.3 156.0 10     0.0000    0.0683
M09          ?    BHZ  i P      d 20230525 0357   56.9454 GAU  2.16e-03 -1.00e+00  9.32e+01 -1.00e+00    1.0000 >    2.1121    0.0275    1.2046  737.8820 9820.9850   -1.2700    4.1049 114.87 114.9 151.1 10     0.0000    0.0422
M09          ?    BHN  e S      ? 20230525 0357   58.4065 GAU  2.53e-03 -1.00e+00  1.13e+02 -1.00e+00    1.0000 >    3.5161    0.0847    0.6983  737.8820 9820.9850   -1.2700    4.1049 114.87 114.9 150.8 10     0.0000    0.0703
M02          ?    BHZ  i P      c 20230525 0357   56.9758 GAU  2.28e-03 -1.00e+00 -1.00e+00 -1.00e+00    1.0000 >    2.1695    0.0006    1.2806  736.5970 9819.4060   -1.4960    4.1079 143.57 143.6 151.6 10     0.0000    0.0434
M02          ?    BHN  e S      ? 20230525 0357   58.4101 GAU  3.34e-03 -1.00e+00  1.32e+04 -1.00e+00    1.0000 >    3.6158   -0.0114    1.0092  736.5970 9819.4060   -1.4960    4.1079 143.57 143.6 151.3 10     0.0000    0.0723
M08          ?    BHZ  i P      d 20230525 0357   56.8655 GAU  1.28e-03 -1.00e+00 -1.00e+00 -1.00e+00    1.0000 >    2.0846   -0.0249    1.2037  738.2480 9822.1600   -1.1510    4.1272  97.68  97.7 150.6 10     0.0000    0.0417
M08          ?    BHE  e S      ? 20230525 0357   58.2689 GAU  2.70e-03 -1.00e+00 -1.00e+00 -1.00e+00    1.0000 >    3.4682   -0.0051    1.0406  738.2480 9822.1600   -1.1510    4.1272  97.68  97.7 150.3 10     0.0000    0.0694
M14          ?    BHZ  i P      d 20230525 0357   56.9464 GAU  3.34e-03 -1.00e+00  5.72e+02 -1.00e+00    1.0000 >    2.1697   -0.0291    1.1611  737.5530 9820.0110   -1.3980    4.3381 128.50 128.5 150.0 10     0.0000    0.0434
M14          ?    BHE  e S      ? 20230525 0357   58.3834 GAU  4.47e-03 -1.00e+00  6.87e+02 -1.00e+00    1.0000 >    3.6143   -0.0367    0.9340  737.5530 9820.0110   -1.3980    4.3381 128.50 128.5 149.7 10     0.0000    0.0723
M11          ?    BHZ  e P      d 20230525 0357   56.9932 GAU  2.70e-03 -1.00e+00  2.08e+02 -1.00e+00    1.0000 >    2.2077   -0.0203    1.2123  738.4670 9820.4900   -1.3120    4.8481 117.27 117.3 146.9 10     0.0000    0.0442
M11          ?    BHN  e S      ? 20230525 0357   58.4725 GAU  4.64e-03 -1.00e+00 -1.00e+00 -1.00e+00    1.0000 >    3.6755   -0.0088    1.0034  738.4670 9820.4900   -1.3120    4.8481 117.27 117.3 146.5 10     0.0000    0.0735
M06          ?    BHZ  e P      d 20230525 0357   57.1420 GAU  2.98e-03 -1.00e+00 -1.00e+00 -1.00e+00    1.0000 >    2.3097    0.0265    1.1822  738.3100 9819.1170   -1.3960    5.4918 130.88 130.9 143.6 10     0.0000    0.0462
M06          ?    BHE  e S      ? 20230525 0357   58.7314 GAU  3.45e-03 -1.00e+00  3.17e+02 -1.00e+00    1.0000 >    3.8464    0.0793    0.7252  738.3100 9819.1170   -1.3960    5.4918 130.88 130.9 143.2 10     0.0000    0.0769
END_PHASE
END_NLLOC

