#  2023   6  6  2 57  14.158108  -1.640733189  101.135915381   2.58097  0  0  0  0.03969100  2948
M06  0.75169200  1.000  P
M06  1.28129200  1.000  S
M02  0.79959200  1.000  P
M02  1.40359200  1.000  S
M14  0.90259200  1.000  P
M14  1.42249200  1.000  S
M11  0.87789200  1.000  P
M11  1.45869200  1.000  S
M09  0.94569200  1.000  P
M09  1.54469200  1.000  S
M13  1.08109200  1.000  P
M13  1.76239200  1.000  S
M08  1.34399200  1.000  P
M08  2.28079200  1.000  S
M05  1.15719200  1.000  P
M05  2.01569200  1.000  S
M12  1.63769200  1.000  P
M12  2.74659200  1.000  S
#  2023   6  6  2 57  29.373825  -1.640730601  101.138321848   2.31108  0  0  0  0.01954540  2949
M06  0.67247500  1.000  P
M06  1.16087500  1.000  S
M14  0.76437500  1.000  P
M14  1.30967500  1.000  S
M11  0.79147500  1.000  P
M11  1.40267500  1.000  S
M09  0.86487500  1.000  P
M09  1.52347500  1.000  S
M13  1.01397500  1.000  P
M13  1.68507500  1.000  S
M08  1.13937500  1.000  P
M08  1.97697500  1.000  S
M05  1.30907500  1.000  P
M05  2.24777500  1.000  S
#  2023   6  6  2 57  54.106710  -1.639244212  101.144336395   2.55256  0  0  0  0.01116020  2950
M06  0.71869000  1.000  P
M06  1.22019000  1.000  S
M11  0.81179000  1.000  P
M11  1.41419000  1.000  S
M09  0.93579000  1.000  P
M09  1.56529000  1.000  S
M13  1.04329000  1.000  P
M13  1.78319000  1.000  S
M05  1.44229000  1.000  P
M05  2.47209000  1.000  S
#  2023   6  6  2 58   2.076602  -1.632519098  101.142724961   1.38778  0  0  0  0.00551681  2951
M06  0.41639800  1.000  P
M06  0.74079800  1.000  S
M14  0.49889800  1.000  P
M14  0.85729800  1.000  S
M11  0.47989800  1.000  P
M11  0.83999800  1.000  S
M09  0.67069800  1.000  P
M09  1.16859800  1.000  S
#  2023   6  6  2 58  41.370848  -1.643483054  101.143471917   1.82102  0  0  0  0.02228940  2953
M06  0.57645200  1.000  P
M06  1.09785200  1.000  S
M11  0.76515200  1.000  P
M11  1.37025200  1.000  S
M09  0.89835200  1.000  P
M09  1.53705200  1.000  S
M08  1.15105200  1.000  P
M08  2.09345200  1.000  S
#  2023   6  6  2 59  47.010236  -1.642069481  101.144339405   2.31108  0  0  0  0.01260270  2954
M06  0.68546400  1.000  P
M06  1.15106400  1.000  S
M11  0.83066400  1.000  P
M11  1.44356400  1.000  S
M02  0.89046400  1.000  P
M02  1.53736400  1.000  S
M09  0.92706400  1.000  P
M09  1.59996400  1.000  S
M05  1.40886400  1.000  P
M05  2.39216400  1.000  S
#  2023   6  6 22 40  15.801952  -1.637824150  101.151219989   3.01421  0  0  0  0.00869342  2955
M06  0.85554800  1.000  P
M06  1.44974800  1.000  S
M11  0.91404800  1.000  P
M11  1.56034800  1.000  S
M14  0.72694800  1.000  P
M14  1.21564800  1.000  S
M09  1.03274800  1.000  P
M09  1.72914800  1.000  S
M05  1.34014800  1.000  P
M05  2.30334800  1.000  S
#  2023   6 20 20 10  27.013595  -1.633107169  101.158835305   5.01704  0  0  0  0.03116210  2956
M06  1.33920500  1.000  P
M06  2.24390500  1.000  S
M09  1.41460500  1.000  P
M09  2.38640500  1.000  S
M03  1.53630500  1.000  P
M03  2.58280500  1.000  S
M13  1.46650500  1.000  P
M13  2.47260500  1.000  S
M05  1.79290500  1.000  P
M05  3.04920500  1.000  S
#  2023   6 21 21 54  14.827303  -1.681576508  101.125731556   6.43750  0  0  0  0.03503030  2957
M06  2.03049700  1.000  P
M06  3.40659700  1.000  S
M11  2.26699700  1.000  P
M11  3.75019700  1.000  S
M09  2.29379700  1.000  P
M09  3.75939700  1.000  S
M13  2.33539700  1.000  P
M13  3.94949700  1.000  S
M05  2.46439700  1.000  P
M05  4.13769700  1.000  S
M08  2.50599700  1.000  P
M08  4.20509700  1.000  S
M12  2.57659700  1.000  P
M12  4.36239700  1.000  S
#  2023   6 21 22  1  19.802175  -1.662194870  101.133197583   7.80114  0  0  0  0.03475050  2958
M06  2.01962500  1.000  P
M06  3.38692500  1.000  S
M02  2.05562500  1.000  P
M02  3.44802500  1.000  S
M14  1.96562500  1.000  P
M14  3.27492500  1.000  S
M11  2.12562500  1.000  S
M09  2.18802500  1.000  P
M09  3.61202500  1.000  S
M10  2.23542500  1.000  P
M10  3.75632500  1.000  S
M13  2.22382500  1.000  P
M13  3.67042500  1.000  S
M05  2.30912500  1.000  P
M05  3.85052500  1.000  S
M08  2.32232500  1.000  P
M08  3.87332500  1.000  S
M12  2.40612500  1.000  P
M12  4.04302500  1.000  S
#  2023   6 21 22 28  47.826652  -1.655065685  101.131986698   6.13920  0  0  0  0.02545870  2959
M04  1.64794800  1.000  P
M04  2.74714800  1.000  S
M06  1.61734800  1.000  P
M06  2.71324800  1.000  S
M02  1.67004800  1.000  P
M02  2.76954800  1.000  S
M14  1.68174800  1.000  P
M14  2.80894800  1.000  S
M11  1.74624800  1.000  P
M11  2.94194800  1.000  S
M03  1.81994800  1.000  P
M03  3.04614800  1.000  S
M09  1.78314800  1.000  P
M09  2.96904800  1.000  S
M10  1.83504800  1.000  P
M10  3.06634800  1.000  S
M13  1.82094800  1.000  P
M13  3.04114800  1.000  S
M05  1.90694800  1.000  P
M05  3.20204800  1.000  S
M08  1.92834800  1.000  P
M08  3.25684800  1.000  S
M01  1.94684800  1.000  P
M01  3.29214800  1.000  S
M12  2.00214800  1.000  P
M12  3.38864800  1.000  S
#  2023   6 22  9 57   0.386217  -1.662064552  101.129320306   6.84943  0  0  0  0.02850450  2960
M04  1.85268300  1.000  P
M04  3.05928300  1.000  S
M02  1.88548300  1.000  P
M02  3.12058300  1.000  S
M06  1.83628300  1.000  P
M06  3.10568300  1.000  S
M14  1.89728300  1.000  P
M14  3.16038300  1.000  S
M11  1.98538300  1.000  P
M11  3.33468300  1.000  S
M03  2.01738300  1.000  P
M03  3.35198300  1.000  S
M10  2.05048300  1.000  P
M10  3.41688300  1.000  S
M13  2.06698300  1.000  P
M13  3.44278300  1.000  S
M05  2.13008300  1.000  P
M05  3.59068300  1.000  S
M01  2.18928300  1.000  P
M01  3.67768300  1.000  S
M12  2.21368300  1.000  P
M12  3.71478300  1.000  S
