#  2023   6  2 17 52  26.666307  -1.690989751  101.129752665   2.71591  0  0  0  0.07179100  2904
M04  1.78969300  1.000  P
M04  3.04009300  1.000  S
M06  1.69169300  1.000  P
M06  3.00049300  1.000  S
M02  1.89529300  1.000  P
M02  3.05859300  1.000  S
M14  2.02589300  1.000  P
M14  3.21939300  1.000  S
M11  2.17769300  1.000  P
M11  3.58069300  1.000  S
M09  2.17389300  1.000  P
M09  3.72219300  1.000  S
M10  2.14269300  1.000  P
M10  3.74089300  1.000  S
M13  2.29799300  1.000  P
M13  4.04399300  1.000  S
M05  2.60349300  1.000  P
M05  4.28409300  1.000  S
M08  2.32989300  1.000  P
M08  3.89509300  1.000  S
M12  2.65279300  1.000  P
M12  4.47539300  1.000  S
#  2023   6  6  1 40  44.045847  -1.647138734  101.121951230   1.60796  0  0  0  0.01517660  2905
M02  0.66505300  1.000  P
M02  1.16305300  1.000  S
M06  0.83235300  1.000  P
M06  1.45275300  1.000  S
M11  0.97605300  1.000  P
M11  1.70285300  1.000  S
M09  1.05975300  1.000  P
M09  1.85895300  1.000  S
#  2023   6  6  1 42  24.766723  -1.639393832  101.130298872   1.44460  0  0  0  0.00941382  2906
M06  0.56217700  1.000  P
M06  0.99267700  1.000  S
M14  0.57107700  1.000  P
M14  1.00307700  1.000  S
M11  0.73737700  1.000  P
M11  1.26727700  1.000  S
M09  0.77317700  1.000  P
M09  1.36527700  1.000  S
#  2023   6  6  1 48  22.267989  -1.643228088  101.130369783   2.10511  0  0  0  0.01643070  2907
M06  0.73111100  1.000  P
M06  1.24961100  1.000  S
M14  0.75541100  1.000  P
M14  1.32631100  1.000  S
M11  0.89631100  1.000  P
M11  1.54871100  1.000  S
M09  0.94791100  1.000  P
M09  1.63751100  1.000  S
M05  1.23291100  1.000  P
M05  2.11761100  1.000  S
#  2023   6  6  1 48  43.077703  -1.641209879  101.130501338   2.06250  0  0  0  0.01477410  2908
M06  0.70399700  1.000  P
M06  1.19459700  1.000  S
M11  0.84509700  1.000  P
M11  1.48979700  1.000  S
M09  0.92239700  1.000  P
M09  1.53049700  1.000  S
M13  0.95539700  1.000  P
M13  1.68159700  1.000  S
M05  1.41469700  1.000  P
M05  2.44309700  1.000  S
#  2023   6  6  1 51  12.582826  -1.643954724  101.142737116   2.53835  0  0  0  0.00692947  2909
M06  0.74487400  1.000  P
M06  1.27417400  1.000  S
M14  0.87137400  1.000  P
M14  1.49407400  1.000  S
M11  0.90027400  1.000  P
M11  1.54277400  1.000  S
M09  1.00447400  1.000  P
M09  1.71797400  1.000  S
#  2023   6  6  1 51  15.872520  -1.649280419  101.132114221   2.51704  0  0  0  0.01672930  2910
M06  0.86308000  1.000  P
M06  1.44398000  1.000  S
M14  0.93378000  1.000  P
M14  1.61338000  1.000  S
M11  1.00348000  1.000  P
M11  1.61798000  1.000  S
M09  1.11728000  1.000  P
M09  1.91558000  1.000  S
#  2023   6  6  1 51  30.255296  -1.643426812  101.133244388   2.43892  0  0  0  0.01454830  2911
M06  0.75830400  1.000  P
M06  1.31010400  1.000  S
M02  0.80920400  1.000  P
M02  1.31770400  1.000  S
M14  0.81110400  1.000  P
M14  1.42280400  1.000  S
M11  0.91390400  1.000  P
M11  1.57220400  1.000  S
M09  0.97920400  1.000  P
M09  1.67940400  1.000  S
M05  1.44360400  1.000  P
M05  2.47500400  1.000  S
#  2023   6  6  1 52  19.111708  -1.646651526  101.137124912   2.63778  0  0  0  0.03447890  2912
M06  0.81349200  1.000  P
M06  1.38589200  1.000  S
M02  0.91939200  1.000  P
M02  1.51069200  1.000  S
M14  0.90129200  1.000  P
M14  1.57859200  1.000  S
M11  0.95559200  1.000  P
M11  1.67119200  1.000  S
M09  1.04819200  1.000  P
M09  1.80799200  1.000  S
M10  1.26149200  1.000  P
M10  2.21039200  1.000  S
M13  1.15789200  1.000  P
M13  1.98679200  1.000  S
M08  1.29399200  1.000  P
M08  2.22139200  1.000  S
M05  1.49789200  1.000  P
M05  2.61859200  1.000  S
M12  1.64059200  1.000  P
M12  2.82769200  1.000  S
#  2023   6  6  1 52  40.329689  -1.644099349  101.133378796   2.55256  0  0  0  0.05587760  2913
M06  0.77691100  1.000  P
M06  1.36881100  1.000  S
M02  0.83411100  1.000  P
M02  1.39771100  1.000  S
M14  0.86501100  1.000  P
M14  1.37411100  1.000  S
M11  0.93141100  1.000  P
M11  1.64351100  1.000  S
M03  0.98011100  1.000  P
M03  1.71351100  1.000  S
M09  1.00771100  1.000  P
M09  1.64131100  1.000  S
M10  1.31741100  1.000  P
M10  2.27551100  1.000  S
M13  1.04721100  1.000  P
M13  1.84611100  1.000  S
M05  1.45781100  1.000  P
M05  2.46431100  1.000  S
M08  1.29251100  1.000  P
M08  2.23291100  1.000  S
M12  1.59961100  1.000  P
M12  2.75431100  1.000  S
#  2023   6  6  1 52  50.307323  -1.648670602  101.136191211   2.76562  0  0  0  0.03472210  2914
M06  0.86997700  1.000  P
M06  1.46897700  1.000  S
M02  0.95227700  1.000  P
M02  1.56737700  1.000  S
M14  0.96637700  1.000  P
M14  1.67277700  1.000  S
M11  1.01877700  1.000  P
M11  1.64297700  1.000  S
M03  1.00687700  1.000  P
M03  1.72057700  1.000  S
M09  1.09417700  1.000  P
M09  1.73997700  1.000  S
M10  1.37637700  1.000  P
M10  2.32727700  1.000  S
M13  1.19877700  1.000  P
M13  2.06667700  1.000  S
M08  1.34237700  1.000  P
M08  2.31987700  1.000  S
M05  1.38347700  1.000  P
M05  2.34097700  1.000  S
M12  1.61017700  1.000  P
M12  2.70177700  1.000  S
#  2023   6  6  1 53  28.013666  -1.646121303  101.129771235   2.39631  0  0  0  0.00786130  2915
M06  0.81183400  1.000  P
M06  1.40673400  1.000  S
M14  0.88403400  1.000  P
M14  1.48753400  1.000  S
M11  1.01303400  1.000  P
M11  1.71853400  1.000  S
M09  1.03863400  1.000  P
M09  1.80023400  1.000  S
#  2023   6  6  1 54   5.295338  -1.646464749  101.123153767   1.62216  0  0  0  0.02174030  2916
M06  0.80086200  1.000  P
M06  1.39916200  1.000  S
M14  0.81276200  1.000  P
M14  1.43126200  1.000  S
M11  0.92696200  1.000  P
M11  1.67656200  1.000  S
M09  1.03326200  1.000  P
M09  1.80476200  1.000  S
M05  1.59816200  1.000  P
M05  2.79276200  1.000  S
#  2023   6  6  1 54  28.896526  -1.647318145  101.142740708   1.57244  0  0  0  0.04225980  2917
M06  0.72327400  1.000  P
M06  1.31547400  1.000  S
M14  0.76367400  1.000  P
M14  1.32447400  1.000  S
M02  0.83207400  1.000  P
M02  1.42387400  1.000  S
M11  0.87627400  1.000  P
M11  1.51947400  1.000  S
M09  0.95657400  1.000  P
M09  1.68547400  1.000  S
M13  1.11057400  1.000  P
M13  1.95997400  1.000  S
M10  1.22197400  1.000  P
M10  2.19717400  1.000  S
M08  1.21087400  1.000  P
M08  2.17767400  1.000  S
M05  1.39077400  1.000  P
M05  2.46027400  1.000  S
M12  1.54337400  1.000  P
M12  2.72347400  1.000  S
#  2023   6  6  1 54  37.536762  -1.638391015  101.124482170   2.67329  0  0  0  0.02371660  2918
M14  0.87623800  1.000  P
M14  1.47443800  1.000  S
M06  0.87913800  1.000  P
M06  1.48473800  1.000  S
M09  1.10183800  1.000  P
M09  1.88153800  1.000  S
M11  1.00943800  1.000  P
M11  1.71493800  1.000  S
M13  0.99403800  1.000  P
M13  1.66203800  1.000  S
#  2023   6  6  1 54  44.191823  -1.643328940  101.161520060   2.06250  0  0  0  0.02789920  2919
M06  0.86087700  1.000  P
M06  1.45377700  1.000  S
M11  0.97787700  1.000  P
M11  1.69567700  1.000  S
M09  1.11167700  1.000  P
M09  1.91507700  1.000  S
M13  1.24077700  1.000  P
M13  2.11687700  1.000  S
M05  1.55697700  1.000  P
M05  2.72277700  1.000  S
M12  1.70037700  1.000  P
M12  2.96177700  1.000  S
#  2023   6  6  1 54  53.202353  -1.638835697  101.148881472   2.73722  0  0  0  0.00652548  2920
M06  0.77554700  1.000  P
M06  1.33394700  1.000  S
M11  0.86534700  1.000  P
M11  1.48534700  1.000  S
M09  0.97734700  1.000  P
M09  1.63624700  1.000  S
M13  1.47034700  1.000  P
M13  2.46614700  1.000  S
#  2023   6  6  1 55  12.252722  -1.644208330  101.125858674   1.02202  0  0  0  0.02739580  2921
M02  0.48257800  1.000  P
M02  0.85127800  1.000  S
M06  0.64117800  1.000  P
M06  1.13797800  1.000  S
M14  0.55617800  1.000  P
M14  1.02417800  1.000  S
M11  0.81177800  1.000  P
M11  1.51897800  1.000  S
M09  0.89057800  1.000  P
M09  1.55447800  1.000  S
M05  1.10257800  1.000  P
M05  1.92717800  1.000  S
M12  1.47497800  1.000  P
M12  2.63517800  1.000  S
#  2023   6  6  1 55  25.808313  -1.646991696  101.133582415   2.33239  0  0  0  0.05851900  2922
M06  0.81338700  1.000  P
M06  1.34508700  1.000  S
M02  0.81908700  1.000  P
M02  1.38658700  1.000  S
M14  0.90448700  1.000  P
M14  1.54378700  1.000  S
M11  0.96358700  1.000  P
M11  1.62278700  1.000  S
M09  1.00918700  1.000  P
M09  1.63458700  1.000  S
M10  0.98118700  1.000  P
M10  1.72338700  1.000  S
M13  0.97518700  1.000  P
M13  1.72078700  1.000  S
M05  1.29928700  1.000  P
M05  2.25858700  1.000  S
M08  1.29518700  1.000  P
M08  2.21178700  1.000  S
M12  1.63928700  1.000  P
M12  2.78528700  1.000  S
#  2023   6  6  1 55  44.557763  -1.644097047  101.135517884   2.14062  0  0  0  0.00883762  2923
M06  0.68793700  1.000  P
M06  1.17673700  1.000  S
M14  0.77303700  1.000  P
M14  1.33623700  1.000  S
M11  0.86403700  1.000  P
M11  1.50373700  1.000  S
M09  0.94783700  1.000  P
M09  1.64073700  1.000  S
#  2023   6  6  1 55  52.509459  -1.642888516  101.133377510   2.56676  0  0  0  0.00597026  2924
M06  0.78444100  1.000  P
M06  1.33264100  1.000  S
M14  0.83324100  1.000  P
M14  1.43394100  1.000  S
M11  0.92804100  1.000  P
M11  1.59734100  1.000  S
M09  0.98814100  1.000  P
M09  1.67434100  1.000  S
#  2023   6  6  1 56   1.150764  -1.634047608  101.160039513   1.93466  0  0  0  0.00209601  2925
M06  0.76503600  1.000  P
M06  1.32863600  1.000  S
M11  0.79003600  1.000  P
M11  1.37103600  1.000  S
M14  0.73103600  1.000  P
M14  1.22573600  1.000  S
M09  0.94343600  1.000  P
M09  1.62603600  1.000  S
#  2023   6  6  1 56   8.321685  -1.646984193  101.140534425   3.09943  0  0  0  0.01299490  2926
M06  0.89281500  1.000  P
M06  1.51281500  1.000  S
M14  1.01391500  1.000  P
M14  1.71781500  1.000  S
M11  1.08581500  1.000  P
M11  1.78881500  1.000  S
M09  1.12251500  1.000  P
M09  1.94191500  1.000  S
M08  1.32001500  1.000  P
M08  2.24551500  1.000  S
#  2023   6  6  1 56  16.764345  -1.647804969  101.127968160   1.22443  0  0  0  0.02355180  2927
M06  0.66425500  1.000  P
M06  1.17305500  1.000  S
M14  0.62385500  1.000  P
M14  1.09595500  1.000  S
M11  0.93785500  1.000  P
M11  1.66245500  1.000  S
M09  0.93525500  1.000  P
M09  1.66215500  1.000  S
M05  1.20615500  1.000  P
M05  2.12635500  1.000  S
#  2023   6  6  1 56  29.051755  -1.644364395  101.137122476   2.19744  0  0  0  0.02773230  2928
M06  0.69664500  1.000  P
M06  1.17214500  1.000  S
M14  0.80094500  1.000  P
M14  1.36394500  1.000  S
M11  0.86114500  1.000  P
M11  1.54674500  1.000  S
M09  0.92194500  1.000  P
M09  1.55534500  1.000  S
M10  1.25284500  1.000  P
M10  2.15454500  1.000  S
M08  1.19524500  1.000  P
M08  2.05174500  1.000  S
M05  1.21504500  1.000  P
M05  2.13554500  1.000  S
M12  1.53264500  1.000  P
M12  2.66914500  1.000  S
#  2023   6  6  1 56  36.790915  -1.649489922  101.124961834   1.14631  0  0  0  0.05855630  2929
M02  0.62108500  1.000  P
M02  1.10598500  1.000  S
M06  0.75488500  1.000  P
M06  1.31258500  1.000  S
M14  0.62448500  1.000  P
M14  1.12388500  1.000  S
M11  0.89918500  1.000  P
M11  1.59698500  1.000  S
M09  1.03598500  1.000  P
M09  1.82298500  1.000  S
M05  1.15348500  1.000  P
M05  2.03018500  1.000  S
M12  1.61128500  1.000  P
M12  2.79758500  1.000  S
#  2023   6  6  1 57  14.220909  -1.641674800  101.136050074   2.41051  0  0  0  0.04431100  2930
M06  0.70919100  1.000  P
M06  1.23969100  1.000  S
M02  0.80669100  1.000  P
M02  1.30819100  1.000  S
M14  0.78889100  1.000  P
M14  1.35109100  1.000  S
M11  0.84089100  1.000  P
M11  1.38749100  1.000  S
M09  0.92349100  1.000  P
M09  1.58139100  1.000  S
M10  1.21319100  1.000  P
M10  2.09509100  1.000  S
M13  0.97869100  1.000  P
M13  1.63519100  1.000  S
M08  1.16589100  1.000  P
M08  1.97539100  1.000  S
M05  1.38319100  1.000  P
M05  2.34319100  1.000  S
#  2023   6  6  1 57  25.564051  -1.640868732  101.134979684   2.11222  0  0  0  0.02505660  2931
M06  0.64494900  1.000  P
M06  1.14154900  1.000  S
M02  0.71484900  1.000  P
M02  1.21154900  1.000  S
M14  0.73054900  1.000  P
M14  1.22844900  1.000  S
M11  0.79304900  1.000  P
M11  1.38924900  1.000  S
M03  0.88614900  1.000  P
M03  1.48634900  1.000  S
M09  0.86914900  1.000  P
M09  1.51844900  1.000  S
M10  0.99514900  1.000  P
M10  1.72004900  1.000  S
M13  0.95274900  1.000  P
M13  1.62244900  1.000  S
M08  1.10824900  1.000  P
M08  1.96484900  1.000  S
M05  1.10264900  1.000  P
M05  1.85364900  1.000  S
M01  1.41134900  1.000  P
M01  2.41274900  1.000  S
M12  1.45814900  1.000  P
M12  2.52914900  1.000  S
#  2023   6  6  1 57  28.895898  -1.639788263  101.138855608   1.99858  0  0  0  0.02297340  2932
M06  0.57950200  1.000  P
M06  1.02140200  1.000  S
M14  0.68930200  1.000  P
M14  1.17900200  1.000  S
M02  0.73060200  1.000  P
M02  1.23950200  1.000  S
M11  0.67700200  1.000  P
M11  1.15520200  1.000  S
M09  0.82660200  1.000  P
M09  1.42080200  1.000  S
M13  0.90620200  1.000  P
M13  1.54270200  1.000  S
#  2023   6  6  1 57  37.625095  -1.639253416  101.135780128   1.91335  0  0  0  0.02054250  2933
M06  0.58310500  1.000  P
M06  1.03360500  1.000  S
M02  0.68050500  1.000  P
M02  1.13740500  1.000  S
M14  0.64860500  1.000  P
M14  1.01740500  1.000  S
M11  0.72900500  1.000  P
M11  1.30580500  1.000  S
M09  0.76800500  1.000  P
M09  1.39380500  1.000  S
M13  0.93980500  1.000  P
M13  1.56360500  1.000  S
M08  1.05770500  1.000  P
M08  1.72640500  1.000  S
M12  1.40670500  1.000  P
M12  2.42970500  1.000  S
#  2023   6  6  1 57  45.388731  -1.644769448  101.135785986   2.85085  0  0  0  0.01701010  2934
M06  0.83816900  1.000  P
M06  1.43186900  1.000  S
M02  0.91606900  1.000  P
M02  1.54216900  1.000  S
M14  0.92056900  1.000  P
M14  1.58486900  1.000  S
M11  0.99166900  1.000  P
M11  1.68436900  1.000  S
M03  1.08456900  1.000  P
M03  1.80466900  1.000  S
M09  1.03056900  1.000  P
M09  1.78656900  1.000  S
M10  1.11846900  1.000  P
M10  1.91856900  1.000  S
M13  1.13386900  1.000  P
M13  1.94306900  1.000  S
M08  1.30476900  1.000  P
M08  2.16386900  1.000  S
M05  1.28956900  1.000  P
M05  2.22186900  1.000  S
M12  1.63626900  1.000  P
M12  2.80506900  1.000  S
#  2023   6  6  1 58   3.487408  -1.636285700  101.143130031   2.28267  0  0  0  0.00833538  2935
M06  0.63759200  1.000  P
M06  1.10379200  1.000  S
M14  0.72809200  1.000  P
M14  1.25929200  1.000  S
M11  0.73589200  1.000  P
M11  1.24519200  1.000  S
M09  0.80749200  1.000  P
M09  1.38679200  1.000  S
M05  0.98779200  1.000  P
M05  1.69239200  1.000  S
#  2023   6  6  1 58  51.298422  -1.641347712  101.127426543   2.55966  0  0  0  0.01096890  2936
M06  0.82907800  1.000  P
M06  1.45187800  1.000  S
M14  0.84547800  1.000  P
M14  1.43957800  1.000  S
M11  0.98897800  1.000  P
M11  1.64827800  1.000  S
M05  1.38717800  1.000  P
M05  2.38787800  1.000  S
#  2023   6  6  1 59   4.926138  -1.641539831  101.136451009   2.96449  0  0  0  0.03019960  2937
M06  0.82936200  1.000  P
M06  1.42616200  1.000  S
M02  0.91896200  1.000  P
M02  1.54596200  1.000  S
M14  0.88676200  1.000  P
M14  1.50276200  1.000  S
M11  0.96096200  1.000  P
M11  1.66036200  1.000  S
M13  1.18686200  1.000  P
M13  2.07686200  1.000  S
M05  1.87716200  1.000  P
M05  3.03966200  1.000  S
M12  2.17726200  1.000  P
M12  3.76316200  1.000  S
#  2023   6  6  2  0  18.295900  -1.643736476  101.157910852   2.30398  0  0  0  0.00424510  2938
M06  0.82810000  1.000  P
M06  1.43110000  1.000  S
M11  0.96460000  1.000  P
M11  1.65410000  1.000  S
M14  0.65320000  1.000  P
M14  1.11030000  1.000  S
M09  1.11820000  1.000  P
M09  1.89760000  1.000  S
#  2023   6  6  2  0  50.337809  -1.639921362  101.140192675   2.14062  0  0  0  0.01575350  2939
M06  0.62039100  1.000  P
M06  1.05789100  1.000  S
M14  0.75769100  1.000  P
M14  1.35059100  1.000  S
M11  0.77049100  1.000  P
M11  1.31819100  1.000  S
M09  0.86489100  1.000  P
M09  1.49029100  1.000  S
M13  0.97329100  1.000  P
M13  1.67249100  1.000  S
M05  1.15249100  1.000  P
M05  2.00269100  1.000  S
M12  1.37049100  1.000  P
M12  2.34059100  1.000  S
#  2023   6  6  2  1  17.150517  -1.642480444  101.137521551   2.22585  0  0  0  0.02892580  2940
M06  0.68148300  1.000  P
M06  1.19498300  1.000  S
M02  0.77848300  1.000  P
M02  1.33338300  1.000  S
M14  0.74628300  1.000  P
M14  1.32268300  1.000  S
M11  0.83488300  1.000  P
M11  1.45488300  1.000  S
M09  0.91718300  1.000  P
M09  1.55138300  1.000  S
M13  1.03878300  1.000  P
M13  1.84538300  1.000  S
M10  1.13788300  1.000  P
M10  2.00708300  1.000  S
M08  1.14718300  1.000  P
M08  1.97328300  1.000  S
M05  1.22758300  1.000  P
M05  2.16118300  1.000  S
M12  1.53828300  1.000  P
M12  2.71378300  1.000  S
#  2023   6  6  2  1  29.563494  -1.648063662  101.137594339   1.62216  0  0  0  0.04708470  2941
M06  0.74900600  1.000  P
M06  1.29190600  1.000  S
M14  0.74850600  1.000  P
M14  1.36570600  1.000  S
M11  0.88560600  1.000  P
M11  1.54430600  1.000  S
M09  0.96800600  1.000  P
M09  1.59590600  1.000  S
M13  1.12150600  1.000  P
M13  1.91990600  1.000  S
M08  1.20080600  1.000  P
M08  2.15800600  1.000  S
M05  1.41800600  1.000  P
M05  2.46190600  1.000  S
M12  1.56090600  1.000  P
M12  2.70600600  1.000  S
#  2023   6  6  2  1  36.979411  -1.640427273  101.138889717   2.22230  0  0  0  0.03675350  2942
M06  0.64308900  1.000  P
M06  1.14768900  1.000  S
M14  0.75628900  1.000  P
M14  1.26568900  1.000  S
M02  0.77988900  1.000  P
M02  1.31898900  1.000  S
M11  0.79298900  1.000  P
M11  1.36678900  1.000  S
M09  0.88358900  1.000  P
M09  1.49678900  1.000  S
M13  0.99698900  1.000  P
M13  1.73208900  1.000  S
M10  1.15308900  1.000  P
M10  1.98178900  1.000  S
M08  1.08388900  1.000  P
M08  1.81168900  1.000  S
M05  1.29958900  1.000  P
M05  2.29228900  1.000  S
M12  1.49728900  1.000  P
M12  2.58858900  1.000  S
#  2023   6  6  2  2  19.403085  -1.639791855  101.135513313   2.19744  0  0  0  0.01978560  2944
M06  0.62901500  1.000  P
M06  1.14911500  1.000  S
M02  0.73191500  1.000  P
M02  1.18201500  1.000  S
M14  0.72121500  1.000  P
M14  1.22901500  1.000  S
M11  0.78721500  1.000  P
M11  1.43411500  1.000  S
M09  0.85921500  1.000  P
M09  1.45461500  1.000  S
M10  0.97471500  1.000  P
M10  1.66121500  1.000  S
M13  0.94991500  1.000  P
M13  1.62091500  1.000  S
M08  1.10071500  1.000  P
M08  1.82661500  1.000  S
M05  1.10911500  1.000  P
M05  1.89161500  1.000  S
M12  1.33671500  1.000  P
M12  2.37131500  1.000  S
#  2023   6  6  2  3  32.545021  -1.636197569  101.162448238   0.91193  0  0  0  0.00543118  2945
M06  0.67817900  1.000  P
M06  1.19257900  1.000  S
M11  0.74487900  1.000  P
M11  1.30527900  1.000  S
M09  0.94477900  1.000  P
M09  1.62787900  1.000  S
M02  0.72947900  1.000  P
M02  1.21547900  1.000  S
#  2023   6  6  2  5  16.300642  -1.647591557  101.138730222   2.39631  0  0  0  0.01982440  2946
M06  0.77335800  1.000  P
M06  1.30205800  1.000  S
M02  0.87775800  1.000  P
M02  1.51595800  1.000  S
M14  0.93505800  1.000  P
M14  1.55915800  1.000  S
M11  0.95775800  1.000  P
M11  1.64255800  1.000  S
M09  1.03695800  1.000  P
M09  1.69615800  1.000  S
M13  1.19115800  1.000  P
M13  2.03495800  1.000  S
M05  1.48735800  1.000  P
M05  2.56165800  1.000  S
#  2023   6  6  2 11  56.618002  -1.632392301  101.135505485   1.65767  0  0  0  0.00595586  2947
M06  0.52439800  1.000  P
M06  1.01229800  1.000  S
M11  0.57819800  1.000  P
M11  1.02709800  1.000  S
M09  0.61479800  1.000  P
M09  1.05859800  1.000  S
M05  1.06479800  1.000  P
M05  1.85699800  1.000  S
