NLLOC "./loc/SEML.20230627.174700.grid0" "LOCATED" "Location completed."
PUBLIC_ID None
SIGNATURE "Arham Zakki Edelo - edelo.17034@mhs.its.ac.id   obs:./obs/2023_06.obs   NLLoc:v7.00.10(30Aug2020)   run:28Dec2023 20h04m03"
COMMENT "SEML"
GRID  2001 2001 1001  727 9811 -2  0.01 0.01 0.01 PROB_DENSITY
SEARCH OCTREE nInitial 4851 nEvaluated 20019 smallestNodeSide 0.007440/0.007440/0.007102 oct_tree_integral 2.107665e-03 scatter_volume 2.107665e-03
HYPOCENTER  x 737.435 y 9820.41 z -1.29332  OT 0.121354  ix -1 iy -1 iz -1 MAXIMUM_LIKELIHOOD
GEOGRAPHIC  OT 2023 06 27  17 47 0.121354  Lat 9820.408482 Long 737.435268 Depth -1.293324
QUALITY  Pmax 4.05335e+22 MFmin 43.8528 MFmax 43.913 RMS 0.0066685 Nphs 8 Gap 180.815 Dist 1.30678 Mamp -9.90 0 Mdur -9.90 0
VPVSRATIO  VpVsRatio 1.73052  Npair 4  Diff 0.418347
STATISTICS  ExpectX 737.419915 Y 9820.392665 Z -1.280790  CovXX 0.0103908 XY -0.00359959 XZ -0.0129752 YY 0.0289908 YZ -0.00807711 ZZ 0.0826939 EllAz1  76.7325 Dip1  10.8303 Len1  0.157101 Az2  345.782 Dip2  4.9584 Len2  0.320944 Len3  5.506728e-01
STAT_GEOG  ExpectLat 9820.392665 Long 737.419915 Depth -1.280790
TRANSFORM  NONE
QML_OriginQuality  assocPhCt 8  usedPhCt 8  assocStaCt -1  usedStaCt 4  depthPhCt -1  stdErr 0.0066685  azGap 180.815  secAzGap 180.815  gtLevel -  minDist 1.30678 maxDist 2.04235 medDist 1.80109
QML_OriginUncertainty  horUnc -1  minHorUnc 0.149507  maxHorUnc 0.261199  azMaxHorUnc 169.42
QML_ConfidenceEllipsoid  semiMajorAxisLength 0.550673  semiMinorAxisLength 0.157101  semiIntermediateAxisLength 0.320944  majorAxisPlunge -78.0635  majorAxisAzimuth 51.5518  majorAxisRotation 292.813
FOCALMECH  Hyp  9820.408482 737.435268 -1.293324 Mech  0 0 0 mf  0 nObs -1
PHASE ID Ins Cmp On Pha  FM Date     HrMn   Sec     Err  ErrMag    Coda      Amp       Per       PriorWt  >   TTpred    Res       Weight    StaLoc(X  Y         Z)        SDist    SAzim  RAz  RDip RQual    Tcorr       TTerr
M09          ?    BHZ  e P      c 20230627 1747    1.1149 GAU  1.92e-03 -1.00e+00  1.78e+01 -1.00e+00    1.0000 >    0.2005    0.7931    0.0000  737.8820 9820.9850   -1.2700    0.7293  37.77  37.8  87.8  9     0.0000    0.0040
M09          ?    BHE  e S      ? 20230627 1747    1.8021 GAU  3.81e-04 -1.00e+00  3.42e+02 -1.00e+00    1.0000 >    0.3459    1.3348    0.0000  737.8820 9820.9850   -1.2700    0.7293  37.77  37.8  87.8  9     0.0000    0.0069
M02          ?    BHZ  e P      c 20230627 1747    0.4823 GAU  6.24e-04 -1.00e+00 -1.00e+00 -1.00e+00    1.0000 >    0.3635   -0.0025    1.6164  736.5970 9819.4060   -1.4960    1.3068 219.90 219.9  98.9  9     0.0000    0.0073
M02          ?    BHN  e S      ? 20230627 1747    0.7511 GAU  1.68e-03 -1.00e+00  9.34e+02 -1.00e+00    1.0000 >    0.6270    0.0028    1.4462  736.5970 9819.4060   -1.4960    1.3068 219.90 219.9  98.9  9     0.0000    0.0125
M06          ?    BHZ  e P      c 20230627 1747    0.5580 GAU  1.16e-03 -1.00e+00 -1.00e+00 -1.00e+00    1.0000 >    0.4296    0.0071    1.3970  738.3100 9819.1170   -1.3960    1.5598 145.89 145.9  94.0  9     0.0000    0.0086
M06          ?    BHE  e S      ? 20230627 1747    0.8427 GAU  5.03e-04 -1.00e+00 -1.00e+00 -1.00e+00    1.0000 >    0.7411   -0.0197    0.8242  738.3100 9819.1170   -1.3960    1.5598 145.89 145.9  94.0  9     0.0000    0.0148
M05          ?    BHZ  e P      c 20230627 1747    0.6840 GAU  9.95e-04 -1.00e+00  8.82e+01 -1.00e+00    1.0000 >    0.5627   -0.0000    1.5330  736.2660 9822.0830   -1.1500    2.0424 325.07 325.1  85.7  9     0.0000    0.0113
M05          ?    BHN  e S      ? 20230627 1747    1.0872 GAU  5.35e-04 -1.00e+00  2.88e+02 -1.00e+00    1.0000 >    0.9707   -0.0049    1.1832  736.2660 9822.0830   -1.1500    2.0424 325.07 325.1  85.7  9     0.0000    0.0194
END_PHASE
END_NLLOC

