NLLOC "./loc/SEML.20230606.015512.grid0" "LOCATED" "Location completed."
PUBLIC_ID None
SIGNATURE "Arham Zakki Edelo - edelo.17034@mhs.its.ac.id   obs:./obs/2023_06.obs   NLLoc:v7.00.10(30Aug2020)   run:28Dec2023 20h03m43"
COMMENT "SEML"
GRID  2001 2001 1001  727 9811 -2  0.01 0.01 0.01 PROB_DENSITY
SEARCH OCTREE nInitial 4851 nEvaluated 20011 smallestNodeSide 0.007440/0.007440/0.007102 oct_tree_integral 6.869587e-03 scatter_volume 6.869587e-03
HYPOCENTER  x 736.513 y 9818.14 z -0.227983  OT 12.2527  ix -1 iy -1 iz -1 MAXIMUM_LIKELIHOOD
GEOGRAPHIC  OT 2023 06 06  01 55 12.252722  Lat 9818.139137 Long 736.512649 Depth -0.227983
QUALITY  Pmax 1.7088e+42 MFmin 52.7212 MFmax 68.3807 RMS 0.0273958 Nphs 14 Gap 294.97 Dist 1.26967 Mamp -9.90 0 Mdur -9.90 0
VPVSRATIO  VpVsRatio 1.79542  Npair 7  Diff 0.791619
STATISTICS  ExpectX 736.552127 Y 9818.090047 Z -0.298082  CovXX 0.0188918 XY -0.00706919 XZ -0.0101114 YY 0.0181346 YZ 0.0160293 ZZ 0.0592559 EllAz1  31.1165 Dip1  -9.90614 Len1  0.193416 Az2  297.155 Dip2  -21.5843 Len2  0.252226 Len3  4.887215e-01
STAT_GEOG  ExpectLat 9818.090047 Long 736.552127 Depth -0.298082
TRANSFORM  NONE
QML_OriginQuality  assocPhCt 14  usedPhCt 14  assocStaCt -1  usedStaCt 7  depthPhCt -1  stdErr 0.0273958  azGap 294.97  secAzGap 294.97  gtLevel -  minDist 1.26967 maxDist 5.25184 medDist 3.05713
QML_OriginUncertainty  horUnc -1  minHorUnc 0.162166  maxHorUnc 0.242617  azMaxHorUnc 133.467
QML_ConfidenceEllipsoid  semiMajorAxisLength 0.488722  semiMinorAxisLength 0.193416  semiIntermediateAxisLength 0.252226  majorAxisPlunge -66.0394  majorAxisAzimuth 144.256  majorAxisRotation 145.092
FOCALMECH  Hyp  9818.139137 736.512649 -0.227983 Mech  0 0 0 mf  0 nObs -1
PHASE ID Ins Cmp On Pha  FM Date     HrMn   Sec     Err  ErrMag    Coda      Amp       Per       PriorWt  >   TTpred    Res       Weight    StaLoc(X  Y         Z)        SDist    SAzim  RAz  RDip RQual    Tcorr       TTerr
M02          ?    BHZ  e P      c 20230606 0155   12.7353 GAU  9.98e-04 -1.00e+00 -1.00e+00 -1.00e+00    1.0000 >    0.4852   -0.0026    1.7157  736.5970 9819.4060   -1.4960    1.2697   3.81   3.8 132.5 10     0.0000    0.0097
M02          ?    BHN  e S      ? 20230606 0155   13.1040 GAU  1.28e-03 -1.00e+00 -1.00e+00 -1.00e+00    1.0000 >    0.8454    0.0058    1.6506  736.5970 9819.4060   -1.4960    1.2697   3.81   3.8 134.2 10     0.0000    0.0169
M06          ?    BHZ  i P      c 20230606 0155   12.8939 GAU  1.16e-02 -1.00e+00 -1.00e+00 -1.00e+00    1.0000 >    0.6362    0.0050    1.6477  738.3100 9819.1170   -1.3960    2.0461  61.45  61.5 115.4 10     0.0000    0.0127
M06          ?    BHN  e S      ? 20230606 0155   13.3907 GAU  3.01e-04 -1.00e+00 -1.00e+00 -1.00e+00    1.0000 >    1.1101    0.0279    1.1843  738.3100 9819.1170   -1.3960    2.0461  61.45  61.5 118.4 10     0.0000    0.0222
M14          ?    BHZ  e P      c 20230606 0155   12.8089 GAU  2.98e-03 -1.00e+00 -1.00e+00 -1.00e+00    1.0000 >    0.6590   -0.1027    0.2249  737.5530 9820.0110   -1.3980    2.1415  29.06  29.1 114.1 10     0.0000    0.0132
M14          ?    BHE  e S      ? 20230606 0155   13.2769 GAU  9.88e-04 -1.00e+00  3.84e+02 -1.00e+00    1.0000 >    1.1498   -0.1256    0.1858  737.5530 9820.0110   -1.3980    2.1415  29.06  29.1 117.2 10     0.0000    0.0230
M11          ?    BHZ  e P      c 20230606 0155   13.0645 GAU  4.92e-03 -1.00e+00 -1.00e+00 -1.00e+00    1.0000 >    0.8734   -0.0616    0.2632  738.4670 9820.4900   -1.3120    3.0571  39.74  39.7 103.5 10     0.0000    0.0175
M11          ?    BHN  i S      ? 20230606 0155   13.7717 GAU  8.32e-04 -1.00e+00 -1.00e+00 -1.00e+00    1.0000 >    1.5275   -0.0085    1.2710  738.4670 9820.4900   -1.3120    3.0571  39.74  39.7 107.6 10     0.0000    0.0306
M09          ?    BHZ  i P      c 20230606 0155   13.1433 GAU  1.12e-03 -1.00e+00  3.04e+01 -1.00e+00    1.0000 >    0.8944   -0.0039    1.5665  737.8820 9820.9850   -1.2700    3.1582  25.70  25.7 102.2 10     0.0000    0.0179
M09          ?    BHE  e S      ? 20230606 0155   13.8072 GAU  1.20e-03 -1.00e+00  3.70e+02 -1.00e+00    1.0000 >    1.5657   -0.0112    1.2314  737.8820 9820.9850   -1.2700    3.1582  25.70  25.7 106.3 10     0.0000    0.0313
M05          ?    BHZ  e P      c 20230606 0155   13.3553 GAU  5.41e-03 -1.00e+00  1.61e+02 -1.00e+00    1.0000 >    1.0852    0.0174    1.4071  736.2660 9822.0830   -1.1500    3.9516 356.42 356.4  97.3 10     0.0000    0.0217
M05          ?    BHE  e S      ? 20230606 0155   14.1799 GAU  1.04e-04 -1.00e+00 -1.00e+00 -1.00e+00    1.0000 >    1.9081    0.0191    1.1529  736.2660 9822.0830   -1.1500    3.9516 356.42 356.4 100.7 10     0.0000    0.0382
M12          ?    BHZ  e P      c 20230606 0155   13.7277 GAU  1.61e-03 -1.00e+00 -1.00e+00 -1.00e+00    1.0000 >    1.4056    0.0693    0.4059  736.8520 9823.3800   -0.9890    5.2518   3.70   3.7  94.2 10     0.0000    0.0281
M12          ?    BHE  e S      ? 20230606 0155   14.8879 GAU  3.99e-04 -1.00e+00  5.60e+01 -1.00e+00    1.0000 >    2.4896    0.1457    0.0931  736.8520 9823.3800   -0.9890    5.2518   3.70   3.7  95.7 10     0.0000    0.0498
END_PHASE
END_NLLOC

