NLLOC "./loc/SEML.20230606.020018.grid0" "LOCATED" "Location completed."
PUBLIC_ID None
SIGNATURE "Arham Zakki Edelo - edelo.17034@mhs.its.ac.id   obs:./obs/2023_06.obs   NLLoc:v7.00.10(30Aug2020)   run:28Dec2023 20h03m51"
COMMENT "SEML"
GRID  2001 2001 1001  727 9811 -2  0.01 0.01 0.01 PROB_DENSITY
SEARCH OCTREE nInitial 4851 nEvaluated 20011 smallestNodeSide 0.029762/0.029762/0.028409 oct_tree_integral 1.343881e-01 scatter_volume 1.333081e-01
HYPOCENTER  x 740.08 y 9818.19 z 1.05398  OT 18.2959  ix -1 iy -1 iz -1 MAXIMUM_LIKELIHOOD
GEOGRAPHIC  OT 2023 06 06  02 00 18.295900  Lat 9818.187500 Long 740.080357 Depth 1.053977
QUALITY  Pmax 6.60879e+20 MFmin 27.2671 MFmax 38.9899 RMS 0.0042451 Nphs 8 Gap 332.72 Dist 1.99953 Mamp -9.90 0 Mdur -9.90 0
VPVSRATIO  VpVsRatio 1.66639  Npair 4  Diff 0.32218
STATISTICS  ExpectX 739.414880 Y 9818.316574 Z 0.668474  CovXX 2.7353 XY -0.526177 XZ 1.20465 YY 0.159769 YZ -0.329441 ZZ 0.870728 EllAz1  183.212 Dip1  -17.2328 Len1  0.313801 Az2  243.223 Dip2  58.1774 Len2  1.02119 Len3  3.485968e+00
STAT_GEOG  ExpectLat 9818.316574 Long 739.414880 Depth 0.668474
TRANSFORM  NONE
QML_OriginQuality  assocPhCt 8  usedPhCt 8  assocStaCt -1  usedStaCt 4  depthPhCt -1  stdErr 0.0042451  azGap 332.72  secAzGap 332.72  gtLevel -  minDist 1.99953 maxDist 3.55792 medDist 2.964
QML_OriginUncertainty  horUnc -1  minHorUnc 0.360229  maxHorUnc 2.55517  azMaxHorUnc 101.112
QML_ConfidenceEllipsoid  semiMajorAxisLength 3.48597  semiMinorAxisLength 0.313801  semiIntermediateAxisLength 1.02119  majorAxisPlunge 25.8615  majorAxisAzimuth 101.86  majorAxisRotation 330.627
FOCALMECH  Hyp  9818.187500 740.080357 1.053977 Mech  0 0 0 mf  0 nObs -1
PHASE ID Ins Cmp On Pha  FM Date     HrMn   Sec     Err  ErrMag    Coda      Amp       Per       PriorWt  >   TTpred    Res       Weight    StaLoc(X  Y         Z)        SDist    SAzim  RAz  RDip RQual    Tcorr       TTerr
M06          ?    BHZ  i P      c 20230606 0200   19.1240 GAU  7.55e-04 -1.00e+00 -1.00e+00 -1.00e+00    1.0000 >    0.8316   -0.0035    1.5187  738.3100 9819.1170   -1.3960    1.9995 297.70 297.7 135.3 10     0.0000    0.0166
M06          ?    BHE  e S      ? 20230606 0200   19.7270 GAU  5.66e-04 -1.00e+00 -1.00e+00 -1.00e+00    1.0000 >    1.4238    0.0073    1.2762  738.3100 9819.1170   -1.3960    1.9995 297.70 297.7 133.1 10     0.0000    0.0285
M11          ?    BHZ  e P      c 20230606 0200   19.2605 GAU  1.31e-03 -1.00e+00 -1.00e+00 -1.00e+00    1.0000 >    0.9643    0.0003    1.4946  738.4670 9820.4900   -1.3120    2.8115 324.98 325.0 121.6 10     0.0000    0.0193
M11          ?    BHE  e S      ? 20230606 0200   19.9500 GAU  2.51e-04 -1.00e+00 -1.00e+00 -1.00e+00    1.0000 >    1.6487    0.0054    1.1933  738.4670 9820.4900   -1.3120    2.8115 324.98 325.0 118.2 10     0.0000    0.0330
M14          ?    BHZ  e P      c 20230606 0200   18.9491 GAU  3.41e-03 -1.00e+00 -1.00e+00 -1.00e+00    1.0000 >    1.0422   -0.3891    0.0000  737.5530 9820.0110   -1.3980    3.1165 305.81 305.8 118.8 10     0.0000    0.0208
M14          ?    BHE  e S      ? 20230606 0200   19.4062 GAU  6.61e-04 -1.00e+00  3.93e+02 -1.00e+00    1.0000 >    1.7820   -0.6717    0.0000  737.5530 9820.0110   -1.3980    3.1165 305.81 305.8 115.1 10     0.0000    0.0356
M09          ?    BHZ  e P      c 20230606 0200   19.4141 GAU  1.12e-03 -1.00e+00  7.54e+01 -1.00e+00    1.0000 >    1.1140    0.0043    1.4250  737.8820 9820.9850   -1.2700    3.5579 321.84 321.8 111.6 10     0.0000    0.0223
M09          ?    BHN  e S      ? 20230606 0200   20.1935 GAU  7.19e-04 -1.00e+00  4.82e+02 -1.00e+00    1.0000 >    1.9016   -0.0040    1.0923  737.8820 9820.9850   -1.2700    3.5579 321.84 321.8 107.1 10     0.0000    0.0380
END_PHASE
END_NLLOC

