NLLOC "./loc/SEML.20230606.015629.grid0" "LOCATED" "Location completed."
PUBLIC_ID None
SIGNATURE "Arham Zakki Edelo - edelo.17034@mhs.its.ac.id   obs:./obs/2023_06.obs   NLLoc:v7.00.10(30Aug2020)   run:28Dec2023 20h03m46"
COMMENT "SEML"
GRID  2001 2001 1001  727 9811 -2  0.01 0.01 0.01 PROB_DENSITY
SEARCH OCTREE nInitial 4851 nEvaluated 20003 smallestNodeSide 0.014881/0.014881/0.014205 oct_tree_integral 3.252859e-02 scatter_volume 3.252859e-02
HYPOCENTER  x 737.766 y 9818.12 z 0.947443  OT 29.0518  ix -1 iy -1 iz -1 MAXIMUM_LIKELIHOOD
GEOGRAPHIC  OT 2023 06 06  01 56 29.051755  Lat 9818.120536 Long 737.766369 Depth 0.947443
QUALITY  Pmax 1.01383e+50 MFmin 55.6435 MFmax 61.9639 RMS 0.0277323 Nphs 16 Gap 310.646 Dist 1.13511 Mamp -9.90 0 Mdur -9.90 0
VPVSRATIO  VpVsRatio 1.69322  Npair 8  Diff 0.660925
STATISTICS  ExpectX 737.784237 Y 9818.134754 Z 0.923788  CovXX 0.0350562 XY 0.0113061 XZ 0.00790579 YY 0.0261565 YZ -0.000669727 ZZ 0.0149256 EllAz1  308.967 Dip1  56.4606 Len1  0.19318 Az2  335.608 Dip2  -30.6469 Len2  0.275269 Len3  3.945588e-01
STAT_GEOG  ExpectLat 9818.134754 Long 737.784237 Depth 0.923788
TRANSFORM  NONE
QML_OriginQuality  assocPhCt 16  usedPhCt 16  assocStaCt -1  usedStaCt 8  depthPhCt -1  stdErr 0.0277323  azGap 310.646  secAzGap 310.646  gtLevel -  minDist 1.13511 maxDist 5.33836 medDist 3.16607
QML_OriginUncertainty  horUnc -1  minHorUnc 0.206031  maxHorUnc 0.313592  azMaxHorUnc 55.7417
QML_ConfidenceEllipsoid  semiMajorAxisLength 0.394559  semiMinorAxisLength 0.19318  semiIntermediateAxisLength 0.275269  majorAxisPlunge 12.3062  majorAxisAzimuth 58.1813  majorAxisRotation 119.074
FOCALMECH  Hyp  9818.120536 737.766369 0.947443 Mech  0 0 0 mf  0 nObs -1
PHASE ID Ins Cmp On Pha  FM Date     HrMn   Sec     Err  ErrMag    Coda      Amp       Per       PriorWt  >   TTpred    Res       Weight    StaLoc(X  Y         Z)        SDist    SAzim  RAz  RDip RQual    Tcorr       TTerr
M06          ?    BHZ  i P      c 20230606 0156   29.7484 GAU  1.34e-03 -1.00e+00 -1.00e+00 -1.00e+00    1.0000 >    0.6873    0.0093    1.5051  738.3100 9819.1170   -1.3960    1.1351  28.62  28.6 153.4 10     0.0000    0.0137
M06          ?    BHN  i S      ? 20230606 0156   30.2239 GAU  1.61e-03 -1.00e+00 -1.00e+00 -1.00e+00    1.0000 >    1.1801   -0.0079    1.5126  738.3100 9819.1170   -1.3960    1.1351  28.62  28.6 151.4 10     0.0000    0.0236
M14          ?    BHZ  e P      c 20230606 0156   29.8527 GAU  2.68e-03 -1.00e+00 -1.00e+00 -1.00e+00    1.0000 >    0.7967    0.0043    1.5793  737.5530 9820.0110   -1.3980    1.9025 353.56 353.6 139.7 10     0.0000    0.0159
M14          ?    BHE  e S      ? 20230606 0156   30.4157 GAU  8.63e-04 -1.00e+00  4.34e+02 -1.00e+00    1.0000 >    1.3673   -0.0034    1.4525  737.5530 9820.0110   -1.3980    1.9025 353.56 353.6 136.3 10     0.0000    0.0273
M11          ?    BHZ  i P      c 20230606 0156   29.9129 GAU  2.02e-03 -1.00e+00 -1.00e+00 -1.00e+00    1.0000 >    0.8816   -0.0204    1.4356  738.4670 9820.4900   -1.3120    2.4709  16.47  16.5 130.6 10     0.0000    0.0176
M11          ?    BHE  i S      ? 20230606 0156   30.5985 GAU  8.09e-04 -1.00e+00 -1.00e+00 -1.00e+00    1.0000 >    1.5117    0.0351    0.9437  738.4670 9820.4900   -1.3120    2.4709  16.47  16.5 126.1 10     0.0000    0.0302
M09          ?    BHZ  i P      c 20230606 0156   29.9737 GAU  1.93e-03 -1.00e+00  6.04e+01 -1.00e+00    1.0000 >    0.9535   -0.0316    1.1716  737.8820 9820.9850   -1.2700    2.8668   2.31   2.3 125.6 10     0.0000    0.0191
M09          ?    BHE  e S      ? 20230606 0156   30.6071 GAU  1.56e-03 -1.00e+00  3.65e+02 -1.00e+00    1.0000 >    1.6338   -0.0785    0.3423  737.8820 9820.9850   -1.2700    2.8668   2.31   2.3 120.3 10     0.0000    0.0327
M10          ?    BHZ  i P      c 20230606 0156   30.3046 GAU  2.58e-03 -1.00e+00 -1.00e+00 -1.00e+00    1.0000 >    1.0741    0.1787    0.0985  736.5490 9821.3650   -1.2200    3.4653 339.43 339.4 119.6 10     0.0000    0.0215
M10          ?    BHN  e S      ? 20230606 0156   31.2063 GAU  7.80e-04 -1.00e+00 -1.00e+00 -1.00e+00    1.0000 >    1.8380    0.3165    0.0043  736.5490 9821.3650   -1.2200    3.4653 339.43 339.4 113.2 10     0.0000    0.0368
M08          ?    BHZ  e P      d 20230606 0156   30.2470 GAU  5.48e-04 -1.00e+00  5.18e+02 -1.00e+00    1.0000 >    1.2009   -0.0057    1.5120  738.2480 9822.1600   -1.1510    4.0681   6.80   6.8 114.6 10     0.0000    0.0240
M08          ?    BHN  e S      ? 20230606 0156   31.1035 GAU  5.14e-04 -1.00e+00  3.28e+02 -1.00e+00    1.0000 >    2.0508    0.0009    1.2124  738.2480 9822.1600   -1.1510    4.0681   6.80   6.8 107.5 10     0.0000    0.0410
M05          ?    BHZ  i P      c 20230606 0156   30.2668 GAU  3.90e-03 -1.00e+00  2.22e+02 -1.00e+00    1.0000 >    1.2402   -0.0252    1.2932  736.2660 9822.0830   -1.1500    4.2370 339.26 339.3 113.6 10     0.0000    0.0248
M05          ?    BHN  e S      ? 20230606 0156   31.1873 GAU  5.08e-04 -1.00e+00  2.69e+02 -1.00e+00    1.0000 >    2.1169    0.0187    1.1003  736.2660 9822.0830   -1.1500    4.2370 339.26 339.3 106.3 10     0.0000    0.0423
M12          ?    BHZ  i P      c 20230606 0156   30.5844 GAU  4.51e-03 -1.00e+00 -1.00e+00 -1.00e+00    1.0000 >    1.4836    0.0490    0.6859  736.8520 9823.3800   -0.9890    5.3384 350.14 350.1 107.0 10     0.0000    0.0297
M12          ?    BHE  e S      ? 20230606 0156   31.7209 GAU  1.40e-03 -1.00e+00  6.20e+01 -1.00e+00    1.0000 >    2.5109    0.1582    0.1507  736.8520 9823.3800   -0.9890    5.3384 350.14 350.1  70.4 10     0.0000    0.0502
END_PHASE
END_NLLOC

