NLLOC "./loc/SEML.20230606.015726.grid0" "LOCATED" "Location completed."
PUBLIC_ID None
SIGNATURE "Arham Zakki Edelo - edelo.17034@mhs.its.ac.id   obs:./obs/2023_06.obs   NLLoc:v7.00.10(30Aug2020)   run:28Dec2023 20h03m48"
COMMENT "SEML"
GRID  2001 2001 1001  727 9811 -2  0.01 0.01 0.01 PROB_DENSITY
SEARCH OCTREE nInitial 4851 nEvaluated 20011 smallestNodeSide 0.014881/0.014881/0.014205 oct_tree_integral 1.206477e-02 scatter_volume 1.197900e-02
HYPOCENTER  x 737.528 y 9818.51 z 0.862216  OT 25.5641  ix -1 iy -1 iz -1 MAXIMUM_LIKELIHOOD
GEOGRAPHIC  OT 2023 06 06  01 57 25.564051  Lat 9818.507440 Long 737.528274 Depth 0.862216
QUALITY  Pmax 2.51883e+85 MFmin 88.218 MFmax 103.89 RMS 0.0250566 Nphs 24 Gap 261.921 Dist 0.991291 Mamp -9.90 0 Mdur -9.90 0
VPVSRATIO  VpVsRatio 1.77167  Npair 12  Diff 0.574404
STATISTICS  ExpectX 737.535452 Y 9818.487992 Z 0.841300  CovXX 0.0079483 XY -0.000843574 XZ -0.000207714 YY 0.00954217 YZ -0.000220205 ZZ 0.0106461 EllAz1  66.4213 Dip1  5.1553 Len1  0.163357 Az2  155.638 Dip2  -8.61469 Len2  0.186823 Len3  1.942507e-01
STAT_GEOG  ExpectLat 9818.487992 Long 737.535452 Depth 0.841300
TRANSFORM  NONE
QML_OriginQuality  assocPhCt 24  usedPhCt 24  assocStaCt -1  usedStaCt 12  depthPhCt -1  stdErr 0.0250566  azGap 261.921  secAzGap 261.921  gtLevel -  minDist 0.991291 maxDist 4.91927 medDist 2.76169
QML_OriginUncertainty  horUnc -1  minHorUnc 0.132079  maxHorUnc 0.150941  azMaxHorUnc 156.686
QML_ConfidenceEllipsoid  semiMajorAxisLength 0.194251  semiMinorAxisLength 0.163357  semiIntermediateAxisLength 0.186823  majorAxisPlunge -79.9404  majorAxisAzimuth 6.98995  majorAxisRotation 327.427
FOCALMECH  Hyp  9818.507440 737.528274 0.862216 Mech  0 0 0 mf  0 nObs -1
PHASE ID Ins Cmp On Pha  FM Date     HrMn   Sec     Err  ErrMag    Coda      Amp       Per       PriorWt  >   TTpred    Res       Weight    StaLoc(X  Y         Z)        SDist    SAzim  RAz  RDip RQual    Tcorr       TTerr
M06          ?    BHZ  i P      c 20230606 0157   26.2090 GAU  6.74e-04 -1.00e+00  3.06e+01 -1.00e+00    1.0000 >    0.6517   -0.0068    1.5812  738.3100 9819.1170   -1.3960    0.9913  52.05  52.1 155.5 10     0.0000    0.0130
M06          ?    BHN  i S      ? 20230606 0157   26.7056 GAU  1.12e-03 -1.00e+00  1.28e+02 -1.00e+00    1.0000 >    1.1218    0.0197    1.2828  738.3100 9819.1170   -1.3960    0.9913  52.05  52.1 153.7 10     0.0000    0.0224
M02          ?    BHZ  i P      d 20230606 0157   26.2789 GAU  2.61e-03 -1.00e+00  3.88e+02 -1.00e+00    1.0000 >    0.7119    0.0030    1.6054  736.5970 9819.4060   -1.4960    1.2941 313.98 314.0 150.2 10     0.0000    0.0142
M02          ?    BHN  e S      ? 20230606 0157   26.7756 GAU  1.15e-03 -1.00e+00 -1.00e+00 -1.00e+00    1.0000 >    1.2254   -0.0138    1.3195  736.5970 9819.4060   -1.4960    1.2941 313.98 314.0 147.9 10     0.0000    0.0245
M14          ?    BHZ  i P      c 20230606 0157   26.2946 GAU  8.53e-04 -1.00e+00 -1.00e+00 -1.00e+00    1.0000 >    0.7172    0.0134    1.4754  737.5530 9820.0110   -1.3980    1.5038   0.94   0.9 145.3 10     0.0000    0.0143
M14          ?    BHE  e S      ? 20230606 0157   26.7925 GAU  9.66e-04 -1.00e+00  8.60e+02 -1.00e+00    1.0000 >    1.2342   -0.0057    1.3977  737.5530 9820.0110   -1.3980    1.5038   0.94   0.9 142.4 10     0.0000    0.0247
M11          ?    BHZ  i P      c 20230606 0157   26.3571 GAU  1.39e-03 -1.00e+00  4.27e+02 -1.00e+00    1.0000 >    0.8141   -0.0211    1.2560  738.4670 9820.4900   -1.3120    2.1936  25.34  25.3 133.1 10     0.0000    0.0163
M11          ?    BHN  e S      ? 20230606 0157   26.9533 GAU  7.79e-03 -1.00e+00 -1.00e+00 -1.00e+00    1.0000 >    1.4002   -0.0109    1.2780  738.4670 9820.4900   -1.3120    2.1936  25.34  25.3 128.7 10     0.0000    0.0280
M03          ?    BHZ  e P      d 20230606 0157   26.4502 GAU  5.62e-04 -1.00e+00  2.54e+03 -1.00e+00    1.0000 >    0.8648    0.0214    1.2818  736.8800 9820.8540   -1.3350    2.4345 344.56 344.6 130.1 10     0.0000    0.0173
M03          ?    BHN  e S      ? 20230606 0157   27.0504 GAU  2.23e-03 -1.00e+00 -1.00e+00 -1.00e+00    1.0000 >    1.4869   -0.0005    1.3164  736.8800 9820.8540   -1.3350    2.4345 344.56 344.6 125.3 10     0.0000    0.0297
M09          ?    BHZ  i P      c 20230606 0157   26.4332 GAU  1.55e-03 -1.00e+00  6.85e+02 -1.00e+00    1.0000 >    0.8659    0.0032    1.5580  737.8820 9820.9850   -1.2700    2.5027   8.13   8.1 128.4 10     0.0000    0.0173
M09          ?    BHE  e S      ? 20230606 0157   27.0825 GAU  2.68e-03 -1.00e+00  7.09e+02 -1.00e+00    1.0000 >    1.4885    0.0299    1.0589  737.8820 9820.9850   -1.2700    2.5027   8.13   8.1 123.3 10     0.0000    0.0298
M10          ?    BHZ  e P      c 20230606 0157   26.5592 GAU  3.71e-03 -1.00e+00  7.56e+02 -1.00e+00    1.0000 >    0.9653    0.0298    1.0758  736.5490 9821.3650   -1.2200    3.0207 341.08 341.1 122.2 10     0.0000    0.0193
M10          ?    BHN  e S      ? 20230606 0157   27.2841 GAU  3.87e-03 -1.00e+00 -1.00e+00 -1.00e+00    1.0000 >    1.6577    0.0624    0.5665  736.5490 9821.3650   -1.2200    3.0207 341.08 341.1 115.9 10     0.0000    0.0332
M13          ?    BHZ  i P      c 20230606 0157   26.5168 GAU  2.00e-03 -1.00e+00 -1.00e+00 -1.00e+00    1.0000 >    0.9728   -0.0201    1.2673  737.1780 9821.5410   -1.2220    3.0537 353.41 353.4 121.9 10     0.0000    0.0195
M13          ?    BHE  e S      ? 20230606 0157   27.1865 GAU  2.16e-03 -1.00e+00 -1.00e+00 -1.00e+00    1.0000 >    1.6705   -0.0480    0.6940  737.1780 9821.5410   -1.2220    3.0537 353.41 353.4 115.6 10     0.0000    0.0334
M08          ?    BHZ  i P      d 20230606 0157   26.6723 GAU  1.67e-03 -1.00e+00  2.55e+02 -1.00e+00    1.0000 >    1.1117   -0.0035    1.4578  738.2480 9822.1600   -1.1510    3.7228  11.15  11.1 115.7 10     0.0000    0.0222
M08          ?    BHE  e S      ? 20230606 0157   27.5289 GAU  1.56e-03 -1.00e+00 -1.00e+00 -1.00e+00    1.0000 >    1.9054    0.0594    0.6351  738.2480 9822.1600   -1.1510    3.7228  11.15  11.1 108.0 10     0.0000    0.0381
M05          ?    BHZ  e P      d 20230606 0157   26.6667 GAU  2.22e-03 -1.00e+00  1.06e+02 -1.00e+00    1.0000 >    1.1275   -0.0249    1.1401  736.2660 9822.0830   -1.1500    3.7918 340.56 340.6 115.2 10     0.0000    0.0226
M05          ?    BHE  e S      ? 20230606 0157   27.4177 GAU  1.80e-03 -1.00e+00 -1.00e+00 -1.00e+00    1.0000 >    1.9321   -0.0784    0.3244  736.2660 9822.0830   -1.1500    3.7918 340.56 340.6 107.5 10     0.0000    0.0386
M01          ?    BHZ  e P      c 20230606 0157   26.9754 GAU  1.91e-03 -1.00e+00 -1.00e+00 -1.00e+00    1.0000 >    1.2094    0.2020    0.0605  736.4090 9822.5140   -1.1200    4.1600 344.39 344.4 112.5 10     0.0000    0.0242
M01          ?    BHE  e S      ? 20230606 0157   27.9768 GAU  1.62e-03 -1.00e+00  1.38e+02 -1.00e+00    1.0000 >    2.0694    0.3434    0.0032  736.4090 9822.5140   -1.1200    4.1600 344.39 344.4 104.4 10     0.0000    0.0414
M12          ?    BHZ  e P      c 20230606 0157   27.0222 GAU  4.71e-03 -1.00e+00 -1.00e+00 -1.00e+00    1.0000 >    1.3748    0.0834    0.2800  736.8520 9823.3800   -0.9890    4.9193 352.10 352.1 107.6 10     0.0000    0.0275
M12          ?    BHN  e S      ? 20230606 0157   28.0932 GAU  4.02e-03 -1.00e+00 -1.00e+00 -1.00e+00    1.0000 >    2.3415    0.1877    0.0840  736.8520 9823.3800   -0.9890    4.9193 352.10 352.1  99.5 10     0.0000    0.0468
END_PHASE
END_NLLOC

