NLLOC "./loc/SEML.20230606.025714.grid0" "LOCATED" "Location completed."
PUBLIC_ID None
SIGNATURE "Arham Zakki Edelo - edelo.17034@mhs.its.ac.id   obs:./obs/2023_06.obs   NLLoc:v7.00.10(30Aug2020)   run:28Dec2023 20h03m56"
COMMENT "SEML"
GRID  2001 2001 1001  727 9811 -2  0.01 0.01 0.01 PROB_DENSITY
SEARCH OCTREE nInitial 4851 nEvaluated 20011 smallestNodeSide 0.014881/0.014881/0.014205 oct_tree_integral 1.716543e-02 scatter_volume 1.704313e-02
HYPOCENTER  x 737.632 y 9818.52 z 1.33097  OT 14.1581  ix -1 iy -1 iz -1 MAXIMUM_LIKELIHOOD
GEOGRAPHIC  OT 2023 06 06  02 57 14.158108  Lat 9818.522321 Long 737.632440 Depth 1.330966
QUALITY  Pmax 1.68004e+56 MFmin 64.3171 MFmax 70.6956 RMS 0.039691 Nphs 18 Gap 261.751 Dist 0.901515 Mamp -9.90 0 Mdur -9.90 0
VPVSRATIO  VpVsRatio 1.66828  Npair 9  Diff 0.589066
STATISTICS  ExpectX 737.650250 Y 9818.524292 Z 1.327095  CovXX 0.0143192 XY 0.00467688 XZ 0.000230435 YY 0.0127723 YZ -0.00463326 ZZ 0.0128922 EllAz1  328.354 Dip1  32.2673 Len1  0.150933 Az2  279.028 Dip2  -45.9103 Len2  0.220848 Len3  2.637945e-01
STAT_GEOG  ExpectLat 9818.524292 Long 737.650250 Depth 1.327095
TRANSFORM  NONE
QML_OriginQuality  assocPhCt 18  usedPhCt 18  assocStaCt -1  usedStaCt 9  depthPhCt -1  stdErr 0.039691  azGap 261.751  secAzGap 261.751  gtLevel -  minDist 0.901515 maxDist 4.91997 medDist 2.47529
QML_OriginUncertainty  horUnc -1  minHorUnc 0.14231  maxHorUnc 0.205081  azMaxHorUnc 49.6953
QML_ConfidenceEllipsoid  semiMajorAxisLength 0.263794  semiMinorAxisLength 0.150933  semiIntermediateAxisLength 0.220848  majorAxisPlunge -26.5004  majorAxisAzimuth 40.005  majorAxisRotation 128.995
FOCALMECH  Hyp  9818.522321 737.632440 1.330966 Mech  0 0 0 mf  0 nObs -1
PHASE ID Ins Cmp On Pha  FM Date     HrMn   Sec     Err  ErrMag    Coda      Amp       Per       PriorWt  >   TTpred    Res       Weight    StaLoc(X  Y         Z)        SDist    SAzim  RAz  RDip RQual    Tcorr       TTerr
M06          ?    BHZ  e P      c 20230606 0257   14.9098 GAU  1.24e-03 -1.00e+00  2.70e+02 -1.00e+00    1.0000 >    0.7477    0.0040    1.7537  738.3100 9819.1170   -1.3960    0.9015  48.73  48.7 159.7 10     0.0000    0.0150
M06          ?    BHN  e S      ? 20230606 0257   15.4394 GAU  1.16e-03 -1.00e+00 -1.00e+00 -1.00e+00    1.0000 >    1.2760    0.0053    1.5996  738.3100 9819.1170   -1.3960    0.9015  48.73  48.7 159.0 10     0.0000    0.0255
M02          ?    BHZ  e P      c 20230606 0257   14.9577 GAU  4.99e-04 -1.00e+00 -1.00e+00 -1.00e+00    1.0000 >    0.8182   -0.0186    1.4878  736.5970 9819.4060   -1.4960    1.3613 310.48 310.5 151.4 10     0.0000    0.0164
M02          ?    BHE  e S      ? 20230606 0257   15.5617 GAU  9.70e-04 -1.00e+00 -1.00e+00 -1.00e+00    1.0000 >    1.3966    0.0070    1.5511  736.5970 9819.4060   -1.4960    1.3613 310.48 310.5 150.3 10     0.0000    0.0279
M14          ?    BHZ  e P      d 20230606 0257   15.0607 GAU  2.46e-03 -1.00e+00  3.45e+02 -1.00e+00    1.0000 >    0.8093    0.0933    0.1777  737.5530 9820.0110   -1.3980    1.4908 356.95 356.9 148.2 10     0.0000    0.0162
M14          ?    BHN  e S      ? 20230606 0257   15.5806 GAU  4.49e-04 -1.00e+00  3.63e+02 -1.00e+00    1.0000 >    1.3807    0.0418    1.0532  737.5530 9820.0110   -1.3980    1.4908 356.95 356.9 146.9 10     0.0000    0.0276
M11          ?    BHZ  e P      c 20230606 0257   15.0360 GAU  3.58e-03 -1.00e+00  5.13e+01 -1.00e+00    1.0000 >    0.8824   -0.0045    1.7193  738.4670 9820.4900   -1.3120    2.1373  22.98  23.0 136.4 10     0.0000    0.0176
M11          ?    BHN  e S      ? 20230606 0257   15.6168 GAU  8.94e-04 -1.00e+00 -1.00e+00 -1.00e+00    1.0000 >    1.5040   -0.0454    0.8472  738.4670 9820.4900   -1.3120    2.1373  22.98  23.0 134.6 10     0.0000    0.0301
M09          ?    BHZ  e P      c 20230606 0257   15.1038 GAU  1.29e-03 -1.00e+00  4.67e+01 -1.00e+00    1.0000 >    0.9309    0.0148    1.5841  737.8820 9820.9850   -1.2700    2.4753   5.79   5.8 131.0 10     0.0000    0.0186
M09          ?    BHE  e S      ? 20230606 0257   15.7028 GAU  5.39e-04 -1.00e+00  3.97e+02 -1.00e+00    1.0000 >    1.5857   -0.0410    0.9464  737.8820 9820.9850   -1.2700    2.4753   5.79   5.8 128.9 10     0.0000    0.0317
M13          ?    BHZ  e P      d 20230606 0257   15.2392 GAU  1.89e-03 -1.00e+00 -1.00e+00 -1.00e+00    1.0000 >    1.0301    0.0511    0.7832  737.1780 9821.5410   -1.2220    3.0527 351.44 351.4 122.8 10     0.0000    0.0206
M13          ?    BHN  e S      ? 20230606 0257   15.9205 GAU  2.01e-03 -1.00e+00  5.67e+00 -1.00e+00    1.0000 >    1.7524    0.0100    1.4196  737.1780 9821.5410   -1.2220    3.0527 351.44 351.4 120.4 10     0.0000    0.0350
M08          ?    BHZ  e P      d 20230606 0257   15.5021 GAU  2.11e-04 -1.00e+00  7.50e+02 -1.00e+00    1.0000 >    1.1482    0.1957    0.0753  738.2480 9822.1600   -1.1510    3.6894   9.60   9.6 115.2 10     0.0000    0.0230
M08          ?    BHN  e S      ? 20230606 0257   16.4389 GAU  1.04e-04 -1.00e+00  3.28e+02 -1.00e+00    1.0000 >    1.9498    0.3309    0.0872  738.2480 9822.1600   -1.1510    3.6894   9.60   9.6 112.4 10     0.0000    0.0390
M05          ?    BHZ  e P      c 20230606 0257   15.3153 GAU  9.74e-04 -1.00e+00  7.80e+01 -1.00e+00    1.0000 >    1.1747   -0.0175    1.4673  736.2660 9822.0830   -1.1500    3.8139 339.01 339.0 114.1 10     0.0000    0.0235
M05          ?    BHE  e S      ? 20230606 0257   16.1738 GAU  7.89e-04 -1.00e+00 -1.00e+00 -1.00e+00    1.0000 >    1.9941    0.0215    1.2823  736.2660 9822.0830   -1.1500    3.8139 339.01 339.0 111.3 10     0.0000    0.0399
M12          ?    BHZ  e P      d 20230606 0257   15.7958 GAU  1.12e-03 -1.00e+00  3.20e+02 -1.00e+00    1.0000 >    1.3953    0.2423    0.0991  736.8520 9823.3800   -0.9890    4.9200 350.87 350.9 104.0 10     0.0000    0.0279
M12          ?    BHE  e S      ? 20230606 0257   16.9047 GAU  1.15e-03 -1.00e+00  1.26e+02 -1.00e+00    1.0000 >    2.3571    0.3895    0.0658  736.8520 9823.3800   -0.9890    4.9200 350.87 350.9 101.7 10     0.0000    0.0471
END_PHASE
END_NLLOC

