NLLOC "./loc/SEML.20230606.020050.grid0" "LOCATED" "Location completed."
PUBLIC_ID None
SIGNATURE "Arham Zakki Edelo - edelo.17034@mhs.its.ac.id   obs:./obs/2023_06.obs   NLLoc:v7.00.10(30Aug2020)   run:28Dec2023 20h03m51"
COMMENT "SEML"
GRID  2001 2001 1001  727 9811 -2  0.01 0.01 0.01 PROB_DENSITY
SEARCH OCTREE nInitial 4851 nEvaluated 20003 smallestNodeSide 0.014881/0.014881/0.014205 oct_tree_integral 3.583109e-02 scatter_volume 3.552296e-02
HYPOCENTER  x 738.109 y 9818.61 z 0.890625  OT 50.3378  ix -1 iy -1 iz -1 MAXIMUM_LIKELIHOOD
GEOGRAPHIC  OT 2023 06 06  02 00 50.337809  Lat 9818.611607 Long 738.108631 Depth 0.890625
QUALITY  Pmax 2.96301e+45 MFmin 51.444 MFmax 61.0081 RMS 0.0157535 Nphs 14 Gap 310.316 Dist 0.544033 Mamp -9.90 0 Mdur -9.90 0
VPVSRATIO  VpVsRatio 1.666  Npair 7  Diff 0.532562
STATISTICS  ExpectX 738.248490 Y 9818.612317 Z 1.001051  CovXX 0.0591088 XY 0.00896954 XZ 0.0291006 YY 0.0135853 YZ -0.000965781 ZZ 0.0318047 EllAz1  149.004 Dip1  -33.0124 Len1  0.162327 Az2  204.857 Dip2  40.8252 Len2  0.256652 Len3  5.259851e-01
STAT_GEOG  ExpectLat 9818.612317 Long 738.248490 Depth 1.001051
TRANSFORM  NONE
QML_OriginQuality  assocPhCt 14  usedPhCt 14  assocStaCt -1  usedStaCt 7  depthPhCt -1  stdErr 0.0157535  azGap 310.316  secAzGap 310.316  gtLevel -  minDist 0.544033 maxDist 4.9312 medDist 2.38419
QML_OriginUncertainty  horUnc -1  minHorUnc 0.165312  maxHorUnc 0.37399  azMaxHorUnc 79.2463
QML_ConfidenceEllipsoid  semiMajorAxisLength 0.525985  semiMinorAxisLength 0.162327  semiIntermediateAxisLength 0.256652  majorAxisPlunge 31.678  majorAxisAzimuth 82.64  majorAxisRotation 298.285
FOCALMECH  Hyp  9818.611607 738.108631 0.890625 Mech  0 0 0 mf  0 nObs -1
PHASE ID Ins Cmp On Pha  FM Date     HrMn   Sec     Err  ErrMag    Coda      Amp       Per       PriorWt  >   TTpred    Res       Weight    StaLoc(X  Y         Z)        SDist    SAzim  RAz  RDip RQual    Tcorr       TTerr
M06          ?    BHZ  i P      c 20230606 0200   50.9582 GAU  2.99e-04 -1.00e+00 -1.00e+00 -1.00e+00    1.0000 >    0.6209   -0.0005    1.3843  738.3100 9819.1170   -1.3960    0.5440  21.72  21.7 166.1 10     0.0000    0.0124
M06          ?    BHN  e S      ? 20230606 0200   51.3957 GAU  1.77e-03 -1.00e+00 -1.00e+00 -1.00e+00    1.0000 >    1.0680   -0.0101    1.1651  738.3100 9819.1170   -1.3960    0.5440  21.72  21.7 165.1 10     0.0000    0.0214
M14          ?    BHZ  e P      d 20230606 0200   51.0955 GAU  1.35e-03 -1.00e+00  1.26e+03 -1.00e+00    1.0000 >    0.7234    0.0342    0.7522  737.5530 9820.0110   -1.3980    1.5057 338.34 338.3 145.6 10     0.0000    0.0145
M14          ?    BHE  e S      ? 20230606 0200   51.6884 GAU  1.42e-03 -1.00e+00  4.27e+02 -1.00e+00    1.0000 >    1.2440    0.1067    0.0483  737.5530 9820.0110   -1.3980    1.5057 338.34 338.3 142.8 10     0.0000    0.0249
M11          ?    BHZ  i P      c 20230606 0200   51.1083 GAU  2.01e-03 -1.00e+00 -1.00e+00 -1.00e+00    1.0000 >    0.7688    0.0018    1.3536  738.4670 9820.4900   -1.3120    1.9123  10.80  10.8 137.8 10     0.0000    0.0154
M11          ?    BHE  e S      ? 20230606 0200   51.6560 GAU  1.80e-03 -1.00e+00 -1.00e+00 -1.00e+00    1.0000 >    1.3213   -0.0031    1.1453  738.4670 9820.4900   -1.3120    1.9123  10.80  10.8 134.0 10     0.0000    0.0264
M09          ?    BHZ  i P      c 20230606 0200   51.2027 GAU  1.16e-03 -1.00e+00  8.09e+00 -1.00e+00    1.0000 >    0.8471    0.0178    1.1657  737.8820 9820.9850   -1.2700    2.3842 354.55 354.5 130.3 10     0.0000    0.0169
M09          ?    BHE  e S      ? 20230606 0200   51.8281 GAU  5.72e-04 -1.00e+00  3.76e+02 -1.00e+00    1.0000 >    1.4550    0.0353    0.8071  737.8820 9820.9850   -1.2700    2.3842 354.55 354.5 125.6 10     0.0000    0.0291
M13          ?    BHZ  e P      c 20230606 0200   51.3111 GAU  1.12e-03 -1.00e+00 -1.00e+00 -1.00e+00    1.0000 >    0.9810   -0.0076    1.2230  737.1780 9821.5410   -1.2220    3.0737 342.38 342.4 122.2 10     0.0000    0.0196
M13          ?    BHE  e S      ? 20230606 0200   52.0103 GAU  4.66e-04 -1.00e+00 -1.00e+00 -1.00e+00    1.0000 >    1.6829   -0.0105    0.9831  737.1780 9821.5410   -1.2220    3.0737 342.38 342.4 116.0 10     0.0000    0.0337
M05          ?    BHZ  e P      d 20230606 0200   51.4903 GAU  2.41e-03 -1.00e+00  2.36e+02 -1.00e+00    1.0000 >    1.1627   -0.0101    1.1366  736.2660 9822.0830   -1.1500    3.9301 332.04 332.0 114.7 10     0.0000    0.0233
M05          ?    BHN  e S      ? 20230606 0200   52.3405 GAU  1.61e-04 -1.00e+00  2.90e+02 -1.00e+00    1.0000 >    1.9897    0.0130    0.9266  736.2660 9822.0830   -1.1500    3.9301 332.04 332.0 107.1 10     0.0000    0.0398
M12          ?    BHZ  e P      c 20230606 0200   51.7083 GAU  1.21e-03 -1.00e+00 -1.00e+00 -1.00e+00    1.0000 >    1.3799   -0.0094    1.0807  736.8520 9823.3800   -0.9890    4.9312 345.24 345.2 107.9 10     0.0000    0.0276
M12          ?    BHE  e S      ? 20230606 0200   52.6784 GAU  7.91e-04 -1.00e+00  6.50e+01 -1.00e+00    1.0000 >    2.3483   -0.0077    0.8284  736.8520 9823.3800   -0.9890    4.9312 345.24 345.2 100.1 10     0.0000    0.0470
END_PHASE
END_NLLOC

