NLLOC "./loc/SEML.20230606.014225.grid0" "LOCATED" "Location completed."
PUBLIC_ID None
SIGNATURE "Arham Zakki Edelo - edelo.17034@mhs.its.ac.id   obs:./obs/2023_06.obs   NLLoc:v7.00.10(30Aug2020)   run:28Dec2023 20h03m36"
COMMENT "SEML"
GRID  2001 2001 1001  727 9811 -2  0.01 0.01 0.01 PROB_DENSITY
SEARCH OCTREE nInitial 4851 nEvaluated 20011 smallestNodeSide 0.014881/0.014881/0.014205 oct_tree_integral 1.499976e-02 scatter_volume 1.493443e-02
HYPOCENTER  x 737.007 y 9818.67 z 0.194602  OT 24.7667  ix -1 iy -1 iz -1 MAXIMUM_LIKELIHOOD
GEOGRAPHIC  OT 2023 06 06  01 42 24.766723  Lat 9818.671131 Long 737.007440 Depth 0.194602
QUALITY  Pmax 3.69611e+23 MFmin 32.8992 MFmax 42.6612 RMS 0.00941382 Nphs 8 Gap 309.601 Dist 1.37676 Mamp -9.90 0 Mdur -9.90 0
VPVSRATIO  VpVsRatio 1.77732  Npair 4  Diff 0.161657
STATISTICS  ExpectX 737.009360 Y 9818.661248 Z 0.190062  CovXX 0.0250977 XY 0.00530806 XZ 0.0127368 YY 0.00897643 YZ 0.00394349 ZZ 0.0189364 EllAz1  165.355 Dip1  2.94758 Len1  0.161398 Az2  259.265 Dip2  52.947 Len2  0.177584 Len3  3.599191e-01
STAT_GEOG  ExpectLat 9818.661248 Long 737.009360 Depth 0.190062
TRANSFORM  NONE
QML_OriginQuality  assocPhCt 8  usedPhCt 8  assocStaCt -1  usedStaCt 4  depthPhCt -1  stdErr 0.00941382  azGap 309.601  secAzGap 309.601  gtLevel -  minDist 1.37676 maxDist 2.47363 medDist 1.88938
QML_OriginUncertainty  horUnc -1  minHorUnc 0.130334  maxHorUnc 0.247757  azMaxHorUnc 73.3172
QML_ConfidenceEllipsoid  semiMajorAxisLength 0.359919  semiMinorAxisLength 0.161398  semiIntermediateAxisLength 0.177584  majorAxisPlunge 36.8954  majorAxisAzimuth 73.1395  majorAxisRotation 12.9974
FOCALMECH  Hyp  9818.671131 737.007440 0.194602 Mech  0 0 0 mf  0 nObs -1
PHASE ID Ins Cmp On Pha  FM Date     HrMn   Sec     Err  ErrMag    Coda      Amp       Per       PriorWt  >   TTpred    Res       Weight    StaLoc(X  Y         Z)        SDist    SAzim  RAz  RDip RQual    Tcorr       TTerr
M06          ?    BHZ  i P      d 20230606 0142   25.3289 GAU  1.21e-03 -1.00e+00 -1.00e+00 -1.00e+00    1.0000 >    0.5618    0.0004    1.2576  738.3100 9819.1170   -1.3960    1.3768  71.10  71.1 137.7 10     0.0000    0.0112
M06          ?    BHN  e S      ? 20230606 0142   25.7594 GAU  1.49e-03 -1.00e+00 -1.00e+00 -1.00e+00    1.0000 >    0.9821    0.0105    0.9883  738.3100 9819.1170   -1.3960    1.3768  71.10  71.1 136.8 10     0.0000    0.0196
M14          ?    BHZ  e P      d 20230606 0142   25.3378 GAU  1.50e-03 -1.00e+00  4.55e+02 -1.00e+00    1.0000 >    0.5746   -0.0035    1.2204  737.5530 9820.0110   -1.3980    1.4467  22.15  22.2 136.2 10     0.0000    0.0115
M14          ?    BHE  e S      ? 20230606 0142   25.7698 GAU  7.76e-04 -1.00e+00  3.86e+02 -1.00e+00    1.0000 >    1.0044   -0.0014    1.0451  737.5530 9820.0110   -1.3980    1.4467  22.15  22.2 135.3 10     0.0000    0.0201
M11          ?    BHZ  e P      d 20230606 0142   25.5041 GAU  7.79e-03 -1.00e+00  2.25e+00 -1.00e+00    1.0000 >    0.7401   -0.0028    1.1186  738.4670 9820.4900   -1.3120    2.3321  38.75  38.7 120.1 10     0.0000    0.0148
M11          ?    BHE  i S      ? 20230606 0142   26.0340 GAU  2.90e-03 -1.00e+00 -1.00e+00 -1.00e+00    1.0000 >    1.2951   -0.0278    0.5860  738.4670 9820.4900   -1.3120    2.3321  38.75  38.7 118.3 10     0.0000    0.0259
M09          ?    BHZ  e P      c 20230606 0142   25.5399 GAU  2.72e-03 -1.00e+00  3.02e+01 -1.00e+00    1.0000 >    0.7656    0.0076    1.1099  737.8820 9820.9850   -1.2700    2.4736  20.70  20.7 117.8 10     0.0000    0.0153
M09          ?    BHE  e S      ? 20230606 0142   26.1320 GAU  1.44e-03 -1.00e+00  3.54e+02 -1.00e+00    1.0000 >    1.3403    0.0250    0.6739  737.8820 9820.9850   -1.2700    2.4736  20.70  20.7 115.7 10     0.0000    0.0268
END_PHASE
END_NLLOC

