NLLOC "./loc/SEML.20230606.015852.grid0" "LOCATED" "Location completed."
PUBLIC_ID None
SIGNATURE "Arham Zakki Edelo - edelo.17034@mhs.its.ac.id   obs:./obs/2023_06.obs   NLLoc:v7.00.10(30Aug2020)   run:28Dec2023 20h03m50"
COMMENT "SEML"
GRID  2001 2001 1001  727 9811 -2  0.01 0.01 0.01 PROB_DENSITY
SEARCH OCTREE nInitial 4851 nEvaluated 20019 smallestNodeSide 0.029762/0.029762/0.028409 oct_tree_integral 1.282001e-01 scatter_volume 1.280085e-01
HYPOCENTER  x 736.688 y 9818.46 z 1.30966  OT 51.2984  ix -1 iy -1 iz -1 MAXIMUM_LIKELIHOOD
GEOGRAPHIC  OT 2023 06 06  01 58 51.298422  Lat 9818.455357 Long 736.687500 Depth 1.309659
QUALITY  Pmax 4.2791e+20 MFmin 27.8467 MFmax 35.628 RMS 0.0109689 Nphs 8 Gap 285.558 Dist 1.75222 Mamp -9.90 0 Mdur -9.90 0
VPVSRATIO  VpVsRatio 1.79436  Npair 4  Diff 0.406597
STATISTICS  ExpectX 737.219190 Y 9818.127970 Z 0.955453  CovXX 0.613686 XY -0.178397 XZ -0.0601093 YY 0.228084 YZ 0.277082 ZZ 0.507593 EllAz1  14.0084 Dip1  -28.0904 Len1  0.33163 Az2  256.262 Dip2  -41.0975 Len2  1.34974 Len3  1.682695e+00
STAT_GEOG  ExpectLat 9818.127970 Long 737.219190 Depth 0.955453
TRANSFORM  NONE
QML_OriginQuality  assocPhCt 8  usedPhCt 8  assocStaCt -1  usedStaCt 4  depthPhCt -1  stdErr 0.0109689  azGap 285.558  secAzGap 285.558  gtLevel -  minDist 1.75222 maxDist 3.65205 medDist 2.24162
QML_OriginUncertainty  horUnc -1  minHorUnc 0.603228  maxHorUnc 1.25387  azMaxHorUnc 111.389
QML_ConfidenceEllipsoid  semiMajorAxisLength 1.68269  semiMinorAxisLength 0.33163  semiIntermediateAxisLength 1.34974  majorAxisPlunge -36.0419  majorAxisAzimuth 126.862  majorAxisRotation 246.759
FOCALMECH  Hyp  9818.455357 736.687500 1.309659 Mech  0 0 0 mf  0 nObs -1
PHASE ID Ins Cmp On Pha  FM Date     HrMn   Sec     Err  ErrMag    Coda      Amp       Per       PriorWt  >   TTpred    Res       Weight    StaLoc(X  Y         Z)        SDist    SAzim  RAz  RDip RQual    Tcorr       TTerr
M06          ?    BHZ  i P      d 20230606 0158   52.1275 GAU  4.31e-04 -1.00e+00 -1.00e+00 -1.00e+00    1.0000 >    0.8393   -0.0102    1.4368  738.3100 9819.1170   -1.3960    1.7522  67.81  67.8 143.3 10     0.0000    0.0168
M06          ?    BHE  i S      ? 20230606 0158   52.7503 GAU  1.08e-03 -1.00e+00 -1.00e+00 -1.00e+00    1.0000 >    1.4321    0.0198    1.1508  738.3100 9819.1170   -1.3960    1.7522  67.81  67.8 141.8 10     0.0000    0.0286
M14          ?    BHZ  e P      c 20230606 0158   52.1439 GAU  3.22e-03 -1.00e+00  4.74e+01 -1.00e+00    1.0000 >    0.8438    0.0017    1.5658  737.5530 9820.0110   -1.3980    1.7802  29.09  29.1 142.8 10     0.0000    0.0169
M14          ?    BHE  e S      ? 20230606 0158   52.7380 GAU  8.47e-04 -1.00e+00  4.45e+02 -1.00e+00    1.0000 >    1.4396    0.0000    1.3265  737.5530 9820.0110   -1.3980    1.7802  29.09  29.1 141.3 10     0.0000    0.0288
M11          ?    BHZ  e P      d 20230606 0158   52.2874 GAU  2.25e-03 -1.00e+00 -1.00e+00 -1.00e+00    1.0000 >    0.9777    0.0112    1.4250  738.4670 9820.4900   -1.3120    2.7030  41.17  41.2 128.0 10     0.0000    0.0196
M11          ?    BHN  i S      ? 20230606 0158   52.9467 GAU  8.10e-04 -1.00e+00 -1.00e+00 -1.00e+00    1.0000 >    1.6658   -0.0176    1.0951  738.4670 9820.4900   -1.3120    2.7030  41.17  41.2 125.7 10     0.0000    0.0333
M05          ?    BHZ  e P      c 20230606 0158   52.6856 GAU  2.47e-03 -1.00e+00  2.74e+02 -1.00e+00    1.0000 >    1.1380    0.2492    0.0000  736.2660 9822.0830   -1.1500    3.6520 353.37 353.4 115.2 10     0.0000    0.0228
M05          ?    BHE  e S      ? 20230606 0158   53.6863 GAU  5.71e-04 -1.00e+00 -1.00e+00 -1.00e+00    1.0000 >    1.9330    0.4549    0.0000  736.2660 9822.0830   -1.1500    3.6520 353.37 353.4 112.3 10     0.0000    0.0387
END_PHASE
END_NLLOC

