NLLOC "./loc/SEML.20230606.015729.grid0" "LOCATED" "Location completed."
PUBLIC_ID None
SIGNATURE "Arham Zakki Edelo - edelo.17034@mhs.its.ac.id   obs:./obs/2023_06.obs   NLLoc:v7.00.10(30Aug2020)   run:28Dec2023 20h03m48"
COMMENT "SEML"
GRID  2001 2001 1001  727 9811 -2  0.01 0.01 0.01 PROB_DENSITY
SEARCH OCTREE nInitial 4851 nEvaluated 20011 smallestNodeSide 0.014881/0.014881/0.014205 oct_tree_integral 2.657035e-02 scatter_volume 2.657035e-02
HYPOCENTER  x 737.96 y 9818.63 z 0.74858  OT 28.8959  ix -1 iy -1 iz -1 MAXIMUM_LIKELIHOOD
GEOGRAPHIC  OT 2023 06 06  01 57 28.895898  Lat 9818.626488 Long 737.959821 Depth 0.748580
QUALITY  Pmax 1.36449e+36 MFmin 47.9807 MFmax 67.2875 RMS 0.0229734 Nphs 12 Gap 264.246 Dist 0.602683 Mamp -9.90 0 Mdur -9.90 0
VPVSRATIO  VpVsRatio 1.70984  Npair 6  Diff 0.194721
STATISTICS  ExpectX 738.094761 Y 9818.804988 Z 0.819440  CovXX 0.0456819 XY 0.0254594 XZ 0.00414441 YY 0.0369231 YZ 2.69582e-05 ZZ 0.0160968 EllAz1  316.777 Dip1  42.5855 Len1  0.214467 Az2  323.923 Dip2  -47.1918 Len2  0.254422 Len3  4.875357e-01
STAT_GEOG  ExpectLat 9818.804988 Long 738.094761 Depth 0.819440
TRANSFORM  NONE
QML_OriginQuality  assocPhCt 12  usedPhCt 12  assocStaCt -1  usedStaCt 6  depthPhCt -1  stdErr 0.0229734  azGap 264.246  secAzGap 264.246  gtLevel -  minDist 0.602683 maxDist 3.01755 medDist 1.75065
QML_OriginUncertainty  horUnc -1  minHorUnc 0.188624  maxHorUnc 0.392954  azMaxHorUnc 49.8801
QML_ConfidenceEllipsoid  semiMajorAxisLength 0.487536  semiMinorAxisLength 0.214467  semiIntermediateAxisLength 0.254422  majorAxisPlunge 3.56815  majorAxisAzimuth 50.0627  majorAxisRotation 137.09
FOCALMECH  Hyp  9818.626488 737.959821 0.748580 Mech  0 0 0 mf  0 nObs -1
PHASE ID Ins Cmp On Pha  FM Date     HrMn   Sec     Err  ErrMag    Coda      Amp       Per       PriorWt  >   TTpred    Res       Weight    StaLoc(X  Y         Z)        SDist    SAzim  RAz  RDip RQual    Tcorr       TTerr
M06          ?    BHZ  i P      c 20230606 0157   29.4754 GAU  2.69e-03 -1.00e+00 -1.00e+00 -1.00e+00    1.0000 >    0.5897   -0.0102    1.4066  738.3100 9819.1170   -1.3960    0.6027  35.52  35.5 163.7 10     0.0000    0.0118
M06          ?    BHE  e S      ? 20230606 0157   29.9173 GAU  1.67e-03 -1.00e+00 -1.00e+00 -1.00e+00    1.0000 >    1.0188    0.0026    1.3376  738.3100 9819.1170   -1.3960    0.6027  35.52  35.5 162.4 10     0.0000    0.0204
M14          ?    BHZ  i P      c 20230606 0157   29.5852 GAU  1.85e-03 -1.00e+00 -1.00e+00 -1.00e+00    1.0000 >    0.6845    0.0049    1.4636  737.5530 9820.0110   -1.3980    1.4430 343.63 343.6 144.9 10     0.0000    0.0137
M14          ?    BHE  e S      ? 20230606 0157   30.0749 GAU  2.95e-03 -1.00e+00  8.08e+02 -1.00e+00    1.0000 >    1.1822   -0.0032    1.2783  737.5530 9820.0110   -1.3980    1.4430 343.63 343.6 141.8 10     0.0000    0.0236
M02          ?    BHZ  e P      c 20230606 0157   29.6265 GAU  9.97e-04 -1.00e+00 -1.00e+00 -1.00e+00    1.0000 >    0.7260    0.0046    1.4536  736.5970 9819.4060   -1.4960    1.5700 299.77 299.8 143.8 10     0.0000    0.0145
M02          ?    BHE  e S      ? 20230606 0157   30.1354 GAU  2.95e-03 -1.00e+00 -1.00e+00 -1.00e+00    1.0000 >    1.2538   -0.0143    1.1908  736.5970 9819.4060   -1.4960    1.5700 299.77 299.8 140.5 10     0.0000    0.0251
M11          ?    BHZ  e P      c 20230606 0157   29.5729 GAU  2.51e-03 -1.00e+00 -1.00e+00 -1.00e+00    1.0000 >    0.7458   -0.0687    0.3245  738.4670 9820.4900   -1.3120    1.9313  15.23  15.2 135.3 10     0.0000    0.0149
M11          ?    BHN  e S      ? 20230606 0157   30.0511 GAU  1.75e-03 -1.00e+00 -1.00e+00 -1.00e+00    1.0000 >    1.2878   -0.1326    0.1081  738.4670 9820.4900   -1.3120    1.9313  15.23  15.2 130.9 10     0.0000    0.0258
M09          ?    BHZ  e P      c 20230606 0157   29.7225 GAU  2.82e-03 -1.00e+00  2.85e+03 -1.00e+00    1.0000 >    0.8193    0.0074    1.3623  737.8820 9820.9850   -1.2700    2.3598 358.11 358.1 128.4 10     0.0000    0.0164
M09          ?    BHN  e S      ? 20230606 0157   30.3167 GAU  1.90e-03 -1.00e+00  8.43e+02 -1.00e+00    1.0000 >    1.4140    0.0068    1.1261  737.8820 9820.9850   -1.2700    2.3598 358.11 358.1 122.8 10     0.0000    0.0283
M13          ?    BHZ  e P      c 20230606 0157   29.8021 GAU  2.52e-03 -1.00e+00 -1.00e+00 -1.00e+00    1.0000 >    0.9498   -0.0437    0.6347  737.1780 9821.5410   -1.2220    3.0176 344.98 345.0 120.5 10     0.0000    0.0190
M13          ?    BHE  e S      ? 20230606 0157   30.4386 GAU  1.42e-03 -1.00e+00 -1.00e+00 -1.00e+00    1.0000 >    1.6377   -0.0950    0.3139  737.1780 9821.5410   -1.2220    3.0176 344.98 345.0 113.1 10     0.0000    0.0328
END_PHASE
END_NLLOC

