NLLOC "./loc/SEML.20230606.025802.grid0" "LOCATED" "Location completed."
PUBLIC_ID None
SIGNATURE "Arham Zakki Edelo - edelo.17034@mhs.its.ac.id   obs:./obs/2023_06.obs   NLLoc:v7.00.10(30Aug2020)   run:28Dec2023 20h03m58"
COMMENT "SEML"
GRID  2001 2001 1001  727 9811 -2  0.01 0.01 0.01 PROB_DENSITY
SEARCH OCTREE nInitial 4851 nEvaluated 20003 smallestNodeSide 0.014881/0.014881/0.014205 oct_tree_integral 1.259310e-02 scatter_volume 1.259310e-02
HYPOCENTER  x 738.391 y 9819.43 z 0.137784  OT 2.0766  ix -1 iy -1 iz -1 MAXIMUM_LIKELIHOOD
GEOGRAPHIC  OT 2023 06 06  02 58 2.076602  Lat 9819.430060 Long 738.391369 Depth 0.137784
QUALITY  Pmax 1.14594e+23 MFmin 38.3982 MFmax 54.5638 RMS 0.00551681 Nphs 8 Gap 190.488 Dist 0.323461 Mamp -9.90 0 Mdur -9.90 0
VPVSRATIO  VpVsRatio 1.72942  Npair 4  Diff 0.173517
STATISTICS  ExpectX 739.009953 Y 9819.112647 Z -0.818721  CovXX 0.451761 XY 0.0922641 XZ -0.20925 YY 0.0869103 YZ 0.0796769 ZZ 0.480364 EllAz1  338.85 Dip1  -18.1443 Len1  0.286295 Az2  234.259 Dip2  -37.5512 Len2  1.06278 Len3  1.544578e+00
STAT_GEOG  ExpectLat 9819.112647 Long 739.009953 Depth -0.818721
TRANSFORM  NONE
QML_OriginQuality  assocPhCt 8  usedPhCt 8  assocStaCt -1  usedStaCt 4  depthPhCt -1  stdErr 0.00551681  azGap 190.488  secAzGap 190.488  gtLevel -  minDist 0.323461 maxDist 1.63624 medDist 1.04131
QML_OriginUncertainty  horUnc -1  minHorUnc 0.386371  maxHorUnc 1.04387  azMaxHorUnc 76.5857
QML_ConfidenceEllipsoid  semiMajorAxisLength 1.54458  semiMinorAxisLength 0.286295  semiIntermediateAxisLength 1.06278  majorAxisPlunge -46.81  majorAxisAzimuth 89.282  majorAxisRotation 97.0443
FOCALMECH  Hyp  9819.430060 738.391369 0.137784 Mech  0 0 0 mf  0 nObs -1
PHASE ID Ins Cmp On Pha  FM Date     HrMn   Sec     Err  ErrMag    Coda      Amp       Per       PriorWt  >   TTpred    Res       Weight    StaLoc(X  Y         Z)        SDist    SAzim  RAz  RDip RQual    Tcorr       TTerr
M06          ?    BHZ  e P      d 20230606 0258    2.4930 GAU  6.95e-04 -1.00e+00  1.47e+02 -1.00e+00    1.0000 >    0.4195   -0.0031    1.4940  738.3100 9819.1170   -1.3960    0.3235 194.57 194.6 167.5 10     0.0000    0.0084
M06          ?    BHN  e S      ? 20230606 0258    2.8174 GAU  2.11e-04 -1.00e+00 -1.00e+00 -1.00e+00    1.0000 >    0.7336    0.0072    1.2217  738.3100 9819.1170   -1.3960    0.3235 194.57 194.6 167.3 10     0.0000    0.0147
M14          ?    BHZ  e P      d 20230606 0258    2.5755 GAU  2.63e-03 -1.00e+00  1.94e+02 -1.00e+00    1.0000 >    0.4932    0.0056    1.4063  737.5530 9820.0110   -1.3980    1.0200 304.72 304.7 145.3 10     0.0000    0.0099
M14          ?    BHN  e S      ? 20230606 0258    2.9339 GAU  4.31e-04 -1.00e+00  3.30e+02 -1.00e+00    1.0000 >    0.8626   -0.0053    1.1426  737.5530 9820.0110   -1.3980    1.0200 304.72 304.7 144.6 10     0.0000    0.0173
M11          ?    BHZ  e P      c 20230606 0258    2.5565 GAU  8.94e-04 -1.00e+00 -1.00e+00 -1.00e+00    1.0000 >    0.4801   -0.0001    1.5137  738.4670 9820.4900   -1.3120    1.0626   4.08   4.1 142.6 10     0.0000    0.0096
M11          ?    BHE  e S      ? 20230606 0258    2.9166 GAU  1.44e-04 -1.00e+00 -1.00e+00 -1.00e+00    1.0000 >    0.8403   -0.0004    1.2130  738.4670 9820.4900   -1.3120    1.0626   4.08   4.1 141.8 10     0.0000    0.0168
M09          ?    BHZ  e P      d 20230606 0258    2.7473 GAU  7.49e-04 -1.00e+00  1.87e+02 -1.00e+00    1.0000 >    0.5757    0.0950    0.0043  737.8820 9820.9850   -1.2700    1.6362 341.86 341.9 128.5 10     0.0000    0.0115
M09          ?    BHN  e S      ? 20230606 0258    3.2452 GAU  1.21e-03 -1.00e+00  5.12e+02 -1.00e+00    1.0000 >    1.0083    0.1603    0.0043  737.8820 9820.9850   -1.2700    1.6362 341.86 341.9 127.1 10     0.0000    0.0202
END_PHASE
END_NLLOC

