NLLOC "./loc/SEML.20230606.025818.grid0" "LOCATED" "Location completed."
PUBLIC_ID None
SIGNATURE "Arham Zakki Edelo - edelo.17034@mhs.its.ac.id   obs:./obs/2023_06.obs   NLLoc:v7.00.10(30Aug2020)   run:28Dec2023 20h03m58"
COMMENT "SEML"
GRID  2001 2001 1001  727 9811 -2  0.01 0.01 0.01 PROB_DENSITY
SEARCH OCTREE nInitial 4851 nEvaluated 20027 smallestNodeSide 0.014881/0.014881/0.014205 oct_tree_integral 6.945333e-02 scatter_volume 6.945333e-02
HYPOCENTER  x 738.972 y 9818.49 z -1.55256  OT 17.9582  ix -1 iy -1 iz -1 MAXIMUM_LIKELIHOOD
GEOGRAPHIC  OT 2023 06 06  02 58 17.958219  Lat 9818.492560 Long 738.971726 Depth -1.552557
QUALITY  Pmax 2.26174e+54 MFmin 72.7676 MFmax 86.5295 RMS 0.0389855 Nphs 18 Gap 302.202 Dist 0.909839 Mamp -9.90 0 Mdur -9.90 0
VPVSRATIO  VpVsRatio 1.5429  Npair 9  Diff 0.587214
STATISTICS  ExpectX 739.148948 Y 9818.379833 Z -1.492776  CovXX 0.0436434 XY -0.0159903 XZ 0.000111224 YY 0.0192455 YZ -0.0103961 ZZ 0.113207 EllAz1  205.734 Dip1  -5.18281 Len1  0.192444 Az2  295.352 Dip2  4.1993 Len2  0.425175 Len3  6.354602e-01
STAT_GEOG  ExpectLat 9818.379833 Long 739.148948 Depth -1.492776
TRANSFORM  NONE
QML_OriginQuality  assocPhCt 18  usedPhCt 18  assocStaCt -1  usedStaCt 9  depthPhCt -1  stdErr 0.0389855  azGap 302.202  secAzGap 302.202  gtLevel -  minDist 0.909839 maxDist 4.4958 medDist 2.72025
QML_OriginUncertainty  horUnc -1  minHorUnc 0.161444  maxHorUnc 0.344355  azMaxHorUnc 116.33
QML_ConfidenceEllipsoid  semiMajorAxisLength 0.63546  semiMinorAxisLength 0.192444  semiIntermediateAxisLength 0.425175  majorAxisPlunge 83.3222  majorAxisAzimuth 166.514  majorAxisRotation 51.7374
FOCALMECH  Hyp  9818.492560 738.971726 -1.552557 Mech  0 0 0 mf  0 nObs -1
PHASE ID Ins Cmp On Pha  FM Date     HrMn   Sec     Err  ErrMag    Coda      Amp       Per       PriorWt  >   TTpred    Res       Weight    StaLoc(X  Y         Z)        SDist    SAzim  RAz  RDip RQual    Tcorr       TTerr
M06          ?    BHZ  i P      c 20230606 0258   18.5781 GAU  1.09e-03 -1.00e+00 -1.00e+00 -1.00e+00    1.0000 >    0.2538    0.3661    0.0036  738.3100 9819.1170   -1.3960    0.9098 313.34 313.3  80.1  9     0.0000    0.0051
M06          ?    BHE  e S      ? 20230606 0258   19.1037 GAU  1.04e-03 -1.00e+00 -1.00e+00 -1.00e+00    1.0000 >    0.4378    0.7077    0.0000  738.3100 9819.1170   -1.3960    0.9098 313.34 313.3  80.1  9     0.0000    0.0088
M11          ?    BHZ  e P      c 20230606 0258   18.5095 GAU  2.93e-03 -1.00e+00 -1.00e+00 -1.00e+00    1.0000 >    0.5701   -0.0188    1.2867  738.4670 9820.4900   -1.3120    2.0602 345.82 345.8  83.2 10     0.0000    0.0114
M11          ?    BHE  e S      ? 20230606 0258   19.0355 GAU  1.11e-03 -1.00e+00 -1.00e+00 -1.00e+00    1.0000 >    0.9835    0.0938    0.4398  738.4670 9820.4900   -1.3120    2.0602 345.82 345.8  83.2 10     0.0000    0.0197
M14          ?    BHZ  e P      c 20230606 0258   18.5243 GAU  1.07e-03 -1.00e+00 -1.00e+00 -1.00e+00    1.0000 >    0.5726   -0.0066    1.8019  737.5530 9820.0110   -1.3980    2.0781 316.94 316.9  85.5  9     0.0000    0.0115
M14          ?    BHE  e S      ? 20230606 0258   18.9398 GAU  1.53e-03 -1.00e+00  3.92e+02 -1.00e+00    1.0000 >    0.9879   -0.0063    1.7317  737.5530 9820.0110   -1.3980    2.0781 316.94 316.9  85.5  9     0.0000    0.0198
M02          ?    BHZ  e P      c 20230606 0258   18.6632 GAU  3.04e-04 -1.00e+00 -1.00e+00 -1.00e+00    1.0000 >    0.6992    0.0057    1.9555  736.5970 9819.4060   -1.4960    2.5443 291.04 291.0  88.5  9     0.0000    0.0140
M02          ?    BHE  e S      ? 20230606 0258   19.3162 GAU  1.94e-03 -1.00e+00 -1.00e+00 -1.00e+00    1.0000 >    1.2062    0.1517    0.3028  736.5970 9819.4060   -1.4960    2.5443 291.04 291.0  88.5  9     0.0000    0.0241
M09          ?    BHZ  i P      c 20230606 0258   18.7393 GAU  3.02e-03 -1.00e+00  2.91e+01 -1.00e+00    1.0000 >    0.7516    0.0295    1.5460  737.8820 9820.9850   -1.2700    2.7203 336.38 336.4  83.9 10     0.0000    0.0150
M09          ?    BHE  e S      ? 20230606 0258   19.2644 GAU  4.61e-04 -1.00e+00  3.93e+02 -1.00e+00    1.0000 >    1.2966    0.0095    1.7601  737.8820 9820.9850   -1.2700    2.7203 336.38 336.4  83.9 10     0.0000    0.0259
M13          ?    BHZ  i P      d 20230606 0258   18.9533 GAU  1.34e-03 -1.00e+00  3.08e+02 -1.00e+00    1.0000 >    0.9763    0.0188    1.8003  737.1780 9821.5410   -1.2220    3.5370 329.53 329.5  84.5 10     0.0000    0.0195
M13          ?    BHE  e S      ? 20230606 0258   19.7421 GAU  5.62e-04 -1.00e+00 -1.00e+00 -1.00e+00    1.0000 >    1.6842    0.0997    0.5828  737.1780 9821.5410   -1.2220    3.5370 329.53 329.5  84.5 10     0.0000    0.0337
M08          ?    BHZ  e P      d 20230606 0258   19.0218 GAU  3.74e-04 -1.00e+00  6.48e+02 -1.00e+00    1.0000 >    1.0333    0.0303    1.5517  738.2480 9822.1600   -1.1510    3.7382 348.84 348.8  83.7 10     0.0000    0.0207
M08          ?    BHE  e S      ? 20230606 0258   19.7374 GAU  4.16e-04 -1.00e+00 -1.00e+00 -1.00e+00    1.0000 >    1.7825   -0.0033    1.4583  738.2480 9822.1600   -1.1510    3.7382 348.84 348.8  83.7 10     0.0000    0.0357
M10          ?    BHZ  e P      c 20230606 0258   19.2128 GAU  2.78e-03 -1.00e+00 -1.00e+00 -1.00e+00    1.0000 >    1.0367    0.2179    0.0779  736.5490 9821.3650   -1.2200    3.7577 319.85 319.9  84.8 10     0.0000    0.0207
M10          ?    BHE  e S      ? 20230606 0258   20.2155 GAU  1.49e-03 -1.00e+00 -1.00e+00 -1.00e+00    1.0000 >    1.7884    0.4689    0.0036  736.5490 9821.3650   -1.2200    3.7577 319.85 319.9  84.8 10     0.0000    0.0358
M05          ?    BHZ  e P      c 20230606 0258   19.2411 GAU  3.22e-03 -1.00e+00  8.79e+01 -1.00e+00    1.0000 >    1.2404    0.0425    1.2688  736.2660 9822.0830   -1.1500    4.4958 323.00 323.0  84.7 10     0.0000    0.0248
M05          ?    BHN  e S      ? 20230606 0258   20.2431 GAU  4.99e-04 -1.00e+00  2.83e+02 -1.00e+00    1.0000 >    2.1399    0.1451    0.4286  736.2660 9822.0830   -1.1500    4.4958 323.00 323.0  84.7 10     0.0000    0.0428
END_PHASE
END_NLLOC

