NLLOC "./loc/SEML.20230606.015219.grid0" "LOCATED" "Location completed."
PUBLIC_ID None
SIGNATURE "Arham Zakki Edelo - edelo.17034@mhs.its.ac.id   obs:./obs/2023_06.obs   NLLoc:v7.00.10(30Aug2020)   run:28Dec2023 20h03m38"
COMMENT "SEML"
GRID  2001 2001 1001  727 9811 -2  0.01 0.01 0.01 PROB_DENSITY
SEARCH OCTREE nInitial 4851 nEvaluated 20011 smallestNodeSide 0.014881/0.014881/0.014205 oct_tree_integral 4.243022e-02 scatter_volume 4.222877e-02
HYPOCENTER  x 737.766 y 9817.87 z 1.38778  OT 19.1117  ix -1 iy -1 iz -1 MAXIMUM_LIKELIHOOD
GEOGRAPHIC  OT 2023 06 06  01 52 19.111708  Lat 9817.867560 Long 737.766369 Depth 1.387784
QUALITY  Pmax 4.38784e+65 MFmin 67.3093 MFmax 78.0884 RMS 0.0344789 Nphs 20 Gap 299.248 Dist 1.36258 Mamp -9.90 0 Mdur -9.90 0
VPVSRATIO  VpVsRatio 1.74506  Npair 10  Diff 0.614666
STATISTICS  ExpectX 737.993855 Y 9817.778738 Z 1.244059  CovXX 0.120153 XY -0.0389994 XZ -0.0582904 YY 0.031396 YZ 0.0232626 ZZ 0.0700279 EllAz1  18.8297 Dip1  -3.43338 Len1  0.242233 Az2  283.227 Dip2  -58.4271 Len2  0.335489 Len3  7.816245e-01
STAT_GEOG  ExpectLat 9817.778738 Long 737.993855 Depth 1.244059
TRANSFORM  NONE
QML_OriginQuality  assocPhCt 20  usedPhCt 20  assocStaCt -1  usedStaCt 10  depthPhCt -1  stdErr 0.0344789  azGap 299.248  secAzGap 299.248  gtLevel -  minDist 1.36258 maxDist 5.58776 medDist 3.41142
QML_OriginUncertainty  horUnc -1  minHorUnc 0.195954  maxHorUnc 0.556924  azMaxHorUnc 110.654
QML_ConfidenceEllipsoid  semiMajorAxisLength 0.781624  semiMinorAxisLength 0.242233  semiIntermediateAxisLength 0.335489  majorAxisPlunge -31.3421  majorAxisAzimuth 110.924  majorAxisRotation 188.709
FOCALMECH  Hyp  9817.867560 737.766369 1.387784 Mech  0 0 0 mf  0 nObs -1
PHASE ID Ins Cmp On Pha  FM Date     HrMn   Sec     Err  ErrMag    Coda      Amp       Per       PriorWt  >   TTpred    Res       Weight    StaLoc(X  Y         Z)        SDist    SAzim  RAz  RDip RQual    Tcorr       TTerr
M06          ?    BHZ  i P      c 20230606 0152   19.9252 GAU  9.73e-04 -1.00e+00  7.24e+01 -1.00e+00    1.0000 >    0.8051    0.0084    1.6011  738.3100 9819.1170   -1.3960    1.3626  23.51  23.5 151.1 10     0.0000    0.0161
M06          ?    BHE  i S      ? 20230606 0152   20.4976 GAU  5.68e-03 -1.00e+00  8.12e+00 -1.00e+00    1.0000 >    1.3727    0.0133    1.3922  738.3100 9819.1170   -1.3960    1.3626  23.51  23.5 150.0 10     0.0000    0.0275
M02          ?    BHZ  i P      d 20230606 0152   20.0311 GAU  2.74e-03 -1.00e+00 -1.00e+00 -1.00e+00    1.0000 >    0.9031    0.0163    1.4420  736.5970 9819.4060   -1.4960    1.9324 322.76 322.8 142.3 10     0.0000    0.0181
M02          ?    BHE  e S      ? 20230606 0152   20.6224 GAU  3.42e-03 -1.00e+00 -1.00e+00 -1.00e+00    1.0000 >    1.5399   -0.0291    1.1617  736.5970 9819.4060   -1.4960    1.9324 322.76 322.8 140.7 10     0.0000    0.0308
M14          ?    BHZ  i P      c 20230606 0152   20.0130 GAU  2.79e-03 -1.00e+00 -1.00e+00 -1.00e+00    1.0000 >    0.9141   -0.0128    1.5675  737.5530 9820.0110   -1.3980    2.1540 354.32 354.3 137.9 10     0.0000    0.0183
M14          ?    BHE  e S      ? 20230606 0152   20.6903 GAU  1.62e-03 -1.00e+00  3.46e+02 -1.00e+00    1.0000 >    1.5576    0.0210    1.2622  737.5530 9820.0110   -1.3980    2.1540 354.32 354.3 136.2 10     0.0000    0.0312
M11          ?    BHZ  i P      c 20230606 0152   20.0673 GAU  7.60e-03 -1.00e+00 -1.00e+00 -1.00e+00    1.0000 >    0.9913   -0.0357    1.0466  738.4670 9820.4900   -1.3120    2.7144  14.96  15.0 129.1 10     0.0000    0.0198
M11          ?    BHN  e S      ? 20230606 0152   20.7829 GAU  6.44e-03 -1.00e+00 -1.00e+00 -1.00e+00    1.0000 >    1.6873   -0.0160    1.2909  738.4670 9820.4900   -1.3120    2.7144  14.96  15.0 127.0 10     0.0000    0.0337
M09          ?    BHZ  i P      c 20230606 0152   20.1599 GAU  2.95e-03 -1.00e+00 -1.00e+00 -1.00e+00    1.0000 >    1.0597   -0.0116    1.5443  737.8820 9820.9850   -1.2700    3.1196   2.12   2.1 123.7 10     0.0000    0.0212
M09          ?    BHE  e S      ? 20230606 0152   20.9197 GAU  1.81e-03 -1.00e+00  4.76e+02 -1.00e+00    1.0000 >    1.8021    0.0059    1.3206  737.8820 9820.9850   -1.2700    3.1196   2.12   2.1 121.4 10     0.0000    0.0360
M10          ?    BHZ  e P      d 20230606 0152   20.3732 GAU  6.76e-03 -1.00e+00  1.37e+03 -1.00e+00    1.0000 >    1.1691    0.0924    0.2880  736.5490 9821.3650   -1.2200    3.7033 340.81 340.8 117.0 10     0.0000    0.0234
M10          ?    BHN  e S      ? 20230606 0152   21.3221 GAU  1.68e-03 -1.00e+00 -1.00e+00 -1.00e+00    1.0000 >    1.9851    0.2252    0.1401  736.5490 9821.3650   -1.2200    3.7033 340.81 340.8 114.4 10     0.0000    0.0397
M13          ?    BHZ  i P      c 20230606 0152   20.2696 GAU  2.60e-03 -1.00e+00 -1.00e+00 -1.00e+00    1.0000 >    1.1731   -0.0152    1.4675  737.1780 9821.5410   -1.2220    3.7203 350.90 350.9 116.9 10     0.0000    0.0235
M13          ?    BHE  e S      ? 20230606 0152   21.0985 GAU  8.11e-04 -1.00e+00 -1.00e+00 -1.00e+00    1.0000 >    1.9917   -0.0049    1.2629  737.1780 9821.5410   -1.2220    3.7203 350.90 350.9 114.3 10     0.0000    0.0398
M08          ?    BHZ  e P      d 20230606 0152   20.4057 GAU  1.12e-03 -1.00e+00  4.26e+02 -1.00e+00    1.0000 >    1.2899    0.0041    1.5035  738.2480 9822.1600   -1.1510    4.3194   6.40   6.4 111.0 10     0.0000    0.0258
M08          ?    BHN  e S      ? 20230606 0152   21.3331 GAU  1.56e-03 -1.00e+00  2.22e+02 -1.00e+00    1.0000 >    2.1856    0.0358    1.0124  738.2480 9822.1600   -1.1510    4.3194   6.40   6.4 108.4 10     0.0000    0.0437
M05          ?    BHZ  e P      c 20230606 0152   20.6096 GAU  3.20e-03 -1.00e+00 -1.00e+00 -1.00e+00    1.0000 >    1.3239    0.1740    0.1527  736.2660 9822.0830   -1.1500    4.4745 340.41 340.4 109.8 10     0.0000    0.0265
M05          ?    BHE  e S      ? 20230606 0152   21.7303 GAU  1.73e-03 -1.00e+00 -1.00e+00 -1.00e+00    1.0000 >    2.2424    0.3762    0.0079  736.2660 9822.0830   -1.1500    4.4745 340.41 340.4 107.2 10     0.0000    0.0448
M12          ?    BHZ  e P      c 20230606 0152   20.7523 GAU  1.41e-03 -1.00e+00 -1.00e+00 -1.00e+00    1.0000 >    1.5515    0.0891    0.3663  736.8520 9823.3800   -0.9890    5.5878 350.58 350.6 101.8 10     0.0000    0.0310
M12          ?    BHE  e S      ? 20230606 0152   21.9394 GAU  1.44e-03 -1.00e+00 -1.00e+00 -1.00e+00    1.0000 >    2.6145    0.2132    0.1694  736.8520 9823.3800   -0.9890    5.5878 350.58 350.6 100.1 10     0.0000    0.0523
END_PHASE
END_NLLOC

