NLLOC "./loc/SEML.20230606.015429.grid0" "LOCATED" "Location completed."
PUBLIC_ID None
SIGNATURE "Arham Zakki Edelo - edelo.17034@mhs.its.ac.id   obs:./obs/2023_06.obs   NLLoc:v7.00.10(30Aug2020)   run:28Dec2023 20h03m41"
COMMENT "SEML"
GRID  2001 2001 1001  727 9811 -2  0.01 0.01 0.01 PROB_DENSITY
SEARCH OCTREE nInitial 4851 nEvaluated 20011 smallestNodeSide 0.014881/0.014881/0.014205 oct_tree_integral 7.145880e-02 scatter_volume 7.089058e-02
HYPOCENTER  x 738.391 y 9817.79 z 0.322443  OT 28.8965  ix -1 iy -1 iz -1 MAXIMUM_LIKELIHOOD
GEOGRAPHIC  OT 2023 06 06  01 54 28.896526  Lat 9817.793155 Long 738.391369 Depth 0.322443
QUALITY  Pmax 5.73711e+64 MFmin 69.8559 MFmax 86.4347 RMS 0.0422598 Nphs 20 Gap 310.344 Dist 1.32634 Mamp -9.90 0 Mdur -9.90 0
VPVSRATIO  VpVsRatio 1.8756  Npair 10  Diff 0.619328
STATISTICS  ExpectX 738.550485 Y 9817.748867 Z 0.084248  CovXX 0.0732335 XY -0.0101704 XZ -0.0653196 YY 0.0192547 YZ 0.0136048 ZZ 0.150628 EllAz1  8.34852 Dip1  -1.70907 Len1  0.247492 Az2  277.354 Dip2  -30.1812 Len2  0.357683 Len3  8.179318e-01
STAT_GEOG  ExpectLat 9817.748867 Long 738.550485 Depth 0.084248
TRANSFORM  NONE
QML_OriginQuality  assocPhCt 20  usedPhCt 20  assocStaCt -1  usedStaCt 10  depthPhCt -1  stdErr 0.0422598  azGap 310.344  secAzGap 310.344  gtLevel -  minDist 1.32634 maxDist 5.79504 medDist 3.5858
QML_OriginUncertainty  horUnc -1  minHorUnc 0.200062  maxHorUnc 0.41557  azMaxHorUnc 100.324
QML_ConfidenceEllipsoid  semiMajorAxisLength 0.817932  semiMinorAxisLength 0.247492  semiIntermediateAxisLength 0.357683  majorAxisPlunge -59.7602  majorAxisAzimuth 101.282  majorAxisRotation 173.135
FOCALMECH  Hyp  9817.793155 738.391369 0.322443 Mech  0 0 0 mf  0 nObs -1
PHASE ID Ins Cmp On Pha  FM Date     HrMn   Sec     Err  ErrMag    Coda      Amp       Per       PriorWt  >   TTpred    Res       Weight    StaLoc(X  Y         Z)        SDist    SAzim  RAz  RDip RQual    Tcorr       TTerr
M06          ?    BHZ  i P      c 20230606 0154   29.6198 GAU  7.49e-04 -1.00e+00  6.45e+00 -1.00e+00    1.0000 >    0.5785    0.1448    0.1894  738.3100 9819.1170   -1.3960    1.3263 356.48 356.5 141.1 10     0.0000    0.0116
M06          ?    BHE  i S      ? 20230606 0154   30.2120 GAU  2.42e-03 -1.00e+00  4.40e+01 -1.00e+00    1.0000 >    1.0100    0.3055    0.0088  738.3100 9819.1170   -1.3960    1.3263 356.48 356.5 140.4 10     0.0000    0.0202
M14          ?    BHZ  i P      c 20230606 0154   29.6602 GAU  1.02e-02 -1.00e+00 -1.00e+00 -1.00e+00    1.0000 >    0.7803   -0.0166    1.3173  737.5530 9820.0110   -1.3980    2.3710 339.29 339.3 123.5 10     0.0000    0.0156
M14          ?    BHE  e S      ? 20230606 0154   30.2210 GAU  5.99e-04 -1.00e+00  4.50e+02 -1.00e+00    1.0000 >    1.3625   -0.0380    0.8744  737.5530 9820.0110   -1.3980    2.3710 339.29 339.3 122.1 10     0.0000    0.0272
M02          ?    BHZ  e P      d 20230606 0154   29.7286 GAU  3.00e-03 -1.00e+00 -1.00e+00 -1.00e+00    1.0000 >    0.8060    0.0260    1.4206  736.5970 9819.4060   -1.4960    2.4127 311.95 312.0 124.5 10     0.0000    0.0161
M02          ?    BHE  e S      ? 20230606 0154   30.3204 GAU  2.02e-03 -1.00e+00 -1.00e+00 -1.00e+00    1.0000 >    1.4066    0.0173    1.4477  736.5970 9819.4060   -1.4960    2.4127 311.95 312.0 123.3 10     0.0000    0.0281
M11          ?    BHZ  i P      c 20230606 0154   29.7728 GAU  1.40e-03 -1.00e+00 -1.00e+00 -1.00e+00    1.0000 >    0.8387    0.0376    1.2680  738.4670 9820.4900   -1.3120    2.6979   1.61   1.6 118.6 10     0.0000    0.0168
M11          ?    BHN  e S      ? 20230606 0154   30.4160 GAU  2.80e-03 -1.00e+00  3.22e+01 -1.00e+00    1.0000 >    1.4656    0.0539    1.0648  738.4670 9820.4900   -1.3120    2.6979   1.61   1.6 116.8 10     0.0000    0.0293
M09          ?    BHZ  i P      c 20230606 0154   29.8531 GAU  2.43e-03 -1.00e+00  4.04e+02 -1.00e+00    1.0000 >    0.9569   -0.0003    1.5066  737.8820 9820.9850   -1.2700    3.2322 350.93 350.9 113.2 10     0.0000    0.0191
M09          ?    BHE  e S      ? 20230606 0154   30.5820 GAU  2.71e-03 -1.00e+00  5.09e+02 -1.00e+00    1.0000 >    1.6727    0.0128    1.3985  737.8820 9820.9850   -1.2700    3.2322 350.93 350.9 111.0 10     0.0000    0.0335
M13          ?    BHZ  i P      d 20230606 0154   30.0071 GAU  2.43e-03 -1.00e+00  1.95e+02 -1.00e+00    1.0000 >    1.1218   -0.0112    1.3815  737.1780 9821.5410   -1.2220    3.9394 342.06 342.1 108.2 10     0.0000    0.0224
M13          ?    BHN  e S      ? 20230606 0154   30.8565 GAU  1.86e-03 -1.00e+00 -1.00e+00 -1.00e+00    1.0000 >    1.9615   -0.0015    1.2888  737.1780 9821.5410   -1.2220    3.9394 342.06 342.1 105.2 10     0.0000    0.0392
M10          ?    BHZ  e P      d 20230606 0154   30.1185 GAU  3.54e-03 -1.00e+00 -1.00e+00 -1.00e+00    1.0000 >    1.1411    0.0809    0.6193  736.5490 9821.3650   -1.2200    4.0190 332.72 332.7 107.7 10     0.0000    0.0228
M10          ?    BHN  e S      ? 20230606 0154   31.0937 GAU  1.93e-03 -1.00e+00 -1.00e+00 -1.00e+00    1.0000 >    1.9953    0.2019    0.1236  736.5490 9821.3650   -1.2200    4.0190 332.72 332.7 104.7 10     0.0000    0.0399
M08          ?    BHZ  e P      d 20230606 0154   30.1074 GAU  7.49e-04 -1.00e+00  3.05e+02 -1.00e+00    1.0000 >    1.2198   -0.0089    1.3954  738.2480 9822.1600   -1.1510    4.3692 358.12 358.1 105.4 10     0.0000    0.0244
M08          ?    BHE  e S      ? 20230606 0154   31.0742 GAU  1.62e-03 -1.00e+00 -1.00e+00 -1.00e+00    1.0000 >    2.1336    0.0440    1.1470  738.2480 9822.1600   -1.1510    4.3692 358.12 358.1 102.0 10     0.0000    0.0427
M05          ?    BHZ  e P      c 20230606 0154   30.2873 GAU  1.16e-03 -1.00e+00 -1.00e+00 -1.00e+00    1.0000 >    1.3243    0.0665    0.8635  736.2660 9822.0830   -1.1500    4.7875 333.64 333.6 103.7 10     0.0000    0.0265
M05          ?    BHN  e S      ? 20230606 0154   31.3568 GAU  3.84e-03 -1.00e+00  3.51e+02 -1.00e+00    1.0000 >    2.3160    0.1443    0.3480  736.2660 9822.0830   -1.1500    4.7875 333.64 333.6 100.1 10     0.0000    0.0463
M12          ?    BHZ  i P      c 20230606 0154   30.4399 GAU  3.23e-03 -1.00e+00 -1.00e+00 -1.00e+00    1.0000 >    1.5625   -0.0191    1.2013  736.8520 9823.3800   -0.9890    5.7950 344.60 344.6  99.8 10     0.0000    0.0313
M12          ?    BHE  e S      ? 20230606 0154   31.6200 GAU  5.02e-03 -1.00e+00 -1.00e+00 -1.00e+00    1.0000 >    2.7175    0.0059    1.1356  736.8520 9823.3800   -0.9890    5.7950 344.60 344.6  67.2 10     0.0000    0.0544
END_PHASE
END_NLLOC

