NLLOC "./loc/SEML.20230606.014822.grid0" "LOCATED" "Location completed."
PUBLIC_ID None
SIGNATURE "Arham Zakki Edelo - edelo.17034@mhs.its.ac.id   obs:./obs/2023_06.obs   NLLoc:v7.00.10(30Aug2020)   run:28Dec2023 20h03m36"
COMMENT "SEML"
GRID  2001 2001 1001  727 9811 -2  0.01 0.01 0.01 PROB_DENSITY
SEARCH OCTREE nInitial 4851 nEvaluated 20011 smallestNodeSide 0.029762/0.029762/0.028409 oct_tree_integral 1.335437e-01 scatter_volume 1.335437e-01
HYPOCENTER  x 737.015 y 9818.25 z 0.855114  OT 22.268  ix -1 iy -1 iz -1 MAXIMUM_LIKELIHOOD
GEOGRAPHIC  OT 2023 06 06  01 48 22.267989  Lat 9818.247024 Long 737.014881 Depth 0.855114
QUALITY  Pmax 7.74168e+28 MFmin 36.3443 MFmax 44.9025 RMS 0.0164307 Nphs 10 Gap 292.844 Dist 1.56019 Mamp -9.90 0 Mdur -9.90 0
VPVSRATIO  VpVsRatio 1.67596  Npair 5  Diff 0.366199
STATISTICS  ExpectX 737.346397 Y 9818.155228 Z 0.868494  CovXX 0.10221 XY 0.00118902 XZ 0.051023 YY 0.0242147 YZ 0.0150939 ZZ 0.0757434 EllAz1  196.155 Dip1  25.9944 Len1  0.244223 Az2  311.071 Dip2  40.8266 Len2  0.38824 Len3  7.094211e-01
STAT_GEOG  ExpectLat 9818.155228 Long 737.346397 Depth 0.868494
TRANSFORM  NONE
QML_OriginQuality  assocPhCt 10  usedPhCt 10  assocStaCt -1  usedStaCt 5  depthPhCt -1  stdErr 0.0164307  azGap 292.844  secAzGap 292.844  gtLevel -  minDist 1.56019 maxDist 3.90839 medDist 2.672
QML_OriginUncertainty  horUnc -1  minHorUnc 0.235907  maxHorUnc 0.484896  azMaxHorUnc 89.1268
QML_ConfidenceEllipsoid  semiMajorAxisLength 0.709421  semiMinorAxisLength 0.244223  semiIntermediateAxisLength 0.38824  majorAxisPlunge 38.0857  majorAxisAzimuth 83.6888  majorAxisRotation 70.377
FOCALMECH  Hyp  9818.247024 737.014881 0.855114 Mech  0 0 0 mf  0 nObs -1
PHASE ID Ins Cmp On Pha  FM Date     HrMn   Sec     Err  ErrMag    Coda      Amp       Per       PriorWt  >   TTpred    Res       Weight    StaLoc(X  Y         Z)        SDist    SAzim  RAz  RDip RQual    Tcorr       TTerr
M06          ?    BHZ  i P      d 20230606 0148   22.9991 GAU  6.32e-04 -1.00e+00 -1.00e+00 -1.00e+00    1.0000 >    0.7236    0.0075    1.3800  738.3100 9819.1170   -1.3960    1.5602  56.11  56.1 144.1 10     0.0000    0.0145
M06          ?    BHN  e S      ? 20230606 0148   23.5176 GAU  1.14e-03 -1.00e+00 -1.00e+00 -1.00e+00    1.0000 >    1.2455    0.0042    1.2385  738.3100 9819.1170   -1.3960    1.5602  56.11  56.1 141.1 10     0.0000    0.0249
M14          ?    BHZ  e P      c 20230606 0148   23.0234 GAU  2.20e-03 -1.00e+00 -1.00e+00 -1.00e+00    1.0000 >    0.7690   -0.0136    1.2496  737.5530 9820.0110   -1.3980    1.8442  16.96  17.0 139.4 10     0.0000    0.0154
M14          ?    BHE  e S      ? 20230606 0148   23.5943 GAU  8.65e-04 -1.00e+00  3.94e+02 -1.00e+00    1.0000 >    1.3235    0.0028    1.2114  737.5530 9820.0110   -1.3980    1.8442  16.96  17.0 135.8 10     0.0000    0.0265
M11          ?    BHZ  e P      d 20230606 0148   23.1643 GAU  3.77e-03 -1.00e+00 -1.00e+00 -1.00e+00    1.0000 >    0.9069   -0.0106    1.2835  738.4670 9820.4900   -1.3120    2.6720  32.92  32.9 126.8 10     0.0000    0.0181
M11          ?    BHN  i S      ? 20230606 0148   23.8167 GAU  1.12e-03 -1.00e+00 -1.00e+00 -1.00e+00    1.0000 >    1.5592   -0.0104    1.0675  738.4670 9820.4900   -1.3120    2.6720  32.92  32.9 121.4 10     0.0000    0.0312
M09          ?    BHZ  i P      c 20230606 0148   23.2159 GAU  6.50e-04 -1.00e+00  9.60e+01 -1.00e+00    1.0000 >    0.9411    0.0069    1.3343  737.8820 9820.9850   -1.2700    2.8720  17.57  17.6 124.2 10     0.0000    0.0188
M09          ?    BHE  e S      ? 20230606 0148   23.9055 GAU  4.53e-04 -1.00e+00  3.48e+02 -1.00e+00    1.0000 >    1.6172    0.0203    0.9922  737.8820 9820.9850   -1.2700    2.8720  17.57  17.6 118.3 10     0.0000    0.0323
M05          ?    BHZ  e P      c 20230606 0148   23.5009 GAU  8.60e-04 -1.00e+00  1.31e+02 -1.00e+00    1.0000 >    1.1538    0.0790    0.1726  736.2660 9822.0830   -1.1500    3.9084 348.95 349.0 114.4 10     0.0000    0.0231
M05          ?    BHN  e S      ? 20230606 0148   24.3856 GAU  4.18e-04 -1.00e+00  2.67e+02 -1.00e+00    1.0000 >    1.9769    0.1407    0.0703  736.2660 9822.0830   -1.1500    3.9084 348.95 349.0 106.4 10     0.0000    0.0395
END_PHASE
END_NLLOC

