NLLOC "./loc/SEML.20230602.175228.grid0" "LOCATED" "Location completed."
PUBLIC_ID None
SIGNATURE "Arham Zakki Edelo - edelo.17034@mhs.its.ac.id   obs:./obs/2023_06.obs   NLLoc:v7.00.10(30Aug2020)   run:28Dec2023 20h03m35"
COMMENT "SEML"
GRID  2001 2001 1001  727 9811 -2  0.01 0.01 0.01 PROB_DENSITY
SEARCH OCTREE nInitial 4851 nEvaluated 20003 smallestNodeSide 0.059524/0.059524/0.056818 oct_tree_integral 2.541781e+00 scatter_volume 2.541781e+00
HYPOCENTER  x 736.94 y 9812.96 z 1.46591  OT 26.6663  ix -1 iy -1 iz -1 MAXIMUM_LIKELIHOOD
GEOGRAPHIC  OT 2023 06 02  17 52 26.666307  Lat 9812.964286 Long 736.940476 Depth 1.465909
QUALITY  Pmax 1.84739e+68 MFmin 53.6949 MFmax 59.464 RMS 0.071791 Nphs 22 Gap 343.221 Dist 6.29088 Mamp -9.90 0 Mdur -9.90 0
VPVSRATIO  VpVsRatio 1.78213  Npair 11  Diff 0.659327
STATISTICS  ExpectX 737.239793 Y 9813.055769 Z 1.453131  CovXX 0.737002 XY -0.0220658 XZ -0.00269323 YY 0.12064 YZ 0.020184 ZZ 0.486872 EllAz1  2.03047 Dip1  -3.12165 Len1  0.647464 Az2  196.106 Dip2  -86.7819 Len2  1.31239 Len3  1.613867e+00
STAT_GEOG  ExpectLat 9813.055769 Long 737.239793 Depth 1.453131
TRANSFORM  NONE
QML_OriginQuality  assocPhCt 22  usedPhCt 22  assocStaCt -1  usedStaCt 11  depthPhCt -1  stdErr 0.071791  azGap 343.221  secAzGap 343.221  gtLevel -  minDist 6.29088 maxDist 10.4161 medDist 8.07579
QML_OriginUncertainty  horUnc -1  minHorUnc 0.525031  maxHorUnc 1.30266  azMaxHorUnc 92.0477
QML_ConfidenceEllipsoid  semiMajorAxisLength 1.61387  semiMinorAxisLength 0.647464  semiIntermediateAxisLength 1.31239  majorAxisPlunge -0.781111  majorAxisAzimuth 92.0731  majorAxisRotation 183.123
FOCALMECH  Hyp  9812.964286 736.940476 1.465909 Mech  0 0 0 mf  0 nObs -1
PHASE ID Ins Cmp On Pha  FM Date     HrMn   Sec     Err  ErrMag    Coda      Amp       Per       PriorWt  >   TTpred    Res       Weight    StaLoc(X  Y         Z)        SDist    SAzim  RAz  RDip RQual    Tcorr       TTerr
M04          ?    BHZ  e P      d 20230602 1752   28.4560 GAU  1.98e-03 -1.00e+00  1.10e+03 -1.00e+00    1.0000 >    1.8044   -0.0147    1.3677  737.1400 9819.2520   -1.5710    6.2909   1.82   1.8 104.2 10     0.0000    0.0361
M04          ?    BHN  e S      ? 20230602 1752   29.7064 GAU  2.16e-03 -1.00e+00  8.54e+02 -1.00e+00    1.0000 >    3.0516   -0.0115    1.3094  737.1400 9819.2520   -1.5710    6.2909   1.82   1.8 102.0 10     0.0000    0.0610
M06          ?    BHZ  e P      d 20230602 1752   28.3580 GAU  7.34e-03 -1.00e+00  1.10e+02 -1.00e+00    1.0000 >    1.7807   -0.0890    0.9624  738.3100 9819.1170   -1.3960    6.3033  12.55  12.5 103.0 10     0.0000    0.0356
M06          ?    BHE  e S      ? 20230602 1752   29.6668 GAU  8.56e-04 -1.00e+00 -1.00e+00 -1.00e+00    1.0000 >    3.0065   -0.0060    1.3183  738.3100 9819.1170   -1.3960    6.3033  12.55  12.5 101.0 10     0.0000    0.0601
M02          ?    BHZ  e P      d 20230602 1752   28.5616 GAU  1.71e-03 -1.00e+00  1.14e+03 -1.00e+00    1.0000 >    1.8296    0.0657    1.1352  736.5970 9819.4060   -1.4960    6.4509 356.95 356.9 103.0 10     0.0000    0.0366
M02          ?    BHE  e S      ? 20230602 1752   29.7249 GAU  1.25e-03 -1.00e+00  9.90e+02 -1.00e+00    1.0000 >    3.0908   -0.0322    1.2627  736.5970 9819.4060   -1.4960    6.4509 356.95 356.9 101.0 10     0.0000    0.0618
M14          ?    BHZ  e P      c 20230602 1752   28.6922 GAU  3.75e-03 -1.00e+00 -1.00e+00 -1.00e+00    1.0000 >    1.9585    0.0673    1.1243  737.5530 9820.0110   -1.3980    7.0733   4.97   5.0 100.2 10     0.0000    0.0392
M14          ?    BHN  e S      ? 20230602 1752   29.8857 GAU  2.55e-03 -1.00e+00  3.38e+02 -1.00e+00    1.0000 >    3.3000   -0.0807    1.0181  737.5530 9820.0110   -1.3980    7.0733   4.97   5.0  98.8 10     0.0000    0.0660
M11          ?    BHZ  e P      d 20230602 1752   28.8440 GAU  3.49e-03 -1.00e+00  2.47e+02 -1.00e+00    1.0000 >    2.0867    0.0910    0.9314  738.4670 9820.4900   -1.3120    7.6790  11.47  11.5  97.3  9     0.0000    0.0417
M11          ?    BHN  e S      ? 20230602 1752   30.2470 GAU  6.74e-04 -1.00e+00 -1.00e+00 -1.00e+00    1.0000 >    3.5069    0.0738    1.0531  738.4670 9820.4900   -1.3120    7.6790  11.47  11.5  82.4  9     0.0000    0.0701
M09          ?    BHZ  i P      d 20230602 1752   28.8402 GAU  3.80e-03 -1.00e+00  1.46e+02 -1.00e+00    1.0000 >    2.1726    0.0012    1.3774  737.8820 9820.9850   -1.2700    8.0758   6.70   6.7  82.3  9     0.0000    0.0435
M09          ?    BHE  e S      ? 20230602 1752   30.3885 GAU  8.57e-04 -1.00e+00  4.00e+02 -1.00e+00    1.0000 >    3.6446    0.0775    1.0293  737.8820 9820.9850   -1.2700    8.0758   6.70   6.7  77.8 10     0.0000    0.0729
M10          ?    BHZ  e P      d 20230602 1752   28.8090 GAU  7.09e-03 -1.00e+00  1.82e+03 -1.00e+00    1.0000 >    2.2420   -0.0993    0.8905  736.5490 9821.3650   -1.2200    8.4098 357.33 357.3  77.7 10     0.0000    0.0448
M10          ?    BHN  e S      ? 20230602 1752   30.4072 GAU  1.77e-03 -1.00e+00 -1.00e+00 -1.00e+00    1.0000 >    3.7564   -0.0155    1.2366  736.5490 9821.3650   -1.2200    8.4098 357.33 357.3  77.8 10     0.0000    0.0751
M13          ?    BHZ  e P      c 20230602 1752   28.9643 GAU  4.21e-04 -1.00e+00 -1.00e+00 -1.00e+00    1.0000 >    2.2814    0.0166    1.3589  737.1780 9821.5410   -1.2220    8.5800   1.59   1.6  77.7 10     0.0000    0.0456
M13          ?    BHN  i S      ? 20230602 1752   30.7103 GAU  1.80e-03 -1.00e+00 -1.00e+00 -1.00e+00    1.0000 >    3.8212    0.2228    0.3313  737.1780 9821.5410   -1.2220    8.5800   1.59   1.6  77.8 10     0.0000    0.0764
M05          ?    BHZ  e P      d 20230602 1752   29.2698 GAU  2.08e-03 -1.00e+00  3.75e+02 -1.00e+00    1.0000 >    2.4002    0.2033    0.3001  736.2660 9822.0830   -1.1500    9.1436 355.77 355.8  77.7 10     0.0000    0.0480
M05          ?    BHE  e S      ? 20230602 1752   30.9504 GAU  1.48e-03 -1.00e+00 -1.00e+00 -1.00e+00    1.0000 >    4.0133    0.2708    0.2089  736.2660 9822.0830   -1.1500    9.1436 355.77 355.8  77.8 10     0.0000    0.0803
M08          ?    BHZ  e P      c 20230602 1752   28.9962 GAU  1.87e-04 -1.00e+00 -1.00e+00 -1.00e+00    1.0000 >    2.4336   -0.1038    0.8575  738.2480 9822.1600   -1.1510    9.2882   8.09   8.1  77.7 10     0.0000    0.0487
M08          ?    BHN  i S      ? 20230602 1752   30.5614 GAU  2.34e-04 -1.00e+00  3.42e+02 -1.00e+00    1.0000 >    4.0682   -0.1731    0.4427  738.2480 9822.1600   -1.1510    9.2882   8.09   8.1  77.8 10     0.0000    0.0814
M12          ?    BHZ  e P      d 20230602 1752   29.3191 GAU  1.47e-03 -1.00e+00 -1.00e+00 -1.00e+00    1.0000 >    2.6688   -0.0161    1.3336  736.8520 9823.3800   -0.9890   10.4161 359.51 359.5  77.7 10     0.0000    0.0534
M12          ?    BHE  i S      ? 20230602 1752   31.1417 GAU  2.07e-03 -1.00e+00  3.78e+01 -1.00e+00    1.0000 >    4.4478    0.0276    1.1509  736.8520 9823.3800   -0.9890   10.4161 359.51 359.5  77.8 10     0.0000    0.0890
END_PHASE
END_NLLOC

