NLLOC "./loc/SEML.20230606.020130.grid0" "LOCATED" "Location completed."
PUBLIC_ID None
SIGNATURE "Arham Zakki Edelo - edelo.17034@mhs.its.ac.id   obs:./obs/2023_06.obs   NLLoc:v7.00.10(30Aug2020)   run:28Dec2023 20h03m52"
COMMENT "SEML"
GRID  2001 2001 1001  727 9811 -2  0.01 0.01 0.01 PROB_DENSITY
SEARCH OCTREE nInitial 4851 nEvaluated 20011 smallestNodeSide 0.029762/0.029762/0.028409 oct_tree_integral 8.429576e-02 scatter_volume 8.359070e-02
HYPOCENTER  x 737.818 y 9817.71 z 0.372159  OT 29.5635  ix -1 iy -1 iz -1 MAXIMUM_LIKELIHOOD
GEOGRAPHIC  OT 2023 06 06  02 01 29.563494  Lat 9817.711310 Long 737.818452 Depth 0.372159
QUALITY  Pmax 1.18308e+48 MFmin 55.0509 MFmax 68.5834 RMS 0.0470847 Nphs 16 Gap 321.175 Dist 1.48916 Mamp -9.90 0 Mdur -9.90 0
VPVSRATIO  VpVsRatio 1.8029  Npair 8  Diff 0.602263
STATISTICS  ExpectX 738.171646 Y 9817.813690 Z 0.508799  CovXX 0.417133 XY 0.0562884 XZ 0.14653 YY 0.0454493 YZ 0.0267795 ZZ 0.149001 EllAz1  173.564 Dip1  5.18059 Len1  0.359718 Az2  275.206 Dip2  65.8054 Len2  0.546245 Len3  1.315717e+00
STAT_GEOG  ExpectLat 9817.813690 Long 738.171646 Depth 0.508799
TRANSFORM  NONE
QML_OriginQuality  assocPhCt 16  usedPhCt 16  assocStaCt -1  usedStaCt 8  depthPhCt -1  stdErr 0.0470847  azGap 321.175  secAzGap 321.175  gtLevel -  minDist 1.48916 maxDist 5.75049 medDist 3.57859
QML_OriginUncertainty  horUnc -1  minHorUnc 0.29216  maxHorUnc 0.989233  azMaxHorUnc 81.5747
QML_ConfidenceEllipsoid  semiMajorAxisLength 1.31572  semiMinorAxisLength 0.359718  semiIntermediateAxisLength 0.546245  majorAxisPlunge 23.5636  majorAxisAzimuth 81.2979  majorAxisRotation 8.27815
FOCALMECH  Hyp  9817.711310 737.818452 0.372159 Mech  0 0 0 mf  0 nObs -1
PHASE ID Ins Cmp On Pha  FM Date     HrMn   Sec     Err  ErrMag    Coda      Amp       Per       PriorWt  >   TTpred    Res       Weight    StaLoc(X  Y         Z)        SDist    SAzim  RAz  RDip RQual    Tcorr       TTerr
M06          ?    BHZ  i P      c 20230606 0201   30.3125 GAU  9.32e-04 -1.00e+00 -1.00e+00 -1.00e+00    1.0000 >    0.6154    0.1336    0.2925  738.3100 9819.1170   -1.3960    1.4892  19.27  19.3 138.7 10     0.0000    0.0123
M06          ?    BHN  e S      ? 20230606 0201   30.8554 GAU  1.19e-03 -1.00e+00 -1.00e+00 -1.00e+00    1.0000 >    1.0740    0.2178    0.1405  738.3100 9819.1170   -1.3960    1.4892  19.27  19.3 137.9 10     0.0000    0.0215
M14          ?    BHZ  e P      d 20230606 0201   30.3120 GAU  5.02e-03 -1.00e+00  1.13e+03 -1.00e+00    1.0000 >    0.7756   -0.0271    1.3489  737.5530 9820.0110   -1.3980    2.3150 353.42 353.4 125.2 10     0.0000    0.0155
M14          ?    BHE  e S      ? 20230606 0201   30.9292 GAU  1.15e-03 -1.00e+00  3.40e+02 -1.00e+00    1.0000 >    1.3537    0.0121    1.4024  737.5530 9820.0110   -1.3980    2.3150 353.42 353.4 123.9 10     0.0000    0.0271
M11          ?    BHZ  i P      c 20230606 0201   30.4491 GAU  1.40e-03 -1.00e+00  3.16e+01 -1.00e+00    1.0000 >    0.8802    0.0053    1.6115  738.4670 9820.4900   -1.3120    2.8534  13.14  13.1 117.9 10     0.0000    0.0176
M11          ?    BHN  e S      ? 20230606 0201   31.1078 GAU  9.88e-04 -1.00e+00 -1.00e+00 -1.00e+00    1.0000 >    1.5373    0.0070    1.4094  738.4670 9820.4900   -1.3120    2.8534  13.14  13.1 116.2 10     0.0000    0.0307
M09          ?    BHZ  i P      c 20230606 0201   30.5315 GAU  1.30e-03 -1.00e+00  5.74e+01 -1.00e+00    1.0000 >    0.9720   -0.0041    1.6530  737.8820 9820.9850   -1.2700    3.2743   1.11   1.1 113.8 10     0.0000    0.0194
M09          ?    BHE  e S      ? 20230606 0201   31.1594 GAU  1.55e-03 -1.00e+00  4.19e+02 -1.00e+00    1.0000 >    1.6982   -0.1022    0.2392  737.8820 9820.9850   -1.2700    3.2743   1.11   1.1 111.7 10     0.0000    0.0340
M13          ?    BHZ  i P      d 20230606 0201   30.6850 GAU  2.95e-03 -1.00e+00  1.20e+02 -1.00e+00    1.0000 >    1.1121    0.0095    1.5008  737.1780 9821.5410   -1.2220    3.8829 350.51 350.5 109.3 10     0.0000    0.0222
M13          ?    BHN  i S      ? 20230606 0201   31.4834 GAU  4.83e-03 -1.00e+00 -1.00e+00 -1.00e+00    1.0000 >    1.9434   -0.0235    1.2607  737.1780 9821.5410   -1.2220    3.8829 350.51 350.5 106.6 10     0.0000    0.0389
M08          ?    BHZ  e P      d 20230606 0201   30.7643 GAU  4.26e-04 -1.00e+00  5.52e+02 -1.00e+00    1.0000 >    1.2482   -0.0474    0.9408  738.2480 9822.1600   -1.1510    4.4694   5.52   5.5 105.7 10     0.0000    0.0250
M08          ?    BHE  e S      ? 20230606 0201   31.7215 GAU  8.24e-04 -1.00e+00 -1.00e+00 -1.00e+00    1.0000 >    2.1819   -0.0239    1.2028  738.2480 9822.1600   -1.1510    4.4694   5.52   5.5 102.5 10     0.0000    0.0436
M05          ?    BHZ  i P      c 20230606 0201   30.9815 GAU  1.07e-03 -1.00e+00 -1.00e+00 -1.00e+00    1.0000 >    1.2904    0.1276    0.3101  736.2660 9822.0830   -1.1500    4.6392 340.45 340.4 105.0 10     0.0000    0.0258
M05          ?    BHE  e S      ? 20230606 0201   32.0254 GAU  8.24e-04 -1.00e+00 -1.00e+00 -1.00e+00    1.0000 >    2.2554    0.2064    0.2225  736.2660 9822.0830   -1.1500    4.6392 340.45 340.4 101.8 10     0.0000    0.0451
M12          ?    BHZ  i P      c 20230606 0201   31.1244 GAU  2.90e-03 -1.00e+00 -1.00e+00 -1.00e+00    1.0000 >    1.5535    0.0074    1.3985  736.8520 9823.3800   -0.9890    5.7505 350.32 350.3 100.6 10     0.0000    0.0311
M12          ?    BHE  e S      ? 20230606 0201   32.2695 GAU  2.03e-03 -1.00e+00  6.80e+01 -1.00e+00    1.0000 >    2.6907    0.0153    1.0664  736.8520 9823.3800   -0.9890    5.7505 350.32 350.3  67.2 10     0.0000    0.0538
END_PHASE
END_NLLOC

