NLLOC "./loc/SEML.20230606.015526.grid0" "LOCATED" "Location completed."
PUBLIC_ID None
SIGNATURE "Arham Zakki Edelo - edelo.17034@mhs.its.ac.id   obs:./obs/2023_06.obs   NLLoc:v7.00.10(30Aug2020)   run:28Dec2023 20h03m43"
COMMENT "SEML"
GRID  2001 2001 1001  727 9811 -2  0.01 0.01 0.01 PROB_DENSITY
SEARCH OCTREE nInitial 4851 nEvaluated 20003 smallestNodeSide 0.029762/0.029762/0.028409 oct_tree_integral 9.639929e-02 scatter_volume 9.442655e-02
HYPOCENTER  x 737.372 y 9817.83 z 1.08239  OT 25.8083  ix -1 iy -1 iz -1 MAXIMUM_LIKELIHOOD
GEOGRAPHIC  OT 2023 06 06  01 55 25.808313  Lat 9817.830357 Long 737.372024 Depth 1.082386
QUALITY  Pmax 3.04666e+61 MFmin 68.5317 MFmax 87.1724 RMS 0.058519 Nphs 20 Gap 297.716 Dist 1.59225 Mamp -9.90 0 Mdur -9.90 0
VPVSRATIO  VpVsRatio 1.70529  Npair 10  Diff 0.614376
STATISTICS  ExpectX 737.342517 Y 9818.002353 Z 1.090533  CovXX 0.0414671 XY -0.0395258 XZ -0.00686529 YY 0.129924 YZ 0.0142218 ZZ 0.0382503 EllAz1  70.1282 Dip1  7.6663 Len1  0.304106 Az2  202.613 Dip2  78.7285 Len2  0.357274 Len3  7.210466e-01
STAT_GEOG  ExpectLat 9818.002353 Long 737.342517 Depth 1.090533
TRANSFORM  NONE
QML_OriginQuality  assocPhCt 20  usedPhCt 20  assocStaCt -1  usedStaCt 10  depthPhCt -1  stdErr 0.058519  azGap 297.716  secAzGap 297.716  gtLevel -  minDist 1.59225 maxDist 5.57395 medDist 3.4124
QML_OriginUncertainty  horUnc -1  minHorUnc 0.246316  maxHorUnc 0.577518  azMaxHorUnc 159.107
QML_ConfidenceEllipsoid  semiMajorAxisLength 0.721047  semiMinorAxisLength 0.304106  semiIntermediateAxisLength 0.357274  majorAxisPlunge -8.21305  majorAxisAzimuth 159.015  majorAxisRotation 171.928
FOCALMECH  Hyp  9817.830357 737.372024 1.082386 Mech  0 0 0 mf  0 nObs -1
PHASE ID Ins Cmp On Pha  FM Date     HrMn   Sec     Err  ErrMag    Coda      Amp       Per       PriorWt  >   TTpred    Res       Weight    StaLoc(X  Y         Z)        SDist    SAzim  RAz  RDip RQual    Tcorr       TTerr
M06          ?    BHZ  i P      c 20230606 0155   26.6217 GAU  4.99e-04 -1.00e+00 -1.00e+00 -1.00e+00    1.0000 >    0.7740    0.0395    1.3860  738.3100 9819.1170   -1.3960    1.5922  36.09  36.1 143.1 10     0.0000    0.0155
M06          ?    BHN  i S      ? 20230606 0155   27.1534 GAU  2.98e-03 -1.00e+00 -1.00e+00 -1.00e+00    1.0000 >    1.3249    0.0202    1.6092  738.3100 9819.1170   -1.3960    1.5922  36.09  36.1 141.4 10     0.0000    0.0265
M02          ?    BHZ  e P      c 20230606 0155   26.6274 GAU  2.41e-03 -1.00e+00 -1.00e+00 -1.00e+00    1.0000 >    0.8209   -0.0019    1.6215  736.5970 9819.4060   -1.4960    1.7559 333.81 333.8 141.2 10     0.0000    0.0164
M02          ?    BHE  e S      ? 20230606 0155   27.1949 GAU  1.40e-03 -1.00e+00  6.65e+02 -1.00e+00    1.0000 >    1.4057   -0.0191    1.3632  736.5970 9819.4060   -1.4960    1.7559 333.81 333.8 139.3 10     0.0000    0.0281
M14          ?    BHZ  i P      c 20230606 0155   26.7128 GAU  6.35e-04 -1.00e+00 -1.00e+00 -1.00e+00    1.0000 >    0.8686    0.0359    1.4611  737.5530 9820.0110   -1.3980    2.1881   4.74   4.7 132.7 10     0.0000    0.0174
M14          ?    BHN  e S      ? 20230606 0155   27.3521 GAU  9.32e-04 -1.00e+00  2.19e+02 -1.00e+00    1.0000 >    1.4862    0.0576    1.0836  737.5530 9820.0110   -1.3980    2.1881   4.74   4.7 130.3 10     0.0000    0.0297
M11          ?    BHZ  i P      c 20230606 0155   26.7719 GAU  2.32e-03 -1.00e+00 -1.00e+00 -1.00e+00    1.0000 >    0.9808   -0.0172    1.4226  738.4670 9820.4900   -1.3120    2.8762  22.38  22.4 121.3 10     0.0000    0.0196
M11          ?    BHN  i S      ? 20230606 0155   27.4311 GAU  1.86e-03 -1.00e+00 -1.00e+00 -1.00e+00    1.0000 >    1.6760   -0.0531    0.7603  738.4670 9820.4900   -1.3120    2.8762  22.38  22.4 118.0 10     0.0000    0.0335
M09          ?    BHZ  i P      c 20230606 0155   26.8175 GAU  2.47e-03 -1.00e+00  1.56e+01 -1.00e+00    1.0000 >    1.0389   -0.0297    1.1524  737.8820 9820.9850   -1.2700    3.1956   9.18   9.2 116.7 10     0.0000    0.0208
M09          ?    BHE  e S      ? 20230606 0155   27.4429 GAU  5.62e-04 -1.00e+00  3.46e+02 -1.00e+00    1.0000 >    1.7739   -0.1393    0.4586  737.8820 9820.9850   -1.2700    3.1956   9.18   9.2 112.9 10     0.0000    0.0355
M10          ?    BHZ  e P      d 20230606 0155   26.7895 GAU  9.00e-04 -1.00e+00  2.77e+02 -1.00e+00    1.0000 >    1.1238   -0.1426    0.4542  736.5490 9821.3650   -1.2200    3.6292 346.89 346.9 110.9 10     0.0000    0.0225
M10          ?    BHN  e S      ? 20230606 0155   27.5317 GAU  2.43e-03 -1.00e+00  2.62e+00 -1.00e+00    1.0000 >    1.9163   -0.1930    0.4069  736.5490 9821.3650   -1.2200    3.6292 346.89 346.9 106.6 10     0.0000    0.0383
M13          ?    BHZ  e P      c 20230606 0155   26.7835 GAU  1.66e-03 -1.00e+00 -1.00e+00 -1.00e+00    1.0000 >    1.1432   -0.1680    0.4961  737.1780 9821.5410   -1.2220    3.7157 357.01 357.0 110.0 10     0.0000    0.0229
M13          ?    BHE  e S      ? 20230606 0155   27.5291 GAU  7.91e-04 -1.00e+00 -1.00e+00 -1.00e+00    1.0000 >    1.9490   -0.2283    0.2274  737.1780 9821.5410   -1.2220    3.7157 357.01 357.0 105.5 10     0.0000    0.0390
M05          ?    BHZ  e P      d 20230606 0155   27.1076 GAU  2.78e-03 -1.00e+00  1.78e+02 -1.00e+00    1.0000 >    1.2856    0.0137    1.6416  736.2660 9822.0830   -1.1500    4.3941 345.42 345.4 101.8 10     0.0000    0.0257
M05          ?    BHN  e S      ? 20230606 0155   28.0669 GAU  1.66e-03 -1.00e+00  2.57e+02 -1.00e+00    1.0000 >    2.1855    0.0731    0.8948  736.2660 9822.0830   -1.1500    4.3941 345.42 345.4  97.4  9     0.0000    0.0437
M08          ?    BHZ  e P      d 20230606 0155   27.1035 GAU  6.02e-04 -1.00e+00  9.03e+02 -1.00e+00    1.0000 >    1.2911    0.0041    1.6315  738.2480 9822.1600   -1.1510    4.4174  11.44  11.4 101.5 10     0.0000    0.0258
M08          ?    BHN  e S      ? 20230606 0155   28.0201 GAU  5.41e-04 -1.00e+00  3.02e+02 -1.00e+00    1.0000 >    2.1947    0.0171    1.4115  738.2480 9822.1600   -1.1510    4.4174  11.44  11.4  97.3  9     0.0000    0.0439
M12          ?    BHZ  e P      c 20230606 0155   27.4476 GAU  3.50e-03 -1.00e+00 -1.00e+00 -1.00e+00    1.0000 >    1.5383    0.1010    0.4299  736.8520 9823.3800   -0.9890    5.5740 354.65 354.6  93.6  9     0.0000    0.0308
M12          ?    BHE  e S      ? 20230606 0155   28.5936 GAU  1.28e-03 -1.00e+00  7.16e+01 -1.00e+00    1.0000 >    2.5956    0.1898    0.0877  736.8520 9823.3800   -0.9890    5.5740 354.65 354.6  92.8  9     0.0000    0.0519
END_PHASE
END_NLLOC

