NLLOC "./loc/SEML.20230606.015637.grid0" "LOCATED" "Location completed."
PUBLIC_ID None
SIGNATURE "Arham Zakki Edelo - edelo.17034@mhs.its.ac.id   obs:./obs/2023_06.obs   NLLoc:v7.00.10(30Aug2020)   run:28Dec2023 20h03m46"
COMMENT "SEML"
GRID  2001 2001 1001  727 9811 -2  0.01 0.01 0.01 PROB_DENSITY
SEARCH OCTREE nInitial 4851 nEvaluated 20003 smallestNodeSide 0.014881/0.014881/0.014205 oct_tree_integral 3.173102e-02 scatter_volume 3.173102e-02
HYPOCENTER  x 736.412 y 9817.56 z -0.103693  OT 36.7909  ix -1 iy -1 iz -1 MAXIMUM_LIKELIHOOD
GEOGRAPHIC  OT 2023 06 06  01 56 36.790915  Lat 9817.555060 Long 736.412202 Depth -0.103693
QUALITY  Pmax 2.49017e+38 MFmin 49.0974 MFmax 59.2993 RMS 0.0585563 Nphs 14 Gap 307.606 Dist 1.86014 Mamp -9.90 0 Mdur -9.90 0
VPVSRATIO  VpVsRatio 1.70062  Npair 7  Diff 0.701481
STATISTICS  ExpectX 736.410983 Y 9817.673820 Z 0.122932  CovXX 0.0491221 XY -0.00513786 XZ -0.0174656 YY 0.0405104 YZ 0.038528 ZZ 0.074173 EllAz1  348.32 Dip1  -34.6238 Len1  0.225519 Az2  252.014 Dip2  -9.03868 Len2  0.396486 Len3  6.084184e-01
STAT_GEOG  ExpectLat 9817.673820 Long 736.410983 Depth 0.122932
TRANSFORM  NONE
QML_OriginQuality  assocPhCt 14  usedPhCt 14  assocStaCt -1  usedStaCt 7  depthPhCt -1  stdErr 0.0585563  azGap 307.606  secAzGap 307.606  gtLevel -  minDist 1.86014 maxDist 5.84152 medDist 3.58275
QML_OriginUncertainty  horUnc -1  minHorUnc 0.296073  maxHorUnc 0.344232  azMaxHorUnc 115.017
QML_ConfidenceEllipsoid  semiMajorAxisLength 0.608418  semiMinorAxisLength 0.225519  semiIntermediateAxisLength 0.396486  majorAxisPlunge -53.8781  majorAxisAzimuth 149.424  majorAxisRotation 94.8199
FOCALMECH  Hyp  9817.555060 736.412202 -0.103693 Mech  0 0 0 mf  0 nObs -1
PHASE ID Ins Cmp On Pha  FM Date     HrMn   Sec     Err  ErrMag    Coda      Amp       Per       PriorWt  >   TTpred    Res       Weight    StaLoc(X  Y         Z)        SDist    SAzim  RAz  RDip RQual    Tcorr       TTerr
M02          ?    BHZ  e P      c 20230606 0156   37.4120 GAU  1.55e-03 -1.00e+00 -1.00e+00 -1.00e+00    1.0000 >    0.6259   -0.0048    1.8374  736.5970 9819.4060   -1.4960    1.8601   5.70   5.7 123.7 10     0.0000    0.0125
M02          ?    BHN  e S      ? 20230606 0156   37.8969 GAU  2.48e-03 -1.00e+00  1.02e+03 -1.00e+00    1.0000 >    1.0937    0.0122    1.6648  736.5970 9819.4060   -1.4960    1.8601   5.70   5.7 125.8 10     0.0000    0.0219
M06          ?    BHZ  i P      c 20230606 0156   37.5458 GAU  3.85e-03 -1.00e+00 -1.00e+00 -1.00e+00    1.0000 >    0.7467    0.0082    1.8354  738.3100 9819.1170   -1.3960    2.4579  50.54  50.5 113.7 10     0.0000    0.0149
M06          ?    BHN  e S      ? 20230606 0156   38.1035 GAU  1.04e-03 -1.00e+00 -1.00e+00 -1.00e+00    1.0000 >    1.3068    0.0058    1.6327  738.3100 9819.1170   -1.3960    2.4579  50.54  50.5 116.4 10     0.0000    0.0261
M14          ?    BHZ  e P      c 20230606 0156   37.4154 GAU  3.54e-03 -1.00e+00 -1.00e+00 -1.00e+00    1.0000 >    0.8069   -0.1823    0.4327  737.5530 9820.0110   -1.3980    2.7080  24.92  24.9 111.1 10     0.0000    0.0161
M14          ?    BHE  e S      ? 20230606 0156   37.9148 GAU  2.46e-03 -1.00e+00  4.25e+02 -1.00e+00    1.0000 >    1.4124   -0.2886    0.0210  737.5530 9820.0110   -1.3980    2.7080  24.92  24.9 114.1 10     0.0000    0.0282
M11          ?    BHZ  e P      c 20230606 0156   37.6901 GAU  2.98e-03 -1.00e+00 -1.00e+00 -1.00e+00    1.0000 >    1.0134   -0.1142    0.4372  738.4670 9820.4900   -1.3120    3.5827  35.00  35.0 103.5 10     0.0000    0.0203
M11          ?    BHN  i S      ? 20230606 0156   38.3879 GAU  4.77e-04 -1.00e+00 -1.00e+00 -1.00e+00    1.0000 >    1.7782   -0.1813    0.4932  738.4670 9820.4900   -1.3120    3.5827  35.00  35.0 106.9 10     0.0000    0.0356
M09          ?    BHZ  e P      c 20230606 0156   37.8269 GAU  1.93e-03 -1.00e+00  2.20e+02 -1.00e+00    1.0000 >    1.0465   -0.0105    1.6021  737.8820 9820.9850   -1.2700    3.7316  23.20  23.2 102.2 10     0.0000    0.0209
M09          ?    BHE  e S      ? 20230606 0156   38.6139 GAU  2.97e-04 -1.00e+00  3.53e+02 -1.00e+00    1.0000 >    1.8381   -0.0151    1.3181  737.8820 9820.9850   -1.2700    3.7316  23.20  23.2 105.6 10     0.0000    0.0368
M05          ?    BHZ  e P      d 20230606 0156   37.9444 GAU  2.13e-03 -1.00e+00  3.51e+02 -1.00e+00    1.0000 >    1.2382   -0.0847    0.4226  736.2660 9822.0830   -1.1500    4.5303 358.15 358.2  98.2 10     0.0000    0.0248
M05          ?    BHN  e S      ? 20230606 0156   38.8211 GAU  5.42e-04 -1.00e+00  2.70e+02 -1.00e+00    1.0000 >    2.1834   -0.1533    0.5671  736.2660 9822.0830   -1.1500    4.5303 358.15 358.2 101.0 10     0.0000    0.0437
M12          ?    BHZ  e P      c 20230606 0156   38.4022 GAU  1.35e-03 -1.00e+00 -1.00e+00 -1.00e+00    1.0000 >    1.5606    0.0507    0.7844  736.8520 9823.3800   -0.9890    5.8415   4.32   4.3  95.3 10     0.0000    0.0312
M12          ?    BHE  e S      ? 20230606 0156   39.5885 GAU  8.94e-04 -1.00e+00  5.00e+01 -1.00e+00    1.0000 >    2.7583    0.0393    0.9514  736.8520 9823.3800   -0.9890    5.8415   4.32   4.3  72.9 10     0.0000    0.0552
END_PHASE
END_NLLOC

