NLLOC "./loc/SEML.20230620.201028.grid0" "LOCATED" "Location completed."
PUBLIC_ID None
SIGNATURE "Arham Zakki Edelo - edelo.17034@mhs.its.ac.id   obs:./obs/2023_06.obs   NLLoc:v7.00.10(30Aug2020)   run:28Dec2023 20h04m00"
COMMENT "SEML"
GRID  2001 2001 1001  727 9811 -2  0.01 0.01 0.01 PROB_DENSITY
SEARCH OCTREE nInitial 4851 nEvaluated 20011 smallestNodeSide 0.059524/0.059524/0.056818 oct_tree_integral 1.127310e+00 scatter_volume 1.127310e+00
HYPOCENTER  x 740.185 y 9819.36 z 3.76705  OT 27.0136  ix -1 iy -1 iz -1 MAXIMUM_LIKELIHOOD
GEOGRAPHIC  OT 2023 06 20  20 10 27.013595  Lat 9819.363095 Long 740.184524 Depth 3.767045
QUALITY  Pmax 7.01717e+25 MFmin 28.3008 MFmax 34.4628 RMS 0.0311621 Nphs 10 Gap 316.601 Dist 1.89061 Mamp -9.90 0 Mdur -9.90 0
VPVSRATIO  VpVsRatio 1.68395  Npair 5  Diff 0.35166
STATISTICS  ExpectX 740.654833 Y 9819.628954 Z 3.193958  CovXX 0.967366 XY 0.434133 XZ -0.817594 YY 0.552788 YZ -0.443812 ZZ 1.24397 EllAz1  123.362 Dip1  23.8101 Len1  0.938589 Az2  195.068 Dip2  -35.4261 Len2  1.09991 Len3  2.768863e+00
STAT_GEOG  ExpectLat 9819.628954 Long 740.654833 Depth 3.193958
TRANSFORM  NONE
QML_OriginQuality  assocPhCt 10  usedPhCt 10  assocStaCt -1  usedStaCt 5  depthPhCt -1  stdErr 0.0311621  azGap 316.601  secAzGap 316.601  gtLevel -  minDist 1.89061 maxDist 4.76998 medDist 3.62528
QML_OriginUncertainty  horUnc -1  minHorUnc 0.801054  maxHorUnc 1.68958  azMaxHorUnc 57.7617
QML_ConfidenceEllipsoid  semiMajorAxisLength 2.76886  semiMinorAxisLength 0.938589  semiIntermediateAxisLength 1.09991  majorAxisPlunge -45.0586  majorAxisAzimuth 59.6046  majorAxisRotation 270.168
FOCALMECH  Hyp  9819.363095 740.184524 3.767045 Mech  0 0 0 mf  0 nObs -1
PHASE ID Ins Cmp On Pha  FM Date     HrMn   Sec     Err  ErrMag    Coda      Amp       Per       PriorWt  >   TTpred    Res       Weight    StaLoc(X  Y         Z)        SDist    SAzim  RAz  RDip RQual    Tcorr       TTerr
M06          ?    BHZ  i P      d 20230620 2010   28.3528 GAU  7.86e-04 -1.00e+00  9.52e+01 -1.00e+00    1.0000 >    1.3450   -0.0058    1.5036  738.3100 9819.1170   -1.3960    1.8906 262.52 262.5 158.1 10     0.0000    0.0269
M06          ?    BHE  e S      ? 20230620 2010   29.2575 GAU  1.28e-03 -1.00e+00 -1.00e+00 -1.00e+00    1.0000 >    2.2574   -0.0134    1.2986  738.3100 9819.1170   -1.3960    1.8906 262.52 262.5 157.7 10     0.0000    0.0451
M09          ?    BHZ  i P      d 20230620 2010   28.4282 GAU  7.45e-04 -1.00e+00  1.93e+02 -1.00e+00    1.0000 >    1.4067    0.0079    1.4532  737.8820 9820.9850   -1.2700    2.8164 305.16 305.2 148.2 10     0.0000    0.0281
M09          ?    BHE  e S      ? 20230620 2010   29.4000 GAU  2.09e-04 -1.00e+00  3.65e+02 -1.00e+00    1.0000 >    2.3582    0.0282    1.1436  737.8820 9820.9850   -1.2700    2.8164 305.16 305.2 147.7 10     0.0000    0.0472
M03          ?    BHZ  e P      d 20230620 2010   28.5499 GAU  1.13e-03 -1.00e+00  1.98e+03 -1.00e+00    1.0000 >    1.5270    0.0093    1.4249  736.8800 9820.8540   -1.3350    3.6253 294.28 294.3 141.3 10     0.0000    0.0305
M03          ?    BHN  e S      ? 20230620 2010   29.5964 GAU  3.13e-03 -1.00e+00 -1.00e+00 -1.00e+00    1.0000 >    2.5599    0.0229    1.1580  736.8800 9820.8540   -1.3350    3.6253 294.28 294.3 140.6 10     0.0000    0.0512
M13          ?    BHZ  e P      d 20230620 2010   28.4801 GAU  8.63e-04 -1.00e+00 -1.00e+00 -1.00e+00    1.0000 >    1.5128   -0.0463    1.0202  737.1780 9821.5410   -1.2220    3.7125 305.92 305.9 140.0 10     0.0000    0.0303
M13          ?    BHE  e S      ? 20230620 2010   29.4862 GAU  9.88e-04 -1.00e+00 -1.00e+00 -1.00e+00    1.0000 >    2.5342   -0.0616    0.8438  737.1780 9821.5410   -1.2220    3.7125 305.92 305.9 139.4 10     0.0000    0.0507
M05          ?    BHZ  i P      d 20230620 2010   28.8065 GAU  8.01e-03 -1.00e+00  3.20e+02 -1.00e+00    1.0000 >    1.6616    0.1313    0.1321  736.2660 9822.0830   -1.1500    4.7700 304.77 304.8 131.7 10     0.0000    0.0332
M05          ?    BHE  e S      ? 20230620 2010   30.0628 GAU  2.63e-04 -1.00e+00 -1.00e+00 -1.00e+00    1.0000 >    2.7802    0.2690    0.0220  736.2660 9822.0830   -1.1500    4.7700 304.77 304.8 131.0 10     0.0000    0.0556
END_PHASE
END_NLLOC

