NLLOC "./loc/SEML.20230606.015553.grid0" "LOCATED" "Location completed."
PUBLIC_ID None
SIGNATURE "Arham Zakki Edelo - edelo.17034@mhs.its.ac.id   obs:./obs/2023_06.obs   NLLoc:v7.00.10(30Aug2020)   run:28Dec2023 20h03m44"
COMMENT "SEML"
GRID  2001 2001 1001  727 9811 -2  0.01 0.01 0.01 PROB_DENSITY
SEARCH OCTREE nInitial 4851 nEvaluated 20019 smallestNodeSide 0.014881/0.014881/0.014205 oct_tree_integral 5.040374e-02 scatter_volume 5.017748e-02
HYPOCENTER  x 737.35 y 9818.28 z 1.31676  OT 52.5095  ix -1 iy -1 iz -1 MAXIMUM_LIKELIHOOD
GEOGRAPHIC  OT 2023 06 06  01 55 52.509459  Lat 9818.284226 Long 737.349702 Depth 1.316761
QUALITY  Pmax 1.64837e+23 MFmin 28.8493 MFmax 37.3014 RMS 0.00597026 Nphs 8 Gap 317.647 Dist 1.2711 Mamp -9.90 0 Mdur -9.90 0
VPVSRATIO  VpVsRatio 1.52051  Npair 4  Diff 0.138004
STATISTICS  ExpectX 737.358639 Y 9818.280885 Z 1.315148  CovXX 0.056784 XY 0.00375101 XZ 0.0176752 YY 0.0166067 YZ 0.00273291 ZZ 0.0270732 EllAz1  182.564 Dip1  17.5073 Len1  0.236999 Az2  303.929 Dip2  58.7828 Len2  0.259727 Len3  4.806363e-01
STAT_GEOG  ExpectLat 9818.280885 Long 737.358639 Depth 1.315148
TRANSFORM  NONE
QML_OriginQuality  assocPhCt 8  usedPhCt 8  assocStaCt -1  usedStaCt 4  depthPhCt -1  stdErr 0.00597026  azGap 317.647  secAzGap 317.647  gtLevel -  minDist 1.2711 maxDist 2.75273 medDist 2.10565
QML_OriginUncertainty  horUnc -1  minHorUnc 0.193383  maxHorUnc 0.362494  azMaxHorUnc 84.7117
QML_ConfidenceEllipsoid  semiMajorAxisLength 0.480636  semiMinorAxisLength 0.236999  semiIntermediateAxisLength 0.259727  majorAxisPlunge 24.9637  majorAxisAzimuth 84.1193  majorAxisRotation 28.6528
FOCALMECH  Hyp  9818.284226 737.349702 1.316761 Mech  0 0 0 mf  0 nObs -1
PHASE ID Ins Cmp On Pha  FM Date     HrMn   Sec     Err  ErrMag    Coda      Amp       Per       PriorWt  >   TTpred    Res       Weight    StaLoc(X  Y         Z)        SDist    SAzim  RAz  RDip RQual    Tcorr       TTerr
M06          ?    BHZ  i P      c 20230606 0155   53.2939 GAU  7.76e-04 -1.00e+00 -1.00e+00 -1.00e+00    1.0000 >    0.7802    0.0042    1.1538  738.3100 9819.1170   -1.3960    1.2711  49.07  49.1 152.1 10     0.0000    0.0156
M06          ?    BHE  e S      ? 20230606 0155   53.8421 GAU  4.66e-04 -1.00e+00 -1.00e+00 -1.00e+00    1.0000 >    1.3314    0.0012    0.9687  738.3100 9819.1170   -1.3960    1.2711  49.07  49.1 151.0 10     0.0000    0.0266
M14          ?    BHZ  e P      d 20230606 0155   53.3427 GAU  1.55e-03 -1.00e+00  2.33e+02 -1.00e+00    1.0000 >    0.8393   -0.0060    1.1168  737.5530 9820.0110   -1.3980    1.7387   6.71   6.7 143.6 10     0.0000    0.0168
M14          ?    BHN  e S      ? 20230606 0155   53.9434 GAU  1.62e-03 -1.00e+00  3.68e+02 -1.00e+00    1.0000 >    1.4318    0.0021    0.9311  737.5530 9820.0110   -1.3980    1.7387   6.71   6.7 142.1 10     0.0000    0.0286
M11          ?    BHZ  e P      c 20230606 0155   53.4375 GAU  1.77e-03 -1.00e+00 -1.00e+00 -1.00e+00    1.0000 >    0.9370   -0.0090    1.0533  738.4670 9820.4900   -1.3120    2.4726  26.86  26.9 131.3 10     0.0000    0.0187
M11          ?    BHN  e S      ? 20230606 0155   54.1068 GAU  3.41e-04 -1.00e+00 -1.00e+00 -1.00e+00    1.0000 >    1.5968    0.0005    0.8767  738.4670 9820.4900   -1.3120    2.4726  26.86  26.9 129.1 10     0.0000    0.0319
M09          ?    BHZ  i P      c 20230606 0155   53.4976 GAU  5.87e-04 -1.00e+00  6.10e+01 -1.00e+00    1.0000 >    0.9796    0.0085    1.0544  737.8820 9820.9850   -1.2700    2.7527  11.15  11.1 126.9 10     0.0000    0.0196
M09          ?    BHE  e S      ? 20230606 0155   54.1838 GAU  3.43e-04 -1.00e+00  3.59e+02 -1.00e+00    1.0000 >    1.6683    0.0061    0.8451  737.8820 9820.9850   -1.2700    2.7527  11.15  11.1 124.7 10     0.0000    0.0334
END_PHASE
END_NLLOC

