NLLOC "./loc/SEML.20230606.015251.grid0" "LOCATED" "Location completed."
PUBLIC_ID None
SIGNATURE "Arham Zakki Edelo - edelo.17034@mhs.its.ac.id   obs:./obs/2023_06.obs   NLLoc:v7.00.10(30Aug2020)   run:28Dec2023 20h03m40"
COMMENT "SEML"
GRID  2001 2001 1001  727 9811 -2  0.01 0.01 0.01 PROB_DENSITY
SEARCH OCTREE nInitial 4851 nEvaluated 20027 smallestNodeSide 0.014881/0.014881/0.014205 oct_tree_integral 3.294027e-02 scatter_volume 3.253888e-02
HYPOCENTER  x 737.662 y 9817.64 z 1.51562  OT 50.3073  ix -1 iy -1 iz -1 MAXIMUM_LIKELIHOOD
GEOGRAPHIC  OT 2023 06 06  01 52 50.307323  Lat 9817.644345 Long 737.662202 Depth 1.515625
QUALITY  Pmax 4.79303e+73 MFmin 72.7993 MFmax 86.8635 RMS 0.0347221 Nphs 22 Gap 305.096 Dist 1.60884 Mamp -9.90 0 Mdur -9.90 0
VPVSRATIO  VpVsRatio 1.86395  Npair 11  Diff 0.492634
STATISTICS  ExpectX 737.715133 Y 9817.670835 Z 1.516797  CovXX 0.0307658 XY 0.007882 XZ 0.00225725 YY 0.0299695 YZ -0.0139831 ZZ 0.0228639 EllAz1  333.383 Dip1  46.0079 Len1  0.186172 Az2  279.248 Dip2  -29.4934 Len2  0.329604 Len3  3.896233e-01
STAT_GEOG  ExpectLat 9817.670835 Long 737.715133 Depth 1.516797
TRANSFORM  NONE
QML_OriginQuality  assocPhCt 22  usedPhCt 22  assocStaCt -1  usedStaCt 11  depthPhCt -1  stdErr 0.0347221  azGap 305.096  secAzGap 305.096  gtLevel -  minDist 1.60884 maxDist 5.7926 medDist 3.34788
QML_OriginUncertainty  horUnc -1  minHorUnc 0.227363  maxHorUnc 0.296643  azMaxHorUnc 46.446
QML_ConfidenceEllipsoid  semiMajorAxisLength 0.389623  semiMinorAxisLength 0.186172  semiIntermediateAxisLength 0.329604  majorAxisPlunge -29.3358  majorAxisAzimuth 27.783  majorAxisRotation 109.586
FOCALMECH  Hyp  9817.644345 737.662202 1.515625 Mech  0 0 0 mf  0 nObs -1
PHASE ID Ins Cmp On Pha  FM Date     HrMn   Sec     Err  ErrMag    Coda      Amp       Per       PriorWt  >   TTpred    Res       Weight    StaLoc(X  Y         Z)        SDist    SAzim  RAz  RDip RQual    Tcorr       TTerr
M06          ?    BHZ  i P      c 20230606 0152   51.1773 GAU  1.29e-03 -1.00e+00 -1.00e+00 -1.00e+00    1.0000 >    0.8603    0.0097    1.5564  738.3100 9819.1170   -1.3960    1.6088  23.74  23.7 147.3 10     0.0000    0.0172
M06          ?    BHE  i S      ? 20230606 0152   51.7763 GAU  1.81e-03 -1.00e+00 -1.00e+00 -1.00e+00    1.0000 >    1.4643    0.0047    1.4452  738.3100 9819.1170   -1.3960    1.6088  23.74  23.7 146.1 10     0.0000    0.0293
M02          ?    BHZ  i P      d 20230606 0152   51.2596 GAU  8.62e-04 -1.00e+00  4.05e+02 -1.00e+00    1.0000 >    0.9450    0.0073    1.5756  736.5970 9819.4060   -1.4960    2.0587 328.84 328.8 140.8 10     0.0000    0.0189
M02          ?    BHE  e S      ? 20230606 0152   51.8747 GAU  4.62e-04 -1.00e+00 -1.00e+00 -1.00e+00    1.0000 >    1.6088   -0.0414    1.0726  736.5970 9819.4060   -1.4960    2.0587 328.84 328.8 139.3 10     0.0000    0.0322
M14          ?    BHZ  i P      c 20230606 0152   51.2737 GAU  1.30e-03 -1.00e+00 -1.00e+00 -1.00e+00    1.0000 >    0.9704   -0.0041    1.6454  737.5530 9820.0110   -1.3980    2.3692 357.36 357.4 135.2 10     0.0000    0.0194
M14          ?    BHE  e S      ? 20230606 0152   51.9801 GAU  2.21e-03 -1.00e+00  6.51e+02 -1.00e+00    1.0000 >    1.6508    0.0220    1.1967  737.5530 9820.0110   -1.3980    2.3692 357.36 357.4 133.5 10     0.0000    0.0330
M11          ?    BHZ  i P      c 20230606 0152   51.3261 GAU  1.79e-03 -1.00e+00  1.99e+01 -1.00e+00    1.0000 >    1.0546   -0.0358    1.1856  738.4670 9820.4900   -1.3120    2.9573  15.79  15.8 126.3 10     0.0000    0.0211
M11          ?    BHN  i S      ? 20230606 0152   51.9503 GAU  1.51e-03 -1.00e+00 -1.00e+00 -1.00e+00    1.0000 >    1.7918   -0.1488    0.2667  738.4670 9820.4900   -1.3120    2.9573  15.79  15.8 124.2 10     0.0000    0.0358
M03          ?    BHZ  e P      d 20230606 0152   51.3142 GAU  2.14e-03 -1.00e+00  1.76e+03 -1.00e+00    1.0000 >    1.1249   -0.1180    0.2340  736.8800 9820.8540   -1.3350    3.3036 346.30 346.3 122.4 10     0.0000    0.0225
M03          ?    BHN  e S      ? 20230606 0152   52.0279 GAU  2.93e-03 -1.00e+00 -1.00e+00 -1.00e+00    1.0000 >    1.9104   -0.1899    0.1747  736.8800 9820.8540   -1.3350    3.3036 346.30 346.3 120.2 10     0.0000    0.0382
M09          ?    BHZ  i P      c 20230606 0152   51.4015 GAU  1.09e-03 -1.00e+00  9.65e+01 -1.00e+00    1.0000 >    1.1210   -0.0268    1.3733  737.8820 9820.9850   -1.2700    3.3479   3.76   3.8 121.1 10     0.0000    0.0224
M09          ?    BHE  e S      ? 20230606 0152   52.0473 GAU  3.69e-03 -1.00e+00  4.79e+02 -1.00e+00    1.0000 >    1.9028   -0.1629    0.2439  737.8820 9820.9850   -1.2700    3.3479   3.76   3.8 118.8 10     0.0000    0.0381
M10          ?    BHZ  i P      d 20230606 0152   51.6837 GAU  3.22e-03 -1.00e+00 -1.00e+00 -1.00e+00    1.0000 >    1.2205    0.1559    0.0223  736.5490 9821.3650   -1.2200    3.8836 343.34 343.3 115.0 10     0.0000    0.0244
M10          ?    BHN  e S      ? 20230606 0152   52.6346 GAU  3.66e-03 -1.00e+00 -1.00e+00 -1.00e+00    1.0000 >    2.0687    0.2586    0.0103  736.5490 9821.3650   -1.2200    3.8836 343.34 343.3 112.3 10     0.0000    0.0414
M13          ?    BHZ  i P      c 20230606 0152   51.5061 GAU  1.86e-03 -1.00e+00 -1.00e+00 -1.00e+00    1.0000 >    1.2298   -0.0310    1.2819  737.1780 9821.5410   -1.2220    3.9266 352.92 352.9 114.5 10     0.0000    0.0246
M13          ?    BHE  e S      ? 20230606 0152   52.3740 GAU  6.24e-04 -1.00e+00 -1.00e+00 -1.00e+00    1.0000 >    2.0844   -0.0178    1.2418  737.1780 9821.5410   -1.2220    3.9266 352.92 352.9 111.9 10     0.0000    0.0417
M08          ?    BHZ  i P      d 20230606 0152   51.6497 GAU  1.20e-03 -1.00e+00  3.74e+02 -1.00e+00    1.0000 >    1.3519   -0.0096    1.5117  738.2480 9822.1600   -1.1510    4.5535   7.39   7.4 108.1 10     0.0000    0.0270
M08          ?    BHE  e S      ? 20230606 0152   52.6272 GAU  1.52e-03 -1.00e+00 -1.00e+00 -1.00e+00    1.0000 >    2.2867    0.0332    0.9628  738.2480 9822.1600   -1.1510    4.5535   7.39   7.4 105.2 10     0.0000    0.0457
M05          ?    BHZ  e P      c 20230606 0152   51.6908 GAU  4.88e-03 -1.00e+00 -1.00e+00 -1.00e+00    1.0000 >    1.3736    0.0099    1.4203  736.2660 9822.0830   -1.1500    4.6531 342.54 342.5 107.2 10     0.0000    0.0275
M05          ?    BHN  e S      ? 20230606 0152   52.6483 GAU  2.73e-03 -1.00e+00  3.04e+02 -1.00e+00    1.0000 >    2.3227    0.0183    1.0990  736.2660 9822.0830   -1.1500    4.6531 342.54 342.5 104.4 10     0.0000    0.0465
M12          ?    BHZ  e P      c 20230606 0152   51.9175 GAU  4.63e-03 -1.00e+00 -1.00e+00 -1.00e+00    1.0000 >    1.6047    0.0055    1.3883  736.8520 9823.3800   -0.9890    5.7926 351.96 352.0  96.3  9     0.0000    0.0321
M12          ?    BHE  e S      ? 20230606 0152   53.0091 GAU  4.00e-03 -1.00e+00 -1.00e+00 -1.00e+00    1.0000 >    2.7005    0.0013    1.0914  736.8520 9823.3800   -0.9890    5.7926 351.96 352.0  93.3  9     0.0000    0.0540
END_PHASE
END_NLLOC

