NLLOC "./loc/SEML.20230606.020220.grid0" "LOCATED" "Location completed."
PUBLIC_ID None
SIGNATURE "Arham Zakki Edelo - edelo.17034@mhs.its.ac.id   obs:./obs/2023_06.obs   NLLoc:v7.00.10(30Aug2020)   run:28Dec2023 20h03m54"
COMMENT "SEML"
GRID  2001 2001 1001  727 9811 -2  0.01 0.01 0.01 PROB_DENSITY
SEARCH OCTREE nInitial 4851 nEvaluated 20011 smallestNodeSide 0.014881/0.014881/0.014205 oct_tree_integral 1.808411e-02 scatter_volume 1.787279e-02
HYPOCENTER  x 737.588 y 9818.63 z 0.947443  OT 19.4031  ix -1 iy -1 iz -1 MAXIMUM_LIKELIHOOD
GEOGRAPHIC  OT 2023 06 06  02 02 19.403085  Lat 9818.626488 Long 737.587798 Depth 0.947443
QUALITY  Pmax 1.26695e+71 MFmin 74.1876 MFmax 87.2664 RMS 0.0197856 Nphs 20 Gap 252.378 Dist 0.873028 Mamp -9.90 0 Mdur -9.90 0
VPVSRATIO  VpVsRatio 1.74883  Npair 10  Diff 0.584499
STATISTICS  ExpectX 737.580560 Y 9818.610113 Z 0.930630  CovXX 0.0157954 XY 0.00260612 XZ 0.00462776 YY 0.00959168 YZ -0.00250102 ZZ 0.0125725 EllAz1  147.23 Dip1  -34.5055 Len1  0.143941 Az2  205.209 Dip2  37.6441 Len2  0.213813 Len3  2.599273e-01
STAT_GEOG  ExpectLat 9818.610113 Long 737.580560 Depth 0.930630
TRANSFORM  NONE
QML_OriginQuality  assocPhCt 20  usedPhCt 20  assocStaCt -1  usedStaCt 10  depthPhCt -1  stdErr 0.0197856  azGap 252.378  secAzGap 252.378  gtLevel -  minDist 0.873028 maxDist 4.81012 medDist 2.65285
QML_OriginUncertainty  horUnc -1  minHorUnc 0.140986  maxHorUnc 0.196248  azMaxHorUnc 69.9819
QML_ConfidenceEllipsoid  semiMajorAxisLength 0.259927  semiMinorAxisLength 0.143941  semiIntermediateAxisLength 0.213813  majorAxisPlunge 33.5894  majorAxisAzimuth 84.3943  majorAxisRotation 292.693
FOCALMECH  Hyp  9818.626488 737.587798 0.947443 Mech  0 0 0 mf  0 nObs -1
PHASE ID Ins Cmp On Pha  FM Date     HrMn   Sec     Err  ErrMag    Coda      Amp       Per       PriorWt  >   TTpred    Res       Weight    StaLoc(X  Y         Z)        SDist    SAzim  RAz  RDip RQual    Tcorr       TTerr
M06          ?    BHZ  i P      c 20230606 0202   20.0321 GAU  1.13e-03 -1.00e+00  8.38e+02 -1.00e+00    1.0000 >    0.6601   -0.0311    0.9118  738.3100 9819.1170   -1.3960    0.8730  55.82  55.8 158.9 10     0.0000    0.0132
M06          ?    BHN  i S      ? 20230606 0202   20.5522 GAU  2.01e-03 -1.00e+00  1.33e+02 -1.00e+00    1.0000 >    1.1336    0.0156    1.0718  738.3100 9819.1170   -1.3960    0.8730  55.82  55.8 157.4 10     0.0000    0.0227
M02          ?    BHZ  i P      d 20230606 0202   20.1350 GAU  1.12e-03 -1.00e+00 -1.00e+00 -1.00e+00    1.0000 >    0.7269    0.0051    1.3194  736.5970 9819.4060   -1.4960    1.2607 308.19 308.2 151.9 10     0.0000    0.0145
M02          ?    BHN  e S      ? 20230606 0202   20.5851 GAU  1.80e-03 -1.00e+00 -1.00e+00 -1.00e+00    1.0000 >    1.2482   -0.0662    0.3438  736.5970 9819.4060   -1.4960    1.2607 308.19 308.2 149.7 10     0.0000    0.0250
M14          ?    BHZ  i P      c 20230606 0202   20.1243 GAU  1.34e-03 -1.00e+00  6.25e+01 -1.00e+00    1.0000 >    0.7188    0.0024    1.3466  737.5530 9820.0110   -1.3980    1.3849 358.56 358.6 148.5 10     0.0000    0.0144
M14          ?    BHE  e S      ? 20230606 0202   20.6321 GAU  1.81e-03 -1.00e+00  9.72e+02 -1.00e+00    1.0000 >    1.2341   -0.0051    1.1981  737.5530 9820.0110   -1.3980    1.3849 358.56 358.6 146.1 10     0.0000    0.0247
M11          ?    BHZ  i P      c 20230606 0202   20.1903 GAU  1.29e-03 -1.00e+00  7.93e+02 -1.00e+00    1.0000 >    0.8053   -0.0180    1.2045  738.4670 9820.4900   -1.3120    2.0605  25.26  25.3 136.3 10     0.0000    0.0161
M11          ?    BHN  i S      ? 20230606 0202   20.8372 GAU  3.58e-03 -1.00e+00  3.64e+02 -1.00e+00    1.0000 >    1.3815    0.0525    0.4386  738.4670 9820.4900   -1.3120    2.0605  25.26  25.3 132.5 10     0.0000    0.0276
M09          ?    BHZ  i P      c 20230606 0202   20.2623 GAU  9.70e-04 -1.00e+00  3.33e+02 -1.00e+00    1.0000 >    0.8552    0.0040    1.2960  737.8820 9820.9850   -1.2700    2.3768   7.11   7.1 131.3 10     0.0000    0.0171
M09          ?    BHE  e S      ? 20230606 0202   20.8577 GAU  1.29e-03 -1.00e+00  2.81e+02 -1.00e+00    1.0000 >    1.4664   -0.0117    1.1002  737.8820 9820.9850   -1.2700    2.3768   7.11   7.1 127.0 10     0.0000    0.0293
M10          ?    BHZ  i P      c 20230606 0202   20.3778 GAU  2.70e-03 -1.00e+00 -1.00e+00 -1.00e+00    1.0000 >    0.9576    0.0170    1.0738  736.5490 9821.3650   -1.2200    2.9289 339.23 339.2 124.4 10     0.0000    0.0192
M10          ?    BHE  e S      ? 20230606 0202   21.0643 GAU  1.29e-03 -1.00e+00 -1.00e+00 -1.00e+00    1.0000 >    1.6404    0.0208    0.9087  736.5490 9821.3650   -1.2200    2.9289 339.23 339.2 118.9 10     0.0000    0.0328
M13          ?    BHZ  i P      c 20230606 0202   20.3530 GAU  2.25e-03 -1.00e+00 -1.00e+00 -1.00e+00    1.0000 >    0.9610   -0.0111    1.2591  737.1780 9821.5410   -1.2220    2.9432 352.00 352.0 124.2 10     0.0000    0.0192
M13          ?    BHE  e S      ? 20230606 0202   21.0240 GAU  3.01e-03 -1.00e+00 -1.00e+00 -1.00e+00    1.0000 >    1.6461   -0.0252    0.9479  737.1780 9821.5410   -1.2220    2.9432 352.00 352.0 118.7 10     0.0000    0.0329
M08          ?    BHZ  i P      d 20230606 0202   20.5038 GAU  1.61e-03 -1.00e+00 -1.00e+00 -1.00e+00    1.0000 >    1.0923    0.0084    1.1800  738.2480 9822.1600   -1.1510    3.5947  10.58  10.6 117.8 10     0.0000    0.0218
M08          ?    BHN  e S      ? 20230606 0202   21.2297 GAU  2.01e-03 -1.00e+00  1.64e+02 -1.00e+00    1.0000 >    1.8676   -0.0411    0.7445  738.2480 9822.1600   -1.1510    3.5947  10.58  10.6 111.2 10     0.0000    0.0374
M05          ?    BHZ  e P      d 20230606 0202   20.5122 GAU  3.48e-03 -1.00e+00 -1.00e+00 -1.00e+00    1.0000 >    1.1162   -0.0071    1.2311  736.2660 9822.0830   -1.1500    3.7006 339.07 339.1 117.0 10     0.0000    0.0223
M05          ?    BHE  e S      ? 20230606 0202   21.2947 GAU  2.63e-03 -1.00e+00 -1.00e+00 -1.00e+00    1.0000 >    1.9080   -0.0164    0.9514  736.2660 9822.0830   -1.1500    3.7006 339.07 339.1 110.2 10     0.0000    0.0382
M12          ?    BHZ  e P      d 20230606 0202   20.7398 GAU  3.10e-03 -1.00e+00 -1.00e+00 -1.00e+00    1.0000 >    1.3552   -0.0184    1.0812  736.8520 9823.3800   -0.9890    4.8101 351.20 351.2 109.2 10     0.0000    0.0271
M12          ?    BHE  e S      ? 20230606 0202   21.7744 GAU  5.66e-03 -1.00e+00 -1.00e+00 -1.00e+00    1.0000 >    2.3040    0.0673    0.3915  736.8520 9823.3800   -0.9890    4.8101 351.20 351.2 101.5  9     0.0000    0.0461
END_PHASE
END_NLLOC

