NLLOC "./loc/SEML.20230606.020117.grid0" "LOCATED" "Location completed."
PUBLIC_ID None
SIGNATURE "Arham Zakki Edelo - edelo.17034@mhs.its.ac.id   obs:./obs/2023_06.obs   NLLoc:v7.00.10(30Aug2020)   run:28Dec2023 20h03m52"
COMMENT "SEML"
GRID  2001 2001 1001  727 9811 -2  0.01 0.01 0.01 PROB_DENSITY
SEARCH OCTREE nInitial 4851 nEvaluated 20011 smallestNodeSide 0.014881/0.014881/0.014205 oct_tree_integral 2.311370e-02 scatter_volume 2.304315e-02
HYPOCENTER  x 737.811 y 9818.33 z 0.975852  OT 17.1505  ix -1 iy -1 iz -1 MAXIMUM_LIKELIHOOD
GEOGRAPHIC  OT 2023 06 06  02 01 17.150517  Lat 9818.328869 Long 737.811012 Depth 0.975852
QUALITY  Pmax 4.24035e+67 MFmin 71.8868 MFmax 78.7523 RMS 0.0289258 Nphs 20 Gap 279.242 Dist 0.932813 Mamp -9.90 0 Mdur -9.90 0
VPVSRATIO  VpVsRatio 1.80452  Npair 10  Diff 0.662008
STATISTICS  ExpectX 737.922698 Y 9818.243312 Z 0.873483  CovXX 0.0208509 XY -0.00869289 XZ -0.0105804 YY 0.0156192 YZ 0.00404714 ZZ 0.0238597 EllAz1  47.0573 Dip1  17.6331 Len1  0.16979 Az2  334.881 Dip2  -43.9197 Len2  0.233084 Len3  3.602877e-01
STAT_GEOG  ExpectLat 9818.243312 Long 737.922698 Depth 0.873483
TRANSFORM  NONE
QML_OriginQuality  assocPhCt 20  usedPhCt 20  assocStaCt -1  usedStaCt 10  depthPhCt -1  stdErr 0.0289258  azGap 279.242  secAzGap 279.242  gtLevel -  minDist 0.932813 maxDist 5.14136 medDist 2.96549
QML_OriginUncertainty  horUnc -1  minHorUnc 0.145125  maxHorUnc 0.250639  azMaxHorUnc 126.626
QML_ConfidenceEllipsoid  semiMajorAxisLength 0.360288  semiMinorAxisLength 0.16979  semiIntermediateAxisLength 0.233084  majorAxisPlunge -40.8076  majorAxisAzimuth 121.129  majorAxisRotation 108.465
FOCALMECH  Hyp  9818.328869 737.811012 0.975852 Mech  0 0 0 mf  0 nObs -1
PHASE ID Ins Cmp On Pha  FM Date     HrMn   Sec     Err  ErrMag    Coda      Amp       Per       PriorWt  >   TTpred    Res       Weight    StaLoc(X  Y         Z)        SDist    SAzim  RAz  RDip RQual    Tcorr       TTerr
M06          ?    BHZ  i P      c 20230606 0201   17.8320 GAU  5.24e-04 -1.00e+00  2.52e+02 -1.00e+00    1.0000 >    0.6725    0.0090    1.5423  738.3100 9819.1170   -1.3960    0.9328  32.34  32.3 157.9 10     0.0000    0.0135
M06          ?    BHE  e S      ? 20230606 0201   18.3455 GAU  4.37e-04 -1.00e+00  4.01e+01 -1.00e+00    1.0000 >    1.1539    0.0410    0.8234  738.3100 9819.1170   -1.3960    0.9328  32.34  32.3 156.3 10     0.0000    0.0231
M02          ?    BHZ  e P      c 20230606 0201   17.9290 GAU  2.17e-03 -1.00e+00 -1.00e+00 -1.00e+00    1.0000 >    0.7813   -0.0028    1.5873  736.5970 9819.4060   -1.4960    1.6230 311.58 311.6 145.6 10     0.0000    0.0156
M02          ?    BHN  e S      ? 20230606 0201   18.4839 GAU  3.46e-03 -1.00e+00  4.85e+03 -1.00e+00    1.0000 >    1.3404   -0.0070    1.3207  736.5970 9819.4060   -1.4960    1.6230 311.58 311.6 142.9 10     0.0000    0.0268
M14          ?    BHZ  i P      c 20230606 0201   17.8968 GAU  4.02e-03 -1.00e+00 -1.00e+00 -1.00e+00    1.0000 >    0.7704   -0.0241    1.1245  737.5530 9820.0110   -1.3980    1.7018 351.28 351.3 143.2 10     0.0000    0.0154
M14          ?    BHE  e S      ? 20230606 0201   18.4732 GAU  4.24e-03 -1.00e+00  5.38e+02 -1.00e+00    1.0000 >    1.3213    0.0014    1.3589  737.5530 9820.0110   -1.3980    1.7018 351.28 351.3 140.3 10     0.0000    0.0264
M11          ?    BHZ  i P      c 20230606 0201   17.9854 GAU  1.04e-03 -1.00e+00  7.90e+01 -1.00e+00    1.0000 >    0.8462   -0.0113    1.4622  738.4670 9820.4900   -1.3120    2.2585  16.89  16.9 133.8 10     0.0000    0.0169
M11          ?    BHE  e S      ? 20230606 0201   18.6054 GAU  3.35e-03 -1.00e+00  3.42e+01 -1.00e+00    1.0000 >    1.4503    0.0046    1.3060  738.4670 9820.4900   -1.3120    2.2585  16.89  16.9 129.8 10     0.0000    0.0290
M09          ?    BHZ  i P      c 20230606 0201   18.0677 GAU  2.58e-03 -1.00e+00  2.26e+02 -1.00e+00    1.0000 >    0.9150    0.0022    1.5359  737.8820 9820.9850   -1.2700    2.6571   1.53   1.5 128.2 10     0.0000    0.0183
M09          ?    BHE  e S      ? 20230606 0201   18.7019 GAU  1.89e-03 -1.00e+00  4.76e+02 -1.00e+00    1.0000 >    1.5670   -0.0156    1.1535  737.8820 9820.9850   -1.2700    2.6571   1.53   1.5 123.5 10     0.0000    0.0313
M13          ?    BHZ  i P      c 20230606 0201   18.1893 GAU  2.05e-03 -1.00e+00  7.80e+01 -1.00e+00    1.0000 >    1.0360    0.0028    1.4846  737.1780 9821.5410   -1.2220    3.2739 348.85 348.9 121.6 10     0.0000    0.0207
M13          ?    BHE  e S      ? 20230606 0201   18.9959 GAU  2.48e-03 -1.00e+00 -1.00e+00 -1.00e+00    1.0000 >    1.7720    0.0733    0.5530  737.1780 9821.5410   -1.2220    3.2739 348.85 348.9 115.8 10     0.0000    0.0354
M10          ?    BHZ  e P      d 20230606 0201   18.2884 GAU  2.98e-03 -1.00e+00  1.49e+03 -1.00e+00    1.0000 >    1.0387    0.0991    0.3212  736.5490 9821.3650   -1.2200    3.2880 337.43 337.4 121.4 10     0.0000    0.0208
M10          ?    BHE  e S      ? 20230606 0201   19.1576 GAU  2.24e-03 -1.00e+00 -1.00e+00 -1.00e+00    1.0000 >    1.7766    0.2304    0.0539  736.5490 9821.3650   -1.2200    3.2880 337.43 337.4 115.5 10     0.0000    0.0355
M08          ?    BHZ  e P      d 20230606 0201   18.2977 GAU  7.49e-04 -1.00e+00  4.04e+02 -1.00e+00    1.0000 >    1.1551   -0.0079    1.3943  738.2480 9822.1600   -1.1510    3.8560   6.51   6.5 116.4 10     0.0000    0.0231
M08          ?    BHN  e S      ? 20230606 0201   19.1238 GAU  2.64e-03 -1.00e+00  2.83e+02 -1.00e+00    1.0000 >    1.9721    0.0011    1.1236  738.2480 9822.1600   -1.1510    3.8560   6.51   6.5 109.7 10     0.0000    0.0394
M05          ?    BHZ  e P      c 20230606 0201   18.3781 GAU  1.91e-03 -1.00e+00  1.03e+02 -1.00e+00    1.0000 >    1.2019    0.0257    1.1359  736.2660 9822.0830   -1.1500    4.0596 337.63 337.6 115.1 10     0.0000    0.0240
M05          ?    BHN  e S      ? 20230606 0201   19.3117 GAU  7.19e-04 -1.00e+00  2.95e+02 -1.00e+00    1.0000 >    2.0508    0.1103    0.3324  736.2660 9822.0830   -1.1500    4.0596 337.63 337.6 108.1 10     0.0000    0.0410
M12          ?    BHZ  i P      c 20230606 0201   18.6888 GAU  2.15e-03 -1.00e+00 -1.00e+00 -1.00e+00    1.0000 >    1.4376    0.1007    0.3392  736.8520 9823.3800   -0.9890    5.1414 349.25 349.2  92.5  8     0.0000    0.0288
M12          ?    BHN  e S      ? 20230606 0201   19.8643 GAU  2.61e-03 -1.00e+00 -1.00e+00 -1.00e+00    1.0000 >    2.4310    0.2828    0.0472  736.8520 9823.3800   -0.9890    5.1414 349.25 349.2  70.4 10     0.0000    0.0486
END_PHASE
END_NLLOC

