NLLOC "./loc/SEML.20230606.020137.grid0" "LOCATED" "Location completed."
PUBLIC_ID None
SIGNATURE "Arham Zakki Edelo - edelo.17034@mhs.its.ac.id   obs:./obs/2023_06.obs   NLLoc:v7.00.10(30Aug2020)   run:28Dec2023 20h03m53"
COMMENT "SEML"
GRID  2001 2001 1001  727 9811 -2  0.01 0.01 0.01 PROB_DENSITY
SEARCH OCTREE nInitial 4851 nEvaluated 20011 smallestNodeSide 0.007440/0.007440/0.007102 oct_tree_integral 1.014936e-02 scatter_volume 1.012557e-02
HYPOCENTER  x 737.964 y 9818.56 z 0.972301  OT 36.9794  ix -1 iy -1 iz -1 MAXIMUM_LIKELIHOOD
GEOGRAPHIC  OT 2023 06 06  02 01 36.979411  Lat 9818.555804 Long 737.963542 Depth 0.972301
QUALITY  Pmax 2.54256e+66 MFmin 73.1783 MFmax 89.9441 RMS 0.0367535 Nphs 20 Gap 270.199 Dist 0.659526 Mamp -9.90 0 Mdur -9.90 0
VPVSRATIO  VpVsRatio 1.85586  Npair 10  Diff 0.586838
STATISTICS  ExpectX 738.018731 Y 9818.541196 Z 0.953582  CovXX 0.0358916 XY -0.00168264 XZ -0.00910838 YY 0.00804125 YZ 0.00199322 ZZ 0.021292 EllAz1  0.891452 Dip1  -7.78026 Len1  0.165323 Az2  255.391 Dip2  -62.9206 Len2  0.245277 Len3  3.778243e-01
STAT_GEOG  ExpectLat 9818.541196 Long 738.018731 Depth 0.953582
TRANSFORM  NONE
QML_OriginQuality  assocPhCt 20  usedPhCt 20  assocStaCt -1  usedStaCt 10  depthPhCt -1  stdErr 0.0367535  azGap 270.199  secAzGap 270.199  gtLevel -  minDist 0.659526 maxDist 4.9506 medDist 2.75869
QML_OriginUncertainty  horUnc -1  minHorUnc 0.135137  maxHorUnc 0.287721  azMaxHorUnc 93.445
QML_ConfidenceEllipsoid  semiMajorAxisLength 0.377824  semiMinorAxisLength 0.165323  semiIntermediateAxisLength 0.245277  majorAxisPlunge -25.7617  majorAxisAzimuth 94.6722  majorAxisRotation 193.732
FOCALMECH  Hyp  9818.555804 737.963542 0.972301 Mech  0 0 0 mf  0 nObs -1
PHASE ID Ins Cmp On Pha  FM Date     HrMn   Sec     Err  ErrMag    Coda      Amp       Per       PriorWt  >   TTpred    Res       Weight    StaLoc(X  Y         Z)        SDist    SAzim  RAz  RDip RQual    Tcorr       TTerr
M06          ?    BHZ  i P      c 20230606 0201   37.6225 GAU  1.68e-03 -1.00e+00 -1.00e+00 -1.00e+00    1.0000 >    0.6487   -0.0056    1.7242  738.3100 9819.1170   -1.3960    0.6595  31.69  31.7 163.9 10     0.0000    0.0130
M06          ?    BHE  e S      ? 20230606 0201   38.1271 GAU  1.69e-03 -1.00e+00  5.78e+01 -1.00e+00    1.0000 >    1.1133    0.0344    0.9389  738.3100 9819.1170   -1.3960    0.6595  31.69  31.7 162.7 10     0.0000    0.0223
M14          ?    BHZ  i P      c 20230606 0201   37.7357 GAU  3.76e-03 -1.00e+00  6.83e+02 -1.00e+00    1.0000 >    0.7417    0.0146    1.5409  737.5530 9820.0110   -1.3980    1.5120 344.25 344.2 146.5 10     0.0000    0.0148
M14          ?    BHE  e S      ? 20230606 0201   38.2451 GAU  1.40e-03 -1.00e+00  3.80e+02 -1.00e+00    1.0000 >    1.2724   -0.0067    1.4293  737.5530 9820.0110   -1.3980    1.5120 344.25 344.2 143.9 10     0.0000    0.0254
M02          ?    BHZ  e P      c 20230606 0201   37.7593 GAU  1.61e-03 -1.00e+00 -1.00e+00 -1.00e+00    1.0000 >    0.7786    0.0014    1.7321  736.5970 9819.4060   -1.4960    1.6094 301.89 301.9 145.8 10     0.0000    0.0156
M02          ?    BHN  e S      ? 20230606 0201   38.2984 GAU  2.05e-03 -1.00e+00  1.12e+03 -1.00e+00    1.0000 >    1.3359   -0.0169    1.2590  736.5970 9819.4060   -1.4960    1.6094 301.89 301.9 143.1 10     0.0000    0.0267
M11          ?    BHZ  i P      c 20230606 0201   37.7724 GAU  3.09e-03 -1.00e+00  8.83e+01 -1.00e+00    1.0000 >    0.7991   -0.0061    1.6547  738.4670 9820.4900   -1.3120    1.9986  14.59  14.6 137.6 10     0.0000    0.0160
M11          ?    BHE  e S      ? 20230606 0201   38.3462 GAU  3.35e-03 -1.00e+00 -1.00e+00 -1.00e+00    1.0000 >    1.3700   -0.0033    1.4035  738.4670 9820.4900   -1.3120    1.9986  14.59  14.6 134.0 10     0.0000    0.0274
M09          ?    BHZ  i P      c 20230606 0201   37.8630 GAU  1.30e-03 -1.00e+00  1.50e+02 -1.00e+00    1.0000 >    0.8697    0.0139    1.5320  737.8820 9820.9850   -1.2700    2.4306 358.08 358.1 130.9 10     0.0000    0.0174
M09          ?    BHN  e S      ? 20230606 0201   38.4762 GAU  2.89e-03 -1.00e+00  5.87e+02 -1.00e+00    1.0000 >    1.4901    0.0067    1.3482  737.8820 9820.9850   -1.2700    2.4306 358.08 358.1 126.6 10     0.0000    0.0298
M13          ?    BHZ  i P      c 20230606 0201   37.9764 GAU  2.25e-03 -1.00e+00 -1.00e+00 -1.00e+00    1.0000 >    0.9951    0.0018    1.6167  737.1780 9821.5410   -1.2220    3.0868 345.26 345.3 123.3 10     0.0000    0.0199
M13          ?    BHN  e S      ? 20230606 0201   38.7115 GAU  2.04e-03 -1.00e+00 -1.00e+00 -1.00e+00    1.0000 >    1.7029    0.0292    1.0367  737.1780 9821.5410   -1.2220    3.0868 345.26 345.3 117.7 10     0.0000    0.0341
M10          ?    BHZ  e P      d 20230606 0201   38.1325 GAU  4.64e-03 -1.00e+00  8.26e+02 -1.00e+00    1.0000 >    1.0073    0.1458    0.2177  736.5490 9821.3650   -1.2200    3.1452 333.27 333.3 122.7 10     0.0000    0.0201
M10          ?    BHN  e S      ? 20230606 0201   38.9612 GAU  3.86e-03 -1.00e+00  8.16e+01 -1.00e+00    1.0000 >    1.7235    0.2583    0.1325  736.5490 9821.3650   -1.2200    3.1452 333.27 333.3 117.0 10     0.0000    0.0345
M08          ?    BHZ  e P      d 20230606 0201   38.0633 GAU  2.37e-04 -1.00e+00  8.63e+02 -1.00e+00    1.0000 >    1.0999   -0.0160    1.3450  738.2480 9822.1600   -1.1510    3.6154   4.51   4.5 118.0 10     0.0000    0.0220
M08          ?    BHN  e S      ? 20230606 0201   38.7911 GAU  2.02e-03 -1.00e+00  2.72e+02 -1.00e+00    1.0000 >    1.8793   -0.0676    0.3748  738.2480 9822.1600   -1.1510    3.6154   4.51   4.5 111.6 10     0.0000    0.0376
M05          ?    BHZ  e P      d 20230606 0201   38.2790 GAU  1.10e-03 -1.00e+00  2.88e+02 -1.00e+00    1.0000 >    1.1680    0.1316    0.2425  736.2660 9822.0830   -1.1500    3.9144 334.30 334.3 115.9 10     0.0000    0.0234
M05          ?    BHE  e S      ? 20230606 0201   39.2717 GAU  8.98e-04 -1.00e+00 -1.00e+00 -1.00e+00    1.0000 >    1.9940    0.2983    0.1015  736.2660 9822.0830   -1.1500    3.9144 334.30 334.3 109.1 10     0.0000    0.0399
M12          ?    BHZ  e P      c 20230606 0201   38.4767 GAU  3.34e-03 -1.00e+00 -1.00e+00 -1.00e+00    1.0000 >    1.3912    0.1060    0.2218  736.8520 9823.3800   -0.9890    4.9506 347.02 347.0 107.0  8     0.0000    0.0278
M12          ?    BHN  e S      ? 20230606 0201   39.5680 GAU  2.91e-03 -1.00e+00 -1.00e+00 -1.00e+00    1.0000 >    2.3578    0.2308    0.1480  736.8520 9823.3800   -0.9890    4.9506 347.02 347.0  70.4 10     0.0000    0.0472
END_PHASE
END_NLLOC

