NLLOC "./loc/SEML.20230606.224016.grid0" "LOCATED" "Location completed."
PUBLIC_ID None
SIGNATURE "Arham Zakki Edelo - edelo.17034@mhs.its.ac.id   obs:./obs/2023_06.obs   NLLoc:v7.00.10(30Aug2020)   run:28Dec2023 20h03m59"
COMMENT "SEML"
GRID  2001 2001 1001  727 9811 -2  0.01 0.01 0.01 PROB_DENSITY
SEARCH OCTREE nInitial 4851 nEvaluated 20003 smallestNodeSide 0.029762/0.029762/0.028409 oct_tree_integral 8.840917e-02 scatter_volume 8.790222e-02
HYPOCENTER  x 739.336 y 9818.84 z 1.7642  OT 15.802  ix -1 iy -1 iz -1 MAXIMUM_LIKELIHOOD
GEOGRAPHIC  OT 2023 06 06  22 40 15.801952  Lat 9818.842262 Long 739.336310 Depth 1.764205
QUALITY  Pmax 1.82822e+28 MFmin 34.1912 MFmax 44.9817 RMS 0.00869342 Nphs 10 Gap 312.802 Dist 1.06245 Mamp -9.90 0 Mdur -9.90 0
VPVSRATIO  VpVsRatio 1.82775  Npair 5  Diff 0.474535
STATISTICS  ExpectX 738.411335 Y 9818.237049 Z 0.229811  CovXX 1.0554 XY 0.614543 XZ 1.58413 YY 0.442731 YZ 1.04023 ZZ 2.68247 EllAz1  185.765 Dip1  24.2647 Len1  0.343806 Az2  287.741 Dip2  24.7166 Len2  0.573609 Len3  3.782892e+00
STAT_GEOG  ExpectLat 9818.237049 Long 738.411335 Depth 0.229811
TRANSFORM  NONE
QML_OriginQuality  assocPhCt 10  usedPhCt 10  assocStaCt -1  usedStaCt 5  depthPhCt -1  stdErr 0.00869342  azGap 312.802  secAzGap 312.802  gtLevel -  minDist 1.06245 maxDist 4.46421 medDist 2.13217
QML_OriginUncertainty  horUnc -1  minHorUnc 0.378852  maxHorUnc 1.81719  azMaxHorUnc 58.2476
QML_ConfidenceEllipsoid  semiMajorAxisLength 3.78289  semiMinorAxisLength 0.343806  semiIntermediateAxisLength 0.573609  majorAxisPlunge 54.1071  majorAxisAzimuth 57.2382  majorAxisRotation 287.642
FOCALMECH  Hyp  9818.842262 739.336310 1.764205 Mech  0 0 0 mf  0 nObs -1
PHASE ID Ins Cmp On Pha  FM Date     HrMn   Sec     Err  ErrMag    Coda      Amp       Per       PriorWt  >   TTpred    Res       Weight    StaLoc(X  Y         Z)        SDist    SAzim  RAz  RDip RQual    Tcorr       TTerr
M06          ?    BHZ  i P      d 20230606 2240   16.6575 GAU  1.42e-03 -1.00e+00 -1.00e+00 -1.00e+00    1.0000 >    0.8550    0.0006    1.4958  738.3100 9819.1170   -1.3960    1.0624 284.99 285.0 159.3 10     0.0000    0.0171
M06          ?    BHE  e S      ? 20230606 2240   17.2517 GAU  1.73e-04 -1.00e+00 -1.00e+00 -1.00e+00    1.0000 >    1.4520   -0.0023    1.2610  738.3100 9819.1170   -1.3960    1.0624 284.99 285.0 158.6 10     0.0000    0.0290
M11          ?    BHZ  e P      c 20230606 2240   16.7160 GAU  1.86e-03 -1.00e+00 -1.00e+00 -1.00e+00    1.0000 >    0.9199   -0.0059    1.4404  738.4670 9820.4900   -1.3120    1.8630 332.18 332.2 145.1 10     0.0000    0.0184
M11          ?    BHE  e S      ? 20230606 2240   17.3623 GAU  2.01e-04 -1.00e+00 -1.00e+00 -1.00e+00    1.0000 >    1.5609   -0.0006    1.2205  738.4670 9820.4900   -1.3120    1.8630 332.18 332.2 144.0 10     0.0000    0.0312
M14          ?    BHZ  e P      c 20230606 2240   16.5289 GAU  2.93e-03 -1.00e+00 -1.00e+00 -1.00e+00    1.0000 >    0.9772   -0.2503    0.0000  737.5530 9820.0110   -1.3980    2.1322 303.24 303.2 141.8 10     0.0000    0.0195
M14          ?    BHE  e S      ? 20230606 2240   17.0176 GAU  5.62e-04 -1.00e+00  4.34e+02 -1.00e+00    1.0000 >    1.6586   -0.4430    0.0000  737.5530 9820.0110   -1.3980    2.1322 303.24 303.2 140.5 10     0.0000    0.0332
M09          ?    BHZ  e P      c 20230606 2240   16.8347 GAU  4.20e-04 -1.00e+00  6.63e+01 -1.00e+00    1.0000 >    1.0184    0.0143    1.2994  737.8820 9820.9850   -1.2700    2.5897 325.83 325.8 134.3 10     0.0000    0.0204
M09          ?    BHN  e S      ? 20230606 2240   17.5311 GAU  2.26e-04 -1.00e+00  4.75e+02 -1.00e+00    1.0000 >    1.7264    0.0028    1.1559  737.8820 9820.9850   -1.2700    2.5897 325.83 325.8 132.8 10     0.0000    0.0345
M05          ?    BHZ  e P      d 20230606 2240   17.1421 GAU  9.01e-04 -1.00e+00  2.61e+02 -1.00e+00    1.0000 >    1.3533   -0.0131    1.2124  736.2660 9822.0830   -1.1500    4.4642 316.55 316.5 113.9 10     0.0000    0.0271
M05          ?    BHN  e S      ? 20230606 2240   18.1053 GAU  2.26e-04 -1.00e+00  2.71e+02 -1.00e+00    1.0000 >    2.2848    0.0186    0.9146  736.2660 9822.0830   -1.1500    4.4642 316.55 316.5 111.9 10     0.0000    0.0457
END_PHASE
END_NLLOC

