NLLOC "./loc/SEML.20230606.015746.grid0" "LOCATED" "Location completed."
PUBLIC_ID None
SIGNATURE "Arham Zakki Edelo - edelo.17034@mhs.its.ac.id   obs:./obs/2023_06.obs   NLLoc:v7.00.10(30Aug2020)   run:28Dec2023 20h03m49"
COMMENT "SEML"
GRID  2001 2001 1001  727 9811 -2  0.01 0.01 0.01 PROB_DENSITY
SEARCH OCTREE nInitial 4851 nEvaluated 20011 smallestNodeSide 0.014881/0.014881/0.014205 oct_tree_integral 1.614117e-02 scatter_volume 1.614117e-02
HYPOCENTER  x 737.618 y 9818.08 z 1.60085  OT 45.3887  ix -1 iy -1 iz -1 MAXIMUM_LIKELIHOOD
GEOGRAPHIC  OT 2023 06 06  01 57 45.388731  Lat 9818.075893 Long 737.617560 Depth 1.600852
QUALITY  Pmax 1.12736e+79 MFmin 74.8328 MFmax 81.6604 RMS 0.0170101 Nphs 22 Gap 288.874 Dist 1.25035 Mamp -9.90 0 Mdur -9.90 0
VPVSRATIO  VpVsRatio 1.64235  Npair 11  Diff 0.5751
STATISTICS  ExpectX 737.616579 Y 9818.072919 Z 1.604454  CovXX 0.0135317 XY 0.00142783 XZ 0.00222986 YY 0.00936002 YZ -0.000441812 ZZ 0.0124247 EllAz1  155.578 Dip1  -18.8504 Len1  0.173688 Az2  222.893 Dip2  48.4833 Len2  0.20032 Len3  2.331770e-01
STAT_GEOG  ExpectLat 9818.072919 Long 737.616579 Depth 1.604454
TRANSFORM  NONE
QML_OriginQuality  assocPhCt 22  usedPhCt 22  assocStaCt -1  usedStaCt 11  depthPhCt -1  stdErr 0.0170101  azGap 288.874  secAzGap 288.874  gtLevel -  minDist 1.25035 maxDist 5.35907 medDist 2.9211
QML_OriginUncertainty  horUnc -1  minHorUnc 0.143219  maxHorUnc 0.179274  azMaxHorUnc 72.8034
QML_ConfidenceEllipsoid  semiMajorAxisLength 0.233177  semiMinorAxisLength 0.173688  semiIntermediateAxisLength 0.20032  majorAxisPlunge 35.3633  majorAxisAzimuth 79.6  majorAxisRotation 307.414
FOCALMECH  Hyp  9818.075893 737.617560 1.600852 Mech  0 0 0 mf  0 nObs -1
PHASE ID Ins Cmp On Pha  FM Date     HrMn   Sec     Err  ErrMag    Coda      Amp       Per       PriorWt  >   TTpred    Res       Weight    StaLoc(X  Y         Z)        SDist    SAzim  RAz  RDip RQual    Tcorr       TTerr
M06          ?    BHZ  i P      c 20230606 0157   46.2269 GAU  9.84e-04 -1.00e+00  3.59e+02 -1.00e+00    1.0000 >    0.8373    0.0009    1.3917  738.3100 9819.1170   -1.3960    1.2504  33.63  33.6 154.5 10     0.0000    0.0167
M06          ?    BHE  e S      ? 20230606 0157   46.8206 GAU  4.90e-03 -1.00e+00  4.15e+02 -1.00e+00    1.0000 >    1.4243    0.0076    1.1743  738.3100 9819.1170   -1.3960    1.2504  33.63  33.6 153.7 10     0.0000    0.0285
M02          ?    BHZ  i P      d 20230606 0157   46.3048 GAU  2.22e-03 -1.00e+00 -1.00e+00 -1.00e+00    1.0000 >    0.9097    0.0064    1.3500  736.5970 9819.4060   -1.4960    1.6765 322.50 322.5 147.9 10     0.0000    0.0182
M02          ?    BHE  e S      ? 20230606 0157   46.9309 GAU  6.77e-04 -1.00e+00 -1.00e+00 -1.00e+00    1.0000 >    1.5477   -0.0056    1.1366  736.5970 9819.4060   -1.4960    1.6765 322.50 322.5 146.7 10     0.0000    0.0310
M14          ?    BHZ  i P      c 20230606 0157   46.3093 GAU  1.08e-03 -1.00e+00  8.93e+01 -1.00e+00    1.0000 >    0.9200    0.0006    1.3667  737.5530 9820.0110   -1.3980    1.9362 358.09 358.1 142.8 10     0.0000    0.0184
M14          ?    BHE  e S      ? 20230606 0157   46.9736 GAU  5.24e-04 -1.00e+00  6.40e+01 -1.00e+00    1.0000 >    1.5642    0.0208    1.0437  737.5530 9820.0110   -1.3980    1.9362 358.09 358.1 141.5 10     0.0000    0.0313
M11          ?    BHZ  i P      c 20230606 0157   46.3804 GAU  1.12e-03 -1.00e+00  5.84e+02 -1.00e+00    1.0000 >    0.9966   -0.0049    1.3243  738.4670 9820.4900   -1.3120    2.5592  19.39  19.4 132.9 10     0.0000    0.0199
M11          ?    BHN  e S      ? 20230606 0157   47.0731 GAU  2.40e-03 -1.00e+00  2.85e+02 -1.00e+00    1.0000 >    1.6926   -0.0083    1.0768  738.4670 9820.4900   -1.3120    2.5592  19.39  19.4 131.1 10     0.0000    0.0339
M03          ?    BHZ  e P      d 20230606 0157   46.4733 GAU  2.79e-03 -1.00e+00  1.65e+03 -1.00e+00    1.0000 >    1.0562    0.0284    1.0016  736.8800 9820.8540   -1.3350    2.8743 345.13 345.1 129.1 10     0.0000    0.0211
M03          ?    BHE  e S      ? 20230606 0157   47.1934 GAU  2.46e-03 -1.00e+00  1.06e+02 -1.00e+00    1.0000 >    1.7934    0.0112    1.0512  736.8800 9820.8540   -1.3350    2.8743 345.13 345.1 127.1 10     0.0000    0.0359
M09          ?    BHZ  i P      c 20230606 0157   46.4193 GAU  2.78e-03 -1.00e+00 -1.00e+00 -1.00e+00    1.0000 >    1.0512   -0.0206    1.1040  737.8820 9820.9850   -1.2700    2.9211   5.19   5.2 127.8 10     0.0000    0.0210
M09          ?    BHE  e S      ? 20230606 0157   47.1753 GAU  3.82e-03 -1.00e+00  7.80e+02 -1.00e+00    1.0000 >    1.7840    0.0026    1.0723  737.8820 9820.9850   -1.2700    2.9211   5.19   5.2 125.8 10     0.0000    0.0357
M10          ?    BHZ  e P      c 20230606 0157   46.5072 GAU  5.79e-03 -1.00e+00 -1.00e+00 -1.00e+00    1.0000 >    1.1433   -0.0248    1.0092  736.5490 9821.3650   -1.2200    3.4583 342.00 342.0 120.9 10     0.0000    0.0229
M10          ?    BHE  e S      ? 20230606 0157   47.3073 GAU  4.47e-03 -1.00e+00 -1.00e+00 -1.00e+00    1.0000 >    1.9379   -0.0193    0.9339  736.5490 9821.3650   -1.2200    3.4583 342.00 342.0 118.8 10     0.0000    0.0388
M13          ?    BHZ  i P      c 20230606 0157   46.5226 GAU  1.93e-03 -1.00e+00 -1.00e+00 -1.00e+00    1.0000 >    1.1505   -0.0166    1.1520  737.1780 9821.5410   -1.2220    3.4929 352.77 352.8 120.6 10     0.0000    0.0230
M13          ?    BHN  e S      ? 20230606 0157   47.3318 GAU  3.22e-03 -1.00e+00  2.13e+02 -1.00e+00    1.0000 >    1.9500   -0.0069    1.0065  737.1780 9821.5410   -1.2220    3.4929 352.77 352.8 118.5 10     0.0000    0.0390
M08          ?    BHZ  i P      d 20230606 0157   46.6935 GAU  1.98e-03 -1.00e+00  2.54e+02 -1.00e+00    1.0000 >    1.2685    0.0363    0.8518  738.2480 9822.1600   -1.1510    4.1325   8.78   8.8 113.6 10     0.0000    0.0254
M08          ?    BHN  e S      ? 20230606 0157   47.5526 GAU  1.92e-03 -1.00e+00  4.39e+02 -1.00e+00    1.0000 >    2.1460    0.0180    0.9296  738.2480 9822.1600   -1.1510    4.1325   8.78   8.8 111.3 10     0.0000    0.0429
M05          ?    BHZ  e P      d 20230606 0157   46.6783 GAU  3.71e-03 -1.00e+00  3.06e+02 -1.00e+00    1.0000 >    1.2887    0.0009    1.2369  736.2660 9822.0830   -1.1500    4.2289 341.36 341.4 112.8 10     0.0000    0.0258
M05          ?    BHN  e S      ? 20230606 0157   47.6106 GAU  3.21e-03 -1.00e+00  3.40e+02 -1.00e+00    1.0000 >    2.1797    0.0423    0.7373  736.2660 9822.0830   -1.1500    4.2289 341.36 341.4 110.3 10     0.0000    0.0436
M12          ?    BHZ  e P      c 20230606 0157   47.0250 GAU  2.58e-03 -1.00e+00 -1.00e+00 -1.00e+00    1.0000 >    1.5098    0.1265    0.0460  736.8520 9823.3800   -0.9890    5.3591 351.79 351.8 102.7 10     0.0000    0.0302
M12          ?    BHN  e S      ? 20230606 0157   48.1938 GAU  5.47e-03 -1.00e+00 -1.00e+00 -1.00e+00    1.0000 >    2.5424    0.2627    0.0037  736.8520 9823.3800   -0.9890    5.3591 351.79 351.8 100.5 10     0.0000    0.0508
END_PHASE
END_NLLOC

