NLLOC "./loc/SEML.20230606.015438.grid0" "LOCATED" "Location completed."
PUBLIC_ID None
SIGNATURE "Arham Zakki Edelo - edelo.17034@mhs.its.ac.id   obs:./obs/2023_06.obs   NLLoc:v7.00.10(30Aug2020)   run:28Dec2023 20h03m41"
COMMENT "SEML"
GRID  2001 2001 1001  727 9811 -2  0.01 0.01 0.01 PROB_DENSITY
SEARCH OCTREE nInitial 4851 nEvaluated 20011 smallestNodeSide 0.029762/0.029762/0.028409 oct_tree_integral 1.499496e-01 scatter_volume 1.499496e-01
HYPOCENTER  x 736.36 y 9818.78 z 1.4233  OT 37.5368  ix -1 iy -1 iz -1 MAXIMUM_LIKELIHOOD
GEOGRAPHIC  OT 2023 06 06  01 54 37.536762  Lat 9818.782738 Long 736.360119 Depth 1.423295
QUALITY  Pmax 6.31106e+26 MFmin 35.3184 MFmax 44.8158 RMS 0.0237166 Nphs 10 Gap 296.244 Dist 1.71219 Mamp -9.90 0 Mdur -9.90 0
VPVSRATIO  VpVsRatio 1.85726  Npair 5  Diff 0.181484
STATISTICS  ExpectX 736.555881 Y 9818.595006 Z 1.175097  CovXX 0.276126 XY -0.150788 XZ -0.11975 YY 0.292332 YZ 0.279455 ZZ 0.381172 EllAz1  15.2118 Dip1  -35.3795 Len1  0.401552 Az2  264.247 Dip2  -26.7411 Len2  0.840855 Len3  1.576045e+00
STAT_GEOG  ExpectLat 9818.595006 Long 736.555881 Depth 1.175097
TRANSFORM  NONE
QML_OriginQuality  assocPhCt 10  usedPhCt 10  assocStaCt -1  usedStaCt 5  depthPhCt -1  stdErr 0.0237166  azGap 296.244  secAzGap 296.244  gtLevel -  minDist 1.71219 maxDist 2.87697 medDist 2.67695
QML_OriginUncertainty  horUnc -1  minHorUnc 0.553548  maxHorUnc 1.00052  azMaxHorUnc 136.538
QML_ConfidenceEllipsoid  semiMajorAxisLength 1.57604  semiMinorAxisLength 0.401552  semiIntermediateAxisLength 0.840855  majorAxisPlunge -42.8384  majorAxisAzimuth 146.395  majorAxisRotation 266.647
FOCALMECH  Hyp  9818.782738 736.360119 1.423295 Mech  0 0 0 mf  0 nObs -1
PHASE ID Ins Cmp On Pha  FM Date     HrMn   Sec     Err  ErrMag    Coda      Amp       Per       PriorWt  >   TTpred    Res       Weight    StaLoc(X  Y         Z)        SDist    SAzim  RAz  RDip RQual    Tcorr       TTerr
M14          ?    BHZ  e P      c 20230606 0154   38.4130 GAU  1.42e-03 -1.00e+00 -1.00e+00 -1.00e+00    1.0000 >    0.8560    0.0202    1.3027  737.5530 9820.0110   -1.3980    1.7122  44.16  44.2 145.4 10     0.0000    0.0171
M14          ?    BHE  e S      ? 20230606 0154   39.0112 GAU  2.79e-03 -1.00e+00  4.25e+02 -1.00e+00    1.0000 >    1.4586    0.0159    1.3211  737.5530 9820.0110   -1.3980    1.7122  44.16  44.2 144.0 10     0.0000    0.0292
M06          ?    BHZ  i P      c 20230606 0154   38.4159 GAU  1.69e-03 -1.00e+00  2.22e+02 -1.00e+00    1.0000 >    0.8931   -0.0140    1.4592  738.3100 9819.1170   -1.3960    1.9783  80.27  80.3 141.0 10     0.0000    0.0179
M06          ?    BHE  e S      ? 20230606 0154   39.0215 GAU  2.00e-03 -1.00e+00 -1.00e+00 -1.00e+00    1.0000 >    1.5214   -0.0367    1.0208  738.3100 9819.1170   -1.3960    1.9783  80.27  80.3 139.5 10     0.0000    0.0304
M09          ?    BHZ  i P      c 20230606 0154   38.6386 GAU  8.23e-04 -1.00e+00 -1.00e+00 -1.00e+00    1.0000 >    0.9811    0.1207    0.0283  737.8820 9820.9850   -1.2700    2.6770  34.65  34.6 129.7 10     0.0000    0.0196
M09          ?    BHE  e S      ? 20230606 0154   39.4183 GAU  4.92e-04 -1.00e+00  3.82e+02 -1.00e+00    1.0000 >    1.6689    0.2126    0.0150  737.8820 9820.9850   -1.2700    2.6770  34.65  34.6 127.7 10     0.0000    0.0334
M11          ?    BHZ  e P      c 20230606 0154   38.5462 GAU  6.49e-03 -1.00e+00 -1.00e+00 -1.00e+00    1.0000 >    0.9961    0.0133    1.4435  738.4670 9820.4900   -1.3120    2.7118  50.98  51.0 129.7 10     0.0000    0.0199
M11          ?    BHN  e S      ? 20230606 0154   39.2517 GAU  4.29e-03 -1.00e+00 -1.00e+00 -1.00e+00    1.0000 >    1.6948    0.0202    1.2110  738.4670 9820.4900   -1.3120    2.7118  50.98  51.0 127.6 10     0.0000    0.0339
M13          ?    BHZ  e P      c 20230606 0154   38.5308 GAU  7.49e-04 -1.00e+00 -1.00e+00 -1.00e+00    1.0000 >    1.0084   -0.0143    1.4533  737.1780 9821.5410   -1.2220    2.8770  16.52  16.5 126.6 10     0.0000    0.0202
M13          ?    BHN  e S      ? 20230606 0154   39.1988 GAU  1.62e-03 -1.00e+00 -1.00e+00 -1.00e+00    1.0000 >    1.7143   -0.0522    0.7451  737.1780 9821.5410   -1.2220    2.8770  16.52  16.5 124.5 10     0.0000    0.0343
END_PHASE
END_NLLOC

