NLLOC "./loc/SEML.20230606.015453.grid0" "LOCATED" "Location completed."
PUBLIC_ID None
SIGNATURE "Arham Zakki Edelo - edelo.17034@mhs.its.ac.id   obs:./obs/2023_06.obs   NLLoc:v7.00.10(30Aug2020)   run:28Dec2023 20h03m42"
COMMENT "SEML"
GRID  2001 2001 1001  727 9811 -2  0.01 0.01 0.01 PROB_DENSITY
SEARCH OCTREE nInitial 4851 nEvaluated 20011 smallestNodeSide 0.014881/0.014881/0.014205 oct_tree_integral 7.480751e-02 scatter_volume 7.480751e-02
HYPOCENTER  x 739.076 y 9818.73 z 1.48722  OT 53.2024  ix -1 iy -1 iz -1 MAXIMUM_LIKELIHOOD
GEOGRAPHIC  OT 2023 06 06  01 54 53.202353  Lat 9818.730655 Long 739.075893 Depth 1.487216
QUALITY  Pmax 1.09e+21 MFmin 28.0795 MFmax 36.4762 RMS 0.00652548 Nphs 8 Gap 315.858 Dist 0.85782 Mamp -9.90 0 Mdur -9.90 0
VPVSRATIO  VpVsRatio 1.68195  Npair 4  Diff 0.437386
STATISTICS  ExpectX 739.079248 Y 9818.725895 Z 1.458134  CovXX 0.198592 XY 0.0230306 XZ -0.0387083 YY 0.0216207 YZ -0.0082743 ZZ 0.0345135 EllAz1  357.371 Dip1  20.7885 Len1  0.247966 Az2  323.21 Dip2  -65.3547 Len2  0.308253 Len3  8.617855e-01
STAT_GEOG  ExpectLat 9818.725895 Long 739.079248 Depth 1.458134
TRANSFORM  NONE
QML_OriginQuality  assocPhCt 8  usedPhCt 8  assocStaCt -1  usedStaCt 4  depthPhCt -1  stdErr 0.00652548  azGap 315.858  secAzGap 315.858  gtLevel -  minDist 0.85782 maxDist 3.39117 medDist 2.20635
QML_OriginUncertainty  horUnc -1  minHorUnc 0.207237  maxHorUnc 0.680838  azMaxHorUnc 82.7055
QML_ConfidenceEllipsoid  semiMajorAxisLength 0.861785  semiMinorAxisLength 0.247966  semiIntermediateAxisLength 0.308253  majorAxisPlunge -12.645  majorAxisAzimuth 82.4847  majorAxisRotation 156.641
FOCALMECH  Hyp  9818.730655 739.075893 1.487216 Mech  0 0 0 mf  0 nObs -1
PHASE ID Ins Cmp On Pha  FM Date     HrMn   Sec     Err  ErrMag    Coda      Amp       Per       PriorWt  >   TTpred    Res       Weight    StaLoc(X  Y         Z)        SDist    SAzim  RAz  RDip RQual    Tcorr       TTerr
M06          ?    BHZ  i P      c 20230606 0154   53.9779 GAU  4.31e-04 -1.00e+00  1.75e+01 -1.00e+00    1.0000 >    0.7790   -0.0035    1.5199  738.3100 9819.1170   -1.3960    0.8578 296.77 296.8 161.7 10     0.0000    0.0156
M06          ?    BHE  e S      ? 20230606 0154   54.5363 GAU  4.21e-04 -1.00e+00 -1.00e+00 -1.00e+00    1.0000 >    1.3269    0.0070    1.2797  738.3100 9819.1170   -1.3960    0.8578 296.77 296.8 161.1 10     0.0000    0.0265
M11          ?    BHZ  e P      d 20230606 0154   54.0677 GAU  5.70e-03 -1.00e+00  1.05e+02 -1.00e+00    1.0000 >    0.8685   -0.0032    1.4769  738.4670 9820.4900   -1.3120    1.8617 340.91 340.9 142.9 10     0.0000    0.0174
M11          ?    BHE  e S      ? 20230606 0154   54.6877 GAU  1.17e-03 -1.00e+00 -1.00e+00 -1.00e+00    1.0000 >    1.4778    0.0075    1.2105  738.4670 9820.4900   -1.3120    1.8617 340.91 340.9 141.5 10     0.0000    0.0296
M09          ?    BHZ  e P      c 20230606 0154   54.1797 GAU  6.78e-04 -1.00e+00 -1.00e+00 -1.00e+00    1.0000 >    0.9686    0.0087    1.4093  737.8820 9820.9850   -1.2700    2.5510 332.09 332.1 132.3 10     0.0000    0.0194
M09          ?    BHN  e S      ? 20230606 0154   54.8386 GAU  1.68e-04 -1.00e+00  4.81e+02 -1.00e+00    1.0000 >    1.6467   -0.0105    1.1038  737.8820 9820.9850   -1.2700    2.5510 332.09 332.1 130.4 10     0.0000    0.0329
M13          ?    BHZ  e P      c 20230606 0154   54.6727 GAU  6.32e-04 -1.00e+00 -1.00e+00 -1.00e+00    1.0000 >    1.1170    0.3533    0.0000  737.1780 9821.5410   -1.2220    3.3912 325.97 326.0 121.8 10     0.0000    0.0223
M13          ?    BHE  e S      ? 20230606 0154   55.6685 GAU  2.42e-04 -1.00e+00 -1.00e+00 -1.00e+00    1.0000 >    1.8958    0.5703    0.0000  737.1780 9821.5410   -1.2220    3.3912 325.97 326.0 119.6 10     0.0000    0.0379
END_PHASE
END_NLLOC

