NLLOC "./loc/SEML.20230606.015328.grid0" "LOCATED" "Location completed."
PUBLIC_ID None
SIGNATURE "Arham Zakki Edelo - edelo.17034@mhs.its.ac.id   obs:./obs/2023_06.obs   NLLoc:v7.00.10(30Aug2020)   run:28Dec2023 20h03m40"
COMMENT "SEML"
GRID  2001 2001 1001  727 9811 -2  0.01 0.01 0.01 PROB_DENSITY
SEARCH OCTREE nInitial 4851 nEvaluated 20019 smallestNodeSide 0.014881/0.014881/0.014205 oct_tree_integral 7.313217e-02 scatter_volume 7.313217e-02
HYPOCENTER  x 736.948 y 9817.93 z 1.14631  OT 28.0137  ix -1 iy -1 iz -1 MAXIMUM_LIKELIHOOD
GEOGRAPHIC  OT 2023 06 06  01 53 28.013666  Lat 9817.927083 Long 736.947917 Depth 1.146307
QUALITY  Pmax 8.47317e+22 MFmin 28.0011 MFmax 34.1904 RMS 0.0078613 Nphs 8 Gap 327.332 Dist 1.80864 Mamp -9.90 0 Mdur -9.90 0
VPVSRATIO  VpVsRatio 2.03635  Npair 4  Diff 0.166708
STATISTICS  ExpectX 736.966578 Y 9817.919445 Z 1.143451  CovXX 0.0707319 XY -0.000815758 XZ 0.0358504 YY 0.0202066 YZ 0.00226769 ZZ 0.0526207 EllAz1  194.05 Dip1  18.0882 Len1  0.260602 Az2  304.167 Dip2  46.4789 Len2  0.300967 Len3  5.901434e-01
STAT_GEOG  ExpectLat 9817.919445 Long 736.966578 Depth 1.143451
TRANSFORM  NONE
QML_OriginQuality  assocPhCt 8  usedPhCt 8  assocStaCt -1  usedStaCt 4  depthPhCt -1  stdErr 0.0078613  azGap 327.332  secAzGap 327.332  gtLevel -  minDist 1.80864 maxDist 3.1974 medDist 2.57464
QML_OriginUncertainty  horUnc -1  minHorUnc 0.215511  maxHorUnc 0.403378  azMaxHorUnc 90.9248
QML_ConfidenceEllipsoid  semiMajorAxisLength 0.590143  semiMinorAxisLength 0.260602  semiIntermediateAxisLength 0.300967  majorAxisPlunge 37.9269  majorAxisAzimuth 89.3052  majorAxisRotation 60.283
FOCALMECH  Hyp  9817.927083 736.947917 1.146307 Mech  0 0 0 mf  0 nObs -1
PHASE ID Ins Cmp On Pha  FM Date     HrMn   Sec     Err  ErrMag    Coda      Amp       Per       PriorWt  >   TTpred    Res       Weight    StaLoc(X  Y         Z)        SDist    SAzim  RAz  RDip RQual    Tcorr       TTerr
M06          ?    BHZ  i P      c 20230606 0153   28.8255 GAU  1.24e-03 -1.00e+00 -1.00e+00 -1.00e+00    1.0000 >    0.8174   -0.0056    1.1517  738.3100 9819.1170   -1.3960    1.8086  48.86  48.9 140.1 10     0.0000    0.0163
M06          ?    BHE  e S      ? 20230606 0153   29.4204 GAU  3.76e-04 -1.00e+00 -1.00e+00 -1.00e+00    1.0000 >    1.3977    0.0090    0.9570  738.3100 9819.1170   -1.3960    1.8086  48.86  48.9 138.2 10     0.0000    0.0280
M14          ?    BHZ  e P      c 20230606 0153   28.8977 GAU  1.48e-03 -1.00e+00 -1.00e+00 -1.00e+00    1.0000 >    0.8758    0.0082    1.1183  737.5530 9820.0110   -1.3980    2.1700  16.19  16.2 134.1 10     0.0000    0.0175
M14          ?    BHE  e S      ? 20230606 0153   29.5012 GAU  1.71e-03 -1.00e+00  3.78e+02 -1.00e+00    1.0000 >    1.4971   -0.0096    0.9137  737.5530 9820.0110   -1.3980    2.1700  16.19  16.2 131.8 10     0.0000    0.0299
M11          ?    BHZ  e P      c 20230606 0153   29.0267 GAU  2.40e-03 -1.00e+00 -1.00e+00 -1.00e+00    1.0000 >    1.0093    0.0037    1.1131  738.4670 9820.4900   -1.3120    2.9793  30.66  30.7 121.3 10     0.0000    0.0202
M11          ?    BHN  e S      ? 20230606 0153   29.7322 GAU  1.50e-04 -1.00e+00 -1.00e+00 -1.00e+00    1.0000 >    1.7227   -0.0042    0.8718  738.4670 9820.4900   -1.3120    2.9793  30.66  30.7 118.2 10     0.0000    0.0345
M09          ?    BHZ  e P      c 20230606 0153   29.0523 GAU  6.50e-04 -1.00e+00 -1.00e+00 -1.00e+00    1.0000 >    1.0462   -0.0076    1.0687  737.8820 9820.9850   -1.2700    3.1974  16.99  17.0 118.2 10     0.0000    0.0209
M09          ?    BHN  e S      ? 20230606 0153   29.8139 GAU  1.45e-04 -1.00e+00  4.78e+02 -1.00e+00    1.0000 >    1.7845    0.0157    0.8055  737.8820 9820.9850   -1.2700    3.1974  16.99  17.0 114.8 10     0.0000    0.0357
END_PHASE
END_NLLOC

