NLLOC "./loc/SEML.20230606.025730.grid0" "LOCATED" "Location completed."
PUBLIC_ID None
SIGNATURE "Arham Zakki Edelo - edelo.17034@mhs.its.ac.id   obs:./obs/2023_06.obs   NLLoc:v7.00.10(30Aug2020)   run:28Dec2023 20h03m57"
COMMENT "SEML"
GRID  2001 2001 1001  727 9811 -2  0.01 0.01 0.01 PROB_DENSITY
SEARCH OCTREE nInitial 4851 nEvaluated 20011 smallestNodeSide 0.014881/0.014881/0.014205 oct_tree_integral 2.977116e-02 scatter_volume 2.947721e-02
HYPOCENTER  x 737.9 y 9818.52 z 1.06108  OT 29.3738  ix -1 iy -1 iz -1 MAXIMUM_LIKELIHOOD
GEOGRAPHIC  OT 2023 06 06  02 57 29.373825  Lat 9818.522321 Long 737.900298 Depth 1.061080
QUALITY  Pmax 6.07306e+43 MFmin 51.3417 MFmax 62.4672 RMS 0.0195454 Nphs 14 Gap 300.781 Dist 0.722149 Mamp -9.90 0 Mdur -9.90 0
VPVSRATIO  VpVsRatio 1.74706  Npair 7  Diff 0.450306
STATISTICS  ExpectX 737.923386 Y 9818.508388 Z 1.066427  CovXX 0.0516091 XY 0.0074997 XZ 0.00878071 YY 0.0137631 YZ 0.00117693 ZZ 0.0145331 EllAz1  160.108 Dip1  -36.2391 Len1  0.205531 Az2  5.03718 Dip2  -51.0535 Len2  0.213909 Len3  4.405285e-01
STAT_GEOG  ExpectLat 9818.508388 Long 737.923386 Depth 1.066427
TRANSFORM  NONE
QML_OriginQuality  assocPhCt 14  usedPhCt 14  assocStaCt -1  usedStaCt 7  depthPhCt -1  stdErr 0.0195454  azGap 300.781  secAzGap 300.781  gtLevel -  minDist 0.722149 maxDist 3.91783 medDist 2.46275
QML_OriginUncertainty  horUnc -1  minHorUnc 0.168409  maxHorUnc 0.349277  azMaxHorUnc 79.1901
QML_ConfidenceEllipsoid  semiMajorAxisLength 0.440529  semiMinorAxisLength 0.205531  semiIntermediateAxisLength 0.213909  majorAxisPlunge 12.339  majorAxisAzimuth 79.3343  majorAxisRotation 320.088
FOCALMECH  Hyp  9818.522321 737.900298 1.061080 Mech  0 0 0 mf  0 nObs -1
PHASE ID Ins Cmp On Pha  FM Date     HrMn   Sec     Err  ErrMag    Coda      Amp       Per       PriorWt  >   TTpred    Res       Weight    StaLoc(X  Y         Z)        SDist    SAzim  RAz  RDip RQual    Tcorr       TTerr
M06          ?    BHZ  i P      c 20230606 0257   30.0463 GAU  5.20e-04 -1.00e+00  2.56e+02 -1.00e+00    1.0000 >    0.6738   -0.0013    1.5476  738.3100 9819.1170   -1.3960    0.7221  34.56  34.6 161.6 10     0.0000    0.0135
M06          ?    BHN  e S      ? 20230606 0257   30.5347 GAU  1.75e-03 -1.00e+00 -1.00e+00 -1.00e+00    1.0000 >    1.1542    0.0066    1.3407  738.3100 9819.1170   -1.3960    0.7221  34.56  34.6 160.8 10     0.0000    0.0231
M14          ?    BHZ  i P      c 20230606 0257   30.1382 GAU  1.30e-03 -1.00e+00 -1.00e+00 -1.00e+00    1.0000 >    0.7615    0.0029    1.5069  737.5530 9820.0110   -1.3980    1.5287 346.87 346.9 144.0 10     0.0000    0.0152
M14          ?    BHN  e S      ? 20230606 0257   30.6835 GAU  7.02e-04 -1.00e+00  4.19e+02 -1.00e+00    1.0000 >    1.3041    0.0056    1.2959  737.5530 9820.0110   -1.3980    1.5287 346.87 346.9 142.3 10     0.0000    0.0261
M11          ?    BHZ  i P      c 20230606 0257   30.1653 GAU  1.94e-03 -1.00e+00 -1.00e+00 -1.00e+00    1.0000 >    0.8226   -0.0311    0.9463  738.4670 9820.4900   -1.3120    2.0477  16.07  16.1 133.5 10     0.0000    0.0165
M11          ?    BHN  e S      ? 20230606 0257   30.7765 GAU  8.67e-04 -1.00e+00 -1.00e+00 -1.00e+00    1.0000 >    1.4077   -0.0050    1.2803  738.4670 9820.4900   -1.3120    2.0477  16.07  16.1 131.1 10     0.0000    0.0282
M09          ?    BHZ  i P      c 20230606 0257   30.2387 GAU  2.87e-03 -1.00e+00  1.43e+01 -1.00e+00    1.0000 >    0.8889   -0.0241    1.1536  737.8820 9820.9850   -1.2700    2.4627 359.57 359.6 126.2 10     0.0000    0.0178
M09          ?    BHE  e S      ? 20230606 0257   30.8973 GAU  2.51e-04 -1.00e+00  3.95e+02 -1.00e+00    1.0000 >    1.5202    0.0033    1.2281  737.8820 9820.9850   -1.2700    2.4627 359.57 359.6 123.4 10     0.0000    0.0304
M13          ?    BHZ  e P      c 20230606 0257   30.3878 GAU  6.86e-04 -1.00e+00 -1.00e+00 -1.00e+00    1.0000 >    1.0089    0.0051    1.4088  737.1780 9821.5410   -1.2220    3.1039 346.54 346.5 116.6 10     0.0000    0.0202
M13          ?    BHE  e S      ? 20230606 0257   31.0589 GAU  1.12e-03 -1.00e+00 -1.00e+00 -1.00e+00    1.0000 >    1.7231   -0.0380    0.8231  737.1780 9821.5410   -1.2220    3.1039 346.54 346.5 112.8 10     0.0000    0.0345
M08          ?    BHZ  e P      c 20230606 0257   30.5132 GAU  1.87e-04 -1.00e+00 -1.00e+00 -1.00e+00    1.0000 >    1.1164    0.0230    1.0631  738.2480 9822.1600   -1.1510    3.6543   5.46   5.5 108.9 10     0.0000    0.0223
M08          ?    BHN  e S      ? 20230606 0257   31.3508 GAU  1.90e-04 -1.00e+00  3.37e+02 -1.00e+00    1.0000 >    1.9033    0.0737    0.3458  738.2480 9822.1600   -1.1510    3.6543   5.46   5.5 104.2 10     0.0000    0.0381
M05          ?    BHZ  e P      d 20230606 0257   30.6829 GAU  8.01e-04 -1.00e+00  1.67e+02 -1.00e+00    1.0000 >    1.1755    0.1336    0.0531  736.2660 9822.0830   -1.1500    3.9178 335.35 335.3 105.9 10     0.0000    0.0235
M05          ?    BHN  e S      ? 20230606 0257   31.6216 GAU  2.51e-04 -1.00e+00  2.64e+02 -1.00e+00    1.0000 >    2.0025    0.2453    0.0067  736.2660 9822.0830   -1.1500    3.9178 335.35 335.3 100.9  9     0.0000    0.0400
END_PHASE
END_NLLOC

