NLLOC "./loc/SEML.20230606.025947.grid0" "LOCATED" "Location completed."
PUBLIC_ID None
SIGNATURE "Arham Zakki Edelo - edelo.17034@mhs.its.ac.id   obs:./obs/2023_06.obs   NLLoc:v7.00.10(30Aug2020)   run:28Dec2023 20h03m59"
COMMENT "SEML"
GRID  2001 2001 1001  727 9811 -2  0.01 0.01 0.01 PROB_DENSITY
SEARCH OCTREE nInitial 4851 nEvaluated 20003 smallestNodeSide 0.014881/0.014881/0.014205 oct_tree_integral 1.543660e-02 scatter_volume 1.530365e-02
HYPOCENTER  x 738.57 y 9818.37 z 1.06108  OT 47.0102  ix -1 iy -1 iz -1 MAXIMUM_LIKELIHOOD
GEOGRAPHIC  OT 2023 06 06  02 59 47.010236  Lat 9818.373512 Long 738.569940 Depth 1.061080
QUALITY  Pmax 1.19582e+29 MFmin 36.031 MFmax 43.4867 RMS 0.0126027 Nphs 10 Gap 300.409 Dist 0.787619 Mamp -9.90 0 Mdur -9.90 0
VPVSRATIO  VpVsRatio 1.64381  Npair 5  Diff 0.517696
STATISTICS  ExpectX 738.588520 Y 9818.367370 Z 1.063574  CovXX 0.0198754 XY -0.00364411 XZ -0.00559334 YY 0.0122229 YZ 0.00191966 ZZ 0.0210071 EllAz1  23.1575 Dip1  2.4271 Len1  0.194826 Az2  295.645 Dip2  -45.6791 Len2  0.232182 Len3  3.091869e-01
STAT_GEOG  ExpectLat 9818.367370 Long 738.588520 Depth 1.063574
TRANSFORM  NONE
QML_OriginQuality  assocPhCt 10  usedPhCt 10  assocStaCt -1  usedStaCt 5  depthPhCt -1  stdErr 0.0126027  azGap 300.409  secAzGap 300.409  gtLevel -  minDist 0.787619 maxDist 4.36674 medDist 2.22677
QML_OriginUncertainty  horUnc -1  minHorUnc 0.157354  maxHorUnc 0.221509  azMaxHorUnc 111.802
QML_ConfidenceEllipsoid  semiMajorAxisLength 0.309187  semiMinorAxisLength 0.194826  semiIntermediateAxisLength 0.232182  majorAxisPlunge -44.2181  majorAxisAzimuth 110.794  majorAxisRotation 114.752
FOCALMECH  Hyp  9818.373512 738.569940 1.061080 Mech  0 0 0 mf  0 nObs -1
PHASE ID Ins Cmp On Pha  FM Date     HrMn   Sec     Err  ErrMag    Coda      Amp       Per       PriorWt  >   TTpred    Res       Weight    StaLoc(X  Y         Z)        SDist    SAzim  RAz  RDip RQual    Tcorr       TTerr
M06          ?    BHZ  i P      c 20230606 0259   47.6957 GAU  1.17e-03 -1.00e+00 -1.00e+00 -1.00e+00    1.0000 >    0.6788    0.0067    1.4222  738.3100 9819.1170   -1.3960    0.7876 340.73 340.7 160.1 10     0.0000    0.0136
M06          ?    BHN  e S      ? 20230606 0259   48.1613 GAU  6.86e-04 -1.00e+00 -1.00e+00 -1.00e+00    1.0000 >    1.1629   -0.0118    1.1844  738.3100 9819.1170   -1.3960    0.7876 340.73 340.7 159.2 10     0.0000    0.0233
M11          ?    BHZ  e P      c 20230606 0259   47.8409 GAU  1.15e-03 -1.00e+00 -1.00e+00 -1.00e+00    1.0000 >    0.8349   -0.0042    1.4164  738.4670 9820.4900   -1.3120    2.1190 357.22 357.2 132.3 10     0.0000    0.0167
M11          ?    BHN  e S      ? 20230606 0259   48.4538 GAU  3.68e-04 -1.00e+00 -1.00e+00 -1.00e+00    1.0000 >    1.4287    0.0149    1.0424  738.4670 9820.4900   -1.3120    2.1190 357.22 357.2 129.8 10     0.0000    0.0286
M02          ?    BHZ  e P      c 20230606 0259   47.9007 GAU  1.06e-03 -1.00e+00 -1.00e+00 -1.00e+00    1.0000 >    0.8928   -0.0023    1.4015  736.5970 9819.4060   -1.4960    2.2268 297.62 297.6 133.0 10     0.0000    0.0179
M02          ?    BHE  e S      ? 20230606 0259   48.5476 GAU  1.29e-03 -1.00e+00  1.09e+03 -1.00e+00    1.0000 >    1.5286    0.0087    1.0710  736.5970 9819.4060   -1.4960    2.2268 297.62 297.6 130.5 10     0.0000    0.0306
M09          ?    BHZ  e P      c 20230606 0259   47.9373 GAU  4.59e-04 -1.00e+00  4.50e+01 -1.00e+00    1.0000 >    0.9351   -0.0081    1.3305  737.8820 9820.9850   -1.2700    2.7006 345.24 345.2 122.6 10     0.0000    0.0187
M09          ?    BHE  e S      ? 20230606 0259   48.6102 GAU  1.76e-04 -1.00e+00  3.87e+02 -1.00e+00    1.0000 >    1.5986    0.0013    1.0741  737.8820 9820.9850   -1.2700    2.7006 345.24 345.2 119.4 10     0.0000    0.0320
M05          ?    BHZ  e P      c 20230606 0259   48.4191 GAU  8.89e-04 -1.00e+00 -1.00e+00 -1.00e+00    1.0000 >    1.2783    0.1306    0.0308  736.2660 9822.0830   -1.1500    4.3667 328.16 328.2 101.0  9     0.0000    0.0256
M05          ?    BHN  e S      ? 20230606 0259   49.4024 GAU  4.39e-04 -1.00e+00  2.85e+02 -1.00e+00    1.0000 >    2.1740    0.2181    0.0267  736.2660 9822.0830   -1.1500    4.3667 328.16 328.2  96.3  9     0.0000    0.0435
END_PHASE
END_NLLOC

