NLLOC "./loc/SEML.20230621.215416.grid0" "LOCATED" "Location completed."
PUBLIC_ID None
SIGNATURE "Arham Zakki Edelo - edelo.17034@mhs.its.ac.id   obs:./obs/2023_06.obs   NLLoc:v7.00.10(30Aug2020)   run:28Dec2023 20h04m00"
COMMENT "SEML"
GRID  2001 2001 1001  727 9811 -2  0.01 0.01 0.01 PROB_DENSITY
SEARCH OCTREE nInitial 4851 nEvaluated 20011 smallestNodeSide 0.059524/0.059524/0.056818 oct_tree_integral 3.231228e+00 scatter_volume 3.231228e+00
HYPOCENTER  x 736.494 y 9814.01 z 5.1875  OT 14.8273  ix -1 iy -1 iz -1 MAXIMUM_LIKELIHOOD
GEOGRAPHIC  OT 2023 06 21  21 54 14.827303  Lat 9814.005952 Long 736.494048 Depth 5.187500
QUALITY  Pmax 8.6541e+40 MFmin 32.108 MFmax 36.6306 RMS 0.0350303 Nphs 14 Gap 338.823 Dist 5.42407 Mamp -9.90 0 Mdur -9.90 0
VPVSRATIO  VpVsRatio 1.78827  Npair 7  Diff 0.409708
STATISTICS  ExpectX 736.330811 Y 9814.055566 Z 4.946939  CovXX 1.48953 XY 0.354682 XZ 1.014 YY 0.31839 YZ 0.387239 ZZ 1.1261 EllAz1  190.213 Dip1  30.0109 Len1  0.739747 Az2  305.515 Dip2  36.4983 Len2  1.0539 Len3  2.949435e+00
STAT_GEOG  ExpectLat 9814.055566 Long 736.330811 Depth 4.946939
TRANSFORM  NONE
QML_OriginQuality  assocPhCt 14  usedPhCt 14  assocStaCt -1  usedStaCt 7  depthPhCt -1  stdErr 0.0350303  azGap 338.823  secAzGap 338.823  gtLevel -  minDist 5.42407 maxDist 9.38088 medDist 7.56602
QML_OriginUncertainty  horUnc -1  minHorUnc 0.710284  maxHorUnc 1.91147  azMaxHorUnc 74.3982
QML_ConfidenceEllipsoid  semiMajorAxisLength 2.94944  semiMinorAxisLength 0.739747  semiIntermediateAxisLength 1.0539  majorAxisPlunge 39.0003  majorAxisAzimuth 72.3258  majorAxisRotation 76.1129
FOCALMECH  Hyp  9814.005952 736.494048 5.187500 Mech  0 0 0 mf  0 nObs -1
PHASE ID Ins Cmp On Pha  FM Date     HrMn   Sec     Err  ErrMag    Coda      Amp       Per       PriorWt  >   TTpred    Res       Weight    StaLoc(X  Y         Z)        SDist    SAzim  RAz  RDip RQual    Tcorr       TTerr
M06          ?    BHZ  e P      d 20230621 2154   16.8578 GAU  1.40e-03 -1.00e+00  9.54e+01 -1.00e+00    1.0000 >    2.0441   -0.0136    1.2273  738.3100 9819.1170   -1.3960    5.4241  19.56  19.6 137.3 10     0.0000    0.0409
M06          ?    BHE  e S      ? 20230621 2154   18.2339 GAU  5.24e-04 -1.00e+00 -1.00e+00 -1.00e+00    1.0000 >    3.4128   -0.0062    1.0534  738.3100 9819.1170   -1.3960    5.4241  19.56  19.6 136.7 10     0.0000    0.0683
M11          ?    BHZ  e P      c 20230621 2154   17.0943 GAU  4.64e-03 -1.00e+00 -1.00e+00 -1.00e+00    1.0000 >    2.2437    0.0233    1.1540  738.4670 9820.4900   -1.3120    6.7776  16.92  16.9 129.9 10     0.0000    0.0449
M11          ?    BHE  i S      ? 20230621 2154   18.5775 GAU  2.20e-03 -1.00e+00 -1.00e+00 -1.00e+00    1.0000 >    3.7419    0.0083    1.0033  738.4670 9820.4900   -1.3120    6.7776  16.92  16.9 129.2 10     0.0000    0.0748
M09          ?    BHZ  e P      c 20230621 2154   17.1211 GAU  4.19e-03 -1.00e+00  4.30e+01 -1.00e+00    1.0000 >    2.2931    0.0007    1.2107  737.8820 9820.9850   -1.2700    7.1157  11.25  11.2 128.1 10     0.0000    0.0459
M09          ?    BHE  i S      ? 20230621 2154   18.5867 GAU  2.46e-04 -1.00e+00  3.56e+02 -1.00e+00    1.0000 >    3.8228   -0.0634    0.8300  737.8820 9820.9850   -1.2700    7.1157  11.25  11.2 127.5 10     0.0000    0.0765
M13          ?    BHZ  e P      d 20230621 2154   17.1627 GAU  1.85e-03 -1.00e+00  2.11e+02 -1.00e+00    1.0000 >    2.3629   -0.0275    1.1387  737.1780 9821.5410   -1.2220    7.5660   5.19   5.2 126.0 10     0.0000    0.0473
M13          ?    BHN  e S      ? 20230621 2154   18.7768 GAU  5.48e-04 -1.00e+00 -1.00e+00 -1.00e+00    1.0000 >    3.9372    0.0123    0.9735  737.1780 9821.5410   -1.2220    7.5660   5.19   5.2 125.4 10     0.0000    0.0787
M05          ?    BHZ  e P      d 20230621 2154   17.2917 GAU  8.93e-04 -1.00e+00  2.34e+02 -1.00e+00    1.0000 >    2.4419    0.0225    1.1372  736.2660 9822.0830   -1.1500    8.0803 358.38 358.4 123.7 10     0.0000    0.0488
M05          ?    BHN  e S      ? 20230621 2154   18.9650 GAU  1.05e-03 -1.00e+00  2.59e+02 -1.00e+00    1.0000 >    4.0662    0.0716    0.7499  736.2660 9822.0830   -1.1500    8.0803 358.38 358.4 123.1 10     0.0000    0.0813
M08          ?    BHZ  e P      d 20230621 2154   17.3333 GAU  1.27e-04 -1.00e+00  7.42e+02 -1.00e+00    1.0000 >    2.4906    0.0154    1.1583  738.2480 9822.1600   -1.1510    8.3406  12.14  12.1 122.7 10     0.0000    0.0498
M08          ?    BHE  e S      ? 20230621 2154   19.0324 GAU  8.34e-04 -1.00e+00 -1.00e+00 -1.00e+00    1.0000 >    4.1466    0.0585    0.8088  738.2480 9822.1600   -1.1510    8.3406  12.14  12.1 122.1 10     0.0000    0.0829
M12          ?    BHZ  e P      d 20230621 2154   17.4039 GAU  1.28e-03 -1.00e+00 -1.00e+00 -1.00e+00    1.0000 >    2.6578   -0.0812    0.7341  736.8520 9823.3800   -0.9890    9.3809   2.19   2.2 118.5 10     0.0000    0.0532
M12          ?    BHE  e S      ? 20230621 2154   19.1897 GAU  1.51e-03 -1.00e+00  8.70e+01 -1.00e+00    1.0000 >    4.4183   -0.0559    0.8206  736.8520 9823.3800   -0.9890    9.3809   2.19   2.2 118.0 10     0.0000    0.0884
END_PHASE
END_NLLOC

