NLLOC "./loc/SEML.20230606.015905.grid0" "LOCATED" "Location completed."
PUBLIC_ID None
SIGNATURE "Arham Zakki Edelo - edelo.17034@mhs.its.ac.id   obs:./obs/2023_06.obs   NLLoc:v7.00.10(30Aug2020)   run:28Dec2023 20h03m50"
COMMENT "SEML"
GRID  2001 2001 1001  727 9811 -2  0.01 0.01 0.01 PROB_DENSITY
SEARCH OCTREE nInitial 4851 nEvaluated 20019 smallestNodeSide 0.014881/0.014881/0.014205 oct_tree_integral 3.072275e-02 scatter_volume 3.057855e-02
HYPOCENTER  x 737.692 y 9818.43 z 1.71449  OT 4.92614  ix -1 iy -1 iz -1 MAXIMUM_LIKELIHOOD
GEOGRAPHIC  OT 2023 06 06  01 59 4.926138  Lat 9818.433036 Long 737.691964 Depth 1.714489
QUALITY  Pmax 3.54279e+39 MFmin 48.1063 MFmax 55.0048 RMS 0.0301996 Nphs 14 Gap 269.522 Dist 0.921833 Mamp -9.90 0 Mdur -9.90 0
VPVSRATIO  VpVsRatio 1.71231  Npair 7  Diff 0.989082
STATISTICS  ExpectX 737.732531 Y 9818.375953 Z 1.648896  CovXX 0.0169652 XY -0.0130085 XZ -0.0116845 YY 0.0440084 YZ 0.0187329 ZZ 0.0315828 EllAz1  80.9143 Dip1  21.8152 Len1  0.189272 Az2  197.068 Dip2  47.7575 Len2  0.2551 Len3  4.752094e-01
STAT_GEOG  ExpectLat 9818.375953 Long 737.732531 Depth 1.648896
TRANSFORM  NONE
QML_OriginQuality  assocPhCt 14  usedPhCt 14  assocStaCt -1  usedStaCt 7  depthPhCt -1  stdErr 0.0301996  azGap 269.522  secAzGap 269.522  gtLevel -  minDist 0.921833 maxDist 5.01777 medDist 2.19813
QML_OriginUncertainty  horUnc -1  minHorUnc 0.164209  maxHorUnc 0.336563  azMaxHorUnc 158.054
QML_ConfidenceEllipsoid  semiMajorAxisLength 0.475209  semiMinorAxisLength 0.189272  semiIntermediateAxisLength 0.2551  majorAxisPlunge -34.0713  majorAxisAzimuth 155.207  majorAxisRotation 126.563
FOCALMECH  Hyp  9818.433036 737.691964 1.714489 Mech  0 0 0 mf  0 nObs -1
PHASE ID Ins Cmp On Pha  FM Date     HrMn   Sec     Err  ErrMag    Coda      Amp       Per       PriorWt  >   TTpred    Res       Weight    StaLoc(X  Y         Z)        SDist    SAzim  RAz  RDip RQual    Tcorr       TTerr
M06          ?    BHZ  e P      c 20230606 0159    5.7555 GAU  1.16e-03 -1.00e+00 -1.00e+00 -1.00e+00    1.0000 >    0.8333   -0.0039    2.0266  738.3100 9819.1170   -1.3960    0.9218  42.10  42.1 161.5 10     0.0000    0.0167
M06          ?    BHE  i S      ? 20230606 0159    6.3523 GAU  1.86e-03 -1.00e+00 -1.00e+00 -1.00e+00    1.0000 >    1.4160    0.0102    1.7019  738.3100 9819.1170   -1.3960    0.9218  42.10  42.1 160.9 10     0.0000    0.0283
M02          ?    BHZ  e P      d 20230606 0159    5.8451 GAU  1.19e-03 -1.00e+00 -1.00e+00 -1.00e+00    1.0000 >    0.9082    0.0108    1.9130  736.5970 9819.4060   -1.4960    1.4648 311.62 311.6 152.5 10     0.0000    0.0182
M02          ?    BHE  e S      ? 20230606 0159    6.4721 GAU  2.90e-03 -1.00e+00  2.05e+03 -1.00e+00    1.0000 >    1.5436    0.0024    1.6683  736.5970 9819.4060   -1.4960    1.4648 311.62 311.6 151.5 10     0.0000    0.0309
M14          ?    BHZ  e P      c 20230606 0159    5.8129 GAU  2.76e-03 -1.00e+00 -1.00e+00 -1.00e+00    1.0000 >    0.8968   -0.0101    1.8685  737.5530 9820.0110   -1.3980    1.5841 354.97 355.0 149.8 10     0.0000    0.0179
M14          ?    BHE  e S      ? 20230606 0159    6.4289 GAU  8.09e-04 -1.00e+00  3.76e+02 -1.00e+00    1.0000 >    1.5234   -0.0207    1.3919  737.5530 9820.0110   -1.3980    1.5841 354.97 355.0 148.8 10     0.0000    0.0305
M11          ?    BHZ  e P      c 20230606 0159    5.8871 GAU  1.67e-03 -1.00e+00 -1.00e+00 -1.00e+00    1.0000 >    0.9580    0.0030    1.9956  738.4670 9820.4900   -1.3120    2.1981  20.65  20.6 139.5 10     0.0000    0.0192
M11          ?    BHE  i S      ? 20230606 0159    6.5865 GAU  1.42e-03 -1.00e+00 -1.00e+00 -1.00e+00    1.0000 >    1.6258    0.0346    1.2365  738.4670 9820.4900   -1.3120    2.1981  20.65  20.6 138.1 10     0.0000    0.0325
M13          ?    BHZ  e P      d 20230606 0159    6.1130 GAU  2.23e-03 -1.00e+00  8.51e+02 -1.00e+00    1.0000 >    1.0991    0.0877    0.1702  737.1780 9821.5410   -1.2220    3.1502 350.61 350.6 126.3 10     0.0000    0.0220
M13          ?    BHE  e S      ? 20230606 0159    7.0030 GAU  1.53e-03 -1.00e+00 -1.00e+00 -1.00e+00    1.0000 >    1.8621    0.2147    0.0034  737.1780 9821.5410   -1.2220    3.1502 350.61 350.6 124.5 10     0.0000    0.0372
M05          ?    BHZ  e P      d 20230606 0159    6.8033 GAU  4.12e-03 -1.00e+00  1.27e+02 -1.00e+00    1.0000 >    1.2353    0.6418    0.0120  736.2660 9822.0830   -1.1500    3.9186 338.66 338.7 117.7 10     0.0000    0.0247
M05          ?    BHN  e S      ? 20230606 0159    7.9658 GAU  1.07e-03 -1.00e+00  2.83e+02 -1.00e+00    1.0000 >    2.0887    0.9510    0.0000  736.2660 9822.0830   -1.1500    3.9186 338.66 338.7 115.6 10     0.0000    0.0418
M12          ?    BHZ  e P      c 20230606 0159    7.1034 GAU  2.05e-03 -1.00e+00 -1.00e+00 -1.00e+00    1.0000 >    1.4409    0.7364    0.0120  736.8520 9823.3800   -0.9890    5.0178 350.36 350.4 107.6 10     0.0000    0.0288
M12          ?    BHN  e S      ? 20230606 0159    8.6893 GAU  2.01e-03 -1.00e+00 -1.00e+00 -1.00e+00    1.0000 >    2.4267    1.3365    0.0000  736.8520 9823.3800   -0.9890    5.0178 350.36 350.4 105.6 10     0.0000    0.0485
END_PHASE
END_NLLOC

