NLLOC "./loc/SEML.20230606.025754.grid0" "LOCATED" "Location completed."
PUBLIC_ID None
SIGNATURE "Arham Zakki Edelo - edelo.17034@mhs.its.ac.id   obs:./obs/2023_06.obs   NLLoc:v7.00.10(30Aug2020)   run:28Dec2023 20h03m57"
COMMENT "SEML"
GRID  2001 2001 1001  727 9811 -2  0.01 0.01 0.01 PROB_DENSITY
SEARCH OCTREE nInitial 4851 nEvaluated 20011 smallestNodeSide 0.014881/0.014881/0.014205 oct_tree_integral 3.664077e-02 scatter_volume 3.662544e-02
HYPOCENTER  x 738.57 y 9818.69 z 1.30256  OT 54.1067  ix -1 iy -1 iz -1 MAXIMUM_LIKELIHOOD
GEOGRAPHIC  OT 2023 06 06  02 57 54.106710  Lat 9818.686012 Long 738.569940 Depth 1.302557
QUALITY  Pmax 3.69115e+28 MFmin 35.5538 MFmax 42.8637 RMS 0.0111602 Nphs 10 Gap 329.12 Dist 0.503309 Mamp -9.90 0 Mdur -9.90 0
VPVSRATIO  VpVsRatio 1.68897  Npair 5  Diff 0.528278
STATISTICS  ExpectX 738.585895 Y 9818.683560 Z 1.283725  CovXX 0.103223 XY 0.0245527 XZ -0.000385341 YY 0.0212929 YZ -0.00358675 ZZ 0.0233255 EllAz1  164.797 Dip1  -18.6449 Len1  0.21722 Az2  341.899 Dip2  -71.3329 Len2  0.293704 Len3  6.232438e-01
STAT_GEOG  ExpectLat 9818.683560 Long 738.585895 Depth 1.283725
TRANSFORM  NONE
QML_OriginQuality  assocPhCt 10  usedPhCt 10  assocStaCt -1  usedStaCt 5  depthPhCt -1  stdErr 0.0111602  azGap 329.12  secAzGap 329.12  gtLevel -  minDist 0.503309 maxDist 4.10459 medDist 2.39971
QML_OriginUncertainty  horUnc -1  minHorUnc 0.18261  maxHorUnc 0.503031  azMaxHorUnc 74.5316
QML_ConfidenceEllipsoid  semiMajorAxisLength 0.623244  semiMinorAxisLength 0.21722  semiIntermediateAxisLength 0.293704  majorAxisPlunge -0.878607  majorAxisAzimuth 74.5008  majorAxisRotation 341.345
FOCALMECH  Hyp  9818.686012 738.569940 1.302557 Mech  0 0 0 mf  0 nObs -1
PHASE ID Ins Cmp On Pha  FM Date     HrMn   Sec     Err  ErrMag    Coda      Amp       Per       PriorWt  >   TTpred    Res       Weight    StaLoc(X  Y         Z)        SDist    SAzim  RAz  RDip RQual    Tcorr       TTerr
M06          ?    BHZ  i P      c 20230606 0257   54.8254 GAU  9.06e-04 -1.00e+00 -1.00e+00 -1.00e+00    1.0000 >    0.7153    0.0034    1.4994  738.3100 9819.1170   -1.3960    0.5033 328.90 328.9 168.2 10     0.0000    0.0143
M06          ?    BHN  e S      ? 20230606 0257   55.3269 GAU  7.76e-04 -1.00e+00 -1.00e+00 -1.00e+00    1.0000 >    1.2213   -0.0011    1.3250  738.3100 9819.1170   -1.3960    0.5033 328.90 328.9 167.8 10     0.0000    0.0244
M11          ?    BHZ  i P      c 20230606 0257   54.9185 GAU  8.63e-04 -1.00e+00 -1.00e+00 -1.00e+00    1.0000 >    0.8263   -0.0145    1.2690  738.4670 9820.4900   -1.3120    1.8069 356.73 356.7 141.4 10     0.0000    0.0165
M11          ?    BHN  e S      ? 20230606 0257   55.5209 GAU  3.90e-04 -1.00e+00 -1.00e+00 -1.00e+00    1.0000 >    1.4093    0.0049    1.2392  738.4670 9820.4900   -1.3120    1.8069 356.73 356.7 139.8 10     0.0000    0.0282
M09          ?    BHZ  i P      c 20230606 0257   55.0425 GAU  1.43e-03 -1.00e+00  9.91e+01 -1.00e+00    1.0000 >    0.9131    0.0226    1.0853  737.8820 9820.9850   -1.2700    2.3997 343.34 343.3 131.6 10     0.0000    0.0183
M09          ?    BHE  e S      ? 20230606 0257   55.6720 GAU  2.60e-04 -1.00e+00  3.95e+02 -1.00e+00    1.0000 >    1.5561    0.0092    1.1586  737.8820 9820.9850   -1.2700    2.3997 343.34 343.3 129.5 10     0.0000    0.0311
M13          ?    BHZ  e P      d 20230606 0257   55.1500 GAU  1.08e-03 -1.00e+00  3.73e+02 -1.00e+00    1.0000 >    1.0512   -0.0079    1.3427  737.1780 9821.5410   -1.2220    3.1762 334.01 334.0 120.9 10     0.0000    0.0210
M13          ?    BHN  e S      ? 20230606 0257   55.8899 GAU  5.99e-04 -1.00e+00 -1.00e+00 -1.00e+00    1.0000 >    1.7886   -0.0054    1.0802  737.1780 9821.5410   -1.2220    3.1762 334.01 334.0 118.2 10     0.0000    0.0358
M05          ?    BHZ  e P      d 20230606 0257   55.5490 GAU  1.02e-03 -1.00e+00  3.54e+02 -1.00e+00    1.0000 >    1.2353    0.2069    0.0003  736.2660 9822.0830   -1.1500    4.1046 325.85 325.9 110.9 10     0.0000    0.0247
M05          ?    BHE  e S      ? 20230606 0257   56.5788 GAU  1.16e-03 -1.00e+00 -1.00e+00 -1.00e+00    1.0000 >    2.0962    0.3758    0.0003  736.2660 9822.0830   -1.1500    4.1046 325.85 325.9 108.0 10     0.0000    0.0419
END_PHASE
END_NLLOC

