NLLOC "./loc/SEML.20230621.222849.grid0" "LOCATED" "Location completed."
PUBLIC_ID None
SIGNATURE "Arham Zakki Edelo - edelo.17034@mhs.its.ac.id   obs:./obs/2023_06.obs   NLLoc:v7.00.10(30Aug2020)   run:28Dec2023 20h04m02"
COMMENT "SEML"
GRID  2001 2001 1001  727 9811 -2  0.01 0.01 0.01 PROB_DENSITY
SEARCH OCTREE nInitial 4851 nEvaluated 20019 smallestNodeSide 0.029762/0.029762/0.028409 oct_tree_integral 2.009699e-01 scatter_volume 2.005613e-01
HYPOCENTER  x 737.193 y 9816.94 z 4.8892  OT 47.8267  ix -1 iy -1 iz -1 MAXIMUM_LIKELIHOOD
GEOGRAPHIC  OT 2023 06 21  22 28 47.826652  Lat 9816.937500 Long 737.193452 Depth 4.889205
QUALITY  Pmax 4.86086e+93 MFmin 69.5674 MFmax 75.5388 RMS 0.0254587 Nphs 26 Gap 319.29 Dist 2.31512 Mamp -9.90 0 Mdur -9.90 0
VPVSRATIO  VpVsRatio 1.78113  Npair 13  Diff 0.290665
STATISTICS  ExpectX 737.206167 Y 9816.941359 Z 4.900719  CovXX 0.122828 XY 0.0203811 XZ 0.0172027 YY 0.0515906 YZ 0.0179761 ZZ 0.0404177 EllAz1  182.269 Dip1  54.54 Len1  0.309519 Az2  334.64 Dip2  32.2529 Len2  0.43855 Len3  6.857428e-01
STAT_GEOG  ExpectLat 9816.941359 Long 737.206167 Depth 4.900719
TRANSFORM  NONE
QML_OriginQuality  assocPhCt 26  usedPhCt 26  assocStaCt -1  usedStaCt 13  depthPhCt -1  stdErr 0.0254587  azGap 319.29  secAzGap 319.29  gtLevel -  minDist 2.31512 maxDist 6.45154 medDist 4.10565
QML_OriginUncertainty  horUnc -1  minHorUnc 0.325876  maxHorUnc 0.543109  azMaxHorUnc 75.1108
QML_ConfidenceEllipsoid  semiMajorAxisLength 0.685743  semiMinorAxisLength 0.309519  semiIntermediateAxisLength 0.43855  majorAxisPlunge 13.1511  majorAxisAzimuth 73.1183  majorAxisRotation 59.5722
FOCALMECH  Hyp  9816.937500 737.193452 4.889205 Mech  0 0 0 mf  0 nObs -1
PHASE ID Ins Cmp On Pha  FM Date     HrMn   Sec     Err  ErrMag    Coda      Amp       Per       PriorWt  >   TTpred    Res       Weight    StaLoc(X  Y         Z)        SDist    SAzim  RAz  RDip RQual    Tcorr       TTerr
M04          ?    BHZ  i P      c 20230621 2228   49.4746 GAU  7.55e-04 -1.00e+00  7.85e+02 -1.00e+00    1.0000 >    1.6592   -0.0113    1.2104  737.1400 9819.2520   -1.5710    2.3151 358.68 358.7 158.7 10     0.0000    0.0332
M04          ?    BHN  e S      ? 20230621 2228   50.5738 GAU  1.36e-03 -1.00e+00  5.79e+02 -1.00e+00    1.0000 >    2.7777   -0.0306    0.9273  737.1400 9819.2520   -1.5710    2.3151 358.68 358.7 158.4 10     0.0000    0.0556
M06          ?    BHZ  i P      c 20230621 2228   49.4440 GAU  1.34e-03 -1.00e+00 -1.00e+00 -1.00e+00    1.0000 >    1.6247   -0.0073    1.2312  738.3100 9819.1170   -1.3960    2.4489  27.13  27.1 157.2 10     0.0000    0.0325
M06          ?    BHE  e S      ? 20230621 2228   50.5399 GAU  3.48e-03 -1.00e+00  8.89e+01 -1.00e+00    1.0000 >    2.7173   -0.0041    1.0206  738.3100 9819.1170   -1.3960    2.4489  27.13  27.1 156.8 10     0.0000    0.0543
M02          ?    BHZ  i P      d 20230621 2228   49.4967 GAU  1.61e-03 -1.00e+00 -1.00e+00 -1.00e+00    1.0000 >    1.6587    0.0114    1.2154  736.5970 9819.4060   -1.4960    2.5395 346.42 346.4 156.7 10     0.0000    0.0332
M02          ?    BHN  e S      ? 20230621 2228   50.5962 GAU  3.05e-03 -1.00e+00  4.74e+03 -1.00e+00    1.0000 >    2.7755   -0.0060    1.0081  736.5970 9819.4060   -1.4960    2.5395 346.42 346.4 156.3 10     0.0000    0.0555
M14          ?    BHZ  i P      c 20230621 2228   49.5084 GAU  1.55e-03 -1.00e+00 -1.00e+00 -1.00e+00    1.0000 >    1.6875   -0.0057    1.2231  737.5530 9820.0110   -1.3980    3.0945   6.67   6.7 151.9 10     0.0000    0.0337
M14          ?    BHN  e S      ? 20230621 2228   50.6356 GAU  1.17e-03 -1.00e+00  1.80e+02 -1.00e+00    1.0000 >    2.8217   -0.0128    0.9883  737.5530 9820.0110   -1.3980    3.0945   6.67   6.7 151.5 10     0.0000    0.0564
M11          ?    BHZ  e P      d 20230621 2228   49.5729 GAU  7.58e-04 -1.00e+00 -1.00e+00 -1.00e+00    1.0000 >    1.7441    0.0022    1.2188  738.4670 9820.4900   -1.3120    3.7739  19.72  19.7 146.5 10     0.0000    0.0349
M11          ?    BHE  e S      ? 20230621 2228   50.7686 GAU  3.54e-03 -1.00e+00 -1.00e+00 -1.00e+00    1.0000 >    2.9143    0.0277    0.9306  738.4670 9820.4900   -1.3120    3.7739  19.72  19.7 146.0 10     0.0000    0.0583
M03          ?    BHZ  i P      c 20230621 2228   49.6466 GAU  3.11e-03 -1.00e+00 -1.00e+00 -1.00e+00    1.0000 >    1.7691    0.0508    0.8602  736.8800 9820.8540   -1.3350    3.9290 355.42 355.4 145.4 10     0.0000    0.0354
M03          ?    BHN  e S      ? 20230621 2228   50.8728 GAU  5.79e-03 -1.00e+00 -1.00e+00 -1.00e+00    1.0000 >    2.9564    0.0898    0.5187  736.8800 9820.8540   -1.3350    3.9290 355.42 355.4 144.9 10     0.0000    0.0591
M09          ?    BHZ  i P      c 20230621 2228   49.6098 GAU  5.01e-03 -1.00e+00  2.18e+02 -1.00e+00    1.0000 >    1.7763    0.0069    1.2027  737.8820 9820.9850   -1.2700    4.1056   9.65   9.7 143.9 10     0.0000    0.0355
M09          ?    BHE  e S      ? 20230621 2228   50.7957 GAU  1.86e-03 -1.00e+00  2.28e+02 -1.00e+00    1.0000 >    2.9670    0.0020    0.9783  737.8820 9820.9850   -1.2700    4.1056   9.65   9.7 143.4 10     0.0000    0.0593
M10          ?    BHZ  e P      c 20230621 2228   49.6617 GAU  2.95e-03 -1.00e+00  1.88e+03 -1.00e+00    1.0000 >    1.8145    0.0205    1.1411  736.5490 9821.3650   -1.2200    4.4742 351.72 351.7 141.2 10     0.0000    0.0363
M10          ?    BHN  e S      ? 20230621 2228   50.8930 GAU  4.29e-03 -1.00e+00  1.77e+02 -1.00e+00    1.0000 >    3.0296    0.0368    0.8735  736.5490 9821.3650   -1.2200    4.4742 351.72 351.7 140.8 10     0.0000    0.0606
M13          ?    BHZ  i P      c 20230621 2228   49.6476 GAU  6.18e-03 -1.00e+00 -1.00e+00 -1.00e+00    1.0000 >    1.8333   -0.0124    1.1681  737.1780 9821.5410   -1.2220    4.6035 359.81 359.8 140.4 10     0.0000    0.0367
M13          ?    BHE  e S      ? 20230621 2228   50.8678 GAU  3.76e-03 -1.00e+00 -1.00e+00 -1.00e+00    1.0000 >    3.0608   -0.0196    0.9298  737.1780 9821.5410   -1.2220    4.6035 359.81 359.8 139.9 10     0.0000    0.0612
M05          ?    BHZ  i P      d 20230621 2228   49.7336 GAU  8.16e-04 -1.00e+00 -1.00e+00 -1.00e+00    1.0000 >    1.9098   -0.0029    1.1828  736.2660 9822.0830   -1.1500    5.2284 349.78 349.8 136.2 10     0.0000    0.0382
M05          ?    BHN  e S      ? 20230621 2228   51.0287 GAU  2.63e-03 -1.00e+00  3.71e+02 -1.00e+00    1.0000 >    3.1863    0.0158    0.9254  736.2660 9822.0830   -1.1500    5.2284 349.78 349.8 135.7 10     0.0000    0.0637
M08          ?    BHZ  e P      c 20230621 2228   49.7550 GAU  2.02e-03 -1.00e+00 -1.00e+00 -1.00e+00    1.0000 >    1.9255    0.0028    1.1805  738.2480 9822.1600   -1.1510    5.3279  11.42  11.4 135.6 10     0.0000    0.0385
M08          ?    BHN  e S      ? 20230621 2228   51.0835 GAU  1.93e-03 -1.00e+00  3.65e+02 -1.00e+00    1.0000 >    3.2123    0.0445    0.8150  738.2480 9822.1600   -1.1510    5.3279  11.42  11.4 135.0 10     0.0000    0.0642
M01          ?    BHZ  e P      c 20230621 2228   49.7735 GAU  1.61e-03 -1.00e+00 -1.00e+00 -1.00e+00    1.0000 >    1.9669   -0.0201    1.1093  736.4090 9822.5140   -1.1200    5.6314 351.99 352.0 133.7 10     0.0000    0.0393
M01          ?    BHN  e S      ? 20230621 2228   51.1188 GAU  5.20e-03 -1.00e+00  1.57e+03 -1.00e+00    1.0000 >    3.2803    0.0119    0.9160  736.4090 9822.5140   -1.1200    5.6314 351.99 352.0 133.2 10     0.0000    0.0656
M12          ?    BHZ  i P      c 20230621 2228   49.8288 GAU  3.09e-03 -1.00e+00  4.21e+01 -1.00e+00    1.0000 >    2.0765   -0.0743    0.5866  736.8520 9823.3800   -0.9890    6.4515 356.97 357.0 128.9 10     0.0000    0.0415
M12          ?    BHN  e S      ? 20230621 2228   51.2153 GAU  2.70e-03 -1.00e+00 -1.00e+00 -1.00e+00    1.0000 >    3.4587   -0.0701    0.6382  736.8520 9823.3800   -0.9890    6.4515 356.97 357.0 128.4 10     0.0000    0.0692
END_PHASE
END_NLLOC

