NLLOC "./loc/SEML.20230606.025841.grid0" "LOCATED" "Location completed."
PUBLIC_ID None
SIGNATURE "Arham Zakki Edelo - edelo.17034@mhs.its.ac.id   obs:./obs/2023_06.obs   NLLoc:v7.00.10(30Aug2020)   run:28Dec2023 20h03m59"
COMMENT "SEML"
GRID  2001 2001 1001  727 9811 -2  0.01 0.01 0.01 PROB_DENSITY
SEARCH OCTREE nInitial 4851 nEvaluated 20003 smallestNodeSide 0.029762/0.029762/0.028409 oct_tree_integral 4.713226e-01 scatter_volume 4.699503e-01
HYPOCENTER  x 738.473 y 9818.22 z 0.571023  OT 41.3708  ix -1 iy -1 iz -1 MAXIMUM_LIKELIHOOD
GEOGRAPHIC  OT 2023 06 06  02 58 41.370848  Lat 9818.217262 Long 738.473214 Depth 0.571023
QUALITY  Pmax 7.21662e+20 MFmin 29.508 MFmax 36.1453 RMS 0.0222894 Nphs 8 Gap 348.099 Dist 0.914422 Mamp -9.90 0 Mdur -9.90 0
VPVSRATIO  VpVsRatio 2.06612  Npair 4  Diff 0.420906
STATISTICS  ExpectX 739.148623 Y 9818.062207 Z 0.254804  CovXX 1.00823 XY 0.0463266 XZ -0.405536 YY 0.0516633 YZ -0.0335449 ZZ 0.582441 EllAz1  358.168 Dip1  2.2068 Len1  0.415421 Az2  271.813 Dip2  -58.7779 Len2  1.09133 Len3  2.105676e+00
STAT_GEOG  ExpectLat 9818.062207 Long 739.148623 Depth 0.254804
TRANSFORM  NONE
QML_OriginQuality  assocPhCt 8  usedPhCt 8  assocStaCt -1  usedStaCt 4  depthPhCt -1  stdErr 0.0222894  azGap 348.099  secAzGap 348.099  gtLevel -  minDist 0.914422 maxDist 3.94917 medDist 2.55146
QML_OriginUncertainty  horUnc -1  minHorUnc 0.337161  maxHorUnc 1.52449  azMaxHorUnc 87.2338
QML_ConfidenceEllipsoid  semiMajorAxisLength 2.10568  semiMinorAxisLength 0.415421  semiIntermediateAxisLength 1.09133  majorAxisPlunge -31.1262  majorAxisAzimuth 86.8342  majorAxisRotation 174.476
FOCALMECH  Hyp  9818.217262 738.473214 0.571023 Mech  0 0 0 mf  0 nObs -1
PHASE ID Ins Cmp On Pha  FM Date     HrMn   Sec     Err  ErrMag    Coda      Amp       Per       PriorWt  >   TTpred    Res       Weight    StaLoc(X  Y         Z)        SDist    SAzim  RAz  RDip RQual    Tcorr       TTerr
M06          ?    BHZ  e P      c 20230606 0258   41.9473 GAU  1.86e-03 -1.00e+00 -1.00e+00 -1.00e+00    1.0000 >    0.5759    0.0005    1.5435  738.3100 9819.1170   -1.3960    0.9144 349.72 349.7 154.1 10     0.0000    0.0115
M06          ?    BHN  e S      ? 20230606 0258   42.4687 GAU  1.62e-03 -1.00e+00 -1.00e+00 -1.00e+00    1.0000 >    1.0013    0.0966    0.1903  738.3100 9819.1170   -1.3960    0.9144 349.72 349.7 151.8 10     0.0000    0.0200
M11          ?    BHZ  e P      c 20230606 0258   42.1360 GAU  1.06e-03 -1.00e+00 -1.00e+00 -1.00e+00    1.0000 >    0.7816   -0.0165    1.1821  738.4670 9820.4900   -1.3120    2.2727 359.84 359.8 127.1 10     0.0000    0.0156
M11          ?    BHN  e S      ? 20230606 0258   42.7411 GAU  1.80e-03 -1.00e+00 -1.00e+00 -1.00e+00    1.0000 >    1.3589    0.0113    1.1903  738.4670 9820.4900   -1.3120    2.2727 359.84 359.8 120.3 10     0.0000    0.0272
M09          ?    BHZ  i P      c 20230606 0258   42.2692 GAU  5.24e-04 -1.00e+00  7.13e+01 -1.00e+00    1.0000 >    0.8933    0.0050    1.4350  737.8820 9820.9850   -1.2700    2.8302 347.94 347.9 120.0 10     0.0000    0.0179
M09          ?    BHE  e S      ? 20230606 0258   42.9079 GAU  1.86e-04 -1.00e+00  3.83e+02 -1.00e+00    1.0000 >    1.5528   -0.0157    1.0559  737.8820 9820.9850   -1.2700    2.8302 347.94 347.9 110.6 10     0.0000    0.0311
M08          ?    BHZ  e P      d 20230606 0258   42.5219 GAU  1.08e-03 -1.00e+00  8.41e+02 -1.00e+00    1.0000 >    1.1363    0.0148    1.1992  738.2480 9822.1600   -1.1510    3.9492 356.73 356.7 109.7 10     0.0000    0.0227
M08          ?    BHE  e S      ? 20230606 0258   43.4643 GAU  3.03e-04 -1.00e+00 -1.00e+00 -1.00e+00    1.0000 >    1.9701    0.1234    0.2037  738.2480 9822.1600   -1.1510    3.9492 356.73 356.7  95.5  9     0.0000    0.0394
END_PHASE
END_NLLOC

