NLLOC "./loc/SEML.20230622.095702.grid0" "LOCATED" "Location completed."
PUBLIC_ID None
SIGNATURE "Arham Zakki Edelo - edelo.17034@mhs.its.ac.id   obs:./obs/2023_06.obs   NLLoc:v7.00.10(30Aug2020)   run:28Dec2023 20h04m03"
COMMENT "SEML"
GRID  2001 2001 1001  727 9811 -2  0.01 0.01 0.01 PROB_DENSITY
SEARCH OCTREE nInitial 4851 nEvaluated 20003 smallestNodeSide 0.029762/0.029762/0.028409 oct_tree_integral 5.754816e-01 scatter_volume 5.754816e-01
HYPOCENTER  x 736.896 y 9816.16 z 5.59943  OT 0.386217  ix -1 iy -1 iz -1 MAXIMUM_LIKELIHOOD
GEOGRAPHIC  OT 2023 06 22  09 57 0.386217  Lat 9816.163690 Long 736.895833 Depth 5.599432
QUALITY  Pmax 6.94232e+74 MFmin 55.325 MFmax 60.465 RMS 0.0285045 Nphs 22 Gap 328.339 Dist 3.09795 Mamp -9.90 0 Mdur -9.90 0
VPVSRATIO  VpVsRatio 1.74841  Npair 11  Diff 0.294548
STATISTICS  ExpectX 736.928973 Y 9816.196530 Z 5.585765  CovXX 0.327439 XY 0.10633 XZ 0.0863962 YY 0.134219 YZ 0.0735569 ZZ 0.100805 EllAz1  180.679 Dip1  51.7776 Len1  0.38538 Az2  321.684 Dip2  31.4707 Len2  0.616251 Len3  1.207151e+00
STAT_GEOG  ExpectLat 9816.196530 Long 736.928973 Depth 5.585765
TRANSFORM  NONE
QML_OriginQuality  assocPhCt 22  usedPhCt 22  assocStaCt -1  usedStaCt 11  depthPhCt -1  stdErr 0.0285045  azGap 328.339  secAzGap 328.339  gtLevel -  minDist 3.09795 maxDist 7.21644 medDist 4.69034
QML_OriginUncertainty  horUnc -1  minHorUnc 0.447749  maxHorUnc 0.928082  azMaxHorUnc 66.129
QML_ConfidenceEllipsoid  semiMajorAxisLength 1.20715  semiMinorAxisLength 0.38538  semiIntermediateAxisLength 0.616251  majorAxisPlunge 19.3936  majorAxisAzimuth 64.1279  majorAxisRotation 62.6165
FOCALMECH  Hyp  9816.163690 736.895833 5.599432 Mech  0 0 0 mf  0 nObs -1
PHASE ID Ins Cmp On Pha  FM Date     HrMn   Sec     Err  ErrMag    Coda      Amp       Per       PriorWt  >   TTpred    Res       Weight    StaLoc(X  Y         Z)        SDist    SAzim  RAz  RDip RQual    Tcorr       TTerr
M04          ?    BHZ  i P      c 20230622 0957    2.2389 GAU  6.68e-03 -1.00e+00  3.70e+02 -1.00e+00    1.0000 >    1.8732   -0.0206    1.1817  737.1400 9819.2520   -1.5710    3.0979   4.52   4.5 154.9 10     0.0000    0.0375
M04          ?    BHE  e S      ? 20230622 0957    3.4455 GAU  3.49e-03 -1.00e+00 -1.00e+00 -1.00e+00    1.0000 >    3.1301   -0.0708    0.7375  737.1400 9819.2520   -1.5710    3.0979   4.52   4.5 154.5 10     0.0000    0.0626
M02          ?    BHZ  i P      d 20230622 0957    2.2717 GAU  2.25e-03 -1.00e+00 -1.00e+00 -1.00e+00    1.0000 >    1.8693    0.0162    1.1911  736.5970 9819.4060   -1.4960    3.2561 354.73 354.7 153.5 10     0.0000    0.0374
M02          ?    BHN  e S      ? 20230622 0957    3.5068 GAU  2.02e-03 -1.00e+00  3.05e+05 -1.00e+00    1.0000 >    3.1222   -0.0016    1.0137  736.5970 9819.4060   -1.4960    3.2561 354.73 354.7 153.1 10     0.0000    0.0624
M06          ?    BHZ  i P      c 20230622 0957    2.2225 GAU  4.19e-03 -1.00e+00  2.49e+03 -1.00e+00    1.0000 >    1.8456   -0.0092    1.2325  738.3100 9819.1170   -1.3960    3.2744  25.59  25.6 153.1 10     0.0000    0.0369
M06          ?    BHE  e S      ? 20230622 0957    3.4919 GAU  4.51e-03 -1.00e+00  5.88e+03 -1.00e+00    1.0000 >    3.0809    0.0248    0.9640  738.3100 9819.1170   -1.3960    3.2744  25.59  25.6 152.8 10     0.0000    0.0616
M14          ?    BHZ  i P      c 20230622 0957    2.2835 GAU  1.87e-03 -1.00e+00  6.82e+03 -1.00e+00    1.0000 >    1.9140   -0.0167    1.1980  737.5530 9820.0110   -1.3980    3.9030   9.69   9.7 148.8 10     0.0000    0.0383
M14          ?    BHE  e S      ? 20230622 0957    3.5466 GAU  4.70e-03 -1.00e+00 -1.00e+00 -1.00e+00    1.0000 >    3.1947   -0.0343    0.9368  737.5530 9820.0110   -1.3980    3.9030   9.69   9.7 148.4 10     0.0000    0.0639
M11          ?    BHZ  e P      c 20230622 0957    2.3716 GAU  4.45e-03 -1.00e+00 -1.00e+00 -1.00e+00    1.0000 >    1.9792    0.0062    1.2078  738.4670 9820.4900   -1.3120    4.6028  19.96  20.0 143.9 10     0.0000    0.0396
M11          ?    BHE  i S      ? 20230622 0957    3.7209 GAU  6.37e-03 -1.00e+00  2.05e+04 -1.00e+00    1.0000 >    3.3013    0.0334    0.8985  738.4670 9820.4900   -1.3120    4.6028  19.96  20.0 143.5 10     0.0000    0.0660
M03          ?    BHZ  e P      d 20230622 0957    2.4036 GAU  6.74e-03 -1.00e+00 -1.00e+00 -1.00e+00    1.0000 >    1.9963    0.0211    1.1400  736.8800 9820.8540   -1.3350    4.6903 359.81 359.8 143.5 10     0.0000    0.0399
M03          ?    BHE  e S      ? 20230622 0957    3.7382 GAU  9.75e-03 -1.00e+00 -1.00e+00 -1.00e+00    1.0000 >    3.3301    0.0219    0.9354  736.8800 9820.8540   -1.3350    4.6903 359.81 359.8 143.0 10     0.0000    0.0666
M10          ?    BHZ  e P      c 20230622 0957    2.4367 GAU  3.49e-03 -1.00e+00  5.13e+03 -1.00e+00    1.0000 >    2.0410    0.0094    1.1890  736.5490 9821.3650   -1.2200    5.2129 356.19 356.2 140.0 10     0.0000    0.0408
M10          ?    BHN  e S      ? 20230622 0957    3.8031 GAU  6.03e-03 -1.00e+00 -1.00e+00 -1.00e+00    1.0000 >    3.4019    0.0150    0.9466  736.5490 9821.3650   -1.2200    5.2129 356.19 356.2 139.5 10     0.0000    0.0680
M13          ?    BHZ  e P      c 20230622 0957    2.4532 GAU  1.60e-03 -1.00e+00  1.75e+04 -1.00e+00    1.0000 >    2.0663    0.0007    1.2016  737.1780 9821.5410   -1.2220    5.3847   3.00   3.0 138.9 10     0.0000    0.0413
M13          ?    BHN  e S      ? 20230622 0957    3.8290 GAU  4.64e-03 -1.00e+00 -1.00e+00 -1.00e+00    1.0000 >    3.4439   -0.0011    0.9613  737.1780 9821.5410   -1.2220    5.3847   3.00   3.0 138.5 10     0.0000    0.0689
M05          ?    BHZ  i P      d 20230622 0957    2.5163 GAU  5.54e-03 -1.00e+00 -1.00e+00 -1.00e+00    1.0000 >    2.1354   -0.0053    1.1850  736.2660 9822.0830   -1.1500    5.9527 353.93 353.9 135.7 10     0.0000    0.0427
M05          ?    BHE  e S      ? 20230622 0957    3.9769 GAU  4.92e-03 -1.00e+00 -1.00e+00 -1.00e+00    1.0000 >    3.5569    0.0338    0.8678  736.2660 9822.0830   -1.1500    5.9527 353.93 353.9 135.1 10     0.0000    0.0711
M01          ?    BHZ  e P      c 20230622 0957    2.5755 GAU  6.73e-03 -1.00e+00  1.50e+04 -1.00e+00    1.0000 >    2.1947   -0.0054    1.1726  736.4090 9822.5140   -1.1200    6.3689 355.62 355.6 133.4 10     0.0000    0.0439
M01          ?    BHN  e S      ? 20230622 0957    4.0639 GAU  6.57e-03 -1.00e+00  1.01e+03 -1.00e+00    1.0000 >    3.6543    0.0233    0.8906  736.4090 9822.5140   -1.1200    6.3689 355.62 355.6 132.9 10     0.0000    0.0731
M12          ?    BHZ  e P      c 20230622 0957    2.5999 GAU  4.45e-03 -1.00e+00  2.36e+03 -1.00e+00    1.0000 >    2.3081   -0.0944    0.5260  736.8520 9823.3800   -0.9890    7.2164 359.65 359.7 129.0 10     0.0000    0.0462
M12          ?    BHN  e S      ? 20230622 0957    4.1010 GAU  8.07e-03 -1.00e+00  8.59e+03 -1.00e+00    1.0000 >    3.8389   -0.1241    0.4225  736.8520 9823.3800   -0.9890    7.2164 359.65 359.7 128.5 10     0.0000    0.0768
END_PHASE
END_NLLOC

