NLLOC "./loc/SEML.20230606.020517.grid0" "LOCATED" "Location completed."
PUBLIC_ID None
SIGNATURE "Arham Zakki Edelo - edelo.17034@mhs.its.ac.id   obs:./obs/2023_06.obs   NLLoc:v7.00.10(30Aug2020)   run:28Dec2023 20h03m55"
COMMENT "SEML"
GRID  2001 2001 1001  727 9811 -2  0.01 0.01 0.01 PROB_DENSITY
SEARCH OCTREE nInitial 4851 nEvaluated 20019 smallestNodeSide 0.014881/0.014881/0.014205 oct_tree_integral 3.131609e-02 scatter_volume 3.131609e-02
HYPOCENTER  x 737.945 y 9817.76 z 1.14631  OT 16.3006  ix -1 iy -1 iz -1 MAXIMUM_LIKELIHOOD
GEOGRAPHIC  OT 2023 06 06  02 05 16.300642  Lat 9817.763393 Long 737.944940 Depth 1.146307
QUALITY  Pmax 9.40755e+42 MFmin 48.8979 MFmax 57.3435 RMS 0.0198244 Nphs 14 Gap 305.534 Dist 1.40197 Mamp -9.90 0 Mdur -9.90 0
VPVSRATIO  VpVsRatio 1.86072  Npair 7  Diff 0.545582
STATISTICS  ExpectX 738.015216 Y 9817.792116 Z 1.162123  CovXX 0.0410776 XY 0.0103378 XZ 0.00264427 YY 0.025713 YZ 0.00217051 ZZ 0.016934 EllAz1  184.646 Dip1  77.8679 Len1  0.240776 Az2  331.958 Dip2  10.2551 Len2  0.27 Len3  4.058019e-01
STAT_GEOG  ExpectLat 9817.792116 Long 738.015216 Depth 1.162123
TRANSFORM  NONE
QML_OriginQuality  assocPhCt 14  usedPhCt 14  assocStaCt -1  usedStaCt 7  depthPhCt -1  stdErr 0.0198244  azGap 305.534  secAzGap 305.534  gtLevel -  minDist 1.40197 maxDist 4.63442 medDist 2.77614
QML_OriginUncertainty  horUnc -1  minHorUnc 0.217223  maxHorUnc 0.32624  azMaxHorUnc 63.3085
QML_ConfidenceEllipsoid  semiMajorAxisLength 0.405802  semiMinorAxisLength 0.240776  semiIntermediateAxisLength 0.27  majorAxisPlunge 6.41269  majorAxisAzimuth 63.1234  majorAxisRotation 79.9317
FOCALMECH  Hyp  9817.763393 737.944940 1.146307 Mech  0 0 0 mf  0 nObs -1
PHASE ID Ins Cmp On Pha  FM Date     HrMn   Sec     Err  ErrMag    Coda      Amp       Per       PriorWt  >   TTpred    Res       Weight    StaLoc(X  Y         Z)        SDist    SAzim  RAz  RDip RQual    Tcorr       TTerr
M06          ?    BHZ  i P      c 20230606 0205   17.0740 GAU  2.95e-03 -1.00e+00 -1.00e+00 -1.00e+00    1.0000 >    0.7609    0.0124    1.4741  738.3100 9819.1170   -1.3960    1.4020  15.09  15.1 147.6 10     0.0000    0.0152
M06          ?    BHN  e S      ? 20230606 0205   17.6027 GAU  1.19e-03 -1.00e+00 -1.00e+00 -1.00e+00    1.0000 >    1.3015    0.0006    1.4016  738.3100 9819.1170   -1.3960    1.4020  15.09  15.1 146.2 10     0.0000    0.0260
M02          ?    BHZ  e P      d 20230606 0205   17.1784 GAU  4.19e-03 -1.00e+00  6.23e+02 -1.00e+00    1.0000 >    0.8897   -0.0120    1.3964  736.5970 9819.4060   -1.4960    2.1249 320.63 320.6 135.9 10     0.0000    0.0178
M02          ?    BHE  e S      ? 20230606 0205   17.8166 GAU  9.36e-04 -1.00e+00 -1.00e+00 -1.00e+00    1.0000 >    1.5216   -0.0056    1.2962  736.5970 9819.4060   -1.4960    2.1249 320.63 320.6 133.8 10     0.0000    0.0304
M14          ?    BHZ  e P      d 20230606 0205   17.2357 GAU  1.17e-03 -1.00e+00  1.24e+03 -1.00e+00    1.0000 >    0.8949    0.0401    0.8344  737.5530 9820.0110   -1.3980    2.2815 350.11 350.1 132.3 10     0.0000    0.0179
M14          ?    BHE  e S      ? 20230606 0205   17.8598 GAU  9.17e-04 -1.00e+00  3.93e+02 -1.00e+00    1.0000 >    1.5297    0.0295    1.0938  737.5530 9820.0110   -1.3980    2.2815 350.11 350.1 130.0 10     0.0000    0.0306
M11          ?    BHZ  e P      c 20230606 0205   17.2584 GAU  3.58e-03 -1.00e+00 -1.00e+00 -1.00e+00    1.0000 >    0.9691   -0.0113    1.3950  738.4670 9820.4900   -1.3120    2.7761  10.84  10.8 124.0 10     0.0000    0.0194
M11          ?    BHN  i S      ? 20230606 0205   17.9432 GAU  3.09e-03 -1.00e+00 -1.00e+00 -1.00e+00    1.0000 >    1.6546   -0.0120    1.2009  738.4670 9820.4900   -1.3120    2.7761  10.84  10.8 121.1 10     0.0000    0.0331
M09          ?    BHZ  i P      c 20230606 0205   17.3376 GAU  7.76e-04 -1.00e+00  1.24e+02 -1.00e+00    1.0000 >    1.0514   -0.0144    1.3270  737.8820 9820.9850   -1.2700    3.2222 358.88 358.9 117.8 10     0.0000    0.0210
M09          ?    BHE  e S      ? 20230606 0205   17.9968 GAU  2.26e-04 -1.00e+00  3.76e+02 -1.00e+00    1.0000 >    1.7932   -0.0971    0.1254  737.8820 9820.9850   -1.2700    3.2222 358.88 358.9 114.5 10     0.0000    0.0359
M13          ?    BHZ  e P      d 20230606 0205   17.4918 GAU  1.24e-03 -1.00e+00  1.16e+02 -1.00e+00    1.0000 >    1.1791    0.0121    1.4031  737.1780 9821.5410   -1.2220    3.8547 348.52 348.5 110.3 10     0.0000    0.0236
M13          ?    BHE  e S      ? 20230606 0205   18.3356 GAU  2.85e-03 -1.00e+00 -1.00e+00 -1.00e+00    1.0000 >    2.0075    0.0275    1.0331  737.1780 9821.5410   -1.2220    3.8547 348.52 348.5 106.5 10     0.0000    0.0401
M05          ?    BHZ  e P      c 20230606 0205   17.7880 GAU  8.74e-04 -1.00e+00 -1.00e+00 -1.00e+00    1.0000 >    1.3440    0.1433    0.0152  736.2660 9822.0830   -1.1500    4.6344 338.76 338.8 102.3 10     0.0000    0.0269
M05          ?    BHN  e S      ? 20230606 0205   18.8623 GAU  1.23e-03 -1.00e+00  2.86e+02 -1.00e+00    1.0000 >    2.2809    0.2808    0.0038  736.2660 9822.0830   -1.1500    4.6344 338.76 338.8  98.9  9     0.0000    0.0456
END_PHASE
END_NLLOC

