NLLOC "./loc/SEML.20230606.015738.grid0" "LOCATED" "Location completed."
PUBLIC_ID None
SIGNATURE "Arham Zakki Edelo - edelo.17034@mhs.its.ac.id   obs:./obs/2023_06.obs   NLLoc:v7.00.10(30Aug2020)   run:28Dec2023 20h03m48"
COMMENT "SEML"
GRID  2001 2001 1001  727 9811 -2  0.01 0.01 0.01 PROB_DENSITY
SEARCH OCTREE nInitial 4851 nEvaluated 20027 smallestNodeSide 0.014881/0.014881/0.014205 oct_tree_integral 1.385411e-02 scatter_volume 1.384401e-02
HYPOCENTER  x 737.618 y 9818.69 z 0.663352  OT 37.6251  ix -1 iy -1 iz -1 MAXIMUM_LIKELIHOOD
GEOGRAPHIC  OT 2023 06 06  01 57 37.625095  Lat 9818.686012 Long 737.617560 Depth 0.663352
QUALITY  Pmax 6.36904e+51 MFmin 61.8521 MFmax 80.7565 RMS 0.0205425 Nphs 16 Gap 247.101 Dist 0.815613 Mamp -9.90 0 Mdur -9.90 0
VPVSRATIO  VpVsRatio 1.67085  Npair 8  Diff 0.654205
STATISTICS  ExpectX 737.675880 Y 9818.726484 Z 0.583957  CovXX 0.0117602 XY 0.00400965 XZ -0.0105369 YY 0.0143763 YZ -0.0159524 ZZ 0.0450524 EllAz1  18.7699 Dip1  26.191 Len1  0.162187 Az2  291.787 Dip2  -6.10719 Len2  0.17768 Len3  4.397974e-01
STAT_GEOG  ExpectLat 9818.726484 Long 737.675880 Depth 0.583957
TRANSFORM  NONE
QML_OriginQuality  assocPhCt 16  usedPhCt 16  assocStaCt -1  usedStaCt 8  depthPhCt -1  stdErr 0.0205425  azGap 247.101  secAzGap 247.101  gtLevel -  minDist 0.815613 maxDist 4.75601 medDist 2.15406
QML_OriginUncertainty  horUnc -1  minHorUnc 0.142676  maxHorUnc 0.199393  azMaxHorUnc 35.9664
QML_ConfidenceEllipsoid  semiMajorAxisLength 0.439797  semiMinorAxisLength 0.162187  semiIntermediateAxisLength 0.17768  majorAxisPlunge -62.999  majorAxisAzimuth 33.908  majorAxisRotation 261.936
FOCALMECH  Hyp  9818.686012 737.617560 0.663352 Mech  0 0 0 mf  0 nObs -1
PHASE ID Ins Cmp On Pha  FM Date     HrMn   Sec     Err  ErrMag    Coda      Amp       Per       PriorWt  >   TTpred    Res       Weight    StaLoc(X  Y         Z)        SDist    SAzim  RAz  RDip RQual    Tcorr       TTerr
M06          ?    BHZ  i P      c 20230606 0157   38.2082 GAU  7.42e-04 -1.00e+00 -1.00e+00 -1.00e+00    1.0000 >    0.5872   -0.0041    1.5564  738.3100 9819.1170   -1.3960    0.8156  58.10  58.1 157.6 10     0.0000    0.0117
M06          ?    BHN  e S      ? 20230606 0157   38.6587 GAU  2.95e-03 -1.00e+00  2.55e+02 -1.00e+00    1.0000 >    1.0173    0.0163    1.3485  738.3100 9819.1170   -1.3960    0.8156  58.10  58.1 155.7 10     0.0000    0.0203
M02          ?    BHZ  i P      d 20230606 0157   38.3056 GAU  4.99e-04 -1.00e+00 -1.00e+00 -1.00e+00    1.0000 >    0.6622    0.0183    1.3577  736.5970 9819.4060   -1.4960    1.2490 305.20 305.2 148.9 10     0.0000    0.0132
M02          ?    BHN  e S      ? 20230606 0157   38.7625 GAU  6.86e-04 -1.00e+00 -1.00e+00 -1.00e+00    1.0000 >    1.1470   -0.0095    1.3159  736.5970 9819.4060   -1.4960    1.2490 305.20 305.2 146.1 10     0.0000    0.0229
M14          ?    BHZ  i P      c 20230606 0157   38.2737 GAU  1.09e-03 -1.00e+00 -1.00e+00 -1.00e+00    1.0000 >    0.6496   -0.0010    1.5818  737.5530 9820.0110   -1.3980    1.3266 357.21 357.2 146.1 10     0.0000    0.0130
M14          ?    BHE  e S      ? 20230606 0157   38.6425 GAU  5.74e-04 -1.00e+00  4.18e+02 -1.00e+00    1.0000 >    1.1254   -0.1080    0.0953  737.5530 9820.0110   -1.3980    1.3266 357.21 357.2 142.9 10     0.0000    0.0225
M11          ?    BHZ  i P      c 20230606 0157   38.3541 GAU  1.49e-03 -1.00e+00 -1.00e+00 -1.00e+00    1.0000 >    0.7421   -0.0131    1.3378  738.4670 9820.4900   -1.3120    1.9940  25.21  25.2 132.8 10     0.0000    0.0148
M11          ?    BHN  i S      ? 20230606 0157   38.9309 GAU  2.65e-03 -1.00e+00 -1.00e+00 -1.00e+00    1.0000 >    1.2854    0.0204    1.2102  738.4670 9820.4900   -1.3120    1.9940  25.21  25.2 127.8 10     0.0000    0.0257
M09          ?    BHZ  i P      c 20230606 0157   38.3931 GAU  4.54e-03 -1.00e+00 -1.00e+00 -1.00e+00    1.0000 >    0.7966   -0.0286    0.8556  737.8820 9820.9850   -1.2700    2.3141   6.56   6.6 127.6 10     0.0000    0.0159
M09          ?    BHE  e S      ? 20230606 0157   39.0189 GAU  3.01e-03 -1.00e+00  3.27e+02 -1.00e+00    1.0000 >    1.3796    0.0142    1.2560  737.8820 9820.9850   -1.2700    2.3141   6.56   6.6 121.4 10     0.0000    0.0276
M13          ?    BHZ  i P      d 20230606 0157   38.5649 GAU  1.42e-03 -1.00e+00  1.72e+03 -1.00e+00    1.0000 >    0.9103    0.0295    1.0515  737.1780 9821.5410   -1.2220    2.8886 351.25 351.2 120.4 10     0.0000    0.0182
M13          ?    BHN  e S      ? 20230606 0157   39.1887 GAU  2.17e-03 -1.00e+00  3.73e+01 -1.00e+00    1.0000 >    1.5755   -0.0119    1.1508  737.1780 9821.5410   -1.2220    2.8886 351.25 351.2 112.2 10     0.0000    0.0315
M08          ?    BHZ  e P      d 20230606 0157   38.6828 GAU  5.39e-04 -1.00e+00 -1.00e+00 -1.00e+00    1.0000 >    1.0457    0.0120    1.4034  738.2480 9822.1600   -1.1510    3.5307  10.29  10.3 114.0 10     0.0000    0.0209
M08          ?    BHN  e S      ? 20230606 0157   39.3515 GAU  1.70e-03 -1.00e+00  2.07e+02 -1.00e+00    1.0000 >    1.8072   -0.0808    0.2863  738.2480 9822.1600   -1.1510    3.5307  10.29  10.3 103.5 10     0.0000    0.0361
M12          ?    BHZ  e P      c 20230606 0157   39.0318 GAU  6.03e-03 -1.00e+00 -1.00e+00 -1.00e+00    1.0000 >    1.3202    0.0865    0.1560  736.8520 9823.3800   -0.9890    4.7560 350.74 350.7 105.4 10     0.0000    0.0264
M12          ?    BHN  e S      ? 20230606 0157   40.0548 GAU  5.10e-03 -1.00e+00 -1.00e+00 -1.00e+00    1.0000 >    2.2645    0.1651    0.0371  736.8520 9823.3800   -0.9890    4.7560 350.74 350.7  95.2  9     0.0000    0.0453
END_PHASE
END_NLLOC

