NLLOC "./loc/SEML.20230606.015241.grid0" "LOCATED" "Location completed."
PUBLIC_ID None
SIGNATURE "Arham Zakki Edelo - edelo.17034@mhs.its.ac.id   obs:./obs/2023_06.obs   NLLoc:v7.00.10(30Aug2020)   run:28Dec2023 20h03m39"
COMMENT "SEML"
GRID  2001 2001 1001  727 9811 -2  0.01 0.01 0.01 PROB_DENSITY
SEARCH OCTREE nInitial 4851 nEvaluated 20027 smallestNodeSide 0.014881/0.014881/0.014205 oct_tree_integral 7.073973e-02 scatter_volume 7.073973e-02
HYPOCENTER  x 737.35 y 9818.15 z 1.30256  OT 40.3297  ix -1 iy -1 iz -1 MAXIMUM_LIKELIHOOD
GEOGRAPHIC  OT 2023 06 06  01 52 40.329689  Lat 9818.150298 Long 737.349702 Depth 1.302557
QUALITY  Pmax 1.36327e+70 MFmin 76.8016 MFmax 96.3901 RMS 0.0558776 Nphs 22 Gap 284.251 Dist 1.3626 Mamp -9.90 0 Mdur -9.90 0
VPVSRATIO  VpVsRatio 1.81502  Npair 11  Diff 0.645611
STATISTICS  ExpectX 737.498534 Y 9818.171610 Z 0.976542  CovXX 0.043247 XY 0.0042421 XZ -0.0436541 YY 0.0256599 YZ -0.00453804 ZZ 0.0907323 EllAz1  100.596 Dip1  29.7387 Len1  0.245559 Az2  186.028 Dip2  -7.93576 Len2  0.299859 Len3  6.428933e-01
STAT_GEOG  ExpectLat 9818.171610 Long 737.498534 Depth 0.976542
TRANSFORM  NONE
QML_OriginQuality  assocPhCt 22  usedPhCt 22  assocStaCt -1  usedStaCt 11  depthPhCt -1  stdErr 0.0558776  azGap 284.251  secAzGap 284.251  gtLevel -  minDist 1.3626 maxDist 5.25333 medDist 2.88425
QML_OriginUncertainty  horUnc -1  minHorUnc 0.238301  maxHorUnc 0.318902  azMaxHorUnc 77.1234
QML_ConfidenceEllipsoid  semiMajorAxisLength 0.642893  semiMinorAxisLength 0.245559  semiIntermediateAxisLength 0.299859  majorAxisPlunge -59.0092  majorAxisAzimuth 82.6082  majorAxisRotation 277.449
FOCALMECH  Hyp  9818.150298 737.349702 1.302557 Mech  0 0 0 mf  0 nObs -1
PHASE ID Ins Cmp On Pha  FM Date     HrMn   Sec     Err  ErrMag    Coda      Amp       Per       PriorWt  >   TTpred    Res       Weight    StaLoc(X  Y         Z)        SDist    SAzim  RAz  RDip RQual    Tcorr       TTerr
M06          ?    BHZ  i P      c 20230606 0152   41.1066 GAU  1.35e-03 -1.00e+00 -1.00e+00 -1.00e+00    1.0000 >    0.7876   -0.0107    1.8363  738.3100 9819.1170   -1.3960    1.3626  44.81  44.8 150.3 10     0.0000    0.0158
M06          ?    BHE  i S      ? 20230606 0152   41.6985 GAU  3.80e-03 -1.00e+00  8.07e+00 -1.00e+00    1.0000 >    1.3443    0.0245    1.4048  738.3100 9819.1170   -1.3960    1.3626  44.81  44.8 149.1 10     0.0000    0.0269
M02          ?    BHZ  i P      c 20230606 0152   41.1638 GAU  1.08e-03 -1.00e+00 -1.00e+00 -1.00e+00    1.0000 >    0.8244    0.0098    1.8013  736.5970 9819.4060   -1.4960    1.4640 329.06 329.1 149.2 10     0.0000    0.0165
M02          ?    BHN  e S      ? 20230606 0152   41.7274 GAU  2.78e-03 -1.00e+00  4.54e+03 -1.00e+00    1.0000 >    1.4076   -0.0099    1.6633  736.5970 9819.4060   -1.4960    1.4640 329.06 329.1 148.0 10     0.0000    0.0282
M14          ?    BHZ  i P      c 20230606 0152   41.1947 GAU  2.16e-03 -1.00e+00 -1.00e+00 -1.00e+00    1.0000 >    0.8557    0.0092    1.8034  737.5530 9820.0110   -1.3980    1.8718   6.24   6.2 141.2 10     0.0000    0.0171
M14          ?    BHE  e S      ? 20230606 0152   41.7038 GAU  7.76e-04 -1.00e+00  4.69e+02 -1.00e+00    1.0000 >    1.4600   -0.0860    0.3950  737.5530 9820.0110   -1.3980    1.8718   6.24   6.2 139.6 10     0.0000    0.0292
M11          ?    BHZ  i P      c 20230606 0152   41.2611 GAU  1.60e-03 -1.00e+00  5.98e+01 -1.00e+00    1.0000 >    0.9564   -0.0250    1.5119  738.4670 9820.4900   -1.3120    2.5928  25.53  25.5 129.4 10     0.0000    0.0191
M11          ?    BHN  i S      ? 20230606 0152   41.9732 GAU  7.73e-03 -1.00e+00 -1.00e+00 -1.00e+00    1.0000 >    1.6300    0.0136    1.5023  738.4670 9820.4900   -1.3120    2.5928  25.53  25.5 127.1 10     0.0000    0.0326
M03          ?    BHZ  e P      c 20230606 0152   41.3098 GAU  1.81e-03 -1.00e+00 -1.00e+00 -1.00e+00    1.0000 >    0.9890   -0.0089    1.8152  736.8800 9820.8540   -1.3350    2.7442 350.14 350.1 127.6 10     0.0000    0.0198
M03          ?    BHN  e S      ? 20230606 0152   42.0432 GAU  2.79e-03 -1.00e+00 -1.00e+00 -1.00e+00    1.0000 >    1.6853    0.0281    1.2990  736.8800 9820.8540   -1.3350    2.7442 350.14 350.1 125.3 10     0.0000    0.0337
M09          ?    BHZ  i P      c 20230606 0152   41.3374 GAU  1.03e-03 -1.00e+00  2.81e+02 -1.00e+00    1.0000 >    1.0027    0.0051    1.8182  737.8820 9820.9850   -1.2700    2.8842  10.64  10.6 125.0 10     0.0000    0.0201
M09          ?    BHE  e S      ? 20230606 0152   41.9710 GAU  1.79e-03 -1.00e+00  4.08e+02 -1.00e+00    1.0000 >    1.7075   -0.0663    0.7377  737.8820 9820.9850   -1.2700    2.8842  10.64  10.6 122.6 10     0.0000    0.0342
M10          ?    BHZ  e P      c 20230606 0152   41.6471 GAU  2.32e-03 -1.00e+00 -1.00e+00 -1.00e+00    1.0000 >    1.0787    0.2388    0.2829  736.5490 9821.3650   -1.2200    3.3129 346.01 346.0 119.3 10     0.0000    0.0216
M10          ?    BHN  e S      ? 20230606 0152   42.6052 GAU  1.66e-03 -1.00e+00 -1.00e+00 -1.00e+00    1.0000 >    1.8348    0.4407    0.0598  736.5490 9821.3650   -1.2200    3.3129 346.01 346.0 116.6 10     0.0000    0.0367
M13          ?    BHZ  e P      c 20230606 0152   41.3769 GAU  1.86e-03 -1.00e+00 -1.00e+00 -1.00e+00    1.0000 >    1.0960   -0.0487    0.9353  737.1780 9821.5410   -1.2220    3.3950 357.10 357.1 118.5 10     0.0000    0.0219
M13          ?    BHN  e S      ? 20230606 0152   42.1758 GAU  5.12e-03 -1.00e+00 -1.00e+00 -1.00e+00    1.0000 >    1.8640   -0.0179    1.4517  737.1780 9821.5410   -1.2220    3.3950 357.10 357.1 115.7 10     0.0000    0.0373
M05          ?    BHZ  i P      c 20230606 0152   41.7875 GAU  1.79e-03 -1.00e+00  2.51e+01 -1.00e+00    1.0000 >    1.2298    0.2281    0.2819  736.2660 9822.0830   -1.1500    4.0793 344.59 344.6 111.2 10     0.0000    0.0246
M05          ?    BHE  e S      ? 20230606 0152   42.7940 GAU  2.13e-03 -1.00e+00 -1.00e+00 -1.00e+00    1.0000 >    2.0869    0.3774    0.0857  736.2660 9822.0830   -1.1500    4.0793 344.59 344.6 108.2 10     0.0000    0.0417
M08          ?    BHZ  i P      c 20230606 0152   41.6222 GAU  2.90e-03 -1.00e+00 -1.00e+00 -1.00e+00    1.0000 >    1.2365    0.0560    0.6755  738.2480 9822.1600   -1.1510    4.1091  12.63  12.6 111.0 10     0.0000    0.0247
M08          ?    BHE  e S      ? 20230606 0152   42.5626 GAU  1.05e-03 -1.00e+00 -1.00e+00 -1.00e+00    1.0000 >    2.0982    0.1347    0.2442  738.2480 9822.1600   -1.1510    4.1091  12.63  12.6 108.0 10     0.0000    0.0420
M12          ?    BHZ  i P      c 20230606 0152   41.9293 GAU  3.34e-03 -1.00e+00 -1.00e+00 -1.00e+00    1.0000 >    1.4704    0.1292    0.1802  736.8520 9823.3800   -0.9890    5.2533 354.56 354.6 101.5 10     0.0000    0.0294
M12          ?    BHE  e S      ? 20230606 0152   43.0840 GAU  2.79e-03 -1.00e+00  4.45e+01 -1.00e+00    1.0000 >    2.4816    0.2727    0.2144  736.8520 9823.3800   -0.9890    5.2533 354.56 354.6  99.5 10     0.0000    0.0496
END_PHASE
END_NLLOC

