NLLOC "./loc/SEML.20230606.020333.grid0" "LOCATED" "Location completed."
PUBLIC_ID None
SIGNATURE "Arham Zakki Edelo - edelo.17034@mhs.its.ac.id   obs:./obs/2023_06.obs   NLLoc:v7.00.10(30Aug2020)   run:28Dec2023 20h03m54"
COMMENT "SEML"
GRID  2001 2001 1001  727 9811 -2  0.01 0.01 0.01 PROB_DENSITY
SEARCH OCTREE nInitial 4851 nEvaluated 20011 smallestNodeSide 0.029762/0.029762/0.028409 oct_tree_integral 7.516928e-02 scatter_volume 7.496873e-02
HYPOCENTER  x 740.586 y 9819.02 z -0.338068  OT 32.545  ix -1 iy -1 iz -1 MAXIMUM_LIKELIHOOD
GEOGRAPHIC  OT 2023 06 06  02 03 32.545021  Lat 9819.020833 Long 740.586310 Depth -0.338068
QUALITY  Pmax 2.5435e+21 MFmin 28.9669 MFmax 39.9989 RMS 0.00543118 Nphs 8 Gap 326.428 Dist 2.27834 Mamp -9.90 0 Mdur -9.90 0
VPVSRATIO  VpVsRatio 1.78413  Npair 4  Diff 0.19717
STATISTICS  ExpectX 740.349920 Y 9819.049428 Z -0.567591  CovXX 0.925939 XY -0.0168399 XZ -0.606521 YY 0.0309056 YZ 0.000801215 ZZ 0.713959 EllAz1  2.58128 Dip1  2.22067 Len1  0.326384 Az2  275.218 Dip2  -49.8756 Len2  0.850338 Len3  2.251296e+00
STAT_GEOG  ExpectLat 9819.049428 Long 740.349920 Depth -0.567591
TRANSFORM  NONE
QML_OriginQuality  assocPhCt 8  usedPhCt 8  assocStaCt -1  usedStaCt 4  depthPhCt -1  stdErr 0.00543118  azGap 326.428  secAzGap 326.428  gtLevel -  minDist 2.27834 maxDist 4.00786 medDist 2.96054
QML_OriginUncertainty  horUnc -1  minHorUnc 0.265244  maxHorUnc 1.45958  azMaxHorUnc 91.0775
QML_ConfidenceEllipsoid  semiMajorAxisLength 2.2513  semiMinorAxisLength 0.326384  semiIntermediateAxisLength 0.850338  majorAxisPlunge -40.0371  majorAxisAzimuth 90.7142  majorAxisRotation 163.618
FOCALMECH  Hyp  9819.020833 740.586310 -0.338068 Mech  0 0 0 mf  0 nObs -1
PHASE ID Ins Cmp On Pha  FM Date     HrMn   Sec     Err  ErrMag    Coda      Amp       Per       PriorWt  >   TTpred    Res       Weight    StaLoc(X  Y         Z)        SDist    SAzim  RAz  RDip RQual    Tcorr       TTerr
M06          ?    BHZ  i P      c 20230606 0203   33.2232 GAU  2.02e-03 -1.00e+00 -1.00e+00 -1.00e+00    1.0000 >    0.6812   -0.0029    1.5257  738.3100 9819.1170   -1.3960    2.2783 272.42 272.4 108.9 10     0.0000    0.0136
M06          ?    BHN  e S      ? 20230606 0203   33.7376 GAU  2.90e-04 -1.00e+00 -1.00e+00 -1.00e+00    1.0000 >    1.1851    0.0075    1.2787  738.3100 9819.1170   -1.3960    2.2783 272.42 272.4 113.2 10     0.0000    0.0237
M11          ?    BHZ  e P      c 20230606 0203   33.2899 GAU  9.31e-04 -1.00e+00 -1.00e+00 -1.00e+00    1.0000 >    0.7462   -0.0013    1.5224  738.4670 9820.4900   -1.3120    2.5787 304.73 304.7 103.7 10     0.0000    0.0149
M11          ?    BHE  e S      ? 20230606 0203   33.8503 GAU  1.16e-03 -1.00e+00 -1.00e+00 -1.00e+00    1.0000 >    1.3000    0.0053    1.2365  738.4670 9820.4900   -1.3120    2.5787 304.73 304.7 108.7 10     0.0000    0.0260
M09          ?    BHZ  e P      c 20230606 0203   33.4898 GAU  7.49e-04 -1.00e+00  1.09e+02 -1.00e+00    1.0000 >    0.9365    0.0082    1.3866  737.8820 9820.9850   -1.2700    3.3423 305.99 306.0  97.6  9     0.0000    0.0187
M09          ?    BHE  e S      ? 20230606 0203   34.1729 GAU  2.39e-03 -1.00e+00  3.50e+02 -1.00e+00    1.0000 >    1.6357   -0.0078    1.0500  737.8820 9820.9850   -1.2700    3.3423 305.99 306.0 102.9 10     0.0000    0.0327
M02          ?    BHZ  e P      d 20230606 0203   33.2745 GAU  1.46e-03 -1.00e+00 -1.00e+00 -1.00e+00    1.0000 >    1.1294   -0.3999    0.0000  736.5970 9819.4060   -1.4960    4.0079 275.51 275.5  97.3  9     0.0000    0.0226
M02          ?    BHE  e S      ? 20230606 0203   33.7605 GAU  8.53e-04 -1.00e+00  3.32e+02 -1.00e+00    1.0000 >    1.9684   -0.7530    0.0000  736.5970 9819.4060   -1.4960    4.0079 275.51 275.5 103.2 10     0.0000    0.0394
END_PHASE
END_NLLOC

