NLLOC "./loc/SEML.20230606.015601.grid0" "LOCATED" "Location completed."
PUBLIC_ID None
SIGNATURE "Arham Zakki Edelo - edelo.17034@mhs.its.ac.id   obs:./obs/2023_06.obs   NLLoc:v7.00.10(30Aug2020)   run:28Dec2023 20h03m45"
COMMENT "SEML"
GRID  2001 2001 1001  727 9811 -2  0.01 0.01 0.01 PROB_DENSITY
SEARCH OCTREE nInitial 4851 nEvaluated 20003 smallestNodeSide 0.029762/0.029762/0.028409 oct_tree_integral 1.736155e-01 scatter_volume 1.728340e-01
HYPOCENTER  x 740.318 y 9819.26 z 0.684659  OT 1.15076  ix -1 iy -1 iz -1 MAXIMUM_LIKELIHOOD
GEOGRAPHIC  OT 2023 06 06  01 56 1.150764  Lat 9819.258929 Long 740.318452 Depth 0.684659
QUALITY  Pmax 2.26688e+21 MFmin 29.1154 MFmax 39.0561 RMS 0.00209601 Nphs 8 Gap 320.643 Dist 2.01346 Mamp -9.90 0 Mdur -9.90 0
VPVSRATIO  VpVsRatio 1.85092  Npair 4  Diff 0.187858
STATISTICS  ExpectX 738.382625 Y 9818.535555 Z -0.115839  CovXX 2.3759 XY 0.234826 XZ 0.208736 YY 0.568869 YZ 0.693889 ZZ 1.05618 EllAz1  177.786 Dip1  34.9285 Len1  0.514036 Az2  329.807 Dip2  51.6639 Len2  2.26041 Len3  2.957982e+00
STAT_GEOG  ExpectLat 9818.535555 Long 738.382625 Depth -0.115839
TRANSFORM  NONE
QML_OriginQuality  assocPhCt 8  usedPhCt 8  assocStaCt -1  usedStaCt 4  depthPhCt -1  stdErr 0.00209601  azGap 320.643  secAzGap 320.643  gtLevel -  minDist 2.01346 maxDist 2.9859 medDist 2.54464
QML_OriginUncertainty  horUnc -1  minHorUnc 1.11327  maxHorUnc 2.35236  azMaxHorUnc 82.7155
QML_ConfidenceEllipsoid  semiMajorAxisLength 2.95798  semiMinorAxisLength 0.514036  semiIntermediateAxisLength 2.26041  majorAxisPlunge 13.8029  majorAxisAzimuth 77.9074  majorAxisRotation 39.4787
FOCALMECH  Hyp  9819.258929 740.318452 0.684659 Mech  0 0 0 mf  0 nObs -1
PHASE ID Ins Cmp On Pha  FM Date     HrMn   Sec     Err  ErrMag    Coda      Amp       Per       PriorWt  >   TTpred    Res       Weight    StaLoc(X  Y         Z)        SDist    SAzim  RAz  RDip RQual    Tcorr       TTerr
M06          ?    BHZ  e P      d 20230606 0156    1.9158 GAU  6.47e-04 -1.00e+00 -1.00e+00 -1.00e+00    1.0000 >    0.7665   -0.0015    1.5139  738.3100 9819.1170   -1.3960    2.0135 265.96 266.0 134.1 10     0.0000    0.0153
M06          ?    BHE  e S      ? 20230606 0156    2.4794 GAU  1.34e-03 -1.00e+00 -1.00e+00 -1.00e+00    1.0000 >    1.3265    0.0021    1.2395  738.3100 9819.1170   -1.3960    2.0135 265.96 266.0 129.3 10     0.0000    0.0265
M11          ?    BHZ  e P      c 20230606 0156    1.9408 GAU  3.71e-03 -1.00e+00 -1.00e+00 -1.00e+00    1.0000 >    0.7898    0.0002    1.5003  738.4670 9820.4900   -1.3120    2.2234 303.62 303.6 129.7 10     0.0000    0.0158
M11          ?    BHE  e S      ? 20230606 0156    2.5218 GAU  8.36e-04 -1.00e+00 -1.00e+00 -1.00e+00    1.0000 >    1.3667    0.0043    1.2131  738.4670 9820.4900   -1.3120    2.2234 303.62 303.6 124.2 10     0.0000    0.0273
M14          ?    BHZ  e P      d 20230606 0156    1.8818 GAU  2.44e-03 -1.00e+00  7.62e+02 -1.00e+00    1.0000 >    0.9378   -0.2067    0.0000  737.5530 9820.0110   -1.3980    2.8659 285.21 285.2 123.2 10     0.0000    0.0188
M14          ?    BHN  e S      ? 20230606 0156    2.3765 GAU  8.11e-04 -1.00e+00  3.84e+02 -1.00e+00    1.0000 >    1.6217   -0.3959    0.0000  737.5530 9820.0110   -1.3980    2.8659 285.21 285.2 116.1 10     0.0000    0.0324
M09          ?    BHZ  e P      c 20230606 0156    2.0942 GAU  1.35e-03 -1.00e+00  5.00e+01 -1.00e+00    1.0000 >    0.9424    0.0011    1.4369  737.8820 9820.9850   -1.2700    2.9859 305.32 305.3 120.4 10     0.0000    0.0188
M09          ?    BHN  e S      ? 20230606 0156    2.7768 GAU  6.71e-04 -1.00e+00  4.68e+02 -1.00e+00    1.0000 >    1.6293   -0.0033    1.0963  737.8820 9820.9850   -1.2700    2.9859 305.32 305.3 112.4 10     0.0000    0.0326
END_PHASE
END_NLLOC

