NLLOC "./loc/SEML.20230606.015406.grid0" "LOCATED" "Location completed."
PUBLIC_ID None
SIGNATURE "Arham Zakki Edelo - edelo.17034@mhs.its.ac.id   obs:./obs/2023_06.obs   NLLoc:v7.00.10(30Aug2020)   run:28Dec2023 20h03m40"
COMMENT "SEML"
GRID  2001 2001 1001  727 9811 -2  0.01 0.01 0.01 PROB_DENSITY
SEARCH OCTREE nInitial 4851 nEvaluated 20011 smallestNodeSide 0.029762/0.029762/0.028409 oct_tree_integral 1.336766e-01 scatter_volume 1.330360e-01
HYPOCENTER  x 736.211 y 9817.89 z 0.372159  OT 5.29534  ix -1 iy -1 iz -1 MAXIMUM_LIKELIHOOD
GEOGRAPHIC  OT 2023 06 06  01 54 5.295338  Lat 9817.889881 Long 736.211310 Depth 0.372159
QUALITY  Pmax 3.0257e+26 MFmin 34.8397 MFmax 43.2007 RMS 0.0217403 Nphs 10 Gap 301.062 Dist 2.43112 Mamp -9.90 0 Mdur -9.90 0
VPVSRATIO  VpVsRatio 1.73632  Npair 5  Diff 0.596333
STATISTICS  ExpectX 736.863688 Y 9817.970972 Z 0.922424  CovXX 0.943462 XY 0.0806848 XZ 0.138203 YY 0.0651488 YZ 0.0173751 ZZ 0.370375 EllAz1  174.941 Dip1  0.938242 Len1  0.45139 Az2  269.058 Dip2  77.1513 Len2  1.09359 Len3  1.862293e+00
STAT_GEOG  ExpectLat 9817.970972 Long 736.863688 Depth 0.922424
TRANSFORM  NONE
QML_OriginQuality  assocPhCt 10  usedPhCt 10  assocStaCt -1  usedStaCt 5  depthPhCt -1  stdErr 0.0217403  azGap 301.062  secAzGap 301.062  gtLevel -  minDist 2.43112 maxDist 4.19348 medDist 3.4422
QML_OriginUncertainty  horUnc -1  minHorUnc 0.364604  maxHorUnc 1.47881  azMaxHorUnc 84.7947
QML_ConfidenceEllipsoid  semiMajorAxisLength 1.86229  semiMinorAxisLength 0.45139  semiIntermediateAxisLength 1.09359  majorAxisPlunge 12.8133  majorAxisAzimuth 84.7275  majorAxisRotation 1.06716
FOCALMECH  Hyp  9817.889881 736.211310 0.372159 Mech  0 0 0 mf  0 nObs -1
PHASE ID Ins Cmp On Pha  FM Date     HrMn   Sec     Err  ErrMag    Coda      Amp       Per       PriorWt  >   TTpred    Res       Weight    StaLoc(X  Y         Z)        SDist    SAzim  RAz  RDip RQual    Tcorr       TTerr
M06          ?    BHZ  i P      c 20230606 0154    6.0962 GAU  1.17e-03 -1.00e+00 -1.00e+00 -1.00e+00    1.0000 >    0.8000    0.0008    1.7773  738.3100 9819.1170   -1.3960    2.4311  59.68  59.7 123.7 10     0.0000    0.0160
M06          ?    BHE  i S      ? 20230606 0154    6.6945 GAU  4.21e-04 -1.00e+00 -1.00e+00 -1.00e+00    1.0000 >    1.3963    0.0029    1.4725  738.3100 9819.1170   -1.3960    2.4311  59.68  59.7 122.3 10     0.0000    0.0279
M14          ?    BHZ  e P      d 20230606 0154    6.1081 GAU  1.12e-03 -1.00e+00  2.98e+02 -1.00e+00    1.0000 >    0.8173   -0.0045    1.7341  737.5530 9820.0110   -1.3980    2.5098  32.31  32.3 122.8 10     0.0000    0.0163
M14          ?    BHE  e S      ? 20230606 0154    6.7266 GAU  9.04e-04 -1.00e+00  3.79e+02 -1.00e+00    1.0000 >    1.4266    0.0047    1.4489  737.5530 9820.0110   -1.3980    2.5098  32.31  32.3 121.4 10     0.0000    0.0285
M11          ?    BHZ  e P      c 20230606 0154    6.2223 GAU  3.18e-03 -1.00e+00 -1.00e+00 -1.00e+00    1.0000 >    1.0176   -0.0907    0.2875  738.4670 9820.4900   -1.3120    3.4422  40.94  40.9 113.1 10     0.0000    0.0204
M11          ?    BHE  i S      ? 20230606 0154    6.9719 GAU  3.54e-04 -1.00e+00 -1.00e+00 -1.00e+00    1.0000 >    1.7773   -0.1008    0.3382  738.4670 9820.4900   -1.3120    3.4422  40.94  40.9 110.9 10     0.0000    0.0355
M09          ?    BHZ  e P      c 20230606 0154    6.3286 GAU  8.30e-04 -1.00e+00  8.37e+01 -1.00e+00    1.0000 >    1.0299    0.0034    1.6590  737.8820 9820.9850   -1.2700    3.5172  28.36  28.4 112.1 10     0.0000    0.0206
M09          ?    BHN  e S      ? 20230606 0154    7.1001 GAU  1.97e-04 -1.00e+00  4.80e+02 -1.00e+00    1.0000 >    1.7992    0.0056    1.2825  737.8820 9820.9850   -1.2700    3.5172  28.36  28.4 109.8 10     0.0000    0.0360
M05          ?    BHZ  e P      c 20230606 0154    6.8935 GAU  8.84e-04 -1.00e+00  1.47e+02 -1.00e+00    1.0000 >    1.1796    0.4185    0.0000  736.2660 9822.0830   -1.1500    4.1935   0.75   0.7 106.9 10     0.0000    0.0236
M05          ?    BHN  e S      ? 20230606 0154    8.0881 GAU  3.53e-04 -1.00e+00  2.65e+02 -1.00e+00    1.0000 >    2.0623    0.7305    0.0000  736.2660 9822.0830   -1.1500    4.1935   0.75   0.7 103.9 10     0.0000    0.0412
END_PHASE
END_NLLOC

