NLLOC "./loc/SEML.20230606.015804.grid0" "LOCATED" "Location completed."
PUBLIC_ID None
SIGNATURE "Arham Zakki Edelo - edelo.17034@mhs.its.ac.id   obs:./obs/2023_06.obs   NLLoc:v7.00.10(30Aug2020)   run:28Dec2023 20h03m50"
COMMENT "SEML"
GRID  2001 2001 1001  727 9811 -2  0.01 0.01 0.01 PROB_DENSITY
SEARCH OCTREE nInitial 4851 nEvaluated 20011 smallestNodeSide 0.014881/0.014881/0.014205 oct_tree_integral 1.362263e-02 scatter_volume 1.350949e-02
HYPOCENTER  x 738.436 y 9819.01 z 1.03267  OT 3.48741  ix -1 iy -1 iz -1 MAXIMUM_LIKELIHOOD
GEOGRAPHIC  OT 2023 06 06  01 58 3.487408  Lat 9819.013393 Long 738.436012 Depth 1.032670
QUALITY  Pmax 7.32439e+29 MFmin 38.4313 MFmax 50.8972 RMS 0.00833538 Nphs 10 Gap 308.225 Dist 0.163136 Mamp -9.90 0 Mdur -9.90 0
VPVSRATIO  VpVsRatio 1.6762  Npair 5  Diff 0.238419
STATISTICS  ExpectX 738.433201 Y 9819.000241 Z 1.046688  CovXX 0.0267911 XY 0.00291135 XZ -0.00158029 YY 0.0069097 YZ -0.000826995 ZZ 0.0101202 EllAz1  352.604 Dip1  9.3968 Len1  0.150233 Az2  321.396 Dip2  -79.0491 Len2  0.188394 Len3  3.108466e-01
STAT_GEOG  ExpectLat 9819.000241 Long 738.433201 Depth 1.046688
TRANSFORM  NONE
QML_OriginQuality  assocPhCt 10  usedPhCt 10  assocStaCt -1  usedStaCt 5  depthPhCt -1  stdErr 0.00833538  azGap 308.225  secAzGap 308.225  gtLevel -  minDist 0.163136 maxDist 3.75918 medDist 1.47693
QML_OriginUncertainty  horUnc -1  minHorUnc 0.122196  maxHorUnc 0.25016  azMaxHorUnc 81.8381
QML_ConfidenceEllipsoid  semiMajorAxisLength 0.310847  semiMinorAxisLength 0.150233  semiIntermediateAxisLength 0.188394  majorAxisPlunge -5.57274  majorAxisAzimuth 81.679  majorAxisRotation 170.38
FOCALMECH  Hyp  9819.013393 738.436012 1.032670 Mech  0 0 0 mf  0 nObs -1
PHASE ID Ins Cmp On Pha  FM Date     HrMn   Sec     Err  ErrMag    Coda      Amp       Per       PriorWt  >   TTpred    Res       Weight    StaLoc(X  Y         Z)        SDist    SAzim  RAz  RDip RQual    Tcorr       TTerr
M06          ?    BHZ  i P      c 20230606 0158    4.1250 GAU  6.21e-04 -1.00e+00 -1.00e+00 -1.00e+00    1.0000 >    0.6409   -0.0033    1.4293  738.3100 9819.1170   -1.3960    0.1631 309.43 309.4 175.5  9     0.0000    0.0128
M06          ?    BHE  e S      ? 20230606 0158    4.5912 GAU  1.24e-03 -1.00e+00 -1.00e+00 -1.00e+00    1.0000 >    1.0986    0.0052    1.1892  738.3100 9819.1170   -1.3960    0.1631 309.43 309.4 175.3  9     0.0000    0.0220
M14          ?    BHZ  e P      c 20230606 0158    4.2155 GAU  1.12e-03 -1.00e+00 -1.00e+00 -1.00e+00    1.0000 >    0.7300   -0.0019    1.4016  737.5530 9820.0110   -1.3980    1.3323 318.49 318.5 147.6 10     0.0000    0.0146
M14          ?    BHE  e S      ? 20230606 0158    4.7467 GAU  5.39e-04 -1.00e+00  3.86e+02 -1.00e+00    1.0000 >    1.2509    0.0084    1.0894  737.5530 9820.0110   -1.3980    1.3323 318.49 318.5 146.1 10     0.0000    0.0250
M11          ?    BHZ  e P      c 20230606 0158    4.2233 GAU  3.86e-03 -1.00e+00 -1.00e+00 -1.00e+00    1.0000 >    0.7286    0.0073    1.3427  738.4670 9820.4900   -1.3120    1.4769   1.20   1.2 143.7 10     0.0000    0.0146
M11          ?    BHN  e S      ? 20230606 0158    4.7326 GAU  2.00e-03 -1.00e+00 -1.00e+00 -1.00e+00    1.0000 >    1.2480   -0.0028    1.1116  738.4670 9820.4900   -1.3120    1.4769   1.20   1.2 141.9 10     0.0000    0.0250
M09          ?    BHZ  i P      c 20230606 0158    4.2949 GAU  1.47e-03 -1.00e+00 -1.00e+00 -1.00e+00    1.0000 >    0.8091   -0.0016    1.3596  737.8820 9820.9850   -1.2700    2.0480 344.30 344.3 132.5 10     0.0000    0.0162
M09          ?    BHN  e S      ? 20230606 0158    4.8742 GAU  8.91e-04 -1.00e+00  4.77e+02 -1.00e+00    1.0000 >    1.3851    0.0017    1.0552  737.8820 9820.9850   -1.2700    2.0480 344.30 344.3 129.9 10     0.0000    0.0277
M05          ?    BHZ  e P      d 20230606 0158    4.4752 GAU  1.68e-03 -1.00e+00  2.99e+02 -1.00e+00    1.0000 >    1.1378   -0.1500    0.0107  736.2660 9822.0830   -1.1500    3.7592 324.74 324.7 106.6 10     0.0000    0.0228
M05          ?    BHN  e S      ? 20230606 0158    5.1798 GAU  2.71e-04 -1.00e+00  2.64e+02 -1.00e+00    1.0000 >    1.9402   -0.2478    0.0107  736.2660 9822.0830   -1.1500    3.7592 324.74 324.7 101.1  9     0.0000    0.0388
END_PHASE
END_NLLOC

