NLLOC "./loc/SEML.20230606.014044.grid0" "LOCATED" "Location completed."
PUBLIC_ID None
SIGNATURE "Arham Zakki Edelo - edelo.17034@mhs.its.ac.id   obs:./obs/2023_06.obs   NLLoc:v7.00.10(30Aug2020)   run:28Dec2023 20h03m35"
COMMENT "SEML"
GRID  2001 2001 1001  727 9811 -2  0.01 0.01 0.01 PROB_DENSITY
SEARCH OCTREE nInitial 4851 nEvaluated 20019 smallestNodeSide 0.029762/0.029762/0.028409 oct_tree_integral 1.124371e-01 scatter_volume 1.120126e-01
HYPOCENTER  x 736.077 y 9817.82 z 0.357955  OT 44.0458  ix -1 iy -1 iz -1 MAXIMUM_LIKELIHOOD
GEOGRAPHIC  OT 2023 06 06  01 40 44.045847  Lat 9817.815476 Long 736.077381 Depth 0.357955
QUALITY  Pmax 1.93925e+21 MFmin 28.3731 MFmax 36.7182 RMS 0.0151766 Nphs 8 Gap 318.332 Dist 1.67325 Mamp -9.90 0 Mdur -9.90 0
VPVSRATIO  VpVsRatio 1.78144  Npair 4  Diff 0.301048
STATISTICS  ExpectX 737.274846 Y 9817.765479 Z 0.536395  CovXX 1.27498 XY -0.058664 XZ 0.506643 YY 0.268415 YZ 0.437447 ZZ 1.40268 EllAz1  192.61 Dip1  22.0247 Len1  0.510952 Az2  296.51 Dip2  30.7038 Len2  1.84854 Len3  2.592573e+00
STAT_GEOG  ExpectLat 9817.765479 Long 737.274846 Depth 0.536395
TRANSFORM  NONE
QML_OriginQuality  assocPhCt 8  usedPhCt 8  assocStaCt -1  usedStaCt 4  depthPhCt -1  stdErr 0.0151766  azGap 318.332  secAzGap 318.332  gtLevel -  minDist 1.67325 maxDist 3.64726 medDist 3.08542
QML_OriginUncertainty  horUnc -1  minHorUnc 0.780716  maxHorUnc 1.71473  azMaxHorUnc 93.3243
QML_ConfidenceEllipsoid  semiMajorAxisLength 2.59257  semiMinorAxisLength 0.510952  semiIntermediateAxisLength 1.84854  majorAxisPlunge 50.6901  majorAxisAzimuth 73.0022  majorAxisRotation 285.038
FOCALMECH  Hyp  9817.815476 736.077381 0.357955 Mech  0 0 0 mf  0 nObs -1
PHASE ID Ins Cmp On Pha  FM Date     HrMn   Sec     Err  ErrMag    Coda      Amp       Per       PriorWt  >   TTpred    Res       Weight    StaLoc(X  Y         Z)        SDist    SAzim  RAz  RDip RQual    Tcorr       TTerr
M02          ?    BHZ  e P      d 20230606 0140   44.7109 GAU  5.42e-04 -1.00e+00  1.11e+02 -1.00e+00    1.0000 >    0.6660   -0.0010    1.4990  736.5970 9819.4060   -1.4960    1.6733  18.09  18.1 136.5 10     0.0000    0.0133
M02          ?    BHN  e S      ? 20230606 0140   45.2089 GAU  3.80e-03 -1.00e+00 -1.00e+00 -1.00e+00    1.0000 >    1.1618    0.0013    1.2886  736.5970 9819.4060   -1.4960    1.6733  18.09  18.1 135.6 10     0.0000    0.0232
M06          ?    BHZ  i P      c 20230606 0140   44.8782 GAU  3.83e-03 -1.00e+00 -1.00e+00 -1.00e+00    1.0000 >    0.8313    0.0010    1.4370  738.3100 9819.1170   -1.3960    2.5843  59.76  59.8 121.7 10     0.0000    0.0166
M06          ?    BHN  e S      ? 20230606 0140   45.4986 GAU  5.23e-04 -1.00e+00 -1.00e+00 -1.00e+00    1.0000 >    1.4512    0.0015    1.1699  738.3100 9819.1170   -1.3960    2.5843  59.76  59.8 120.2 10     0.0000    0.0290
M11          ?    BHZ  e P      c 20230606 0140   45.0219 GAU  2.77e-03 -1.00e+00 -1.00e+00 -1.00e+00    1.0000 >    1.0507   -0.0746    0.1725  738.4670 9820.4900   -1.3120    3.5866  41.78  41.8 111.9 10     0.0000    0.0210
M11          ?    BHN  e S      ? 20230606 0140   45.7487 GAU  6.74e-04 -1.00e+00 -1.00e+00 -1.00e+00    1.0000 >    1.8353   -0.1325    0.0901  738.4670 9820.4900   -1.3120    3.5866  41.78  41.8 109.6 10     0.0000    0.0367
M09          ?    BHZ  e P      c 20230606 0140   45.1056 GAU  3.49e-03 -1.00e+00  4.39e+01 -1.00e+00    1.0000 >    1.0598    0.0000    1.3375  737.8820 9820.9850   -1.2700    3.6473  29.66  29.7 111.0 10     0.0000    0.0212
M09          ?    BHE  e S      ? 20230606 0140   45.9048 GAU  4.81e-04 -1.00e+00  3.58e+02 -1.00e+00    1.0000 >    1.8517    0.0072    1.0053  737.8820 9820.9850   -1.2700    3.6473  29.66  29.7 108.5 10     0.0000    0.0370
END_PHASE
END_NLLOC

