NLLOC "./loc/SEML.20230606.014843.grid0" "LOCATED" "Location completed."
PUBLIC_ID None
SIGNATURE "Arham Zakki Edelo - edelo.17034@mhs.its.ac.id   obs:./obs/2023_06.obs   NLLoc:v7.00.10(30Aug2020)   run:28Dec2023 20h03m36"
COMMENT "SEML"
GRID  2001 2001 1001  727 9811 -2  0.01 0.01 0.01 PROB_DENSITY
SEARCH OCTREE nInitial 4851 nEvaluated 20011 smallestNodeSide 0.014881/0.014881/0.014205 oct_tree_integral 5.000619e-02 scatter_volume 5.000619e-02
HYPOCENTER  x 737.03 y 9818.47 z 0.8125  OT 43.0777  ix -1 iy -1 iz -1 MAXIMUM_LIKELIHOOD
GEOGRAPHIC  OT 2023 06 06  01 48 43.077703  Lat 9818.470238 Long 737.029762 Depth 0.812500
QUALITY  Pmax 1.13739e+28 MFmin 36.1704 MFmax 42.9321 RMS 0.0147741 Nphs 10 Gap 284.865 Dist 1.43433 Mamp -9.90 0 Mdur -9.90 0
VPVSRATIO  VpVsRatio 1.75819  Npair 5  Diff 0.537739
STATISTICS  ExpectX 737.076552 Y 9818.491353 Z 0.797147  CovXX 0.117378 XY 0.0468726 XZ 0.0911198 YY 0.0538314 YZ 0.0167384 ZZ 0.122425 EllAz1  130.76 Dip1  -27.9779 Len1  0.214806 Az2  198.939 Dip2  34.9815 Len2  0.450656 Len3  8.872974e-01
STAT_GEOG  ExpectLat 9818.491353 Long 737.076552 Depth 0.797147
TRANSFORM  NONE
QML_OriginQuality  assocPhCt 10  usedPhCt 10  assocStaCt -1  usedStaCt 5  depthPhCt -1  stdErr 0.0147741  azGap 284.865  secAzGap 284.865  gtLevel -  minDist 1.43433 maxDist 3.69261 medDist 2.65525
QML_OriginUncertainty  horUnc -1  minHorUnc 0.258165  maxHorUnc 0.571955  azMaxHorUnc 62.066
QML_ConfidenceEllipsoid  semiMajorAxisLength 0.887297  semiMinorAxisLength 0.214806  semiIntermediateAxisLength 0.450656  majorAxisPlunge 42.2012  majorAxisAzimuth 69.5564  majorAxisRotation 276.798
FOCALMECH  Hyp  9818.470238 737.029762 0.812500 Mech  0 0 0 mf  0 nObs -1
PHASE ID Ins Cmp On Pha  FM Date     HrMn   Sec     Err  ErrMag    Coda      Amp       Per       PriorWt  >   TTpred    Res       Weight    StaLoc(X  Y         Z)        SDist    SAzim  RAz  RDip RQual    Tcorr       TTerr
M06          ?    BHZ  i P      d 20230606 0148   43.7817 GAU  2.85e-03 -1.00e+00  2.26e+02 -1.00e+00    1.0000 >    0.6962    0.0078    1.4675  738.3100 9819.1170   -1.3960    1.4343  63.20  63.2 145.9 10     0.0000    0.0139
M06          ?    BHN  e S      ? 20230606 0148   44.2723 GAU  6.50e-04 -1.00e+00 -1.00e+00 -1.00e+00    1.0000 >    1.2000   -0.0054    1.3735  738.3100 9819.1170   -1.3960    1.4343  63.20  63.2 143.0 10     0.0000    0.0240
M11          ?    BHZ  e P      c 20230606 0148   43.9228 GAU  4.44e-03 -1.00e+00 -1.00e+00 -1.00e+00    1.0000 >    0.8612   -0.0161    1.2826  738.4670 9820.4900   -1.3120    2.4789  35.44  35.4 128.5 10     0.0000    0.0172
M11          ?    BHN  e S      ? 20230606 0148   44.5675 GAU  3.35e-03 -1.00e+00 -1.00e+00 -1.00e+00    1.0000 >    1.4829    0.0069    1.2735  738.4670 9820.4900   -1.3120    2.4789  35.44  35.4 123.2 10     0.0000    0.0297
M09          ?    BHZ  e P      c 20230606 0148   44.0001 GAU  6.74e-04 -1.00e+00  7.39e+01 -1.00e+00    1.0000 >    0.8894    0.0330    0.8608  737.8820 9820.9850   -1.2700    2.6552  18.72  18.7 125.9 10     0.0000    0.0178
M09          ?    BHE  e S      ? 20230606 0148   44.6082 GAU  6.31e-04 -1.00e+00  3.78e+02 -1.00e+00    1.0000 >    1.5310   -0.0005    1.2685  737.8820 9820.9850   -1.2700    2.6552  18.72  18.7 120.1 10     0.0000    0.0306
M13          ?    BHZ  e P      d 20230606 0148   44.0331 GAU  6.50e-04 -1.00e+00  3.33e+02 -1.00e+00    1.0000 >    0.9707   -0.0152    1.2935  737.1780 9821.5410   -1.2220    3.0743   2.76   2.8 121.0 10     0.0000    0.0194
M13          ?    BHN  e S      ? 20230606 0148   44.7593 GAU  1.51e-04 -1.00e+00 -1.00e+00 -1.00e+00    1.0000 >    1.6696    0.0120    1.1802  737.1780 9821.5410   -1.2220    3.0743   2.76   2.8 114.1 10     0.0000    0.0334
M05          ?    BHZ  e P      d 20230606 0148   44.4924 GAU  8.73e-04 -1.00e+00  3.56e+02 -1.00e+00    1.0000 >    1.0991    0.3156    0.0000  736.2660 9822.0830   -1.1500    3.6926 348.06 348.1 115.1 10     0.0000    0.0220
M05          ?    BHE  e S      ? 20230606 0148   45.5208 GAU  3.11e-04 -1.00e+00 -1.00e+00 -1.00e+00    1.0000 >    1.8872    0.5559    0.0000  736.2660 9822.0830   -1.1500    3.6926 348.06 348.1 106.9 10     0.0000    0.0377
END_PHASE
END_NLLOC

