NLLOC "./loc/SEML.20230606.015445.grid0" "LOCATED" "Location completed."
PUBLIC_ID None
SIGNATURE "Arham Zakki Edelo - edelo.17034@mhs.its.ac.id   obs:./obs/2023_06.obs   NLLoc:v7.00.10(30Aug2020)   run:28Dec2023 20h03m42"
COMMENT "SEML"
GRID  2001 2001 1001  727 9811 -2  0.01 0.01 0.01 PROB_DENSITY
SEARCH OCTREE nInitial 4851 nEvaluated 20011 smallestNodeSide 0.029762/0.029762/0.028409 oct_tree_integral 1.312725e-01 scatter_volume 1.312241e-01
HYPOCENTER  x 740.482 y 9818.23 z 0.8125  OT 44.1918  ix -1 iy -1 iz -1 MAXIMUM_LIKELIHOOD
GEOGRAPHIC  OT 2023 06 06  01 54 44.191823  Lat 9818.232143 Long 740.482143 Depth 0.812500
QUALITY  Pmax 2.97974e+34 MFmin 37.354 MFmax 44.9508 RMS 0.0278992 Nphs 12 Gap 327.355 Dist 2.34546 Mamp -9.90 0 Mdur -9.90 0
VPVSRATIO  VpVsRatio 1.77538  Npair 6  Diff 0.668407
STATISTICS  ExpectX 740.370976 Y 9818.195465 Z 0.869873  CovXX 0.195212 XY 0.0669164 XZ -0.086971 YY 0.0914499 YZ -0.0483965 ZZ 0.108385 EllAz1  17.2934 Dip1  50.921 Len1  0.419554 Az2  319.128 Dip2  -23.1873 Len2  0.463871 Len3  1.001656e+00
STAT_GEOG  ExpectLat 9818.195465 Long 740.370976 Depth 0.869873
TRANSFORM  NONE
QML_OriginQuality  assocPhCt 12  usedPhCt 12  assocStaCt -1  usedStaCt 6  depthPhCt -1  stdErr 0.0278992  azGap 327.355  secAzGap 327.355  gtLevel -  minDist 2.34546 maxDist 6.29908 medDist 4.23139
QML_OriginUncertainty  horUnc -1  minHorUnc 0.367307  maxHorUnc 0.72416  azMaxHorUnc 63.8934
QML_ConfidenceEllipsoid  semiMajorAxisLength 1.00166  semiMinorAxisLength 0.419554  semiIntermediateAxisLength 0.463871  majorAxisPlunge -29.4921  majorAxisAzimuth 63.1481  majorAxisRotation 104.647
FOCALMECH  Hyp  9818.232143 740.482143 0.812500 Mech  0 0 0 mf  0 nObs -1
PHASE ID Ins Cmp On Pha  FM Date     HrMn   Sec     Err  ErrMag    Coda      Amp       Per       PriorWt  >   TTpred    Res       Weight    StaLoc(X  Y         Z)        SDist    SAzim  RAz  RDip RQual    Tcorr       TTerr
M06          ?    BHZ  i P      c 20230606 0154   45.0527 GAU  1.24e-03 -1.00e+00 -1.00e+00 -1.00e+00    1.0000 >    0.8511    0.0097    1.3828  738.3100 9819.1170   -1.3960    2.3455 292.16 292.2 131.3 10     0.0000    0.0170
M06          ?    BHE  e S      ? 20230606 0154   45.6456 GAU  9.75e-04 -1.00e+00 -1.00e+00 -1.00e+00    1.0000 >    1.4660   -0.0123    1.3606  738.3100 9819.1170   -1.3960    2.3455 292.16 292.2 126.5 10     0.0000    0.0293
M11          ?    BHZ  e P      c 20230606 0154   45.1697 GAU  3.13e-03 -1.00e+00 -1.00e+00 -1.00e+00    1.0000 >    0.9753    0.0026    1.4601  738.4670 9820.4900   -1.3120    3.0263 318.25 318.3 122.6 10     0.0000    0.0195
M11          ?    BHN  e S      ? 20230606 0154   45.8875 GAU  3.01e-04 -1.00e+00 -1.00e+00 -1.00e+00    1.0000 >    1.6782    0.0174    1.1521  738.4670 9820.4900   -1.3120    3.0263 318.25 318.3 116.0 10     0.0000    0.0336
M09          ?    BHZ  i P      c 20230606 0154   45.3035 GAU  5.72e-04 -1.00e+00  1.45e+02 -1.00e+00    1.0000 >    1.1386   -0.0269    1.2608  737.8820 9820.9850   -1.2700    3.7867 316.63 316.6 115.8 10     0.0000    0.0228
M09          ?    BHE  e S      ? 20230606 0154   46.1069 GAU  7.25e-04 -1.00e+00  3.38e+02 -1.00e+00    1.0000 >    1.9559   -0.0408    1.0321  737.8820 9820.9850   -1.2700    3.7867 316.63 316.6 107.7 10     0.0000    0.0391
M13          ?    BHZ  e P      d 20230606 0154   45.4326 GAU  1.09e-03 -1.00e+00 -1.00e+00 -1.00e+00    1.0000 >    1.3416   -0.1008    0.2476  737.1780 9821.5410   -1.2220    4.6761 315.04 315.0 110.1 10     0.0000    0.0268
M13          ?    BHN  e S      ? 20230606 0154   46.3087 GAU  4.77e-04 -1.00e+00 -1.00e+00 -1.00e+00    1.0000 >    2.2970   -0.1802    0.0671  737.1780 9821.5410   -1.2220    4.6761 315.04 315.0 101.1 10     0.0000    0.0459
M05          ?    BHZ  e P      c 20230606 0154   45.7488 GAU  2.25e-03 -1.00e+00  1.61e+02 -1.00e+00    1.0000 >    1.5848   -0.0278    1.2129  736.2660 9822.0830   -1.1500    5.7101 312.41 312.4 105.1 10     0.0000    0.0317
M05          ?    BHE  e S      ? 20230606 0154   46.9146 GAU  6.96e-04 -1.00e+00 -1.00e+00 -1.00e+00    1.0000 >    2.6983    0.0245    0.9289  736.2660 9822.0830   -1.1500    5.7101 312.41 312.4  97.0 10     0.0000    0.0540
M12          ?    BHZ  e P      c 20230606 0154   45.8922 GAU  1.08e-03 -1.00e+00 -1.00e+00 -1.00e+00    1.0000 >    1.7127   -0.0123    1.2956  736.8520 9823.3800   -0.9890    6.2991 324.81 324.8 102.2 10     0.0000    0.0343
M12          ?    BHN  e S      ? 20230606 0154   47.1536 GAU  4.02e-03 -1.00e+00 -1.00e+00 -1.00e+00    1.0000 >    2.8997    0.0620    0.5995  736.8520 9823.3800   -0.9890    6.2991 324.81 324.8  85.7  9     0.0000    0.0580
END_PHASE
END_NLLOC

