NLLOC "./loc/SEML.20230606.015714.grid0" "LOCATED" "Location completed."
PUBLIC_ID None
SIGNATURE "Arham Zakki Edelo - edelo.17034@mhs.its.ac.id   obs:./obs/2023_06.obs   NLLoc:v7.00.10(30Aug2020)   run:28Dec2023 20h03m47"
COMMENT "SEML"
GRID  2001 2001 1001  727 9811 -2  0.01 0.01 0.01 PROB_DENSITY
SEARCH OCTREE nInitial 4851 nEvaluated 20019 smallestNodeSide 0.014881/0.014881/0.014205 oct_tree_integral 2.108146e-02 scatter_volume 2.103591e-02
HYPOCENTER  x 737.647 y 9818.42 z 1.16051  OT 14.2209  ix -1 iy -1 iz -1 MAXIMUM_LIKELIHOOD
GEOGRAPHIC  OT 2023 06 06  01 57 14.220909  Lat 9818.418155 Long 737.647321 Depth 1.160511
QUALITY  Pmax 1.29912e+56 MFmin 65.7521 MFmax 80.8965 RMS 0.044311 Nphs 18 Gap 269.766 Dist 0.963082 Mamp -9.90 0 Mdur -9.90 0
VPVSRATIO  VpVsRatio 1.82896  Npair 9  Diff 0.458578
STATISTICS  ExpectX 737.838813 Y 9818.414140 Z 1.090320  CovXX 0.286371 XY 0.00851178 XZ -0.0973519 YY 0.0171929 YZ 0.00764036 ZZ 0.0862109 EllAz1  352.43 Dip1  -15.7508 Len1  0.221414 Az2  229.801 Dip2  -62.3871 Len2  0.419681 Len3  1.072729e+00
STAT_GEOG  ExpectLat 9818.414140 Long 737.838813 Depth 1.090320
TRANSFORM  NONE
QML_OriginQuality  assocPhCt 18  usedPhCt 18  assocStaCt -1  usedStaCt 9  depthPhCt -1  stdErr 0.044311  azGap 269.766  secAzGap 269.766  gtLevel -  minDist 0.963082 maxDist 3.91652 medDist 2.57755
QML_OriginUncertainty  horUnc -1  minHorUnc 0.197295  maxHorUnc 0.811955  azMaxHorUnc 88.1906
QML_ConfidenceEllipsoid  semiMajorAxisLength 1.07273  semiMinorAxisLength 0.221414  semiIntermediateAxisLength 0.419681  majorAxisPlunge -22.0668  majorAxisAzimuth 88.9956  majorAxisRotation 203.114
FOCALMECH  Hyp  9818.418155 737.647321 1.160511 Mech  0 0 0 mf  0 nObs -1
PHASE ID Ins Cmp On Pha  FM Date     HrMn   Sec     Err  ErrMag    Coda      Amp       Per       PriorWt  >   TTpred    Res       Weight    StaLoc(X  Y         Z)        SDist    SAzim  RAz  RDip RQual    Tcorr       TTerr
M06          ?    BHZ  i P      c 20230606 0157   14.9301 GAU  3.46e-04 -1.00e+00  3.43e+01 -1.00e+00    1.0000 >    0.7157   -0.0066    1.7820  738.3100 9819.1170   -1.3960    0.9631  43.48  43.5 156.9 10     0.0000    0.0143
M06          ?    BHN  i S      ? 20230606 0157   15.4606 GAU  2.65e-03 -1.00e+00 -1.00e+00 -1.00e+00    1.0000 >    1.2243    0.0155    1.4064  738.3100 9819.1170   -1.3960    0.9631  43.48  43.5 156.0 10     0.0000    0.0245
M02          ?    BHZ  i P      d 20230606 0157   15.0276 GAU  4.99e-04 -1.00e+00 -1.00e+00 -1.00e+00    1.0000 >    0.7931    0.0136    1.5620  736.5970 9819.4060   -1.4960    1.4419 313.24 313.2 148.1 10     0.0000    0.0159
M02          ?    BHE  e S      ? 20230606 0157   15.5291 GAU  3.50e-04 -1.00e+00  1.88e+03 -1.00e+00    1.0000 >    1.3568   -0.0486    0.9131  736.5970 9819.4060   -1.4960    1.4419 313.24 313.2 146.7 10     0.0000    0.0271
M14          ?    BHZ  i P      c 20230606 0157   15.0098 GAU  7.55e-04 -1.00e+00 -1.00e+00 -1.00e+00    1.0000 >    0.7897   -0.0008    1.7930  737.5530 9820.0110   -1.3980    1.5956 356.61 356.6 144.1 10     0.0000    0.0158
M14          ?    BHN  e S      ? 20230606 0157   15.5720 GAU  4.02e-03 -1.00e+00  3.24e+02 -1.00e+00    1.0000 >    1.3503    0.0008    1.5404  737.5530 9820.0110   -1.3980    1.5956 356.61 356.6 142.5 10     0.0000    0.0270
M11          ?    BHZ  i P      c 20230606 0157   15.0618 GAU  1.67e-03 -1.00e+00 -1.00e+00 -1.00e+00    1.0000 >    0.8696   -0.0287    1.2619  738.4670 9820.4900   -1.3120    2.2281  21.59  21.6 132.3 10     0.0000    0.0174
M11          ?    BHE  e S      ? 20230606 0157   15.6084 GAU  2.11e-03 -1.00e+00 -1.00e+00 -1.00e+00    1.0000 >    1.4856   -0.0981    0.3179  738.4670 9820.4900   -1.3120    2.2281  21.59  21.6 130.0 10     0.0000    0.0297
M09          ?    BHZ  i P      c 20230606 0157   15.1444 GAU  8.94e-04 -1.00e+00  3.15e+01 -1.00e+00    1.0000 >    0.9245   -0.0011    1.7422  737.8820 9820.9850   -1.2700    2.5776   5.22   5.2 126.4 10     0.0000    0.0185
M09          ?    BHE  e S      ? 20230606 0157   15.8023 GAU  5.99e-04 -1.00e+00  4.00e+02 -1.00e+00    1.0000 >    1.5784    0.0030    1.4370  737.8820 9820.9850   -1.2700    2.5776   5.22   5.2 123.9 10     0.0000    0.0316
M10          ?    BHZ  e P      d 20230606 0157   15.4341 GAU  5.45e-03 -1.00e+00  7.66e+02 -1.00e+00    1.0000 >    1.0279    0.1853    0.1648  736.5490 9821.3650   -1.2200    3.1449 339.56 339.6 118.4 10     0.0000    0.0206
M10          ?    BHN  e S      ? 20230606 0157   16.3160 GAU  1.18e-03 -1.00e+00  2.50e+01 -1.00e+00    1.0000 >    1.7525    0.3426    0.1092  736.5490 9821.3650   -1.2200    3.1449 339.56 339.6 115.1 10     0.0000    0.0350
M13          ?    BHZ  e P      c 20230606 0157   15.1996 GAU  1.12e-03 -1.00e+00 -1.00e+00 -1.00e+00    1.0000 >    1.0310   -0.0523    0.7479  737.1780 9821.5410   -1.2220    3.1579 351.45 351.5 118.2 10     0.0000    0.0206
M13          ?    BHN  e S      ? 20230606 0157   15.8561 GAU  7.27e-04 -1.00e+00 -1.00e+00 -1.00e+00    1.0000 >    1.7577   -0.1225    0.2028  737.1780 9821.5410   -1.2220    3.1579 351.45 351.5 115.0 10     0.0000    0.0352
M08          ?    BHZ  i P      d 20230606 0157   15.3868 GAU  3.74e-04 -1.00e+00  7.99e+02 -1.00e+00    1.0000 >    1.1544    0.0115    1.5089  738.2480 9822.1600   -1.1510    3.7898   9.12   9.1 110.4 10     0.0000    0.0231
M08          ?    BHE  e S      ? 20230606 0157   16.1963 GAU  3.74e-04 -1.00e+00 -1.00e+00 -1.00e+00    1.0000 >    1.9641    0.0113    1.2320  738.2480 9822.1600   -1.1510    3.7898   9.12   9.1 106.7 10     0.0000    0.0393
M05          ?    BHZ  i P      c 20230606 0157   15.6041 GAU  2.58e-03 -1.00e+00  9.28e+01 -1.00e+00    1.0000 >    1.1823    0.2009    0.1669  736.2660 9822.0830   -1.1500    3.9165 339.35 339.3 109.2 10     0.0000    0.0236
M05          ?    BHE  e S      ? 20230606 0157   16.5641 GAU  1.30e-03 -1.00e+00 -1.00e+00 -1.00e+00    1.0000 >    2.0108    0.3324    0.1117  736.2660 9822.0830   -1.1500    3.9165 339.35 339.3 105.4 10     0.0000    0.0402
END_PHASE
END_NLLOC

