NLLOC "./loc/SEML.20230621.220121.grid0" "LOCATED" "Location completed."
PUBLIC_ID None
SIGNATURE "Arham Zakki Edelo - edelo.17034@mhs.its.ac.id   obs:./obs/2023_06.obs   NLLoc:v7.00.10(30Aug2020)   run:28Dec2023 20h04m01"
COMMENT "SEML"
GRID  2001 2001 1001  727 9811 -2  0.01 0.01 0.01 PROB_DENSITY
SEARCH OCTREE nInitial 4851 nEvaluated 20011 smallestNodeSide 0.059524/0.059524/0.056818 oct_tree_integral 8.316530e-01 scatter_volume 8.286464e-01
HYPOCENTER  x 737.327 y 9816.15 z 6.55114  OT 19.8022  ix -1 iy -1 iz -1 MAXIMUM_LIKELIHOOD
GEOGRAPHIC  OT 2023 06 21  22 01 19.802175  Lat 9816.148810 Long 737.327381 Depth 6.551136
QUALITY  Pmax 3.78659e+59 MFmin 45.3376 MFmax 48.9958 RMS 0.0347505 Nphs 19 Gap 329.044 Dist 3.12661 Mamp -9.90 0 Mdur -9.90 0
VPVSRATIO  VpVsRatio 1.72847  Npair 9  Diff 0.327595
STATISTICS  ExpectX 737.359419 Y 9816.114724 Z 6.533374  CovXX 0.407671 XY 0.0518718 XZ 0.0297373 YY 0.141535 YZ 0.0590403 ZZ 0.104123 EllAz1  178.003 Dip1  53.2001 Len1  0.463114 Az2  342.634 Dip2  35.8045 Len2  0.774515 Len3  1.221437e+00
STAT_GEOG  ExpectLat 9816.114724 Long 737.359419 Depth 6.533374
TRANSFORM  NONE
QML_OriginQuality  assocPhCt 19  usedPhCt 19  assocStaCt -1  usedStaCt 10  depthPhCt -1  stdErr 0.0347505  azGap 329.044  secAzGap 329.044  gtLevel -  minDist 3.12661 maxDist 7.2468 medDist 5.3341
QML_OriginUncertainty  horUnc -1  minHorUnc 0.550545  maxHorUnc 0.979835  azMaxHorUnc 79.3517
QML_ConfidenceEllipsoid  semiMajorAxisLength 1.22144  semiMinorAxisLength 0.463114  semiIntermediateAxisLength 0.774515  majorAxisPlunge 7.39783  majorAxisAzimuth 78.0081  majorAxisRotation 54.7633
FOCALMECH  Hyp  9816.148810 737.327381 6.551136 Mech  0 0 0 mf  0 nObs -1
PHASE ID Ins Cmp On Pha  FM Date     HrMn   Sec     Err  ErrMag    Coda      Amp       Per       PriorWt  >   TTpred    Res       Weight    StaLoc(X  Y         Z)        SDist    SAzim  RAz  RDip RQual    Tcorr       TTerr
M06          ?    BHZ  e P      c 20230621 2201   21.8218 GAU  3.73e-03 -1.00e+00 -1.00e+00 -1.00e+00    1.0000 >    2.0238   -0.0042    1.3630  738.3100 9819.1170   -1.3960    3.1266  18.32  18.3 157.2 10     0.0000    0.0405
M06          ?    BHE  e S      ? 20230621 2201   23.1891 GAU  1.29e-03 -1.00e+00 -1.00e+00 -1.00e+00    1.0000 >    3.3726    0.0143    1.1122  738.3100 9819.1170   -1.3960    3.1266  18.32  18.3 156.9 10     0.0000    0.0675
M02          ?    BHZ  e P      d 20230621 2201   21.8578 GAU  1.68e-03 -1.00e+00  2.51e+02 -1.00e+00    1.0000 >    2.0684   -0.0128    1.3400  736.5970 9819.4060   -1.4960    3.3381 347.36 347.4 156.0 10     0.0000    0.0414
M02          ?    BHE  e S      ? 20230621 2201   23.2502 GAU  7.56e-04 -1.00e+00  3.33e+02 -1.00e+00    1.0000 >    3.4486   -0.0006    1.1218  736.5970 9819.4060   -1.4960    3.3381 347.36 347.4 155.7 10     0.0000    0.0690
M14          ?    BHZ  e P      c 20230621 2201   21.7678 GAU  8.00e-04 -1.00e+00 -1.00e+00 -1.00e+00    1.0000 >    2.0946   -0.1289    0.3735  737.5530 9820.0110   -1.3980    3.8688   3.34   3.3 152.4 10     0.0000    0.0419
M14          ?    BHE  e S      ? 20230621 2201   23.0771 GAU  1.86e-03 -1.00e+00  3.59e+02 -1.00e+00    1.0000 >    3.4902   -0.2152    0.1385  737.5530 9820.0110   -1.3980    3.8688   3.34   3.3 152.1 10     0.0000    0.0698
M11          ?    BHZ  e S      ? 20230621 2201   21.9278 GAU  1.80e-03 -1.00e+00 -1.00e+00 -1.00e+00    1.0000 >    3.5653   -1.4397    0.0000  738.4670 9820.4900   -1.3120    4.4883  14.71  14.7 148.1 10     0.0000    0.0713
M09          ?    BHZ  i P      c 20230621 2201   21.9902 GAU  9.06e-04 -1.00e+00  8.85e+01 -1.00e+00    1.0000 >    2.1762    0.0118    1.3158  737.8820 9820.9850   -1.2700    4.8679   6.54   6.5 146.1 10     0.0000    0.0435
M09          ?    BHN  e S      ? 20230621 2201   23.4142 GAU  4.31e-04 -1.00e+00  5.34e+02 -1.00e+00    1.0000 >    3.6229   -0.0109    1.0934  737.8820 9820.9850   -1.2700    4.8679   6.54   6.5 145.8 10     0.0000    0.0725
M10          ?    BHZ  e P      c 20230621 2201   22.0376 GAU  3.53e-03 -1.00e+00 -1.00e+00 -1.00e+00    1.0000 >    2.2159    0.0196    1.2746  736.5490 9821.3650   -1.2200    5.2739 351.51 351.5 143.8 10     0.0000    0.0443
M10          ?    BHN  e S      ? 20230621 2201   23.5585 GAU  5.99e-04 -1.00e+00 -1.00e+00 -1.00e+00    1.0000 >    3.6876    0.0687    0.8114  736.5490 9821.3650   -1.2200    5.2739 351.51 351.5 143.4 10     0.0000    0.0738
M13          ?    BHZ  e P      c 20230621 2201   22.0260 GAU  1.19e-03 -1.00e+00 -1.00e+00 -1.00e+00    1.0000 >    2.2323   -0.0084    1.3239  737.1780 9821.5410   -1.2220    5.3943 358.41 358.4 143.2 10     0.0000    0.0446
M13          ?    BHE  e S      ? 20230621 2201   23.4726 GAU  1.79e-03 -1.00e+00 -1.00e+00 -1.00e+00    1.0000 >    3.7148   -0.0444    0.9987  737.1780 9821.5410   -1.2220    5.3943 358.41 358.4 142.8 10     0.0000    0.0743
M05          ?    BHZ  e P      d 20230621 2201   22.1113 GAU  6.16e-04 -1.00e+00  1.32e+02 -1.00e+00    1.0000 >    2.3032    0.0060    1.3097  736.2660 9822.0830   -1.1500    6.0284 349.86 349.9 139.6 10     0.0000    0.0461
M05          ?    BHE  e S      ? 20230621 2201   23.6527 GAU  7.62e-04 -1.00e+00 -1.00e+00 -1.00e+00    1.0000 >    3.8307    0.0198    1.0321  736.2660 9822.0830   -1.1500    6.0284 349.86 349.9 139.3 10     0.0000    0.0766
M08          ?    BHZ  e P      d 20230621 2201   22.1245 GAU  1.80e-04 -1.00e+00  9.32e+02 -1.00e+00    1.0000 >    2.3111    0.0113    1.2951  738.2480 9822.1600   -1.1510    6.0813   8.71   8.7 139.4 10     0.0000    0.0462
M08          ?    BHE  e S      ? 20230621 2201   23.6755 GAU  4.38e-04 -1.00e+00 -1.00e+00 -1.00e+00    1.0000 >    3.8438    0.0296    1.0004  738.2480 9822.1600   -1.1510    6.0813   8.71   8.7 139.0 10     0.0000    0.0769
M12          ?    BHZ  e P      d 20230621 2201   22.2083 GAU  1.62e-03 -1.00e+00 -1.00e+00 -1.00e+00    1.0000 >    2.4528   -0.0466    1.0970  736.8520 9823.3800   -0.9890    7.2468 356.24 356.2 133.6 10     0.0000    0.0491
M12          ?    BHN  e S      ? 20230621 2201   23.8452 GAU  1.38e-03 -1.00e+00 -1.00e+00 -1.00e+00    1.0000 >    4.0745   -0.0315    0.9989  736.8520 9823.3800   -0.9890    7.2468 356.24 356.2 133.2 10     0.0000    0.0815
END_PHASE
END_NLLOC

