#  2023   1 20 19 34  58.123613  -1.638913127  101.139456300   1.82102  0  0  0  0.03052070  2810
M06  0.53978700  1.000  P
M06  0.93438700  1.000  S
M04  0.65328700  1.000  P
M04  1.02408700  1.000  S
M14  0.61198700  1.000  P
M14  1.10298700  1.000  S
M11  0.67158700  1.000  P
M11  1.22788700  1.000  S
M09  0.77348700  1.000  P
M09  1.36918700  1.000  S
M13  0.90548700  1.000  P
M13  1.54298700  1.000  S
M08  1.20718700  1.000  P
M08  2.07868700  1.000  S
M05  1.22418700  1.000  P
M05  2.12098700  1.000  S
M15  1.30628700  1.000  P
M15  2.25218700  1.000  S
M12  1.37758700  1.000  P
M12  2.39408700  1.000  S
#  2023   1 20 19 35  21.092436  -1.638644626  101.138921245   2.92898  0  0  0  0.02166560  2811
M06  0.80576400  1.000  P
M06  1.38666400  1.000  S
M14  0.84756400  1.000  P
M14  1.45406400  1.000  S
M11  0.89816400  1.000  P
M11  1.50696400  1.000  S
M09  0.94536400  1.000  P
M09  1.63926400  1.000  S
M13  1.10256400  1.000  P
M13  1.93216400  1.000  S
M08  1.37346400  1.000  P
M08  2.34016400  1.000  S
#  2023   1 20 19 35  48.265282  -1.639925387  101.136449295   2.33949  0  0  0  0.02826420  2812
M06  0.67741800  1.000  P
M06  1.18761800  1.000  S
M14  0.76091800  1.000  P
M14  1.27861800  1.000  S
M11  0.82151800  1.000  P
M11  1.44881800  1.000  S
M09  0.87151800  1.000  P
M09  1.50131800  1.000  S
M13  1.00071800  1.000  P
M13  1.67291800  1.000  S
M08  1.39041800  1.000  P
M08  2.36151800  1.000  S
M05  1.36341800  1.000  P
M05  2.31181800  1.000  S
#  2023   1 20 19 36  32.664148  -1.637629056  101.145003136   1.71449  0  0  0  0.02719090  2813
M06  0.57605200  1.000  P
M06  1.09285200  1.000  S
M04  0.61985200  1.000  P
M04  1.15845200  1.000  S
M14  0.65295200  1.000  P
M14  1.18505200  1.000  S
M11  0.65165200  1.000  P
M11  1.20055200  1.000  S
M02  0.77155200  1.000  P
M02  1.35275200  1.000  S
M09  0.74415200  1.000  P
M09  1.31185200  1.000  S
M03  0.83045200  1.000  P
M03  1.45085200  1.000  S
M13  0.88115200  1.000  P
M13  1.56565200  1.000  S
M10  0.98515200  1.000  P
M10  1.70895200  1.000  S
M08  0.96405200  1.000  P
M08  1.69455200  1.000  S
M05  1.14215200  1.000  P
M05  2.05785200  1.000  S
M01  1.19935200  1.000  P
M01  2.12715200  1.000  S
M15  1.03275200  1.000  P
M15  1.81115200  1.000  S
M12  1.30155200  1.000  P
M12  2.32935200  1.000  S
#  2023   1 20 19 36  50.896015  -1.640789147  101.146410262   2.47443  0  0  0  0.03503670  2814
M06  0.72048500  1.000  P
M06  1.21438500  1.000  S
M11  0.80648500  1.000  P
M11  1.42248500  1.000  S
M09  0.88458500  1.000  P
M09  1.59018500  1.000  S
M13  1.02168500  1.000  P
M13  1.75878500  1.000  S
M08  1.14558500  1.000  P
M08  2.00338500  1.000  S
M05  1.28358500  1.000  P
M05  2.22648500  1.000  S
#  2023   1 20 19 43  50.442194  -1.638031659  101.145939407   1.62926  0  0  0  0.03972600  2815
M06  0.66040600  1.000  P
M06  1.18520600  1.000  S
M04  0.68600600  1.000  P
M04  1.17720600  1.000  S
M14  0.69480600  1.000  P
M14  1.15340600  1.000  S
M11  0.71910600  1.000  P
M11  1.29110600  1.000  S
M09  0.75900600  1.000  P
M09  1.40600600  1.000  S
M13  0.92950600  1.000  P
M13  1.62100600  1.000  S
M10  0.97760600  1.000  P
M10  1.75370600  1.000  S
M08  0.98120600  1.000  P
M08  1.68040600  1.000  S
M05  1.19330600  1.000  P
M05  2.11380600  1.000  S
M15  1.24280600  1.000  P
M15  2.19870600  1.000  S
#  2023   1 20 19 43  54.985705  -1.638374977  101.139455728   2.58807  0  0  0  0.02027790  2816
M06  0.73179500  1.000  P
M06  1.29599500  1.000  S
M14  0.78489500  1.000  P
M14  1.33029500  1.000  S
M11  0.81569500  1.000  P
M11  1.39879500  1.000  S
M09  0.88429500  1.000  P
M09  1.55439500  1.000  S
M13  1.01639500  1.000  P
M13  1.70859500  1.000  S
M08  1.08039500  1.000  P
M08  1.92059500  1.000  S
#  2023   1 20 19 49  56.535301  -1.642134804  101.146144314   2.01989  0  0  0  0.03477260  2817
M06  0.75889900  1.000  P
M06  1.27919900  1.000  S
M04  0.78459900  1.000  P
M04  1.33089900  1.000  S
M14  0.78789900  1.000  P
M14  1.37669900  1.000  S
M11  0.79729900  1.000  P
M11  1.37529900  1.000  S
M09  0.90409900  1.000  P
M09  1.51079900  1.000  S
M13  1.02579900  1.000  P
M13  1.67849900  1.000  S
M10  1.11939900  1.000  P
M10  1.91979900  1.000  S
M08  1.17119900  1.000  P
M08  2.09589900  1.000  S
M05  1.33749900  1.000  P
M05  2.21849900  1.000  S
M15  1.31889900  1.000  P
M15  2.25719900  1.000  S
M12  1.46359900  1.000  P
M12  2.49129900  1.000  S
#  2023   1 20 19 53  30.750551  -1.638579723  101.136715254   2.69460  0  0  0  0.01489180  2818
M06  0.75154900  1.000  P
M06  1.28874900  1.000  S
M14  0.83074900  1.000  P
M14  1.37714900  1.000  S
M09  0.90704900  1.000  P
M09  1.53964900  1.000  S
M13  1.01824900  1.000  P
M13  1.73234900  1.000  S
M05  1.12854900  1.000  P
M05  1.91344900  1.000  S
#  2023   1 20 19 57  15.280616  -1.637098526  101.137916916   2.24006  0  0  0  0.01161560  2819
M06  0.64488400  1.000  P
M06  1.11108400  1.000  S
M14  0.68618400  1.000  P
M14  1.20198400  1.000  S
M11  0.75138400  1.000  P
M11  1.27878400  1.000  S
M09  0.86428400  1.000  P
M09  1.50808400  1.000  S
M13  0.92048400  1.000  P
M13  1.57998400  1.000  S
#  2023   1 20 19 57  23.664906  -1.636273737  101.154226371   1.88494  0  0  0  0.03902030  2820
M06  0.64479400  1.000  P
M06  1.11709400  1.000  S
M11  0.73459400  1.000  P
M11  1.27149400  1.000  S
M14  0.67679400  1.000  P
M14  1.19169400  1.000  S
M09  0.84069400  1.000  P
M09  1.43929400  1.000  S
M08  1.22269400  1.000  P
M08  2.07409400  1.000  S
M13  0.93979400  1.000  P
M13  1.61469400  1.000  S
M15  1.20619400  1.000  P
M15  2.03839400  1.000  S
M05  1.30039400  1.000  P
M05  2.25459400  1.000  S
M12  1.43539400  1.000  P
M12  2.44709400  1.000  S
#  2023   1 20 20 23   4.667314  -1.632709478  101.153353586   2.30398  0  0  0  0.01838980  2821
M06  0.73258600  1.000  P
M06  1.24388600  1.000  S
M11  0.74298600  1.000  P
M11  1.30638600  1.000  S
M14  0.75408600  1.000  P
M14  1.22968600  1.000  S
M09  0.85088600  1.000  P
M09  1.42948600  1.000  S
M05  1.25388600  1.000  P
M05  2.16638600  1.000  S
#  2023   1 21  1 56  37.258960  -1.635415735  101.138917821   2.53125  0  0  0  0.01297310  2822
M06  0.70484000  1.000  P
M06  1.20734000  1.000  S
M14  0.74464000  1.000  P
M14  1.27084000  1.000  S
M11  0.77394000  1.000  P
M11  1.32344000  1.000  S
M09  0.87824000  1.000  P
M09  1.51584000  1.000  S
#  2023   1 30 17 30   4.766760  -1.643210223  101.146947614   2.41761  0  0  0  0.01522090  2823
M06  0.72454000  1.000  P
M06  1.23204000  1.000  S
M11  0.87964000  1.000  P
M11  1.52194000  1.000  S
M09  0.95844000  1.000  P
M09  1.65984000  1.000  S
M13  1.15234000  1.000  P
M13  1.97634000  1.000  S
#  2023   1 30 17 30  40.748569  -1.643289254  101.136051789   2.32528  0  0  0  0.03029210  2824
M06  0.69893100  1.000  P
M06  1.24763100  1.000  S
M14  0.80673100  1.000  P
M14  1.34443100  1.000  S
M11  0.88143100  1.000  P
M11  1.51003100  1.000  S
M09  0.96143100  1.000  P
M09  1.71583100  1.000  S
M13  1.07223100  1.000  P
M13  1.79683100  1.000  S
M08  1.40693100  1.000  P
M08  2.28813100  1.000  S
M15  1.43123100  1.000  P
M15  2.55853100  1.000  S
