#  2023   1  3  3 43  21.021780  -1.643216578  101.141065178   2.90057  0  0  0  0.01595770  2719
M06  0.82482000  1.000  P
M06  1.37822000  1.000  S
M11  0.93862000  1.000  P
M11  1.62352000  1.000  S
M09  1.03882000  1.000  P
M09  1.80242000  1.000  S
M13  1.13422000  1.000  P
M13  1.93222000  1.000  S
#  2023   1  3  3 52   5.731807  -1.638359983  101.153359612   2.90057  0  0  0  0.02263250  2720
M06  0.86479300  1.000  P
M06  1.42859300  1.000  S
M11  0.91629300  1.000  P
M11  1.60159300  1.000  S
M09  1.00409300  1.000  P
M09  1.68189300  1.000  S
M13  1.17869300  1.000  P
M13  2.02819300  1.000  S
M05  1.38479300  1.000  P
M05  2.36109300  1.000  S
#  2023   1  3  3 52  21.034483  -1.632387007  101.140452069   2.41051  0  0  0  0.02038190  2721
M06  0.67771700  1.000  P
M06  1.15921700  1.000  S
M04  0.66891700  1.000  P
M04  1.17261700  1.000  S
M11  0.71461700  1.000  P
M11  1.21901700  1.000  S
M09  0.73731700  1.000  P
M09  1.24161700  1.000  S
M13  0.86841700  1.000  P
M13  1.49721700  1.000  S
M10  0.89411700  1.000  P
M10  1.54081700  1.000  S
M05  1.33811700  1.000  P
M05  2.24351700  1.000  S
#  2023   1  3  3 52  34.757351  -1.639187085  101.134911050   2.30398  0  0  0  0.01750620  2722
M06  0.68894900  1.000  P
M06  1.17834900  1.000  S
M11  0.81044900  1.000  P
M11  1.41274900  1.000  S
M09  0.90194900  1.000  P
M09  1.57984900  1.000  S
M13  0.95584900  1.000  P
M13  1.62814900  1.000  S
#  2023   1  3  4  2  20.455869  -1.634751489  101.131029285   2.06250  0  0  0  0.00412891  2723
M06  0.66563100  1.000  P
M06  1.15193100  1.000  S
M11  0.75183100  1.000  P
M11  1.29353100  1.000  S
M09  0.75563100  1.000  P
M09  1.30473100  1.000  S
M13  1.00393100  1.000  P
M13  1.71193100  1.000  S
#  2023   1  4 20 11  39.395422  -1.635744675  101.145803283   2.05540  0  0  0  0.02228110  2724
M06  0.60017800  1.000  P
M06  1.05117800  1.000  S
M11  0.66887800  1.000  P
M11  1.12587800  1.000  S
M14  0.66607800  1.000  P
M14  1.21197800  1.000  S
M09  0.74797800  1.000  P
M09  1.34087800  1.000  S
M13  0.92537800  1.000  P
M13  1.63077800  1.000  S
M08  1.00247800  1.000  P
M08  1.76587800  1.000  S
M05  1.13297800  1.000  P
M05  1.97067800  1.000  S
#  2023   1  4 20 16  15.547550  -1.643683926  101.144341127   1.54403  0  0  0  0.01955620  2725
M06  0.70345000  1.000  P
M06  1.22575000  1.000  S
M04  0.69115000  1.000  P
M04  1.20675000  1.000  S
M14  0.71405000  1.000  P
M14  1.22255000  1.000  S
M11  0.77475000  1.000  P
M11  1.38635000  1.000  S
M09  0.85255000  1.000  P
M09  1.52785000  1.000  S
M13  1.03905000  1.000  P
M13  1.83795000  1.000  S
M10  0.96495000  1.000  P
M10  1.66105000  1.000  S
M08  1.09275000  1.000  P
M08  1.95265000  1.000  S
M05  1.27175000  1.000  P
M05  2.22515000  1.000  S
#  2023   1  4 20 17   9.676774  -1.642879157  101.142067507   2.41051  0  0  0  0.01507680  2726
M06  0.70472600  1.000  P
M06  1.21202600  1.000  S
M14  0.69552600  1.000  P
M14  1.14042600  1.000  S
M11  0.85542600  1.000  P
M11  1.46942600  1.000  S
M09  0.95842600  1.000  P
M09  1.65982600  1.000  S
M13  1.08402600  1.000  P
M13  1.80182600  1.000  S
M08  1.18242600  1.000  P
M08  2.00732600  1.000  S
M05  1.27542600  1.000  P
M05  2.17472600  1.000  S
#  2023   1  4 20 18  22.724124  -1.645365698  101.144276081   2.90057  0  0  0  0.01779740  2727
M06  0.84397600  1.000  P
M06  1.42307600  1.000  S
M14  0.63967600  1.000  P
M14  1.09967600  1.000  S
M11  0.98517600  1.000  P
M11  1.72997600  1.000  S
M09  1.07047600  1.000  P
M09  1.79987600  1.000  S
M13  1.23067600  1.000  P
M13  2.07047600  1.000  S
#  2023   1  7  1 45  57.333468  -1.610326927  101.071911230   6.69318  0  0  0  0.06356970  2728
M05  2.08233200  1.000  P
M05  3.48463200  1.000  S
M10  2.01083200  1.000  P
M10  3.32803200  1.000  S
M13  2.24953200  1.000  P
M13  3.76943200  1.000  S
M04  2.41003200  1.000  P
M04  3.96293200  1.000  S
M14  2.36433200  1.000  P
M14  3.89873200  1.000  S
M09  2.36853200  1.000  P
M09  4.00623200  1.000  S
M08  2.25163200  1.000  P
M08  3.74963200  1.000  S
M11  2.44443200  1.000  S
M06  2.56183200  1.000  P
M06  4.31343200  1.000  S
#  2023   1 11 13 28  50.442551  -1.657625519  101.128647092   2.60227  0  0  0  0.02860620  2729
M06  1.04724900  1.000  P
M06  1.75754900  1.000  S
M14  1.13314900  1.000  P
M14  1.94914900  1.000  S
M11  1.26404900  1.000  P
M11  2.17504900  1.000  S
M09  1.42064900  1.000  P
M09  2.40214900  1.000  S
#  2023   1 13 11  1  29.447445  -1.621430689  101.132485893   0.08807  0  0  0  0.00063926  2730
M09  0.21314500  1.000  P
M09  0.34025500  1.000  S
M13  0.24465500  1.000  P
M13  0.87765500  1.000  S
M05  0.47515500  1.000  P
M05  1.62845500  1.000  S
#  2023   1 14  3 46  48.632560  -1.672592400  101.219573151   7.14773  0  0  0  0.07457910  2731
M06  2.47204000  1.000  P
M06  4.08974000  1.000  S
M11  2.97314000  1.000  P
M11  5.03084000  1.000  S
M14  3.00164000  1.000  P
M14  4.97924000  1.000  S
M09  3.08054000  1.000  P
M09  5.10764000  1.000  S
M08  3.07704000  1.000  P
M08  5.16414000  1.000  S
M13  3.32894000  1.000  P
M13  5.52454000  1.000  S
M05  3.54064000  1.000  P
M05  5.83524000  1.000  S
M12  3.44194000  1.000  P
M12  5.72394000  1.000  S
#  2023   1 20 13 29  11.092381  -1.643765379  101.131172514   2.38921  0  0  0  0.00643553  2733
M06  0.77021900  1.000  P
M06  1.33221900  1.000  S
M11  0.80091900  1.000  P
M09  0.99211900  1.000  P
M09  1.67331900  1.000  S
M13  1.06771900  1.000  P
M13  1.83301900  1.000  S
#  2023   1 20 18 30   0.360447  -1.643832572  101.131239427   2.11222  0  0  0  0.01653060  2734
M06  0.73235300  1.000  P
M06  1.22765300  1.000  S
M14  0.76835300  1.000  P
M11  0.89585300  1.000  P
M11  1.56285300  1.000  S
M09  0.93785300  1.000  P
M09  1.65605300  1.000  S
M13  1.07475300  1.000  P
M13  1.79125300  1.000  S
M05  1.38505300  1.000  P
M05  2.39445300  1.000  S
M08  1.21625300  1.000  P
M08  2.07315300  1.000  S
M12  1.40565300  1.000  P
M12  2.44645300  1.000  S
#  2023   1 20 19 10  25.467541  -1.641416766  101.125755449   2.32528  0  0  0  0.01769120  2735
M04  0.75655900  1.000  P
M04  1.28595900  1.000  S
M06  0.81465900  1.000  P
M06  1.41015900  1.000  S
M09  1.00245900  1.000  P
M09  1.73735900  1.000  S
M13  1.01505900  1.000  P
M13  1.72045900  1.000  S
#  2023   1 20 19 10  36.461839  -1.637362860  101.142329023   1.82812  0  0  0  0.02867230  2736
M06  0.55066100  1.000  P
M06  1.01106100  1.000  S
M04  0.65166100  1.000  P
M04  1.13046100  1.000  S
M14  0.64166100  1.000  P
M14  1.13046100  1.000  S
M11  0.65516100  1.000  P
M11  1.14536100  1.000  S
M09  0.74096100  1.000  P
M09  1.32076100  1.000  S
M03  0.84396100  1.000  P
M03  1.56956100  1.000  S
M13  0.88586100  1.000  P
M13  1.47586100  1.000  S
M10  0.98676100  1.000  P
M10  1.73146100  1.000  S
M08  0.97146100  1.000  P
M08  1.68246100  1.000  S
M05  1.16726100  1.000  P
M05  2.09536100  1.000  S
M01  1.18546100  1.000  P
M01  2.00816100  1.000  S
M12  1.31526100  1.000  P
M12  2.37666100  1.000  S
#  2023   1 20 19 11  19.437870  -1.637365447  101.139922576   1.88494  0  0  0  0.01353200  2737
M06  0.54703000  1.000  P
M06  0.94863000  1.000  S
M04  0.63703000  1.000  P
M04  1.09143000  1.000  S
M14  0.64863000  1.000  P
M14  1.11513000  1.000  S
M11  0.65043000  1.000  P
M11  1.15393000  1.000  S
M09  0.75193000  1.000  P
M09  1.29963000  1.000  S
#  2023   1 20 19 11  38.490285  -1.637099386  101.137114763   2.56676  0  0  0  0.00283055  2738
M06  0.72381500  1.000  P
M06  1.23181500  1.000  S
M14  0.76611500  1.000  S
M11  0.81521500  1.000  P
M11  1.39251500  1.000  S
M09  0.85501500  1.000  P
M09  1.47031500  1.000  S
#  2023   1 20 19 11  46.853540  -1.635712805  101.144165528   1.73935  0  0  0  0.03064500  2739
M06  0.56316000  1.000  P
M06  1.02736000  1.000  S
M14  0.61456000  1.000  P
M14  1.08206000  1.000  S
M11  0.61846000  1.000  P
M11  1.07416000  1.000  S
M04  0.66266000  1.000  P
M04  1.15626000  1.000  S
M02  0.57976000  1.000  P
M02  1.05436000  1.000  S
M09  0.76176000  1.000  P
M09  1.34206000  1.000  S
M13  0.84336000  1.000  P
M13  1.45456000  1.000  S
M10  0.92576000  1.000  P
M10  1.61796000  1.000  S
M08  0.91066000  1.000  P
M08  1.61826000  1.000  S
M05  1.11056000  1.000  P
M05  1.91816000  1.000  S
M01  1.27596000  1.000  P
M01  2.25446000  1.000  S
M15  1.16506000  1.000  P
M15  2.06196000  1.000  S
M12  1.30576000  1.000  P
M12  2.27386000  1.000  S
#  2023   1 20 19 12   2.081854  -1.636425407  101.138317280   1.91335  0  0  0  0.03803090  2740
M06  0.57214600  1.000  P
M06  0.95004600  1.000  S
M04  0.54854600  1.000  P
M04  0.92164600  1.000  S
M14  0.62034600  1.000  P
M14  1.06294600  1.000  S
M02  0.74274600  1.000  P
M02  1.31644600  1.000  S
M11  0.66954600  1.000  P
M11  1.16354600  1.000  S
M09  0.72614600  1.000  P
M09  1.28064600  1.000  S
M03  0.76404600  1.000  P
M03  1.35874600  1.000  S
M13  0.84654600  1.000  P
M13  1.49094600  1.000  S
M10  0.82344600  1.000  P
M10  1.43694600  1.000  S
M08  1.00164600  1.000  P
M08  1.74944600  1.000  S
M05  0.94784600  1.000  P
M05  1.66854600  1.000  S
M01  1.21824600  1.000  P
M01  2.10324600  1.000  S
M12  1.36754600  1.000  P
M12  2.34454600  1.000  S
M15  1.25554600  1.000  P
M15  2.15524600  1.000  S
#  2023   1 20 19 12  14.294269  -1.636830168  101.137248170   2.46733  0  0  0  0.01710640  2741
M06  0.69983100  1.000  P
M06  1.20683100  1.000  S
M04  0.74983100  1.000  P
M04  1.27583100  1.000  S
M11  0.76063100  1.000  P
M11  1.31683100  1.000  S
M09  0.84643100  1.000  P
M09  1.45383100  1.000  S
#  2023   1 20 19 12  27.899556  -1.634266646  101.144063731   2.55256  0  0  0  0.00669224  2742
M06  0.70594400  1.000  P
M06  1.20594400  1.000  S
M14  0.76454400  1.000  P
M14  1.33614400  1.000  S
M11  0.75834400  1.000  P
M11  1.27974400  1.000  S
M08  1.26554400  1.000  P
M08  2.13434400  1.000  S
#  2023   1 20 19 12  41.432900  -1.636016913  101.142862362   2.22585  0  0  0  0.02578400  2743
M06  0.63570000  1.000  P
M06  1.12070000  1.000  S
M04  0.66580000  1.000  P
M04  1.14250000  1.000  S
M14  0.70770000  1.000  P
M14  1.22950000  1.000  S
M11  0.70840000  1.000  P
M11  1.22800000  1.000  S
M02  0.79040000  1.000  P
M02  1.38400000  1.000  S
M09  0.79730000  1.000  P
M09  1.34830000  1.000  S
M13  0.92410000  1.000  P
M13  1.60880000  1.000  S
M10  1.04280000  1.000  P
M10  1.82180000  1.000  S
M08  0.95410000  1.000  P
M08  1.66710000  1.000  S
M05  1.14100000  1.000  P
M05  1.96280000  1.000  S
M15  1.12220000  1.000  P
M15  1.90910000  1.000  S
M12  1.31320000  1.000  P
M12  2.27320000  1.000  S
#  2023   1 20 19 12  45.190099  -1.635682514  101.141057170   2.84375  0  0  0  0.01457830  2744
M06  0.77340100  1.000  P
M06  1.31320100  1.000  S
M14  0.83760100  1.000  P
M14  1.40410100  1.000  S
M11  0.81850100  1.000  P
M11  1.42930100  1.000  S
M09  0.85970100  1.000  P
M09  1.49270100  1.000  S
M08  1.06890100  1.000  P
M08  1.81840100  1.000  S
#  2023   1 20 19 12  58.782197  -1.637500128  101.139789026   2.82244  0  0  0  0.00660537  2745
M06  0.77470300  1.000  P
M06  1.30530300  1.000  S
M14  0.83060300  1.000  P
M14  1.42510300  1.000  S
M11  0.85360300  1.000  P
M11  1.47520300  1.000  S
M09  0.90810300  1.000  P
M09  1.54330300  1.000  S
#  2023   1 20 19 13   8.813699  -1.640787991  101.147479796   2.70171  0  0  0  0.02892970  2746
M06  0.78080100  1.000  P
M06  1.30060100  1.000  S
M09  0.94200100  1.000  P
M09  1.80290100  1.000  S
M13  1.07630100  1.000  P
M13  1.90760100  1.000  S
M08  1.15790100  1.000  P
M08  1.97730100  1.000  S
M05  1.31140100  1.000  P
M05  2.26030100  1.000  S
M12  1.53150100  1.000  P
M12  2.73800100  1.000  S
#  2023   1 20 19 13  21.524724  -1.642887941  101.133912282   2.09801  0  0  0  0.02372330  2747
M06  0.67557600  1.000  P
M06  1.17417600  1.000  S
M14  0.75667600  1.000  P
M14  1.27447600  1.000  S
M11  0.77267600  1.000  P
M11  1.37987600  1.000  S
M09  0.88207600  1.000  P
M09  1.55997600  1.000  S
M13  1.01407600  1.000  P
M13  1.79207600  1.000  S
M08  1.16027600  1.000  P
M08  2.04367600  1.000  S
M05  1.17057600  1.000  P
M05  1.98957600  1.000  S
M12  1.54187600  1.000  P
M12  2.73087600  1.000  S
#  2023   1 20 19 13  50.478072  -1.638116223  101.129829600   2.01989  0  0  0  0.01864710  2748
M14  0.66632800  1.000  P
M14  1.15792800  1.000  S
M06  0.68682800  1.000  P
M06  1.18872800  1.000  S
M11  0.78632800  1.000  P
M11  1.38282800  1.000  S
M09  0.84882800  1.000  P
M09  1.47662800  1.000  S
#  2023   1 20 19 13  59.391798  -1.642633047  101.120676377   0.57812  0  0  0  0.01878810  2749
M14  0.66380200  1.000  P
M14  1.17590200  1.000  S
M06  0.73180200  1.000  P
M06  1.23300200  1.000  S
M09  0.90340200  1.000  P
M09  1.56670200  1.000  S
M11  0.74900200  1.000  P
M11  1.33440200  1.000  S
M13  0.96360200  1.000  P
M13  1.71220200  1.000  S
M08  1.24360200  1.000  P
M08  2.14050200  1.000  S
#  2023   1 20 19 14  14.257416  -1.634336279  101.141857894   1.42329  0  0  0  0.01271750  2750
M06  0.23848400  1.000  P
M06  0.73738400  1.000  S
M11  0.49458400  1.000  P
M11  0.91848400  1.000  S
M09  0.61298400  1.000  P
M09  1.07358400  1.000  S
M08  0.87538400  1.000  P
M08  1.82638400  1.000  S
#  2023   1 20 19 14  47.264572  -1.636751897  101.147475495   2.87216  0  0  0  0.01159840  2751
M06  0.79862800  1.000  P
M06  1.34872800  1.000  S
M11  0.85062800  1.000  P
M11  1.46572800  1.000  S
M14  0.82792800  1.000  P
M14  1.35572800  1.000  S
M09  0.94152800  1.000  P
M09  1.61012800  1.000  S
M13  1.08492800  1.000  P
M13  1.82292800  1.000  S
#  2023   1 20 19 15   4.052669  -1.638644626  101.138921245   2.47443  0  0  0  0.01659040  2753
M06  0.75813100  1.000  P
M06  1.31973100  1.000  S
M14  0.76623100  1.000  P
M14  1.31253100  1.000  S
M11  0.81483100  1.000  P
M11  1.38383100  1.000  S
M09  0.86533100  1.000  P
M09  1.51133100  1.000  S
M13  0.98873100  1.000  P
M13  1.69673100  1.000  S
#  2023   1 20 19 15  37.768435  -1.639110251  101.143801493   1.91335  0  0  0  0.03533880  2754
M06  0.65086500  1.000  P
M06  1.12496500  1.000  S
M04  0.69446500  1.000  P
M04  1.22266500  1.000  S
M14  0.69686500  1.000  P
M14  1.19346500  1.000  S
M11  0.72816500  1.000  P
M11  1.27706500  1.000  S
M02  0.83156500  1.000  P
M02  1.40936500  1.000  S
M09  0.80586500  1.000  P
M09  1.41806500  1.000  S
M03  0.95706500  1.000  P
M03  1.65166500  1.000  S
M13  0.94966500  1.000  P
M13  1.62636500  1.000  S
M10  1.01876500  1.000  P
M10  1.74876500  1.000  S
M08  1.02526500  1.000  P
M08  1.80196500  1.000  S
M05  1.21986500  1.000  P
M05  2.09166500  1.000  S
M15  1.17716500  1.000  P
M15  2.00896500  1.000  S
M12  1.36786500  1.000  P
M12  2.35416500  1.000  S
#  2023   1 20 19 15  47.913290  -1.635480775  101.140990114   1.89915  0  0  0  0.01758570  2755
M06  0.55291000  1.000  P
M06  0.96591000  1.000  S
M04  0.65181000  1.000  P
M04  1.12971000  1.000  S
M14  0.62151000  1.000  P
M14  1.07881000  1.000  S
M11  0.61901000  1.000  P
M11  1.08521000  1.000  S
M02  0.71311000  1.000  P
M02  1.22071000  1.000  S
M09  0.71161000  1.000  P
M09  1.25791000  1.000  S
M03  0.77781000  1.000  P
M03  1.35611000  1.000  S
M13  0.83921000  1.000  P
M13  1.48491000  1.000  S
M10  0.95071000  1.000  P
M10  1.67631000  1.000  S
M08  0.93151000  1.000  P
M08  1.64871000  1.000  S
M05  1.08381000  1.000  P
M05  1.90541000  1.000  S
M01  1.12001000  1.000  P
M01  1.96411000  1.000  S
M15  1.07691000  1.000  P
M15  1.88121000  1.000  S
M12  1.23151000  1.000  P
M12  2.15321000  1.000  S
#  2023   1 20 19 16   4.337948  -1.639241472  101.146876538   1.88494  0  0  0  0.02760200  2756
M06  0.66205200  1.000  P
M06  1.13155200  1.000  S
M04  0.76205200  1.000  P
M04  1.27205200  1.000  S
M11  0.72535200  1.000  P
M11  1.24625200  1.000  S
M14  0.69255200  1.000  P
M14  1.23675200  1.000  S
M02  0.85545200  1.000  P
M02  1.47965200  1.000  S
M09  0.80275200  1.000  P
M09  1.41575200  1.000  S
M13  0.93075200  1.000  P
M13  1.58595200  1.000  S
M08  1.00975200  1.000  P
M08  1.80815200  1.000  S
M05  1.19505200  1.000  P
M05  2.12415200  1.000  S
M12  1.39175200  1.000  P
M12  2.43245200  1.000  S
#  2023   1 20 19 16  23.394122  -1.645975528  101.140199121   1.71449  0  0  0  0.02459860  2757
M06  0.76947800  1.000  P
M06  1.28607800  1.000  S
M14  0.75807800  1.000  P
M14  1.33667800  1.000  S
M11  0.85807800  1.000  P
M11  1.42957800  1.000  S
M09  0.90017800  1.000  P
M09  1.62447800  1.000  S
M13  1.02927800  1.000  P
M13  1.84997800  1.000  S
M08  1.16677800  1.000  P
M08  2.10317800  1.000  S
M05  1.28087800  1.000  P
M05  2.20097800  1.000  S
M12  1.50877800  1.000  P
M12  2.64197800  1.000  S
#  2023   1 20 19 16  33.016355  -1.636820250  101.146472885   2.58097  0  0  0  0.01570980  2758
M06  0.72844500  1.000  P
M06  1.23324500  1.000  S
M11  0.79304500  1.000  P
M11  1.35874500  1.000  S
M09  0.92794500  1.000  P
M09  1.54784500  1.000  S
M13  1.02114500  1.000  P
M13  1.74604500  1.000  S
#  2023   1 20 19 16  54.129644  -1.639380046  101.143133320   2.12642  0  0  0  0.02678430  2759
M06  0.66795600  1.000  P
M06  1.14035600  1.000  S
M04  0.75295600  1.000  P
M04  1.25165600  1.000  S
M14  0.74255600  1.000  P
M14  1.25975600  1.000  S
M11  0.74675600  1.000  P
M11  1.30385600  1.000  S
M09  0.82185600  1.000  P
M09  1.44085600  1.000  S
M03  0.91835600  1.000  P
M03  1.60865600  1.000  S
M13  0.96225600  1.000  P
M13  1.67405600  1.000  S
M10  1.02565600  1.000  P
M10  1.78925600  1.000  S
M08  1.06045600  1.000  P
M08  1.88105600  1.000  S
M05  1.24125600  1.000  P
M05  2.11855600  1.000  S
M01  1.25625600  1.000  P
M01  2.16895600  1.000  S
M15  1.13935600  1.000  P
M15  2.00265600  1.000  S
M12  1.38325600  1.000  P
M12  2.35595600  1.000  S
#  2023   1 20 19 17  18.659117  -1.633793256  101.146402817   2.61648  0  0  0  0.01833280  2760
M06  0.73538300  1.000  P
M06  1.25308300  1.000  S
M11  0.76558300  1.000  P
M11  1.30478300  1.000  S
M14  0.80558300  1.000  P
M14  1.38238300  1.000  S
M09  0.90328300  1.000  P
M09  1.52858300  1.000  S
#  2023   1 20 19 17  23.444335  -1.636963414  101.138451543   2.50994  0  0  0  0.02749170  2761
M06  0.70256500  1.000  P
M06  1.21266500  1.000  S
M04  0.75816500  1.000  P
M04  1.32676500  1.000  S
M14  0.75596500  1.000  P
M14  1.32336500  1.000  S
M11  0.75956500  1.000  P
M11  1.29186500  1.000  S
M09  0.85156500  1.000  P
M09  1.41466500  1.000  S
M03  0.82106500  1.000  P
M03  1.49516500  1.000  S
M13  0.95916500  1.000  P
M13  1.61756500  1.000  S
M08  1.07946500  1.000  P
M08  1.78196500  1.000  S
M05  1.27146500  1.000  P
M05  2.16426500  1.000  S
M12  1.42256500  1.000  P
M12  2.53186500  1.000  S
M15  1.29876500  1.000  P
M15  2.24636500  1.000  S
