#  2023   1 20 19 17  53.429892  -1.639375721  101.147144056   1.41619  0  0  0  0.03015070  2762
M06  0.61560800  1.000  P
M06  1.12560800  1.000  S
M04  0.67610800  1.000  P
M04  1.18650800  1.000  S
M11  0.68370800  1.000  P
M11  1.28930800  1.000  S
M14  0.64490800  1.000  P
M14  1.11840800  1.000  S
M02  0.78110800  1.000  P
M02  1.39950800  1.000  S
M09  0.77050800  1.000  P
M09  1.36730800  1.000  S
M13  0.90430800  1.000  P
M13  1.55460800  1.000  S
M08  0.99900800  1.000  P
M08  1.77950800  1.000  S
M10  1.02370800  1.000  P
M10  1.79130800  1.000  S
M05  1.19600800  1.000  P
M05  2.04880800  1.000  S
M15  1.15860800  1.000  P
M15  2.03650800  1.000  S
M12  1.39500800  1.000  P
M12  2.45020800  1.000  S
#  2023   1 20 19 17  59.550356  -1.631868959  101.121600915   0.97585  0  0  0  0.00347526  2763
M14  0.52924400  1.000  P
M14  0.92004400  1.000  S
M06  0.68944400  1.000  P
M06  1.21544400  1.000  S
M09  0.82004400  1.000  P
M09  1.44984400  1.000  S
M11  0.76174400  1.000  P
M11  1.32714400  1.000  S
#  2023   1 20 19 18  19.472891  -1.636479949  101.150149025   2.41761  0  0  0  0.02041070  2764
M06  0.70530900  1.000  P
M06  1.22720900  1.000  S
M11  0.79070900  1.000  P
M11  1.32850900  1.000  S
M09  0.89380900  1.000  P
M09  1.52470900  1.000  S
M08  0.95110900  1.000  P
M08  1.65230900  1.000  S
#  2023   1 20 19 18  31.190725  -1.649406435  101.140002249   3.61079  0  0  0  0.03586400  2765
M06  1.07707500  1.000  P
M06  1.77357500  1.000  S
M14  1.13967500  1.000  P
M14  1.91357500  1.000  S
M11  1.15877500  1.000  P
M11  1.97957500  1.000  S
M09  1.23317500  1.000  P
M09  2.12727500  1.000  S
M13  1.37387500  1.000  P
M13  2.33137500  1.000  S
M08  1.51977500  1.000  P
M08  2.57687500  1.000  S
M05  1.83987500  1.000  P
M05  3.06427500  1.000  S
#  2023   1 20 19 18  38.992699  -1.638647498  101.136247406   2.33239  0  0  0  0.01227760  2766
M06  0.67650100  1.000  P
M06  1.16970100  1.000  S
M11  0.80440100  1.000  P
M11  1.36330100  1.000  S
M09  0.87080100  1.000  P
M09  1.54410100  1.000  S
M13  0.94560100  1.000  P
M13  1.63320100  1.000  S
#  2023   1 20 19 20  12.100096  -1.637566027  101.141059168   2.61648  0  0  0  0.01577850  2767
M06  0.72240400  1.000  P
M06  1.23440400  1.000  S
M11  0.80860400  1.000  P
M11  1.40270400  1.000  S
M09  0.93270400  1.000  P
M09  1.62620400  1.000  S
M13  1.00010400  1.000  P
M13  1.68730400  1.000  S
#  2023   1 20 19 20  39.823301  -1.639252842  101.136314889   2.45312  0  0  0  0.00753796  2768
M06  0.71099900  1.000  P
M06  1.21979900  1.000  S
M14  0.76059900  1.000  P
M14  1.30569900  1.000  S
M11  0.83169900  1.000  P
M11  1.41679900  1.000  S
M09  0.89539900  1.000  P
M09  1.52679900  1.000  S
#  2023   1 20 19 21   7.395479  -1.640660233  101.141196149   2.74432  0  0  0  0.01850320  2769
M06  0.76942100  1.000  P
M06  1.29982100  1.000  S
M11  0.88042100  1.000  P
M11  1.50792100  1.000  S
M09  0.99812100  1.000  P
M09  1.70902100  1.000  S
M13  1.06562100  1.000  P
M13  1.82572100  1.000  S
#  2023   1 20 19 21  18.817602  -1.639015568  101.138019212   2.40696  0  0  0  0.02752210  2770
M06  0.68889800  1.000  P
M06  1.18059800  1.000  S
M04  0.77159800  1.000  P
M04  1.28289800  1.000  S
M14  0.75039800  1.000  P
M14  1.28459800  1.000  S
M11  0.79869800  1.000  P
M11  1.38969800  1.000  S
M09  0.88109800  1.000  P
M09  1.52749800  1.000  S
M13  0.97299800  1.000  P
M13  1.66559800  1.000  S
M08  1.07049800  1.000  P
M08  1.86499800  1.000  S
M05  1.31359800  1.000  P
M05  2.26139800  1.000  S
M12  1.51909800  1.000  P
M12  2.61539800  1.000  S
#  2023   1 20 19 21  59.912850  -1.638166475  101.145672167   2.33949  0  0  0  0.01660770  2771
M06  0.66255000  1.000  P
M06  1.14815000  1.000  S
M11  0.77325000  1.000  P
M11  1.32995000  1.000  S
M09  0.80045000  1.000  P
M09  1.44145000  1.000  S
M13  1.02495000  1.000  P
M13  1.75125000  1.000  S
#  2023   1 20 19 22  12.207354  -1.646709041  101.146149202   3.44034  0  0  0  0.07917900  2772
M06  0.91264600  1.000  P
M06  1.63774600  1.000  S
M04  1.14084600  1.000  P
M04  1.89364600  1.000  S
M14  0.97444600  1.000  P
M14  1.59274600  1.000  S
M11  1.00494600  1.000  P
M11  1.79014600  1.000  S
M02  1.14904600  1.000  P
M02  1.82314600  1.000  S
M09  1.09624600  1.000  P
M09  1.96504600  1.000  S
M03  1.57524600  1.000  P
M03  2.58544600  1.000  S
M13  1.22744600  1.000  P
M13  2.03124600  1.000  S
M10  1.18664600  1.000  P
M10  2.17274600  1.000  S
M08  1.36194600  1.000  P
M08  2.33684600  1.000  S
M05  1.50004600  1.000  P
M05  2.51004600  1.000  S
M12  1.65484600  1.000  P
M12  2.91644600  1.000  S
#  2023   1 20 19 22  39.932305  -1.637827038  101.148546163   2.21875  0  0  0  0.02611810  2773
M06  0.60889500  1.000  P
M06  1.12009500  1.000  S
M11  0.76079500  1.000  P
M11  1.28439500  1.000  S
M14  0.80729500  1.000  P
M14  1.56079500  1.000  S
M09  0.83559500  1.000  P
M09  1.45779500  1.000  S
#  2023   1 20 19 22  45.402040  -1.640734338  101.134845848   2.75142  0  0  0  0.01388950  2774
M06  0.80446000  1.000  P
M06  1.35306000  1.000  S
M14  0.82846000  1.000  P
M14  1.43816000  1.000  S
M11  0.90636000  1.000  P
M11  1.55306000  1.000  S
M09  0.97566000  1.000  P
M09  1.66356000  1.000  S
#  2023   1 20 19 23   1.069872  -1.642353665  101.130302005   2.16903  0  0  0  0.00467352  2775
M06  0.72832800  1.000  P
M06  1.25892800  1.000  S
M14  0.76782800  1.000  P
M14  1.31732800  1.000  S
M11  0.89622800  1.000  P
M11  1.55542800  1.000  S
M09  0.93772800  1.000  P
M09  1.58952800  1.000  S
#  2023   1 20 19 23   6.850113  -1.644623362  101.146481206   1.61506  0  0  0  0.03229250  2776
M06  0.59378700  1.000  P
M06  1.11408700  1.000  S
M14  0.75578700  1.000  P
M14  1.34138700  1.000  S
M11  0.78028700  1.000  P
M11  1.36688700  1.000  S
M09  0.93818700  1.000  P
M09  1.61908700  1.000  S
M13  1.05818700  1.000  P
M13  1.91098700  1.000  S
M10  1.23258700  1.000  P
M10  2.19928700  1.000  S
M08  1.15828700  1.000  P
M08  2.07048700  1.000  S
M05  1.33728700  1.000  P
M05  2.37738700  1.000  S
#  2023   1 20 19 24  26.955878  -1.637635384  101.139120708   2.11222  0  0  0  0.03331190  2777
M06  0.61612200  1.000  P
M06  1.03412200  1.000  S
M14  0.68572200  1.000  P
M14  1.14362200  1.000  S
M11  0.72302200  1.000  P
M11  1.27792200  1.000  S
M09  0.77712200  1.000  P
M09  1.39762200  1.000  S
M13  0.89152200  1.000  P
M13  1.58102200  1.000  S
M08  1.21042200  1.000  P
M08  2.07582200  1.000  S
M05  1.17272200  1.000  P
M05  2.08942200  1.000  S
M15  1.28342200  1.000  P
M15  2.21712200  1.000  S
M12  1.38572200  1.000  P
M12  2.35272200  1.000  S
#  2023   1 20 19 24  45.209973  -1.637381764  101.124681643   2.09801  0  0  0  0.00709883  2779
M14  0.73792700  1.000  P
M14  1.25212700  1.000  S
M06  0.77532700  1.000  P
M06  1.35572700  1.000  S
M09  0.87192700  1.000  P
M09  1.51812700  1.000  S
M13  1.32622700  1.000  P
M13  2.32402700  1.000  S
#  2023   1 20 19 24  52.184993  -1.643012251  101.143404573   1.74290  0  0  0  0.01492170  2780
M06  0.55610700  1.000  P
M06  0.95680700  1.000  S
M11  0.75230700  1.000  P
M11  1.36650700  1.000  S
M09  0.84400700  1.000  P
M09  1.50500700  1.000  S
M13  1.04720700  1.000  P
M13  1.81610700  1.000  S
#  2023   1 20 19 25  16.073993  -1.635878204  101.146739266   2.16903  0  0  0  0.01507900  2782
M06  0.61750700  1.000  P
M06  1.08170700  1.000  S
M11  0.71310700  1.000  P
M11  1.21450700  1.000  S
M09  0.77680700  1.000  P
M09  1.35080700  1.000  S
M13  0.97570700  1.000  P
M13  1.66580700  1.000  S
#  2023   1 20 19 26  19.504208  -1.648080068  101.122353310   0.65625  0  0  0  0.01699190  2783
M06  0.74179200  1.000  P
M06  1.31369200  1.000  S
M14  0.77779200  1.000  P
M14  1.31759200  1.000  S
M09  1.01449200  1.000  P
M09  1.77449200  1.000  S
M13  1.12249200  1.000  P
M13  1.93269200  1.000  S
#  2023   1 20 19 26  40.248587  -1.632177664  101.147470633   2.55966  0  0  0  0.01319360  2784
M06  0.72371300  1.000  P
M06  1.25051300  1.000  S
M14  0.81101300  1.000  P
M14  1.36071300  1.000  S
M09  0.82021300  1.000  P
M09  1.40821300  1.000  S
M13  1.04511300  1.000  P
M13  1.79241300  1.000  S
#  2023   1 20 19 26  53.715047  -1.647511909  101.150160819   2.98579  0  0  0  0.01428370  2785
M06  0.90295300  1.000  P
M06  1.54115300  1.000  S
M14  1.08015300  1.000  P
M14  1.81745300  1.000  S
M09  1.16995300  1.000  P
M09  1.99805300  1.000  S
M13  1.12645300  1.000  P
M13  1.92055300  1.000  S
#  2023   1 20 19 28   3.138670  -1.645836365  101.144477118   1.38778  0  0  0  0.03435060  2786
M06  0.70183000  1.000  P
M06  1.22953000  1.000  S
M04  0.68333000  1.000  P
M04  1.21573000  1.000  S
M14  0.82113000  1.000  P
M14  1.30263000  1.000  S
M11  0.81903000  1.000  P
M11  1.36703000  1.000  S
M09  0.91103000  1.000  P
M09  1.60853000  1.000  S
M13  1.05333000  1.000  P
M13  1.81083000  1.000  S
M10  1.02853000  1.000  P
M10  1.63843000  1.000  S
M08  1.19583000  1.000  P
M08  2.05003000  1.000  S
M05  1.38013000  1.000  P
M05  2.30033000  1.000  S
M15  1.40823000  1.000  P
M15  2.39283000  1.000  S
M12  1.54473000  1.000  P
M12  2.71483000  1.000  S
#  2023   1 20 19 28  27.345888  -1.639519044  101.138989015   2.04119  0  0  0  0.01107790  2787
M06  0.60431200  1.000  P
M06  1.03131200  1.000  S
M14  0.67051200  1.000  P
M14  1.19371200  1.000  S
M11  0.74211200  1.000  P
M11  1.27141200  1.000  S
M09  0.82571200  1.000  P
M09  1.44041200  1.000  S
M13  0.94501200  1.000  P
M13  1.64641200  1.000  S
#  2023   1 20 19 28  29.326225  -1.641598389  101.144539445   2.38921  0  0  0  0.03447490  2788
M06  0.72967500  1.000  P
M06  1.22467500  1.000  S
M04  0.84857500  1.000  P
M04  1.34127500  1.000  S
M14  0.81367500  1.000  P
M14  1.31887500  1.000  S
M11  0.84297500  1.000  P
M11  1.42737500  1.000  S
M02  0.86707500  1.000  P
M02  1.53517500  1.000  S
M09  0.92417500  1.000  P
M09  1.61537500  1.000  S
M03  1.03757500  1.000  P
M03  1.75047500  1.000  S
M13  1.05467500  1.000  P
M13  1.71977500  1.000  S
M10  1.22957500  1.000  P
M10  2.06787500  1.000  S
M08  1.13157500  1.000  P
M08  1.90057500  1.000  S
M05  1.32827500  1.000  P
M05  2.27777500  1.000  S
M01  1.37307500  1.000  P
M01  2.33187500  1.000  S
M15  1.37687500  1.000  P
M15  2.39127500  1.000  S
M12  1.45607500  1.000  P
M12  2.46187500  1.000  S
#  2023   1 20 19 28  39.927334  -1.638842761  101.142330596   2.32528  0  0  0  0.00952978  2789
M06  0.66176600  1.000  P
M06  1.12146600  1.000  S
M14  0.56486600  1.000  P
M14  0.94996600  1.000  S
M11  0.76616600  1.000  P
M11  1.33866600  1.000  S
M09  0.86086600  1.000  P
M09  1.49466600  1.000  S
M13  0.99966600  1.000  P
M13  1.68286600  1.000  S
#  2023   1 20 19 29  12.743741  -1.646987081  101.137860577   2.73011  0  0  0  0.00617862  2790
M06  0.82585900  1.000  P
M06  1.40425900  1.000  S
M11  1.00395900  1.000  P
M11  1.70885900  1.000  S
M09  1.08305900  1.000  P
M09  1.85245900  1.000  S
M13  1.18955900  1.000  P
M13  2.02035900  1.000  S
#  2023   1 20 19 29  38.170102  -1.645100101  101.141067185   1.67898  0  0  0  0.02716180  2791
M06  0.69309800  1.000  P
M06  1.27219800  1.000  S
M14  0.73209800  1.000  P
M14  1.29439800  1.000  S
M11  0.80509800  1.000  P
M11  1.43829800  1.000  S
M09  0.89249800  1.000  P
M09  1.52699800  1.000  S
M13  1.01849800  1.000  P
M13  1.84429800  1.000  S
M08  1.17069800  1.000  P
M08  2.01399800  1.000  S
M05  1.27049800  1.000  P
M05  2.21629800  1.000  S
M15  1.16679800  1.000  P
M15  2.02559800  1.000  S
M12  1.50679800  1.000  P
M12  2.70909800  1.000  S
#  2023   1 20 19 30  28.660977  -1.640723110  101.145273814   2.28267  0  0  0  0.01291160  2792
M06  0.66642300  1.000  P
M06  1.15372300  1.000  S
M14  0.80632300  1.000  P
M14  1.34952300  1.000  S
M11  0.80362300  1.000  P
M11  1.38572300  1.000  S
M09  0.89172300  1.000  P
M09  1.56022300  1.000  S
M13  1.07672300  1.000  P
M13  1.85282300  1.000  S
#  2023   1 20 19 30  43.784938  -1.640046527  101.148882764   2.21165  0  0  0  0.02879050  2793
M06  0.66576200  1.000  P
M06  1.17556200  1.000  S
M11  0.79736200  1.000  P
M11  1.35656200  1.000  S
M14  0.71436200  1.000  P
M14  1.19256200  1.000  S
M09  0.88926200  1.000  P
M09  1.55176200  1.000  S
M13  1.00946200  1.000  P
M13  1.62576200  1.000  S
M08  1.12016200  1.000  P
M08  1.90476200  1.000  S
M10  1.17626200  1.000  P
M10  1.94346200  1.000  S
M05  1.29736200  1.000  P
M05  2.25836200  1.000  S
M15  1.33756200  1.000  P
M15  2.30146200  1.000  S
M12  1.45986200  1.000  P
M12  2.47826200  1.000  S
#  2023   1 20 19 30  58.623059  -1.645923440  101.126094448   1.25284  0  0  0  0.03306390  2794
M06  0.68204100  1.000  P
M06  1.19484100  1.000  S
M14  0.66764100  1.000  P
M14  1.24914100  1.000  S
M09  0.88624100  1.000  P
M09  1.61714100  1.000  S
M13  1.03494100  1.000  P
M13  1.83204100  1.000  S
#  2023   1 20 19 31   4.385804  -1.631707724  101.146601146   2.05540  0  0  0  0.00563581  2795
M06  0.60139600  1.000  P
M06  1.05709600  1.000  S
M14  0.69009600  1.000  P
M14  1.17669600  1.000  S
M09  0.71659600  1.000  P
M09  1.23109600  1.000  S
M13  1.02909600  1.000  P
M13  1.78759600  1.000  S
#  2023   1 20 19 31   9.834605  -1.640741220  101.128428599   1.38778  0  0  0  0.00894991  2796
M06  0.59709500  1.000  P
M06  1.04649500  1.000  S
M14  0.60469500  1.000  P
M14  1.06369500  1.000  S
M09  0.81159500  1.000  P
M09  1.41919500  1.000  S
M13  0.99759500  1.000  P
M13  1.74259500  1.000  S
#  2023   1 20 19 31  49.691598  -1.646912073  101.145013038   1.94176  0  0  0  0.03466550  2797
M06  0.79120200  1.000  P
M06  1.31520200  1.000  S
M04  0.82760200  1.000  P
M04  1.39160200  1.000  S
M14  0.82100200  1.000  P
M14  1.39800200  1.000  S
M11  0.88130200  1.000  P
M11  1.53230200  1.000  S
M09  0.99610200  1.000  P
M09  1.75410200  1.000  S
M13  1.10620200  1.000  P
M13  1.92950200  1.000  S
M08  1.21380200  1.000  P
M08  2.14140200  1.000  S
M05  1.38530200  1.000  P
M05  2.38040200  1.000  S
M15  1.38450200  1.000  P
M15  2.37540200  1.000  S
M12  1.57080200  1.000  P
M12  2.68190200  1.000  S
#  2023   1 20 19 32   3.846943  -1.639574705  101.149751251   2.74432  0  0  0  0.01179610  2798
M06  0.78875700  1.000  P
M06  1.34705700  1.000  S
M11  0.89245700  1.000  P
M11  1.51765700  1.000  S
M09  0.97895700  1.000  P
M09  1.65105700  1.000  S
M13  1.14815700  1.000  P
M13  1.96305700  1.000  S
#  2023   1 20 19 32   9.027159  -1.641058509  101.146143166   2.24716  0  0  0  0.01320070  2799
M06  0.66164100  1.000  P
M06  1.13874100  1.000  S
M11  0.81444100  1.000  P
M11  1.38224100  1.000  S
M09  0.87584100  1.000  P
M09  1.44914100  1.000  S
M13  1.07934100  1.000  P
M13  1.84564100  1.000  S
#  2023   1 20 19 32  20.902655  -1.641064566  101.140528117   1.90625  0  0  0  0.02936500  2800
M06  0.64234500  1.000  P
M06  1.17744500  1.000  S
M04  0.65764500  1.000  P
M04  1.18184500  1.000  S
M14  0.70324500  1.000  P
M14  1.19284500  1.000  S
M11  0.75124500  1.000  P
M11  1.31624500  1.000  S
M09  0.82864500  1.000  P
M09  1.45054500  1.000  S
M13  0.93734500  1.000  P
M13  1.61694500  1.000  S
M10  1.03494500  1.000  P
M10  1.86214500  1.000  S
M08  1.06704500  1.000  P
M08  1.80434500  1.000  S
M05  1.17744500  1.000  P
M05  2.02584500  1.000  S
M15  1.21684500  1.000  P
M15  2.16174500  1.000  S
M12  1.39434500  1.000  P
M12  2.46314500  1.000  S
#  2023   1 20 19 32  52.882284  -1.641542992  101.133509776   2.05540  0  0  0  0.02845430  2801
M04  0.65811600  1.000  P
M04  1.17121600  1.000  S
M06  0.65751600  1.000  P
M06  1.15921600  1.000  S
M14  0.73991600  1.000  P
M14  1.22761600  1.000  S
M11  0.79971600  1.000  P
M11  1.37011600  1.000  S
M09  0.87601600  1.000  P
M09  1.52141600  1.000  S
M13  0.98121600  1.000  P
M13  1.65081600  1.000  S
M05  1.30571600  1.000  P
M05  2.24821600  1.000  S
M08  1.15681600  1.000  P
M08  2.01521600  1.000  S
M12  1.50001600  1.000  P
M12  2.50321600  1.000  S
#  2023   1 20 19 32  59.266344  -1.643013695  101.142067651   1.70028  0  0  0  0.03795600  2802
M06  0.64045600  1.000  P
M06  1.15025600  1.000  S
M04  0.67145600  1.000  P
M04  1.18225600  1.000  S
M14  0.66485600  1.000  P
M14  1.16685600  1.000  S
M02  0.76345600  1.000  P
M02  1.44055600  1.000  S
M11  0.75485600  1.000  P
M11  1.32185600  1.000  S
M09  0.85195600  1.000  P
M09  1.49655600  1.000  S
M13  0.97455600  1.000  P
M13  1.62425600  1.000  S
M08  1.12965600  1.000  P
M08  2.02855600  1.000  S
M05  1.30715600  1.000  P
M05  2.21785600  1.000  S
M01  1.32565600  1.000  P
M01  2.24905600  1.000  S
M15  1.15565600  1.000  P
M15  1.95175600  1.000  S
M12  1.43635600  1.000  P
M12  2.47705600  1.000  S
#  2023   1 20 19 33   9.807206  -1.640258780  101.139190344   2.27557  0  0  0  0.01720080  2803
M06  0.65749400  1.000  P
M06  1.18009400  1.000  S
M14  0.75029400  1.000  P
M14  1.29159400  1.000  S
M11  0.80639400  1.000  P
M11  1.36439400  1.000  S
M13  1.00049400  1.000  P
M13  1.72049400  1.000  S
M08  1.16669400  1.000  P
M08  2.05259400  1.000  S
#  2023   1 20 19 33  34.551982  -1.646190507  101.127966447   1.67898  0  0  0  0.02269690  2804
M06  0.74461800  1.000  P
M06  1.25981800  1.000  S
M14  0.75911800  1.000  P
M14  1.33091800  1.000  S
M11  0.90831800  1.000  P
M11  1.49501800  1.000  S
M09  0.97111800  1.000  P
M09  1.72021800  1.000  S
M13  1.08921800  1.000  P
M13  1.89361800  1.000  S
#  2023   1 20 19 33  47.999825  -1.636477929  101.152020691   2.44602  0  0  0  0.01840880  2805
M06  0.73397500  1.000  P
M06  1.27647500  1.000  S
M11  0.80737500  1.000  P
M11  1.36837500  1.000  S
M09  0.97277500  1.000  P
M09  1.67187500  1.000  S
M13  1.08577500  1.000  P
M13  1.83947500  1.000  S
#  2023   1 20 19 33  53.979950  -1.643343458  101.148150985   2.68750  0  0  0  0.01204770  2806
M06  0.78605000  1.000  P
M06  1.35425000  1.000  S
M11  0.94955000  1.000  P
M11  1.57105000  1.000  S
M09  1.01995000  1.000  P
M09  1.77565000  1.000  S
M13  1.19285000  1.000  P
M13  2.02985000  1.000  S
#  2023   1 20 19 34  15.704760  -1.638569797  101.145939980   2.39631  0  0  0  0.02701640  2807
M06  0.68274000  1.000  P
M06  1.16904000  1.000  S
M14  0.74684000  1.000  P
M14  1.24744000  1.000  S
M11  0.79224000  1.000  P
M11  1.36044000  1.000  S
M09  0.87074000  1.000  P
M09  1.49734000  1.000  S
M13  1.04924000  1.000  P
M13  1.76304000  1.000  S
M08  1.32294000  1.000  P
M08  2.24454000  1.000  S
M05  1.35494000  1.000  P
M05  2.27174000  1.000  S
#  2023   1 20 19 34  33.224996  -1.639731533  101.129029147   1.19602  0  0  0  0.02227890  2808
M06  0.53780400  1.000  P
M06  0.96230400  1.000  S
M11  0.73920400  1.000  P
M11  1.29730400  1.000  S
M09  0.79230400  1.000  P
M09  1.30930400  1.000  S
M13  0.83070400  1.000  P
M13  1.49870400  1.000  S
M08  1.15120400  1.000  P
M08  1.99310400  1.000  S
#  2023   1 20 19 34  48.196556  -1.642409354  101.141064318   2.61648  0  0  0  0.00751122  2809
M06  0.74774400  1.000  P
M06  1.27494400  1.000  S
M11  0.88434400  1.000  P
M11  1.53704400  1.000  S
M09  0.97804400  1.000  P
M09  1.64384400  1.000  S
M08  1.40234400  1.000  P
M08  2.42694400  1.000  S
