NLLOC "./loc/SEML.20230120.191228.grid0" "LOCATED" "Location completed."
PUBLIC_ID None
SIGNATURE "Arham Zakki Edelo - edelo.17034@mhs.its.ac.id   obs:./obs/2023_01.obs   NLLoc:v7.00.10(30Aug2020)   run:28Dec2023 19h50m25"
COMMENT "SEML"
GRID  2001 2001 1001  727 9811 -2  0.01 0.01 0.01 PROB_DENSITY
SEARCH OCTREE nInitial 4851 nEvaluated 20011 smallestNodeSide 0.014881/0.014881/0.014205 oct_tree_integral 3.714416e-02 scatter_volume 3.683919e-02
HYPOCENTER  x 738.54 y 9819.24 z 1.30256  OT 27.8996  ix -1 iy -1 iz -1 MAXIMUM_LIKELIHOOD
GEOGRAPHIC  OT 2023 01 20  19 12 27.899556  Lat 9819.236607 Long 738.540179 Depth 1.302557
QUALITY  Pmax 2.01249e+21 MFmin 29.4871 MFmax 40.6294 RMS 0.00669224 Nphs 8 Gap 245.884 Dist 0.259399 Mamp -9.90 0 Mdur -9.90 0
VPVSRATIO  VpVsRatio 1.66745  Npair 4  Diff 0.368803
STATISTICS  ExpectX 738.260467 Y 9818.983852 Z 1.099637  CovXX 0.410363 XY 0.256934 XZ 0.14251 YY 0.276222 YZ 0.199974 ZZ 0.251945 EllAz1  155.975 Dip1  29.9425 Len1  0.354396 Az2  285.478 Dip2  47.8391 Len2  0.788006 Len3  1.602018e+00
STAT_GEOG  ExpectLat 9818.983852 Long 738.260467 Depth 1.099637
TRANSFORM  NONE
QML_OriginQuality  assocPhCt 8  usedPhCt 8  assocStaCt -1  usedStaCt 4  depthPhCt -1  stdErr 0.00669224  azGap 245.884  secAzGap 245.884  gtLevel -  minDist 0.259399 maxDist 2.93796 medDist 1.2551
QML_OriginUncertainty  horUnc -1  minHorUnc 0.422873  maxHorUnc 1.18335  azMaxHorUnc 52.3151
QML_ConfidenceEllipsoid  semiMajorAxisLength 1.60202  semiMinorAxisLength 0.354396  semiIntermediateAxisLength 0.788006  majorAxisPlunge 26.6651  majorAxisAzimuth 49.1611  majorAxisRotation 48.4298
FOCALMECH  Hyp  9819.236607 738.540179 1.302557 Mech  0 0 0 mf  0 nObs -1
PHASE ID Ins Cmp On Pha  FM Date     HrMn   Sec     Err  ErrMag    Coda      Amp       Per       PriorWt  >   TTpred    Res       Weight    StaLoc(X  Y         Z)        SDist    SAzim  RAz  RDip RQual    Tcorr       TTerr
M06          ?    BHZ  e P      c 20230120 1912   28.6055 GAU  3.99e-03 -1.00e+00 -1.00e+00 -1.00e+00    1.0000 >    0.7063   -0.0004    1.5368  738.3100 9819.1170   -1.3960    0.2594 242.54 242.5 173.7 10     0.0000    0.0141
M06          ?    BHN  e S      ? 20230120 1912   29.1055 GAU  3.32e-03 -1.00e+00 -1.00e+00 -1.00e+00    1.0000 >    1.2059    0.0000    1.3073  738.3100 9819.1170   -1.3960    0.2594 242.54 242.5 173.5 10     0.0000    0.0241
M14          ?    BHZ  e P      c 20230120 1912   28.6641 GAU  1.38e-02 -1.00e+00  1.94e+02 -1.00e+00    1.0000 >    0.7759   -0.0114    1.2926  737.5530 9820.0110   -1.3980    1.2547 308.11 308.1 152.3 10     0.0000    0.0155
M14          ?    BHN  e S      ? 20230120 1912   29.2357 GAU  4.67e-03 -1.00e+00  3.50e+02 -1.00e+00    1.0000 >    1.3244    0.0117    1.1534  737.5530 9820.0110   -1.3980    1.2547 308.11 308.1 151.2 10     0.0000    0.0265
M11          ?    BHZ  e P      c 20230120 1912   28.6579 GAU  4.78e-03 -1.00e+00 -1.00e+00 -1.00e+00    1.0000 >    0.7544    0.0039    1.4888  738.4670 9820.4900   -1.3120    1.2555 356.66 356.7 151.6 10     0.0000    0.0151
M11          ?    BHN  e S      ? 20230120 1912   29.1793 GAU  6.89e-03 -1.00e+00 -1.00e+00 -1.00e+00    1.0000 >    1.2873   -0.0075    1.2210  738.4670 9820.4900   -1.3120    1.2555 356.66 356.7 150.4 10     0.0000    0.0257
M08          ?    BHZ  e P      c 20230120 1912   29.1651 GAU  2.31e-03 -1.00e+00 -1.00e+00 -1.00e+00    1.0000 >    0.9902    0.2753    0.0000  738.2480 9822.1600   -1.1510    2.9380 354.29 354.3 122.8 10     0.0000    0.0198
M08          ?    BHE  e S      ? 20230120 1912   30.0339 GAU  4.81e-03 -1.00e+00 -1.00e+00 -1.00e+00    1.0000 >    1.6847    0.4496    0.0000  738.2480 9822.1600   -1.1510    2.9380 354.29 354.3 120.3 10     0.0000    0.0337
END_PHASE
END_NLLOC

