NLLOC "./loc/SEML.20230120.191604.grid0" "LOCATED" "Location completed."
PUBLIC_ID None
SIGNATURE "Arham Zakki Edelo - edelo.17034@mhs.its.ac.id   obs:./obs/2023_01.obs   NLLoc:v7.00.10(30Aug2020)   run:28Dec2023 19h50m32"
COMMENT "SEML"
GRID  2001 2001 1001  727 9811 -2  0.01 0.01 0.01 PROB_DENSITY
SEARCH OCTREE nInitial 4851 nEvaluated 20011 smallestNodeSide 0.014881/0.014881/0.014205 oct_tree_integral 3.815799e-02 scatter_volume 3.780058e-02
HYPOCENTER  x 738.853 y 9818.69 z 0.634943  OT 4.33795  ix -1 iy -1 iz -1 MAXIMUM_LIKELIHOOD
GEOGRAPHIC  OT 2023 01 20  19 16 4.337948  Lat 9818.686012 Long 738.852679 Depth 0.634943
QUALITY  Pmax 3.12603e+67 MFmin 72.9711 MFmax 85.1299 RMS 0.027602 Nphs 20 Gap 297.576 Dist 0.693001 Mamp -9.90 0 Mdur -9.90 0
VPVSRATIO  VpVsRatio 1.85174  Npair 10  Diff 0.571186
STATISTICS  ExpectX 738.693451 Y 9818.802620 Z 0.761600  CovXX 0.0635954 XY -0.0339789 XZ -0.0351644 YY 0.0313285 YZ 0.0186579 ZZ 0.0398335 EllAz1  41.0891 Dip1  16.3316 Len1  0.177766 Az2  335.659 Dip2  -54.8275 Len2  0.24954 Len3  6.179180e-01
STAT_GEOG  ExpectLat 9818.802620 Long 738.693451 Depth 0.761600
TRANSFORM  NONE
QML_OriginQuality  assocPhCt 20  usedPhCt 20  assocStaCt -1  usedStaCt 10  depthPhCt -1  stdErr 0.027602  azGap 297.576  secAzGap 297.576  gtLevel -  minDist 0.693001 maxDist 5.10257 medDist 2.43165
QML_OriginUncertainty  horUnc -1  minHorUnc 0.150496  maxHorUnc 0.442353  azMaxHorUnc 122.301
QML_ConfidenceEllipsoid  semiMajorAxisLength 0.617918  semiMinorAxisLength 0.177766  semiIntermediateAxisLength 0.24954  majorAxisPlunge -30.1816  majorAxisAzimuth 121.277  majorAxisRotation 145.175
FOCALMECH  Hyp  9818.686012 738.852679 0.634943 Mech  0 0 0 mf  0 nObs -1
PHASE ID Ins Cmp On Pha  FM Date     HrMn   Sec     Err  ErrMag    Coda      Amp       Per       PriorWt  >   TTpred    Res       Weight    StaLoc(X  Y         Z)        SDist    SAzim  RAz  RDip RQual    Tcorr       TTerr
M06          ?    BHZ  i P      c 20230120 1916    5.0000 GAU  2.88e-03 -1.00e+00 -1.00e+00 -1.00e+00    1.0000 >    0.5692    0.0929    0.0902  738.3100 9819.1170   -1.3960    0.6930 308.46 308.5 160.5 10     0.0000    0.0114
M06          ?    BHN  e S      ? 20230120 1916    5.4695 GAU  3.32e-03 -1.00e+00 -1.00e+00 -1.00e+00    1.0000 >    0.9871    0.1445    0.0248  738.3100 9819.1170   -1.3960    0.6930 308.46 308.5 158.8 10     0.0000    0.0197
M04          ?    BHZ  e P      c 20230120 1916    5.1000 GAU  5.98e-03 -1.00e+00 -1.00e+00 -1.00e+00    1.0000 >    0.7573    0.0047    1.3965  737.1400 9819.2520   -1.5710    1.8038 288.29 288.3 139.0 10     0.0000    0.0151
M04          ?    BHN  e S      ? 20230120 1916    5.6100 GAU  3.56e-03 -1.00e+00  7.38e+02 -1.00e+00    1.0000 >    1.3127   -0.0407    1.0941  737.1400 9819.2520   -1.5710    1.8038 288.29 288.3 134.9 10     0.0000    0.0263
M11          ?    BHZ  e P      c 20230120 1916    5.0633 GAU  5.77e-03 -1.00e+00  1.32e+02 -1.00e+00    1.0000 >    0.7096    0.0158    1.2086  738.4670 9820.4900   -1.3120    1.8448 347.93 347.9 134.9 10     0.0000    0.0142
M11          ?    BHN  e S      ? 20230120 1916    5.5842 GAU  3.99e-03 -1.00e+00 -1.00e+00 -1.00e+00    1.0000 >    1.2305    0.0157    1.1652  738.4670 9820.4900   -1.3120    1.8448 347.93 347.9 130.0 10     0.0000    0.0246
M14          ?    BHZ  i P      c 20230120 1916    5.0305 GAU  1.89e-02 -1.00e+00 -1.00e+00 -1.00e+00    1.0000 >    0.7294   -0.0369    1.1661  737.5530 9820.0110   -1.3980    1.8560 315.55 315.6 135.9 10     0.0000    0.0146
M14          ?    BHE  e S      ? 20230120 1916    5.5747 GAU  8.30e-03 -1.00e+00  2.88e+02 -1.00e+00    1.0000 >    1.2648   -0.0280    1.2671  737.5530 9820.0110   -1.3980    1.8560 315.55 315.6 131.3 10     0.0000    0.0253
M02          ?    BHZ  e P      d 20230120 1916    5.1934 GAU  1.30e-03 -1.00e+00  5.06e+02 -1.00e+00    1.0000 >    0.8454    0.0101    1.3151  736.5970 9819.4060   -1.4960    2.3678 287.70 287.7 129.6 10     0.0000    0.0169
M02          ?    BHN  i S      ? 20230120 1916    5.8176 GAU  4.29e-03 -1.00e+00  2.58e+03 -1.00e+00    1.0000 >    1.4651    0.0145    1.1469  736.5970 9819.4060   -1.4960    2.3678 287.70 287.7 123.7 10     0.0000    0.0293
M09          ?    BHZ  i P      c 20230120 1916    5.1407 GAU  3.84e-03 -1.00e+00  8.23e+01 -1.00e+00    1.0000 >    0.8298   -0.0271    1.3385  737.8820 9820.9850   -1.2700    2.4955 337.11 337.1 124.8 10     0.0000    0.0166
M09          ?    BHE  e S      ? 20230120 1916    5.7537 GAU  3.46e-03 -1.00e+00  3.21e+02 -1.00e+00    1.0000 >    1.4385   -0.0227    1.2891  737.8820 9820.9850   -1.2700    2.4955 337.11 337.1 117.8 10     0.0000    0.0288
M13          ?    BHZ  i P      c 20230120 1916    5.2687 GAU  1.20e-02 -1.00e+00 -1.00e+00 -1.00e+00    1.0000 >    1.0019   -0.0711    0.5145  737.1780 9821.5410   -1.2220    3.3099 329.60 329.6 116.1 10     0.0000    0.0200
M13          ?    BHE  e S      ? 20230120 1916    5.9239 GAU  2.77e-03 -1.00e+00 -1.00e+00 -1.00e+00    1.0000 >    1.7350   -0.1490    0.0353  737.1780 9821.5410   -1.2220    3.3099 329.60 329.6 105.9 10     0.0000    0.0347
M08          ?    BHZ  i P      d 20230120 1916    5.3477 GAU  8.27e-03 -1.00e+00  4.39e+02 -1.00e+00    1.0000 >    1.0418   -0.0320    1.2493  738.2480 9822.1600   -1.1510    3.5262 350.13 350.1 113.6 10     0.0000    0.0208
M08          ?    BHE  e S      ? 20230120 1916    6.1461 GAU  3.32e-03 -1.00e+00 -1.00e+00 -1.00e+00    1.0000 >    1.8028    0.0053    1.1709  738.2480 9822.1600   -1.1510    3.5262 350.13 350.1 102.3 10     0.0000    0.0361
M05          ?    BHZ  i P      d 20230120 1916    5.5330 GAU  5.47e-03 -1.00e+00  3.42e+02 -1.00e+00    1.0000 >    1.2190   -0.0239    1.3247  736.2660 9822.0830   -1.1500    4.2697 322.71 322.7 108.9 10     0.0000    0.0244
M05          ?    BHE  e S      ? 20230120 1916    6.4621 GAU  3.34e-03 -1.00e+00 -1.00e+00 -1.00e+00    1.0000 >    2.1034    0.0208    0.9842  736.2660 9822.0830   -1.1500    4.2697 322.71 322.7  96.8  9     0.0000    0.0421
M12          ?    BHZ  i P      d 20230120 1916    5.7297 GAU  6.95e-03 -1.00e+00 -1.00e+00 -1.00e+00    1.0000 >    1.4042   -0.0125    1.3346  736.8520 9823.3800   -0.9890    5.1026 336.92 336.9 103.6 10     0.0000    0.0281
M12          ?    BHE  e S      ? 20230120 1916    6.7704 GAU  1.40e-02 -1.00e+00  7.00e+00 -1.00e+00    1.0000 >    2.4052    0.0273    0.8845  736.8520 9823.3800   -0.9890    5.1026 336.92 336.9  93.8  9     0.0000    0.0481
END_PHASE
END_NLLOC

