NLLOC "./loc/SEML.20230120.191654.grid0" "LOCATED" "Location completed."
PUBLIC_ID None
SIGNATURE "Arham Zakki Edelo - edelo.17034@mhs.its.ac.id   obs:./obs/2023_01.obs   NLLoc:v7.00.10(30Aug2020)   run:28Dec2023 19h50m33"
COMMENT "SEML"
GRID  2001 2001 1001  727 9811 -2  0.01 0.01 0.01 PROB_DENSITY
SEARCH OCTREE nInitial 4851 nEvaluated 20003 smallestNodeSide 0.014881/0.014881/0.014205 oct_tree_integral 1.992963e-02 scatter_volume 1.992963e-02
HYPOCENTER  x 738.436 y 9818.67 z 0.87642  OT 54.1296  ix -1 iy -1 iz -1 MAXIMUM_LIKELIHOOD
GEOGRAPHIC  OT 2023 01 20  19 16 54.129644  Lat 9818.671131 Long 738.436012 Depth 0.876420
QUALITY  Pmax 6.91395e+94 MFmin 92.552 MFmax 107.091 RMS 0.0267843 Nphs 26 Gap 283.238 Dist 0.463334 Mamp -9.90 0 Mdur -9.90 0
VPVSRATIO  VpVsRatio 1.7534  Npair 13  Diff 0.500298
STATISTICS  ExpectX 738.446798 Y 9818.670237 Z 0.884997  CovXX 0.0173248 XY 0.000119699 XZ -0.000602643 YY 0.0101519 YZ -0.000950723 ZZ 0.0135888 EllAz1  0.280886 Dip1  14.5189 Len1  0.187 Az2  325.847 Dip2  -72.5684 Len2  0.220149 Len3  2.480458e-01
STAT_GEOG  ExpectLat 9818.670237 Long 738.446798 Depth 0.884997
TRANSFORM  NONE
QML_OriginQuality  assocPhCt 26  usedPhCt 26  assocStaCt -1  usedStaCt 13  depthPhCt -1  stdErr 0.0267843  azGap 283.238  secAzGap 283.238  gtLevel -  minDist 0.463334 maxDist 4.96815 medDist 3.13349
QML_OriginUncertainty  horUnc -1  minHorUnc 0.15279  maxHorUnc 0.199629  azMaxHorUnc 89.0442
QML_ConfidenceEllipsoid  semiMajorAxisLength 0.248046  semiMinorAxisLength 0.187  semiIntermediateAxisLength 0.220149  majorAxisPlunge -9.4381  majorAxisAzimuth 87.8136  majorAxisRotation 164.48
FOCALMECH  Hyp  9818.671131 738.436012 0.876420 Mech  0 0 0 mf  0 nObs -1
PHASE ID Ins Cmp On Pha  FM Date     HrMn   Sec     Err  ErrMag    Coda      Amp       Per       PriorWt  >   TTpred    Res       Weight    StaLoc(X  Y         Z)        SDist    SAzim  RAz  RDip RQual    Tcorr       TTerr
M06          ?    BHZ  i P      c 20230120 1916   54.7976 GAU  1.60e-03 -1.00e+00  4.75e+02 -1.00e+00    1.0000 >    0.6127    0.0552    0.6160  738.3100 9819.1170   -1.3960    0.4633 344.22 344.2 168.0 10     0.0000    0.0123
M06          ?    BHN  e S      ? 20230120 1916   55.2700 GAU  3.32e-03 -1.00e+00 -1.00e+00 -1.00e+00    1.0000 >    1.0544    0.0860    0.3496  738.3100 9819.1170   -1.3960    0.4633 344.22 344.2 167.1 10     0.0000    0.0211
M04          ?    BHZ  i P      d 20230120 1916   54.8826 GAU  2.39e-03 -1.00e+00 -1.00e+00 -1.00e+00    1.0000 >    0.7495    0.0034    1.5035  737.1400 9819.2520   -1.5710    1.4202 294.14 294.1 148.8 10     0.0000    0.0150
M04          ?    BHE  e S      ? 20230120 1916   55.3813 GAU  1.69e-02 -1.00e+00  2.16e+02 -1.00e+00    1.0000 >    1.2897   -0.0381    0.8169  737.1400 9819.2520   -1.5710    1.4202 294.14 294.1 146.3 10     0.0000    0.0258
M14          ?    BHZ  i P      c 20230120 1916   54.8722 GAU  4.15e-03 -1.00e+00 -1.00e+00 -1.00e+00    1.0000 >    0.7351    0.0074    1.4664  737.5530 9820.0110   -1.3980    1.6047 326.61 326.6 143.7 10     0.0000    0.0147
M14          ?    BHE  e S      ? 20230120 1916   55.3894 GAU  4.67e-03 -1.00e+00  8.03e+02 -1.00e+00    1.0000 >    1.2645   -0.0047    1.3183  737.5530 9820.0110   -1.3980    1.6047 326.61 326.6 140.6 10     0.0000    0.0253
M11          ?    BHZ  i P      c 20230120 1916   54.8764 GAU  2.31e-03 -1.00e+00 -1.00e+00 -1.00e+00    1.0000 >    0.7502   -0.0035    1.5089  738.4670 9820.4900   -1.3120    1.8191   0.98   1.0 139.0 10     0.0000    0.0150
M11          ?    BHN  e S      ? 20230120 1916   55.4335 GAU  5.98e-03 -1.00e+00 -1.00e+00 -1.00e+00    1.0000 >    1.2901    0.0137    1.2702  738.4670 9820.4900   -1.3120    1.8191   0.98   1.0 135.4 10     0.0000    0.0258
M09          ?    BHZ  i P      c 20230120 1916   54.9515 GAU  2.31e-03 -1.00e+00  1.09e+01 -1.00e+00    1.0000 >    0.8438   -0.0220    1.1874  737.8820 9820.9850   -1.2700    2.3793 346.54 346.5 130.1 10     0.0000    0.0169
M09          ?    BHE  e S      ? 20230120 1916   55.5705 GAU  4.78e-03 -1.00e+00  2.91e+02 -1.00e+00    1.0000 >    1.4500   -0.0092    1.2290  737.8820 9820.9850   -1.2700    2.3793 346.54 346.5 125.4 10     0.0000    0.0290
M03          ?    BHZ  i P      d 20230120 1916   55.0480 GAU  1.03e-02 -1.00e+00 -1.00e+00 -1.00e+00    1.0000 >    0.9162    0.0021    1.4137  736.8800 9820.8540   -1.3350    2.6807 324.52 324.5 127.4 10     0.0000    0.0183
M03          ?    BHN  e S      ? 20230120 1916   55.7383 GAU  3.99e-03 -1.00e+00 -1.00e+00 -1.00e+00    1.0000 >    1.5742    0.0344    1.0176  736.8800 9820.8540   -1.3350    2.6807 324.52 324.5 122.1 10     0.0000    0.0315
M13          ?    BHZ  i P      c 20230120 1916   55.0919 GAU  2.31e-03 -1.00e+00 -1.00e+00 -1.00e+00    1.0000 >    0.9921   -0.0298    0.9908  737.1780 9821.5410   -1.2220    3.1335 336.33 336.3 121.4 10     0.0000    0.0198
M13          ?    BHE  e S      ? 20230120 1916   55.8037 GAU  3.99e-03 -1.00e+00 -1.00e+00 -1.00e+00    1.0000 >    1.7025   -0.0285    0.9534  737.1780 9821.5410   -1.2220    3.1335 336.33 336.3 115.0 10     0.0000    0.0341
M10          ?    BHZ  i P      c 20230120 1916   55.1553 GAU  5.74e-03 -1.00e+00  3.63e+02 -1.00e+00    1.0000 >    1.0260   -0.0003    1.4104  736.5490 9821.3650   -1.2200    3.2890 324.99 325.0 120.0 10     0.0000    0.0205
M10          ?    BHN  e S      ? 20230120 1916   55.9189 GAU  9.92e-03 -1.00e+00 -1.00e+00 -1.00e+00    1.0000 >    1.7601    0.0291    1.0466  736.5490 9821.3650   -1.2200    3.2890 324.99 325.0 113.3 10     0.0000    0.0352
M08          ?    BHZ  i P      d 20230120 1916   55.1901 GAU  1.66e-03 -1.00e+00  1.02e+02 -1.00e+00    1.0000 >    1.0610   -0.0005    1.4106  738.2480 9822.1600   -1.1510    3.4939 356.92 356.9 117.6 10     0.0000    0.0212
M08          ?    BHN  e S      ? 20230120 1916   56.0107 GAU  9.57e-03 -1.00e+00  2.36e+02 -1.00e+00    1.0000 >    1.8187    0.0624    0.6894  738.2480 9822.1600   -1.1510    3.4939 356.92 356.9 110.5 10     0.0000    0.0364
M05          ?    BHZ  i P      d 20230120 1916   55.3709 GAU  1.04e-02 -1.00e+00  1.62e+02 -1.00e+00    1.0000 >    1.1876    0.0537    0.7501  736.2660 9822.0830   -1.1500    4.0435 327.54 327.5 113.8 10     0.0000    0.0238
M05          ?    BHN  e S      ? 20230120 1916   56.2482 GAU  3.99e-03 -1.00e+00  1.57e+02 -1.00e+00    1.0000 >    2.0326    0.0859    0.4550  736.2660 9822.0830   -1.1500    4.0435 327.54 327.5 105.9 10     0.0000    0.0407
M01          ?    BHZ  i P      c 20230120 1916   55.3859 GAU  8.61e-03 -1.00e+00 -1.00e+00 -1.00e+00    1.0000 >    1.2545    0.0018    1.3199  736.4090 9822.5140   -1.1200    4.3447 332.19 332.2 111.7 10     0.0000    0.0251
M01          ?    BHE  e S      ? 20230120 1916   56.2986 GAU  1.98e-02 -1.00e+00  3.54e+02 -1.00e+00    1.0000 >    2.1443    0.0247    0.9815  736.4090 9822.5140   -1.1200    4.3447 332.19 332.2 103.6 10     0.0000    0.0429
M15          ?    BHZ  i P      d 20230120 1916   55.2690 GAU  3.99e-03 -1.00e+00 -1.00e+00 -1.00e+00    1.0000 >    1.3256   -0.1862    0.0235  739.3310 9823.3170   -0.9530    4.7313  10.90  10.9 108.3 10     0.0000    0.0265
M15          ?    BHE  e S      ? 20230120 1916   56.1323 GAU  5.77e-03 -1.00e+00 -1.00e+00 -1.00e+00    1.0000 >    2.2576   -0.2550    0.0231  739.3310 9823.3170   -0.9530    4.7313  10.90  10.9 100.4 10     0.0000    0.0452
M12          ?    BHZ  i P      d 20230120 1916   55.5129 GAU  8.27e-03 -1.00e+00 -1.00e+00 -1.00e+00    1.0000 >    1.3878   -0.0045    1.2640  736.8520 9823.3800   -0.9890    4.9682 341.41 341.4 107.6 10     0.0000    0.0278
M12          ?    BHN  e S      ? 20230120 1916   56.4856 GAU  1.15e-02 -1.00e+00 -1.00e+00 -1.00e+00    1.0000 >    2.3622   -0.0062    0.9839  736.8520 9823.3800   -0.9890    4.9682 341.41 341.4  99.6 10     0.0000    0.0472
END_PHASE
END_NLLOC

