NLLOC "./loc/SEML.20230103.035206.grid0" "LOCATED" "Location completed."
PUBLIC_ID None
SIGNATURE "Arham Zakki Edelo - edelo.17034@mhs.its.ac.id   obs:./obs/2023_01.obs   NLLoc:v7.00.10(30Aug2020)   run:28Dec2023 19h50m10"
COMMENT "SEML"
GRID  2001 2001 1001  727 9811 -2  0.01 0.01 0.01 PROB_DENSITY
SEARCH OCTREE nInitial 4851 nEvaluated 20011 smallestNodeSide 0.029762/0.029762/0.028409 oct_tree_integral 2.118583e-01 scatter_volume 2.105798e-01
HYPOCENTER  x 739.574 y 9818.78 z 1.65057  OT 5.73181  ix -1 iy -1 iz -1 MAXIMUM_LIKELIHOOD
GEOGRAPHIC  OT 2023 01 03  03 52 5.731807  Lat 9818.782738 Long 739.574405 Depth 1.650568
QUALITY  Pmax 2.30631e+28 MFmin 31.1425 MFmax 36.7302 RMS 0.0226325 Nphs 10 Gap 317.777 Dist 1.30784 Mamp -9.90 0 Mdur -9.90 0
VPVSRATIO  VpVsRatio 1.66846  Npair 5  Diff 0.412468
STATISTICS  ExpectX 739.681569 Y 9818.931314 Z 1.528578  CovXX 0.230765 XY 0.209002 XZ -0.0403779 YY 0.310956 YZ -0.122255 ZZ 0.211533 EllAz1  314.872 Dip1  18.7848 Len1  0.385394 Az2  263.191 Dip2  -61.2527 Len2  0.800631 Len3  1.367278e+00
STAT_GEOG  ExpectLat 9818.931314 Long 739.681569 Depth 1.528578
TRANSFORM  NONE
QML_OriginQuality  assocPhCt 10  usedPhCt 10  assocStaCt -1  usedStaCt 5  depthPhCt -1  stdErr 0.0226325  azGap 317.777  secAzGap 317.777  gtLevel -  minDist 1.30784 maxDist 4.67304 medDist 2.77744
QML_OriginUncertainty  horUnc -1  minHorUnc 0.365387  maxHorUnc 1.05473  azMaxHorUnc 39.57
QML_ConfidenceEllipsoid  semiMajorAxisLength 1.36728  semiMinorAxisLength 0.385394  semiIntermediateAxisLength 0.800631  majorAxisPlunge -20.9305  majorAxisAzimuth 37.3967  majorAxisRotation 153.75
FOCALMECH  Hyp  9818.782738 739.574405 1.650568 Mech  0 0 0 mf  0 nObs -1
PHASE ID Ins Cmp On Pha  FM Date     HrMn   Sec     Err  ErrMag    Coda      Amp       Per       PriorWt  >   TTpred    Res       Weight    StaLoc(X  Y         Z)        SDist    SAzim  RAz  RDip RQual    Tcorr       TTerr
M06          ?    BHZ  i P      c 20230103 0352    6.5966 GAU  2.77e-03 -1.00e+00 -1.00e+00 -1.00e+00    1.0000 >    0.8534    0.0114    1.1873  738.3100 9819.1170   -1.3960    1.3078 284.81 284.8 153.9 10     0.0000    0.0171
M06          ?    BHN  e S      ? 20230103 0352    7.1604 GAU  7.96e-03 -1.00e+00 -1.00e+00 -1.00e+00    1.0000 >    1.4508   -0.0222    1.1066  738.3100 9819.1170   -1.3960    1.3078 284.81 284.8 153.0 10     0.0000    0.0290
M11          ?    BHZ  e P      c 20230103 0352    6.6481 GAU  1.49e-02 -1.00e+00 -1.00e+00 -1.00e+00    1.0000 >    0.9228   -0.0064    1.2537  738.4670 9820.4900   -1.3120    2.0350 327.03 327.0 141.2 10     0.0000    0.0185
M11          ?    BHN  e S      ? 20230103 0352    7.3334 GAU  6.99e-03 -1.00e+00 -1.00e+00 -1.00e+00    1.0000 >    1.5672    0.0344    0.8290  738.4670 9820.4900   -1.3120    2.0350 327.03 327.0 139.8 10     0.0000    0.0313
M09          ?    BHZ  e P      c 20230103 0352    6.7359 GAU  1.15e-02 -1.00e+00  1.48e+02 -1.00e+00    1.0000 >    1.0327   -0.0286    1.0584  737.8820 9820.9850   -1.2700    2.7774 322.46 322.5 130.3 10     0.0000    0.0207
M09          ?    BHE  e S      ? 20230103 0352    7.4137 GAU  1.24e-02 -1.00e+00  3.55e+02 -1.00e+00    1.0000 >    1.7521   -0.0703    0.4907  737.8820 9820.9850   -1.2700    2.7774 322.46 322.5 128.5 10     0.0000    0.0350
M13          ?    BHZ  e P      c 20230103 0352    6.9105 GAU  2.07e-02 -1.00e+00 -1.00e+00 -1.00e+00    1.0000 >    1.1883   -0.0096    1.1676  737.1780 9821.5410   -1.2220    3.6539 319.02 319.0 119.8 10     0.0000    0.0238
M13          ?    BHN  e S      ? 20230103 0352    7.7600 GAU  1.44e-02 -1.00e+00 -1.00e+00 -1.00e+00    1.0000 >    2.0124    0.0158    0.9719  737.1780 9821.5410   -1.2220    3.6539 319.02 319.0 117.7 10     0.0000    0.0402
M05          ?    BHZ  e P      c 20230103 0352    7.1166 GAU  3.43e-02 -1.00e+00 -1.00e+00 -1.00e+00    1.0000 >    1.3879   -0.0031    1.0250  736.2660 9822.0830   -1.1500    4.6730 314.93 314.9 110.2 10     0.0000    0.0278
M05          ?    BHN  e S      ? 20230103 0352    8.0929 GAU  1.42e-02 -1.00e+00  2.77e+02 -1.00e+00    1.0000 >    2.3442    0.0169    0.9098  736.2660 9822.0830   -1.1500    4.6730 314.93 314.9 107.9 10     0.0000    0.0469
END_PHASE
END_NLLOC

