NLLOC "./loc/SEML.20230120.193150.grid0" "LOCATED" "Location completed."
PUBLIC_ID None
SIGNATURE "Arham Zakki Edelo - edelo.17034@mhs.its.ac.id   obs:./obs/2023_01.obs   NLLoc:v7.00.10(30Aug2020)   run:28Dec2023 19h50m52"
COMMENT "SEML"
GRID  2001 2001 1001  727 9811 -2  0.01 0.01 0.01 PROB_DENSITY
SEARCH OCTREE nInitial 4851 nEvaluated 20027 smallestNodeSide 0.014881/0.014881/0.014205 oct_tree_integral 7.439532e-02 scatter_volume 7.439532e-02
HYPOCENTER  x 738.644 y 9817.84 z 0.691761  OT 49.6916  ix -1 iy -1 iz -1 MAXIMUM_LIKELIHOOD
GEOGRAPHIC  OT 2023 01 20  19 31 49.691598  Lat 9817.837798 Long 738.644345 Depth 0.691761
QUALITY  Pmax 1.66782e+65 MFmin 67.6835 MFmax 81.6177 RMS 0.0346655 Nphs 20 Gap 306.088 Dist 1.32217 Mamp -9.90 0 Mdur -9.90 0
VPVSRATIO  VpVsRatio 1.69506  Npair 10  Diff 0.587231
STATISTICS  ExpectX 738.705259 Y 9817.876075 Z 0.827368  CovXX 0.0867071 XY 0.00350161 XZ 0.0187043 YY 0.0306016 YZ -0.00205928 ZZ 0.0697341 EllAz1  174.655 Dip1  -5.46278 Len1  0.325836 Az2  256.257 Dip2  56.7827 Len2  0.453095 Len3  5.905904e-01
STAT_GEOG  ExpectLat 9817.876075 Long 738.705259 Depth 0.827368
TRANSFORM  NONE
QML_OriginQuality  assocPhCt 20  usedPhCt 20  assocStaCt -1  usedStaCt 10  depthPhCt -1  stdErr 0.0346655  azGap 306.088  secAzGap 306.088  gtLevel -  minDist 1.32217 maxDist 5.82482 medDist 3.61058
QML_OriginUncertainty  horUnc -1  minHorUnc 0.264354  maxHorUnc 0.447132  azMaxHorUnc 86.4425
QML_ConfidenceEllipsoid  semiMajorAxisLength 0.59059  semiMinorAxisLength 0.325836  semiIntermediateAxisLength 0.453095  majorAxisPlunge 32.6483  majorAxisAzimuth 88.1681  majorAxisRotation 344.769
FOCALMECH  Hyp  9817.837798 738.644345 0.691761 Mech  0 0 0 mf  0 nObs -1
PHASE ID Ins Cmp On Pha  FM Date     HrMn   Sec     Err  ErrMag    Coda      Amp       Per       PriorWt  >   TTpred    Res       Weight    StaLoc(X  Y         Z)        SDist    SAzim  RAz  RDip RQual    Tcorr       TTerr
M06          ?    BHZ  i P      c 20230120 1931   50.4828 GAU  1.67e-03 -1.00e+00 -1.00e+00 -1.00e+00    1.0000 >    0.6546    0.1367    0.0599  738.3100 9819.1170   -1.3960    1.3222 345.35 345.4 146.5 10     0.0000    0.0131
M06          ?    BHN  e S      ? 20230120 1931   51.0068 GAU  3.29e-03 -1.00e+00 -1.00e+00 -1.00e+00    1.0000 >    1.1328    0.1824    0.0460  738.3100 9819.1170   -1.3960    1.3222 345.35 345.4 143.5 10     0.0000    0.0227
M04          ?    BHZ  e P      c 20230120 1931   50.5192 GAU  2.88e-03 -1.00e+00 -1.00e+00 -1.00e+00    1.0000 >    0.8132    0.0144    1.4114  737.1400 9819.2520   -1.5710    2.0647 313.23 313.2 135.8 10     0.0000    0.0163
M04          ?    BHN  e S      ? 20230120 1931   51.0832 GAU  5.77e-03 -1.00e+00  7.25e+02 -1.00e+00    1.0000 >    1.4067   -0.0151    1.4541  737.1400 9819.2520   -1.5710    2.0647 313.23 313.2 131.3 10     0.0000    0.0281
M14          ?    BHZ  i P      d 20230120 1931   50.5126 GAU  6.92e-03 -1.00e+00  7.31e+02 -1.00e+00    1.0000 >    0.8487   -0.0277    1.3764  737.5530 9820.0110   -1.3980    2.4318 333.33 333.3 128.3 10     0.0000    0.0170
M14          ?    BHE  e S      ? 20230120 1931   51.0896 GAU  4.15e-03 -1.00e+00  5.39e+02 -1.00e+00    1.0000 >    1.4678   -0.0699    0.7593  737.5530 9820.0110   -1.3980    2.4318 333.33 333.3 122.4 10     0.0000    0.0294
M11          ?    BHZ  i P      c 20230120 1931   50.5729 GAU  2.36e-03 -1.00e+00 -1.00e+00 -1.00e+00    1.0000 >    0.8797    0.0016    1.5810  738.4670 9820.4900   -1.3120    2.6581 356.17 356.2 124.5 10     0.0000    0.0176
M11          ?    BHN  e S      ? 20230120 1931   51.2239 GAU  2.68e-03 -1.00e+00 -1.00e+00 -1.00e+00    1.0000 >    1.5211    0.0112    1.3344  738.4670 9820.4900   -1.3120    2.6581 356.17 356.2 117.7 10     0.0000    0.0304
M09          ?    BHZ  i P      c 20230120 1931   50.6877 GAU  4.98e-03 -1.00e+00  1.37e+02 -1.00e+00    1.0000 >    0.9996   -0.0035    1.5743  737.8820 9820.9850   -1.2700    3.2382 346.38 346.4 118.2 10     0.0000    0.0200
M09          ?    BHN  e S      ? 20230120 1931   51.4457 GAU  3.32e-03 -1.00e+00  4.54e+02 -1.00e+00    1.0000 >    1.7269    0.0272    1.0792  737.8820 9820.9850   -1.2700    3.2382 346.38 346.4 109.6 10     0.0000    0.0345
M13          ?    BHZ  i P      c 20230120 1931   50.7978 GAU  3.39e-03 -1.00e+00 -1.00e+00 -1.00e+00    1.0000 >    1.1650   -0.0588    0.8711  737.1780 9821.5410   -1.2220    3.9829 338.40 338.4 112.2 10     0.0000    0.0233
M13          ?    BHN  e S      ? 20230120 1931   51.6211 GAU  3.84e-03 -1.00e+00 -1.00e+00 -1.00e+00    1.0000 >    2.0086   -0.0792    0.7142  737.1780 9821.5410   -1.2220    3.9829 338.40 338.4 101.6 10     0.0000    0.0402
M08          ?    BHZ  i P      d 20230120 1931   50.9054 GAU  8.61e-03 -1.00e+00  2.64e+02 -1.00e+00    1.0000 >    1.2410   -0.0271    1.3752  738.2480 9822.1600   -1.1510    4.3403 354.76 354.8 109.4 10     0.0000    0.0248
M08          ?    BHN  e S      ? 20230120 1931   51.8330 GAU  3.46e-03 -1.00e+00  2.72e+02 -1.00e+00    1.0000 >    2.1354    0.0059    1.2247  738.2480 9822.1600   -1.1510    4.3403 354.76 354.8  98.6 10     0.0000    0.0427
M05          ?    BHZ  i P      d 20230120 1931   51.0769 GAU  2.17e-03 -1.00e+00  1.07e+02 -1.00e+00    1.0000 >    1.3687    0.0166    1.2952  736.2660 9822.0830   -1.1500    4.8660 330.74 330.7 106.8 10     0.0000    0.0274
M05          ?    BHN  e S      ? 20230120 1931   52.0720 GAU  3.85e-03 -1.00e+00  2.47e+02 -1.00e+00    1.0000 >    2.3489    0.0315    0.9662  736.2660 9822.0830   -1.1500    4.8660 330.74 330.7  96.5 10     0.0000    0.0470
M15          ?    BHZ  i P      d 20230120 1931   51.0761 GAU  5.74e-03 -1.00e+00  8.10e+01 -1.00e+00    1.0000 >    1.5079   -0.1234    0.2546  739.3310 9823.3170   -0.9530    5.5221   7.14   7.1 102.7 10     0.0000    0.0302
M15          ?    BHE  e S      ? 20230120 1931   52.0670 GAU  4.40e-03 -1.00e+00 -1.00e+00 -1.00e+00    1.0000 >    2.5697   -0.1943    0.0860  739.3310 9823.3170   -0.9530    5.5221   7.14   7.1  94.3  9     0.0000    0.0514
M12          ?    BHZ  i P      d 20230120 1931   51.2624 GAU  1.94e-03 -1.00e+00 -1.00e+00 -1.00e+00    1.0000 >    1.5876   -0.0169    1.4075  736.8520 9823.3800   -0.9890    5.8248 342.08 342.1 102.0 10     0.0000    0.0318
M12          ?    BHE  e S      ? 20230120 1931   52.3735 GAU  4.73e-03 -1.00e+00 -1.00e+00 -1.00e+00    1.0000 >    2.7022   -0.0202    1.1293  736.8520 9823.3800   -0.9890    5.8248 342.08 342.1  94.0  9     0.0000    0.0540
END_PHASE
END_NLLOC

