NLLOC "./loc/SEML.20230120.192500.grid0" "LOCATED" "Location completed."
PUBLIC_ID None
SIGNATURE "Arham Zakki Edelo - edelo.17034@mhs.its.ac.id   obs:./obs/2023_01.obs   NLLoc:v7.00.10(30Aug2020)   run:28Dec2023 19h50m44"
COMMENT "SEML"
GRID  2001 2001 1001  727 9811 -2  0.01 0.01 0.01 PROB_DENSITY
SEARCH OCTREE nInitial 4851 nEvaluated 20011 smallestNodeSide 0.029762/0.029762/0.028409 oct_tree_integral 3.274023e-01 scatter_volume 3.254546e-01
HYPOCENTER  x 742.283 y 9819.53 z -1.44602  OT 59.6931  ix -1 iy -1 iz -1 MAXIMUM_LIKELIHOOD
GEOGRAPHIC  OT 2023 01 20  19 24 59.693129  Lat 9819.526786 Long 742.282738 Depth -1.446023
QUALITY  Pmax 4.0607e+20 MFmin 24.1368 MFmax 28.5461 RMS 0.027066 Nphs 8 Gap 332.578 Dist 3.93543 Mamp -9.90 0 Mdur -9.90 0
VPVSRATIO  VpVsRatio 1.82629  Npair 4  Diff 0.375991
STATISTICS  ExpectX 742.130169 Y 9819.331559 Z -0.937095  CovXX 0.104736 XY 0.0959551 XZ -0.14185 YY 0.172577 YZ -0.188636 ZZ 0.697999 EllAz1  304.084 Dip1  -1.01961 Len1  0.360222 Az2  213.653 Dip2  -22.9172 Len2  0.704629 Len3  1.678270e+00
STAT_GEOG  ExpectLat 9819.331559 Long 742.130169 Depth -0.937095
TRANSFORM  NONE
QML_OriginQuality  assocPhCt 8  usedPhCt 8  assocStaCt -1  usedStaCt 4  depthPhCt -1  stdErr 0.027066  azGap 332.578  secAzGap 332.578  gtLevel -  minDist 3.93543 maxDist 5.48775 medDist 4.31493
QML_OriginUncertainty  horUnc -1  minHorUnc 0.291254  maxHorUnc 0.743633  azMaxHorUnc 35.2656
QML_ConfidenceEllipsoid  semiMajorAxisLength 1.67827  semiMinorAxisLength 0.360222  semiIntermediateAxisLength 0.704629  majorAxisPlunge -67.0575  majorAxisAzimuth 36.494  majorAxisRotation 176.244
FOCALMECH  Hyp  9819.526786 742.282738 -1.446023 Mech  0 0 0 mf  0 nObs -1
PHASE ID Ins Cmp On Pha  FM Date     HrMn   Sec     Err  ErrMag    Coda      Amp       Per       PriorWt  >   TTpred    Res       Weight    StaLoc(X  Y         Z)        SDist    SAzim  RAz  RDip RQual    Tcorr       TTerr
M11          ?    BHZ  e P      d 20230120 1925    0.7555 GAU  2.87e-03 -1.00e+00 -1.00e+00 -1.00e+00    1.0000 >    1.0819   -0.0196    1.0698  738.4670 9820.4900   -1.3120    3.9354 284.17 284.2  87.9  9     0.0000    0.0216
M11          ?    BHN  e S      ? 20230120 1925    1.5150 GAU  5.54e-03 -1.00e+00 -1.00e+00 -1.00e+00    1.0000 >    1.8664   -0.0445    0.7100  738.4670 9820.4900   -1.3120    3.9354 284.17 284.2  87.9  9     0.0000    0.0373
M06          ?    BHZ  i P      c 20230120 1925    0.7971 GAU  1.11e-03 -1.00e+00 -1.00e+00 -1.00e+00    1.0000 >    1.0973    0.0066    1.2516  738.3100 9819.1170   -1.3960    3.9938 264.11 264.1  89.1  9     0.0000    0.0219
M06          ?    BHE  e S      ? 20230120 1925    1.5998 GAU  6.92e-03 -1.00e+00 -1.00e+00 -1.00e+00    1.0000 >    1.8930    0.0137    1.1322  738.3100 9819.1170   -1.3960    3.9938 264.11 264.1  89.1  9     0.0000    0.0379
M09          ?    BHZ  i P      c 20230120 1925    1.0212 GAU  1.60e-03 -1.00e+00  7.01e+01 -1.00e+00    1.0000 >    1.2747    0.0533    0.7416  737.8820 9820.9850   -1.2700    4.6360 288.33 288.3  87.6  9     0.0000    0.0255
M09          ?    BHN  e S      ? 20230120 1925    1.9200 GAU  1.38e-02 -1.00e+00  4.83e+02 -1.00e+00    1.0000 >    2.1990    0.0279    1.0060  737.8820 9820.9850   -1.2700    4.6360 288.33 288.3  87.6  9     0.0000    0.0440
M13          ?    BHZ  e P      d 20230120 1925    1.2015 GAU  4.15e-03 -1.00e+00 -1.00e+00 -1.00e+00    1.0000 >    1.5090   -0.0007    1.2040  737.1780 9821.5410   -1.2220    5.4878 291.53 291.5  87.5 10     0.0000    0.0302
M13          ?    BHE  e S      ? 20230120 1925    2.3370 GAU  1.91e-03 -1.00e+00 -1.00e+00 -1.00e+00    1.0000 >    2.6033    0.0406    0.8847  737.1780 9821.5410   -1.2220    5.4878 291.53 291.5  87.5 10     0.0000    0.0521
END_PHASE
END_NLLOC

