NLLOC "./loc/SEML.20230120.193335.grid0" "LOCATED" "Location completed."
PUBLIC_ID None
SIGNATURE "Arham Zakki Edelo - edelo.17034@mhs.its.ac.id   obs:./obs/2023_01.obs   NLLoc:v7.00.10(30Aug2020)   run:28Dec2023 19h50m55"
COMMENT "SEML"
GRID  2001 2001 1001  727 9811 -2  0.01 0.01 0.01 PROB_DENSITY
SEARCH OCTREE nInitial 4851 nEvaluated 20011 smallestNodeSide 0.029762/0.029762/0.028409 oct_tree_integral 1.622079e-01 scatter_volume 1.614448e-01
HYPOCENTER  x 736.747 y 9817.92 z 0.428977  OT 34.552  ix -1 iy -1 iz -1 MAXIMUM_LIKELIHOOD
GEOGRAPHIC  OT 2023 01 20  19 33 34.551982  Lat 9817.919643 Long 736.747024 Depth 0.428977
QUALITY  Pmax 1.28995e+28 MFmin 36.0464 MFmax 44.3855 RMS 0.0226969 Nphs 10 Gap 314.242 Dist 1.9689 Mamp -9.90 0 Mdur -9.90 0
VPVSRATIO  VpVsRatio 1.96977  Npair 5  Diff 0.289154
STATISTICS  ExpectX 737.046870 Y 9817.922779 Z 0.499625  CovXX 0.32628 XY 0.0627325 XZ 0.215347 YY 0.0503133 YZ 0.0584714 ZZ 0.253138 EllAz1  176.293 Dip1  11.4786 Len1  0.348223 Az2  279.42 Dip2  48.1986 Len2  0.503231 Len3  1.359578e+00
STAT_GEOG  ExpectLat 9817.922779 Long 737.046870 Depth 0.499625
TRANSFORM  NONE
QML_OriginQuality  assocPhCt 10  usedPhCt 10  assocStaCt -1  usedStaCt 5  depthPhCt -1  stdErr 0.0226969  azGap 314.242  secAzGap 314.242  gtLevel -  minDist 1.9689 maxDist 3.64691 medDist 3.09274
QML_OriginUncertainty  horUnc -1  minHorUnc 0.290622  maxHorUnc 0.88414  azMaxHorUnc 77.7758
QML_ConfidenceEllipsoid  semiMajorAxisLength 1.35958  semiMinorAxisLength 0.348223  semiIntermediateAxisLength 0.503231  majorAxisPlunge 39.5054  majorAxisAzimuth 76.6553  majorAxisRotation 54.4705
FOCALMECH  Hyp  9817.919643 736.747024 0.428977 Mech  0 0 0 mf  0 nObs -1
PHASE ID Ins Cmp On Pha  FM Date     HrMn   Sec     Err  ErrMag    Coda      Amp       Per       PriorWt  >   TTpred    Res       Weight    StaLoc(X  Y         Z)        SDist    SAzim  RAz  RDip RQual    Tcorr       TTerr
M06          ?    BHZ  i P      c 20230120 1933   35.2966 GAU  3.20e-03 -1.00e+00 -1.00e+00 -1.00e+00    1.0000 >    0.7138    0.0308    1.0962  738.3100 9819.1170   -1.3960    1.9689  52.55  52.5 131.0 10     0.0000    0.0143
M06          ?    BHN  e S      ? 20230120 1933   35.8118 GAU  1.60e-03 -1.00e+00 -1.00e+00 -1.00e+00    1.0000 >    1.2452    0.0146    1.2894  738.3100 9819.1170   -1.3960    1.9689  52.55  52.5 130.0 10     0.0000    0.0249
M14          ?    BHZ  e P      c 20230120 1933   35.3111 GAU  7.69e-03 -1.00e+00 -1.00e+00 -1.00e+00    1.0000 >    0.7689   -0.0098    1.2355  737.5530 9820.0110   -1.3980    2.2413  21.08  21.1 127.2 10     0.0000    0.0154
M14          ?    BHN  e S      ? 20230120 1933   35.8829 GAU  2.67e-03 -1.00e+00  3.22e+02 -1.00e+00    1.0000 >    1.3413   -0.0104    1.1830  737.5530 9820.0110   -1.3980    2.2413  21.08  21.1 126.1 10     0.0000    0.0268
M11          ?    BHZ  i P      c 20230120 1933   35.4603 GAU  3.85e-03 -1.00e+00 -1.00e+00 -1.00e+00    1.0000 >    0.9419   -0.0336    0.7288  738.4670 9820.4900   -1.3120    3.0927  33.79  33.8 116.8 10     0.0000    0.0188
M11          ?    BHE  e S      ? 20230120 1933   36.0470 GAU  1.67e-03 -1.00e+00 -1.00e+00 -1.00e+00    1.0000 >    1.6442   -0.1492    0.0036  738.4670 9820.4900   -1.3120    3.0927  33.79  33.8 115.1 10     0.0000    0.0329
M09          ?    BHZ  i P      c 20230120 1933   35.5231 GAU  2.40e-03 -1.00e+00  5.50e+01 -1.00e+00    1.0000 >    0.9768   -0.0057    1.2862  737.8820 9820.9850   -1.2700    3.2687  20.32  20.3 114.8 10     0.0000    0.0195
M09          ?    BHN  e S      ? 20230120 1933   36.2722 GAU  1.92e-03 -1.00e+00  5.00e+02 -1.00e+00    1.0000 >    1.7055    0.0147    1.1689  737.8820 9820.9850   -1.2700    3.2687  20.32  20.3 112.9 10     0.0000    0.0341
M13          ?    BHZ  e P      c 20230120 1933   35.6412 GAU  3.86e-03 -1.00e+00 -1.00e+00 -1.00e+00    1.0000 >    1.0601    0.0292    1.1422  737.1780 9821.5410   -1.2220    3.6469   6.79   6.8 111.6 10     0.0000    0.0212
M13          ?    BHN  e S      ? 20230120 1933   36.4456 GAU  2.44e-03 -1.00e+00 -1.00e+00 -1.00e+00    1.0000 >    1.8514    0.0422    0.8664  737.1780 9821.5410   -1.2220    3.6469   6.79   6.8 109.3 10     0.0000    0.0370
END_PHASE
END_NLLOC

