NLLOC "./loc/SEML.20230120.192119.grid0" "LOCATED" "Location completed."
PUBLIC_ID None
SIGNATURE "Arham Zakki Edelo - edelo.17034@mhs.its.ac.id   obs:./obs/2023_01.obs   NLLoc:v7.00.10(30Aug2020)   run:28Dec2023 19h50m39"
COMMENT "SEML"
GRID  2001 2001 1001  727 9811 -2  0.01 0.01 0.01 PROB_DENSITY
SEARCH OCTREE nInitial 4851 nEvaluated 20011 smallestNodeSide 0.007440/0.007440/0.007102 oct_tree_integral 8.631300e-03 scatter_volume 8.631300e-03
HYPOCENTER  x 737.867 y 9818.71 z 1.15696  OT 18.8176  ix -1 iy -1 iz -1 MAXIMUM_LIKELIHOOD
GEOGRAPHIC  OT 2023 01 20  19 21 18.817602  Lat 9818.712054 Long 737.866815 Depth 1.156960
QUALITY  Pmax 2.12107e+60 MFmin 65.1807 MFmax 76.8212 RMS 0.0275221 Nphs 18 Gap 259.027 Dist 0.600328 Mamp -9.90 0 Mdur -9.90 0
VPVSRATIO  VpVsRatio 1.72133  Npair 9  Diff 0.604599
STATISTICS  ExpectX 737.875123 Y 9818.693870 Z 1.168560  CovXX 0.0122772 XY 0.000114091 XZ -0.000180258 YY 0.00616537 YZ -0.0024542 ZZ 0.00759424 EllAz1  0.152716 Dip1  36.8896 Len1  0.123542 Az2  352.934 Dip2  -52.8912 Len2  0.182353 Len3  2.083138e-01
STAT_GEOG  ExpectLat 9818.693870 Long 737.875123 Depth 1.168560
TRANSFORM  NONE
QML_OriginQuality  assocPhCt 18  usedPhCt 18  assocStaCt -1  usedStaCt 9  depthPhCt -1  stdErr 0.0275221  azGap 259.027  secAzGap 259.027  gtLevel -  minDist 0.600328 maxDist 4.77698 medDist 2.273
QML_OriginUncertainty  horUnc -1  minHorUnc 0.119061  maxHorUnc 0.168055  azMaxHorUnc 88.9309
QML_ConfidenceEllipsoid  semiMajorAxisLength 0.208314  semiMinorAxisLength 0.123542  semiIntermediateAxisLength 0.182353  majorAxisPlunge -3.47646  majorAxisAzimuth 87.5394  majorAxisRotation 142.828
FOCALMECH  Hyp  9818.712054 737.866815 1.156960 Mech  0 0 0 mf  0 nObs -1
PHASE ID Ins Cmp On Pha  FM Date     HrMn   Sec     Err  ErrMag    Coda      Amp       Per       PriorWt  >   TTpred    Res       Weight    StaLoc(X  Y         Z)        SDist    SAzim  RAz  RDip RQual    Tcorr       TTerr
M06          ?    BHZ  i P      c 20230120 1921   19.5065 GAU  2.67e-03 -1.00e+00 -1.00e+00 -1.00e+00    1.0000 >    0.6872    0.0017    1.5923  738.3100 9819.1170   -1.3960    0.6003  47.58  47.6 165.2 10     0.0000    0.0137
M06          ?    BHN  e S      ? 20230120 1921   19.9982 GAU  4.15e-03 -1.00e+00 -1.00e+00 -1.00e+00    1.0000 >    1.1756    0.0050    1.3496  738.3100 9819.1170   -1.3960    0.6003  47.58  47.6 164.6 10     0.0000    0.0235
M04          ?    BHZ  e P      c 20230120 1921   19.5892 GAU  5.98e-03 -1.00e+00 -1.00e+00 -1.00e+00    1.0000 >    0.7554    0.0162    1.3211  737.1400 9819.2520   -1.5710    0.9054 306.61 306.6 159.5 10     0.0000    0.0151
M04          ?    BHN  e S      ? 20230120 1921   20.1005 GAU  9.17e-03 -1.00e+00  7.12e+02 -1.00e+00    1.0000 >    1.2930   -0.0101    1.2162  737.1400 9819.2520   -1.5710    0.9054 306.61 306.6 158.6 10     0.0000    0.0259
M14          ?    BHZ  i P      c 20230120 1921   19.5680 GAU  4.75e-03 -1.00e+00 -1.00e+00 -1.00e+00    1.0000 >    0.7554   -0.0050    1.5243  737.5530 9820.0110   -1.3980    1.3363 346.42 346.4 149.1 10     0.0000    0.0151
M14          ?    BHE  e S      ? 20230120 1921   20.1022 GAU  2.23e-03 -1.00e+00  4.29e+02 -1.00e+00    1.0000 >    1.2919   -0.0073    1.2743  737.5530 9820.0110   -1.3980    1.3363 346.42 346.4 147.7 10     0.0000    0.0258
M11          ?    BHZ  i P      c 20230120 1921   19.6163 GAU  2.77e-03 -1.00e+00 -1.00e+00 -1.00e+00    1.0000 >    0.8107   -0.0120    1.3923  738.4670 9820.4900   -1.3120    1.8765  18.65  18.7 138.0 10     0.0000    0.0162
M11          ?    BHN  e S      ? 20230120 1921   20.2073 GAU  5.98e-03 -1.00e+00 -1.00e+00 -1.00e+00    1.0000 >    1.3855    0.0042    1.2491  738.4670 9820.4900   -1.3120    1.8765  18.65  18.7 136.1 10     0.0000    0.0277
M09          ?    BHZ  i P      c 20230120 1921   19.6987 GAU  3.32e-03 -1.00e+00  5.56e+01 -1.00e+00    1.0000 >    0.8681    0.0130    1.3796  737.8820 9820.9850   -1.2700    2.2730   0.38   0.4 131.0 10     0.0000    0.0174
M09          ?    BHN  e S      ? 20230120 1921   20.3451 GAU  1.60e-03 -1.00e+00  4.50e+02 -1.00e+00    1.0000 >    1.4827    0.0448    0.6388  737.8820 9820.9850   -1.2700    2.2730   0.38   0.4 128.6 10     0.0000    0.0297
M13          ?    BHZ  e P      c 20230120 1921   19.7906 GAU  4.98e-03 -1.00e+00 -1.00e+00 -1.00e+00    1.0000 >    0.9802   -0.0071    1.4039  737.1780 9821.5410   -1.2220    2.9116 346.32 346.3 121.1 10     0.0000    0.0196
M13          ?    BHE  e S      ? 20230120 1921   20.4832 GAU  7.33e-03 -1.00e+00 -1.00e+00 -1.00e+00    1.0000 >    1.6720   -0.0063    1.1093  737.1780 9821.5410   -1.2220    2.9116 346.32 346.3 118.1 10     0.0000    0.0334
M08          ?    BHZ  e P      d 20230120 1921   19.8881 GAU  1.15e-02 -1.00e+00  9.05e+01 -1.00e+00    1.0000 >    1.0840   -0.0136    1.2264  738.2480 9822.1600   -1.1510    3.4690   6.31   6.3 113.6 10     0.0000    0.0217
M08          ?    BHE  e S      ? 20230120 1921   20.6826 GAU  3.85e-03 -1.00e+00 -1.00e+00 -1.00e+00    1.0000 >    1.8460    0.0189    0.9924  738.2480 9822.1600   -1.1510    3.4690   6.31   6.3 110.1 10     0.0000    0.0369
M05          ?    BHZ  i P      d 20230120 1921   20.1312 GAU  1.24e-02 -1.00e+00  2.66e+02 -1.00e+00    1.0000 >    1.1411    0.1725    0.1016  736.2660 9822.0830   -1.1500    3.7317 334.60 334.6 110.9 10     0.0000    0.0228
M05          ?    BHE  e S      ? 20230120 1921   21.0790 GAU  1.04e-02 -1.00e+00 -1.00e+00 -1.00e+00    1.0000 >    1.9419    0.3195    0.0631  736.2660 9822.0830   -1.1500    3.7317 334.60 334.6 107.2 10     0.0000    0.0388
M12          ?    BHZ  i P      c 20230120 1921   20.3367 GAU  2.87e-03 -1.00e+00 -1.00e+00 -1.00e+00    1.0000 >    1.3539    0.1652    0.1019  736.8520 9823.3800   -0.9890    4.7770 347.73 347.7  99.7 10     0.0000    0.0271
M12          ?    BHE  e S      ? 20230120 1921   21.4330 GAU  2.88e-03 -1.00e+00  4.06e-01 -1.00e+00    1.0000 >    2.2913    0.3241    0.0639  736.8520 9823.3800   -0.9890    4.7770 347.73 347.7  97.3  9     0.0000    0.0458
END_PHASE
END_NLLOC

