NLLOC "./loc/SEML.20230120.193548.grid0" "LOCATED" "Location completed."
PUBLIC_ID None
SIGNATURE "Arham Zakki Edelo - edelo.17034@mhs.its.ac.id   obs:./obs/2023_01.obs   NLLoc:v7.00.10(30Aug2020)   run:28Dec2023 19h50m59"
COMMENT "SEML"
GRID  2001 2001 1001  727 9811 -2  0.01 0.01 0.01 PROB_DENSITY
SEARCH OCTREE nInitial 4851 nEvaluated 20019 smallestNodeSide 0.014881/0.014881/0.014205 oct_tree_integral 1.235491e-02 scatter_volume 1.235491e-02
HYPOCENTER  x 737.692 y 9818.61 z 1.08949  OT 48.2653  ix -1 iy -1 iz -1 MAXIMUM_LIKELIHOOD
GEOGRAPHIC  OT 2023 01 20  19 35 48.265282  Lat 9818.611607 Long 737.691964 Depth 1.089489
QUALITY  Pmax 4.47474e+42 MFmin 51.3918 MFmax 61.8062 RMS 0.0282642 Nphs 14 Gap 286.943 Dist 0.798367 Mamp -9.90 0 Mdur -9.90 0
VPVSRATIO  VpVsRatio 1.68234  Npair 7  Diff 0.460903
STATISTICS  ExpectX 737.714153 Y 9818.608023 Z 1.089562  CovXX 0.0150406 XY 0.00476756 XZ 0.00298222 YY 0.00828632 YZ -0.00110438 ZZ 0.00904222 EllAz1  327.374 Dip1  29.2021 Len1  0.126056 Az2  178.062 Dip2  56.9784 Len2  0.186233 Len3  2.523691e-01
STAT_GEOG  ExpectLat 9818.608023 Long 737.714153 Depth 1.089562
TRANSFORM  NONE
QML_OriginQuality  assocPhCt 14  usedPhCt 14  assocStaCt -1  usedStaCt 7  depthPhCt -1  stdErr 0.0282642  azGap 286.943  secAzGap 286.943  gtLevel -  minDist 0.798367 maxDist 3.75286 medDist 2.38099
QML_OriginUncertainty  horUnc -1  minHorUnc 0.115708  maxHorUnc 0.200658  azMaxHorUnc 62.656
QML_ConfidenceEllipsoid  semiMajorAxisLength 0.252369  semiMinorAxisLength 0.126056  semiIntermediateAxisLength 0.186233  majorAxisPlunge 14.0502  majorAxisAzimuth 65.4151  majorAxisRotation 146.59
FOCALMECH  Hyp  9818.611607 737.691964 1.089489 Mech  0 0 0 mf  0 nObs -1
PHASE ID Ins Cmp On Pha  FM Date     HrMn   Sec     Err  ErrMag    Coda      Amp       Per       PriorWt  >   TTpred    Res       Weight    StaLoc(X  Y         Z)        SDist    SAzim  RAz  RDip RQual    Tcorr       TTerr
M06          ?    BHZ  i P      c 20230120 1935   48.9427 GAU  1.02e-03 -1.00e+00 -1.00e+00 -1.00e+00    1.0000 >    0.6860   -0.0086    1.5761  738.3100 9819.1170   -1.3960    0.7984  50.73  50.7 160.0 10     0.0000    0.0137
M06          ?    BHN  e S      ? 20230120 1935   49.4529 GAU  2.88e-03 -1.00e+00 -1.00e+00 -1.00e+00    1.0000 >    1.1746    0.0130    1.4037  738.3100 9819.1170   -1.3960    0.7984  50.73  50.7 159.2 10     0.0000    0.0235
M14          ?    BHZ  i P      c 20230120 1935   49.0262 GAU  3.39e-03 -1.00e+00 -1.00e+00 -1.00e+00    1.0000 >    0.7507    0.0102    1.6068  737.5530 9820.0110   -1.3980    1.4063 354.33 354.3 146.9 10     0.0000    0.0150
M14          ?    BHE  e S      ? 20230120 1935   49.5439 GAU  4.15e-03 -1.00e+00  4.56e+02 -1.00e+00    1.0000 >    1.2851   -0.0065    1.3626  737.5530 9820.0110   -1.3980    1.4063 354.33 354.3 145.4 10     0.0000    0.0257
M11          ?    BHZ  i P      c 20230120 1935   49.0868 GAU  4.15e-03 -1.00e+00 -1.00e+00 -1.00e+00    1.0000 >    0.8246   -0.0030    1.6237  738.4670 9820.4900   -1.3120    2.0320  22.42  22.4 134.3 10     0.0000    0.0165
M11          ?    BHN  e S      ? 20230120 1935   49.7141 GAU  4.13e-03 -1.00e+00 -1.00e+00 -1.00e+00    1.0000 >    1.4105    0.0383    0.8379  738.4670 9820.4900   -1.3120    2.0320  22.42  22.4 132.0 10     0.0000    0.0282
M09          ?    BHZ  i P      c 20230120 1935   49.1368 GAU  4.15e-03 -1.00e+00 -1.00e+00 -1.00e+00    1.0000 >    0.8776   -0.0061    1.5563  737.8820 9820.9850   -1.2700    2.3810   4.58   4.6 128.0 10     0.0000    0.0176
M09          ?    BHE  e S      ? 20230120 1935   49.7666 GAU  4.01e-03 -1.00e+00  3.36e+02 -1.00e+00    1.0000 >    1.5003    0.0010    1.3075  737.8820 9820.9850   -1.2700    2.3810   4.58   4.6 125.4 10     0.0000    0.0300
M13          ?    BHZ  i P      c 20230120 1935   49.2660 GAU  2.40e-03 -1.00e+00 -1.00e+00 -1.00e+00    1.0000 >    0.9850    0.0158    1.4246  737.1780 9821.5410   -1.2220    2.9741 350.05 350.0 118.9 10     0.0000    0.0197
M13          ?    BHE  e S      ? 20230120 1935   49.9382 GAU  3.77e-03 -1.00e+00 -1.00e+00 -1.00e+00    1.0000 >    1.6818   -0.0089    1.1724  737.1780 9821.5410   -1.2220    2.9741 350.05 350.0 115.4 10     0.0000    0.0336
M08          ?    BHZ  e P      c 20230120 1935   49.6557 GAU  1.66e-03 -1.00e+00  3.26e+01 -1.00e+00    1.0000 >    1.1048    0.2856    0.0495  738.2480 9822.1600   -1.1510    3.5917   8.91   8.9 110.5 10     0.0000    0.0221
M08          ?    BHE  e S      ? 20230120 1935   50.6268 GAU  3.89e-03 -1.00e+00 -1.00e+00 -1.00e+00    1.0000 >    1.8829    0.4786    0.0140  738.2480 9822.1600   -1.1510    3.5917   8.91   8.9 106.3 10     0.0000    0.0377
M05          ?    BHZ  e P      c 20230120 1935   49.6287 GAU  4.13e-03 -1.00e+00  7.43e+01 -1.00e+00    1.0000 >    1.1404    0.2230    0.0276  736.2660 9822.0830   -1.1500    3.7529 337.67 337.7 108.8 10     0.0000    0.0228
M05          ?    BHN  e S      ? 20230120 1935   50.5771 GAU  2.67e-03 -1.00e+00  2.61e+02 -1.00e+00    1.0000 >    1.9427    0.3692    0.0373  736.2660 9822.0830   -1.1500    3.7529 337.67 337.7 104.3 10     0.0000    0.0389
END_PHASE
END_NLLOC

