NLLOC "./loc/SEML.20230120.192827.grid0" "LOCATED" "Location completed."
PUBLIC_ID None
SIGNATURE "Arham Zakki Edelo - edelo.17034@mhs.its.ac.id   obs:./obs/2023_01.obs   NLLoc:v7.00.10(30Aug2020)   run:28Dec2023 19h50m47"
COMMENT "SEML"
GRID  2001 2001 1001  727 9811 -2  0.01 0.01 0.01 PROB_DENSITY
SEARCH OCTREE nInitial 4851 nEvaluated 20011 smallestNodeSide 0.014881/0.014881/0.014205 oct_tree_integral 2.072140e-02 scatter_volume 2.072140e-02
HYPOCENTER  x 737.975 y 9818.66 z 0.791193  OT 27.3459  ix -1 iy -1 iz -1 MAXIMUM_LIKELIHOOD
GEOGRAPHIC  OT 2023 01 20  19 28 27.345888  Lat 9818.656250 Long 737.974702 Depth 0.791193
QUALITY  Pmax 9.92105e+30 MFmin 39.194 MFmax 46.7043 RMS 0.0110779 Nphs 10 Gap 306.666 Dist 0.569838 Mamp -9.90 0 Mdur -9.90 0
VPVSRATIO  VpVsRatio 1.64462  Npair 5  Diff 0.274338
STATISTICS  ExpectX 737.953129 Y 9818.621811 Z 0.796131  CovXX 0.0348948 XY 0.009687 XZ 0.00677741 YY 0.0124023 YZ -0.00110905 ZZ 0.0120727 EllAz1  151.903 Dip1  -35.9361 Len1  0.149356 Az2  356.838 Dip2  -51.363 Len2  0.216324 Len3  3.747959e-01
STAT_GEOG  ExpectLat 9818.621811 Long 737.953129 Depth 0.796131
TRANSFORM  NONE
QML_OriginQuality  assocPhCt 10  usedPhCt 10  assocStaCt -1  usedStaCt 5  depthPhCt -1  stdErr 0.0110779  azGap 306.666  secAzGap 306.666  gtLevel -  minDist 0.569838 maxDist 2.99274 medDist 1.89868
QML_OriginUncertainty  horUnc -1  minHorUnc 0.142312  maxHorUnc 0.297541  azMaxHorUnc 69.63
QML_ConfidenceEllipsoid  semiMajorAxisLength 0.374796  semiMinorAxisLength 0.149356  semiIntermediateAxisLength 0.216324  majorAxisPlunge 12.3059  majorAxisAzimuth 71.001  majorAxisRotation 320.429
FOCALMECH  Hyp  9818.656250 737.974702 0.791193 Mech  0 0 0 mf  0 nObs -1
PHASE ID Ins Cmp On Pha  FM Date     HrMn   Sec     Err  ErrMag    Coda      Amp       Per       PriorWt  >   TTpred    Res       Weight    StaLoc(X  Y         Z)        SDist    SAzim  RAz  RDip RQual    Tcorr       TTerr
M06          ?    BHZ  e P      c 20230120 1928   27.9502 GAU  2.00e-03 -1.00e+00 -1.00e+00 -1.00e+00    1.0000 >    0.5979    0.0064    1.1766  738.3100 9819.1170   -1.3960    0.5698  36.04  36.0 164.8 10     0.0000    0.0120
M06          ?    BHE  e S      ? 20230120 1928   28.3772 GAU  1.91e-03 -1.00e+00 -1.00e+00 -1.00e+00    1.0000 >    1.0316   -0.0002    1.0928  738.3100 9819.1170   -1.3960    0.5698  36.04  36.0 163.7 10     0.0000    0.0206
M14          ?    BHZ  e P      c 20230120 1928   28.0164 GAU  1.62e-03 -1.00e+00 -1.00e+00 -1.00e+00    1.0000 >    0.6899   -0.0194    0.9246  737.5530 9820.0110   -1.3980    1.4189 342.71 342.7 145.9 10     0.0000    0.0138
M14          ?    BHE  e S      ? 20230120 1928   28.5396 GAU  2.00e-03 -1.00e+00  3.96e+02 -1.00e+00    1.0000 >    1.1900    0.0037    1.0160  737.5530 9820.0110   -1.3980    1.4189 342.71 342.7 143.0 10     0.0000    0.0238
M11          ?    BHZ  e P      c 20230120 1928   28.0880 GAU  2.77e-03 -1.00e+00 -1.00e+00 -1.00e+00    1.0000 >    0.7478   -0.0057    1.1849  738.4670 9820.4900   -1.3120    1.8987  15.03  15.0 136.5 10     0.0000    0.0150
M11          ?    BHN  e S      ? 20230120 1928   28.6173 GAU  1.21e-03 -1.00e+00 -1.00e+00 -1.00e+00    1.0000 >    1.2894   -0.0179    0.8670  738.4670 9820.4900   -1.3120    1.8987  15.03  15.0 132.4 10     0.0000    0.0258
M09          ?    BHZ  i P      c 20230120 1928   28.1716 GAU  6.92e-03 -1.00e+00 -1.00e+00 -1.00e+00    1.0000 >    0.8203    0.0054    1.1170  737.8820 9820.9850   -1.2700    2.3306 357.72 357.7 129.4 10     0.0000    0.0164
M09          ?    BHE  e S      ? 20230120 1928   28.7863 GAU  4.78e-03 -1.00e+00  3.62e+02 -1.00e+00    1.0000 >    1.4137    0.0268    0.6851  737.8820 9820.9850   -1.2700    2.3306 357.72 357.7 124.2 10     0.0000    0.0283
M13          ?    BHZ  e P      c 20230120 1928   28.2909 GAU  3.64e-03 -1.00e+00 -1.00e+00 -1.00e+00    1.0000 >    0.9500   -0.0049    1.1128  737.1780 9821.5410   -1.2220    2.9927 344.56 344.6 121.4 10     0.0000    0.0190
M13          ?    BHN  e S      ? 20230120 1928   28.9923 GAU  3.34e-03 -1.00e+00 -1.00e+00 -1.00e+00    1.0000 >    1.6355    0.0109    0.8232  737.1780 9821.5410   -1.2220    2.9927 344.56 344.6 114.5 10     0.0000    0.0327
END_PHASE
END_NLLOC

