NLLOC "./loc/SEML.20230103.034321.grid0" "LOCATED" "Location completed."
PUBLIC_ID None
SIGNATURE "Arham Zakki Edelo - edelo.17034@mhs.its.ac.id   obs:./obs/2023_01.obs   NLLoc:v7.00.10(30Aug2020)   run:28Dec2023 19h50m10"
COMMENT "SEML"
GRID  2001 2001 1001  727 9811 -2  0.01 0.01 0.01 PROB_DENSITY
SEARCH OCTREE nInitial 4851 nEvaluated 20003 smallestNodeSide 0.029762/0.029762/0.028409 oct_tree_integral 1.579852e-01 scatter_volume 1.579852e-01
HYPOCENTER  x 738.205 y 9818.25 z 1.65057  OT 21.0218  ix -1 iy -1 iz -1 MAXIMUM_LIKELIHOOD
GEOGRAPHIC  OT 2023 01 03  03 43 21.021780  Lat 9818.247024 Long 738.205357 Depth 1.650568
QUALITY  Pmax 7.37631e+21 MFmin 26.6239 MFmax 31.9016 RMS 0.0159577 Nphs 8 Gap 335.819 Dist 0.876247 Mamp -9.90 0 Mdur -9.90 0
VPVSRATIO  VpVsRatio 1.66508  Npair 4  Diff 0.244535
STATISTICS  ExpectX 738.303511 Y 9818.265351 Z 1.650427  CovXX 0.360915 XY 0.156624 XZ 0.0897795 YY 0.170789 YZ 0.0113511 ZZ 0.117852 EllAz1  141.21 Dip1  -37.4983 Len1  0.444932 Az2  348.082 Dip2  -49.2992 Len2  0.662259 Len3  1.287004e+00
STAT_GEOG  ExpectLat 9818.265351 Long 738.303511 Depth 1.650427
TRANSFORM  NONE
QML_OriginQuality  assocPhCt 8  usedPhCt 8  assocStaCt -1  usedStaCt 4  depthPhCt -1  stdErr 0.0159577  azGap 335.819  secAzGap 335.819  gtLevel -  minDist 0.876247 maxDist 3.45047 medDist 2.50759
QML_OriginUncertainty  horUnc -1  minHorUnc 0.435962  maxHorUnc 1.0163  azMaxHorUnc 60.6279
QML_ConfidenceEllipsoid  semiMajorAxisLength 1.287  semiMinorAxisLength 0.444932  semiIntermediateAxisLength 0.662259  majorAxisPlunge 13.5238  majorAxisAzimuth 61.845  majorAxisRotation 317.964
FOCALMECH  Hyp  9818.247024 738.205357 1.650568 Mech  0 0 0 mf  0 nObs -1
PHASE ID Ins Cmp On Pha  FM Date     HrMn   Sec     Err  ErrMag    Coda      Amp       Per       PriorWt  >   TTpred    Res       Weight    StaLoc(X  Y         Z)        SDist    SAzim  RAz  RDip RQual    Tcorr       TTerr
M06          ?    BHZ  i P      c 20230103 0343   21.8466 GAU  5.77e-03 -1.00e+00 -1.00e+00 -1.00e+00    1.0000 >    0.8161    0.0087    1.1903  738.3100 9819.1170   -1.3960    0.8762   6.86   6.9 162.0 10     0.0000    0.0163
M06          ?    BHE  e S      ? 20230103 0343   22.4000 GAU  3.99e-03 -1.00e+00 -1.00e+00 -1.00e+00    1.0000 >    1.3876   -0.0094    1.0978  738.3100 9819.1170   -1.3960    0.8762   6.86   6.9 161.4 10     0.0000    0.0278
M11          ?    BHZ  e P      c 20230103 0343   21.9604 GAU  4.78e-03 -1.00e+00 -1.00e+00 -1.00e+00    1.0000 >    0.9561   -0.0175    1.0872  738.4670 9820.4900   -1.3120    2.2582   6.65   6.7 137.8 10     0.0000    0.0191
M11          ?    BHE  e S      ? 20230103 0343   22.6453 GAU  5.14e-03 -1.00e+00 -1.00e+00 -1.00e+00    1.0000 >    1.6235    0.0000    1.0517  738.4670 9820.4900   -1.3120    2.2582   6.65   6.7 136.3 10     0.0000    0.0325
M09          ?    BHZ  e P      c 20230103 0343   22.0606 GAU  8.27e-03 -1.00e+00  1.60e+02 -1.00e+00    1.0000 >    1.0292    0.0097    1.1452  737.8820 9820.9850   -1.2700    2.7570 353.26 353.3 130.6 10     0.0000    0.0206
M09          ?    BHN  e S      ? 20230103 0343   22.8242 GAU  6.92e-03 -1.00e+00  4.95e+02 -1.00e+00    1.0000 >    1.7461    0.0563    0.4468  737.8820 9820.9850   -1.2700    2.7570 353.26 353.3 128.8 10     0.0000    0.0349
M13          ?    BHZ  e P      c 20230103 0343   22.1560 GAU  1.79e-02 -1.00e+00 -1.00e+00 -1.00e+00    1.0000 >    1.1481   -0.0139    1.0504  737.1780 9821.5410   -1.2220    3.4505 342.68 342.7 121.9 10     0.0000    0.0230
M13          ?    BHE  e S      ? 20230103 0343   22.9540 GAU  4.98e-03 -1.00e+00 -1.00e+00 -1.00e+00    1.0000 >    1.9452   -0.0130    0.9306  737.1780 9821.5410   -1.2220    3.4505 342.68 342.7 119.9 10     0.0000    0.0389
END_PHASE
END_NLLOC

