NLLOC "./loc/SEML.20230114.034651.grid0" "REJECTED" "WARNING: max prob location on grid boundary 11, rejecting location."
PUBLIC_ID None
SIGNATURE "Arham Zakki Edelo - edelo.17034@mhs.its.ac.id   obs:./obs/2023_01.obs   NLLoc:v7.00.10(30Aug2020)   run:28Dec2023 19h50m17"
COMMENT "SEML"
GRID  2001 2001 1001  727 9811 -2  0.01 0.01 0.01 PROB_DENSITY
SEARCH OCTREE nInitial 4851 nEvaluated 20011 smallestNodeSide 0.119048/0.119048/0.113636 oct_tree_integral 9.499216e+00 scatter_volume 9.439646e+00
HYPOCENTER  x 746.94 y 9814.99 z 5.89773  OT 48.6326  ix -1 iy -1 iz -1 MAXIMUM_LIKELIHOOD
GEOGRAPHIC  OT 2023 01 14  03 46 48.632560  Lat 9814.988095 Long 746.940476 Depth 5.897727
QUALITY  Pmax 1.85261e+43 MFmin 31.6361 MFmax 36.8556 RMS 0.0745791 Nphs 16 Gap 345.812 Dist 9.56729 Mamp -9.90 0 Mdur -9.90 0
VPVSRATIO  VpVsRatio 1.53446  Npair 8  Diff 0.676922
STATISTICS  ExpectX 746.035445 Y 9814.118024 Z 5.013392  CovXX 0.75733 XY 0.56241 XZ -0.418481 YY 1.77139 YZ 0.369629 ZZ 6.09975 EllAz1  294.563 Dip1  -5.40844 Len1  1.26972 Az2  204.776 Dip2  2.2464 Len2  2.66702 Len3  4.661905e+00
STAT_GEOG  ExpectLat 9814.118024 Long 746.035445 Depth 5.013392
TRANSFORM  NONE
QML_OriginQuality  assocPhCt 16  usedPhCt 16  assocStaCt -1  usedStaCt 8  depthPhCt -1  stdErr 0.0745791  azGap 345.812  secAzGap 345.812  gtLevel -  minDist 9.56729 maxDist 13.1226 medDist 11.0664
QML_OriginUncertainty  horUnc -1  minHorUnc 1.08001  maxHorUnc 2.1563  azMaxHorUnc 23.9821
QML_ConfidenceEllipsoid  semiMajorAxisLength 4.6619  semiMinorAxisLength 1.26972  semiIntermediateAxisLength 2.66702  majorAxisPlunge -84.141  majorAxisAzimuth 137.25  majorAxisRotation 67.8441
FOCALMECH  Hyp  9814.988095 746.940476 5.897727 Mech  0 0 0 mf  0 nObs -1
PHASE ID Ins Cmp On Pha  FM Date     HrMn   Sec     Err  ErrMag    Coda      Amp       Per       PriorWt  >   TTpred    Res       Weight    StaLoc(X  Y         Z)        SDist    SAzim  RAz  RDip RQual    Tcorr       TTerr
M06          ?    BHZ  i P      c 20230114 0346   51.1046 GAU  1.79e-02 -1.00e+00  9.42e+01 -1.00e+00    1.0000 >    2.8546   -0.3825    0.0235  738.3100 9819.1170   -1.3960    9.5673 295.57 295.6 123.0 10     0.0000    0.0571
M06          ?    BHE  e S      ? 20230114 0346   52.7223 GAU  1.03e-02 -1.00e+00  3.50e+01 -1.00e+00    1.0000 >    4.7516   -0.6619    0.0063  738.3100 9819.1170   -1.3960    9.5673 295.57 295.6 122.4 10     0.0000    0.0950
M11          ?    BHZ  e P      c 20230114 0346   51.6057 GAU  1.65e-02 -1.00e+00 -1.00e+00 -1.00e+00    1.0000 >    2.9387    0.0344    1.3982  738.4670 9820.4900   -1.3120   10.1030 303.00 303.0 121.1 10     0.0000    0.0588
M11          ?    BHN  e S      ? 20230114 0346   53.6634 GAU  1.71e-02 -1.00e+00 -1.00e+00 -1.00e+00    1.0000 >    4.8883    0.1425    0.8585  738.4670 9820.4900   -1.3120   10.1030 303.00 303.0 120.6 10     0.0000    0.0978
M14          ?    BHZ  e P      c 20230114 0346   51.6342 GAU  1.65e-02 -1.00e+00 -1.00e+00 -1.00e+00    1.0000 >    3.0598   -0.0582    1.2198  737.5530 9820.0110   -1.3980   10.6468 298.15 298.1 119.8 10     0.0000    0.0612
M14          ?    BHN  e S      ? 20230114 0346   53.6118 GAU  9.92e-03 -1.00e+00  3.53e+02 -1.00e+00    1.0000 >    5.0907   -0.1114    0.8798  737.5530 9820.0110   -1.3980   10.6468 298.15 298.1 119.2 10     0.0000    0.1018
M09          ?    BHZ  e P      c 20230114 0346   51.7131 GAU  1.65e-02 -1.00e+00  5.89e+01 -1.00e+00    1.0000 >    3.0770    0.0035    1.4195  737.8820 9820.9850   -1.2700   10.8636 303.51 303.5 118.8 10     0.0000    0.0615
M09          ?    BHE  e S      ? 20230114 0346   53.7402 GAU  2.07e-02 -1.00e+00  4.03e+02 -1.00e+00    1.0000 >    5.1154   -0.0078    1.2320  737.8820 9820.9850   -1.2700   10.8636 303.51 303.5 118.3 10     0.0000    0.1023
M08          ?    BHZ  e P      d 20230114 0346   51.7096 GAU  9.92e-03 -1.00e+00  1.94e+02 -1.00e+00    1.0000 >    3.1336   -0.0566    1.2288  738.2480 9822.1600   -1.1510   11.2692 309.53 309.5 117.4 10     0.0000    0.0627
M08          ?    BHN  e S      ? 20230114 0346   53.7967 GAU  1.66e-02 -1.00e+00  3.08e+02 -1.00e+00    1.0000 >    5.2054   -0.0412    1.1617  738.2480 9822.1600   -1.1510   11.2692 309.53 309.5 116.9 10     0.0000    0.1041
M13          ?    BHZ  i P      d 20230114 0346   51.9615 GAU  1.72e-02 -1.00e+00  1.11e+02 -1.00e+00    1.0000 >    3.2439    0.0850    1.1836  737.1780 9821.5410   -1.2220   11.7578 303.87 303.9 116.4 10     0.0000    0.0649
M13          ?    BHN  e S      ? 20230114 0346   54.1571 GAU  8.27e-03 -1.00e+00 -1.00e+00 -1.00e+00    1.0000 >    5.3894    0.1351    0.8923  737.1780 9821.5410   -1.2220   11.7578 303.87 303.9 115.9 10     0.0000    0.1078
M05          ?    BHZ  e P      d 20230114 0346   52.1732 GAU  1.24e-02 -1.00e+00  1.80e+02 -1.00e+00    1.0000 >    3.4437    0.0970    1.1152  736.2660 9822.0830   -1.1500   12.8173 303.61 303.6 113.8 10     0.0000    0.0689
M05          ?    BHE  e S      ? 20230114 0346   54.4678 GAU  2.06e-02 -1.00e+00 -1.00e+00 -1.00e+00    1.0000 >    5.7166    0.1186    0.9538  736.2660 9822.0830   -1.1500   12.8173 303.61 303.6 113.4 10     0.0000    0.1143
M12          ?    BHZ  e P      c 20230114 0346   52.0745 GAU  1.63e-02 -1.00e+00 -1.00e+00 -1.00e+00    1.0000 >    3.4765   -0.0345    1.3110  736.8520 9823.3800   -0.9890   13.1226 309.75 309.8 112.9 10     0.0000    0.0695
M12          ?    BHN  e S      ? 20230114 0346   54.3565 GAU  2.06e-02 -1.00e+00 -1.00e+00 -1.00e+00    1.0000 >    5.7656   -0.0416    1.1159  736.8520 9823.3800   -0.9890   13.1226 309.75 309.8 112.4 10     0.0000    0.1153
END_PHASE
END_NLLOC

