NLLOC "./loc/SEML.20230120.191351.grid0" "LOCATED" "Location completed."
PUBLIC_ID None
SIGNATURE "Arham Zakki Edelo - edelo.17034@mhs.its.ac.id   obs:./obs/2023_01.obs   NLLoc:v7.00.10(30Aug2020)   run:28Dec2023 19h50m28"
COMMENT "SEML"
GRID  2001 2001 1001  727 9811 -2  0.01 0.01 0.01 PROB_DENSITY
SEARCH OCTREE nInitial 4851 nEvaluated 20011 smallestNodeSide 0.029762/0.029762/0.028409 oct_tree_integral 1.023904e-01 scatter_volume 1.023904e-01
HYPOCENTER  x 736.955 y 9818.81 z 0.769886  OT 50.4781  ix -1 iy -1 iz -1 MAXIMUM_LIKELIHOOD
GEOGRAPHIC  OT 2023 01 20  19 13 50.478072  Lat 9818.812500 Long 736.955357 Depth 0.769886
QUALITY  Pmax 5.84739e+21 MFmin 29.9784 MFmax 38.9851 RMS 0.0186471 Nphs 8 Gap 305.768 Dist 1.33925 Mamp -9.90 0 Mdur -9.90 0
VPVSRATIO  VpVsRatio 1.7104  Npair 4  Diff 0.136272
STATISTICS  ExpectX 737.092281 Y 9818.711506 Z 0.767778  CovXX 0.184618 XY -0.0146038 XZ 0.06736 YY 0.0477641 YZ 0.028602 ZZ 0.0980978 EllAz1  201.051 Dip1  33.6755 Len1  0.276916 Az2  329.166 Dip2  42.8112 Len2  0.555254 Len3  8.840842e-01
STAT_GEOG  ExpectLat 9818.711506 Long 737.092281 Depth 0.767778
TRANSFORM  NONE
QML_OriginQuality  assocPhCt 8  usedPhCt 8  assocStaCt -1  usedStaCt 4  depthPhCt -1  stdErr 0.0186471  azGap 305.768  secAzGap 305.768  gtLevel -  minDist 1.33925 maxDist 2.36187 medDist 1.82328
QML_OriginUncertainty  horUnc -1  minHorUnc 0.326057  maxHorUnc 0.654344  azMaxHorUnc 96.0237
QML_ConfidenceEllipsoid  semiMajorAxisLength 0.884084  semiMinorAxisLength 0.276916  semiIntermediateAxisLength 0.555254  majorAxisPlunge 28.7063  majorAxisAzimuth 89.6504  majorAxisRotation 56.5714
FOCALMECH  Hyp  9818.812500 736.955357 0.769886 Mech  0 0 0 mf  0 nObs -1
PHASE ID Ins Cmp On Pha  FM Date     HrMn   Sec     Err  ErrMag    Coda      Amp       Per       PriorWt  >   TTpred    Res       Weight    StaLoc(X  Y         Z)        SDist    SAzim  RAz  RDip RQual    Tcorr       TTerr
M14          ?    BHZ  e P      d 20230120 1913   51.1444 GAU  1.01e-02 -1.00e+00  3.66e+02 -1.00e+00    1.0000 >    0.6742   -0.0078    1.2365  737.5530 9820.0110   -1.3980    1.3392  26.50  26.5 147.2 10     0.0000    0.0135
M14          ?    BHN  e S      ? 20230120 1913   51.6360 GAU  8.31e-03 -1.00e+00  3.43e+02 -1.00e+00    1.0000 >    1.1636   -0.0057    1.1696  737.5530 9820.0110   -1.3980    1.3392  26.50  26.5 144.4 10     0.0000    0.0233
M06          ?    BHZ  e P      d 20230120 1913   51.1649 GAU  5.22e-03 -1.00e+00 -1.00e+00 -1.00e+00    1.0000 >    0.6806    0.0062    1.2615  738.3100 9819.1170   -1.3960    1.3884  77.33  77.3 146.2 10     0.0000    0.0136
M06          ?    BHN  e S      ? 20230120 1913   51.6668 GAU  1.81e-02 -1.00e+00 -1.00e+00 -1.00e+00    1.0000 >    1.1747    0.0140    1.0642  738.3100 9819.1170   -1.3960    1.3884  77.33  77.3 143.3 10     0.0000    0.0235
M11          ?    BHZ  e P      c 20230120 1913   51.2644 GAU  6.20e-03 -1.00e+00 -1.00e+00 -1.00e+00    1.0000 >    0.8107   -0.0244    0.9045  738.4670 9820.4900   -1.3120    2.2581  42.02  42.0 130.6 10     0.0000    0.0162
M11          ?    BHE  i S      ? 20230120 1913   51.8609 GAU  4.15e-03 -1.00e+00 -1.00e+00 -1.00e+00    1.0000 >    1.3983   -0.0155    1.0286  738.4670 9820.4900   -1.3120    2.2581  42.02  42.0 125.6 10     0.0000    0.0280
M09          ?    BHZ  e P      d 20230120 1913   51.3269 GAU  5.56e-03 -1.00e+00  8.19e+01 -1.00e+00    1.0000 >    0.8231    0.0257    0.9189  737.8820 9820.9850   -1.2700    2.3619  23.10  23.1 128.7 10     0.0000    0.0165
M09          ?    BHE  e S      ? 20230120 1913   51.9547 GAU  2.44e-03 -1.00e+00  3.52e+02 -1.00e+00    1.0000 >    1.4195    0.0571    0.4163  737.8820 9820.9850   -1.2700    2.3619  23.10  23.1 123.3 10     0.0000    0.0284
END_PHASE
END_NLLOC

