NLLOC "./loc/SEML.20230120.191504.grid0" "LOCATED" "Location completed."
PUBLIC_ID None
SIGNATURE "Arham Zakki Edelo - edelo.17034@mhs.its.ac.id   obs:./obs/2023_01.obs   NLLoc:v7.00.10(30Aug2020)   run:28Dec2023 19h50m30"
COMMENT "SEML"
GRID  2001 2001 1001  727 9811 -2  0.01 0.01 0.01 PROB_DENSITY
SEARCH OCTREE nInitial 4851 nEvaluated 20003 smallestNodeSide 0.029762/0.029762/0.028409 oct_tree_integral 1.355186e-01 scatter_volume 1.348646e-01
HYPOCENTER  x 737.967 y 9818.75 z 1.22443  OT 4.05267  ix -1 iy -1 iz -1 MAXIMUM_LIKELIHOOD
GEOGRAPHIC  OT 2023 01 20  19 15 4.052669  Lat 9818.752976 Long 737.967262 Depth 1.224432
QUALITY  Pmax 9.61569e+28 MFmin 35.3553 MFmax 45.0254 RMS 0.0165904 Nphs 10 Gap 298.499 Dist 0.499983 Mamp -9.90 0 Mdur -9.90 0
VPVSRATIO  VpVsRatio 1.75402  Npair 5  Diff 0.161662
STATISTICS  ExpectX 738.029608 Y 9818.920002 Z 1.437924  CovXX 0.134439 XY 0.0387863 XZ 0.0360887 YY 0.047965 YZ 0.0278822 ZZ 0.0554905 EllAz1  173.815 Dip1  36.3578 Len1  0.285659 Az2  312.791 Dip2  45.704 Len2  0.412196 Len3  7.669830e-01
STAT_GEOG  ExpectLat 9818.920002 Long 738.029608 Depth 1.437924
TRANSFORM  NONE
QML_OriginQuality  assocPhCt 10  usedPhCt 10  assocStaCt -1  usedStaCt 5  depthPhCt -1  stdErr 0.0165904  azGap 298.499  secAzGap 298.499  gtLevel -  minDist 0.499983 maxDist 2.89759 medDist 1.80748
QML_OriginUncertainty  horUnc -1  minHorUnc 0.27599  maxHorUnc 0.585969  azMaxHorUnc 69.053
QML_ConfidenceEllipsoid  semiMajorAxisLength 0.766983  semiMinorAxisLength 0.285659  semiIntermediateAxisLength 0.412196  majorAxisPlunge 21.6632  majorAxisAzimuth 66.8133  majorAxisRotation 48.7076
FOCALMECH  Hyp  9818.752976 737.967262 1.224432 Mech  0 0 0 mf  0 nObs -1
PHASE ID Ins Cmp On Pha  FM Date     HrMn   Sec     Err  ErrMag    Coda      Amp       Per       PriorWt  >   TTpred    Res       Weight    StaLoc(X  Y         Z)        SDist    SAzim  RAz  RDip RQual    Tcorr       TTerr
M06          ?    BHZ  e P      c 20230120 1915    4.8108 GAU  2.60e-02 -1.00e+00 -1.00e+00 -1.00e+00    1.0000 >    0.6971    0.0609    0.4615  738.3100 9819.1170   -1.3960    0.5000  43.27  43.3 167.9 10     0.0000    0.0139
M06          ?    BHN  e S      ? 20230120 1915    5.3724 GAU  4.61e-03 -1.00e+00 -1.00e+00 -1.00e+00    1.0000 >    1.1915    0.1282    0.0447  738.3100 9819.1170   -1.3960    0.5000  43.27  43.3 167.4 10     0.0000    0.0238
M14          ?    BHZ  e P      d 20230120 1915    4.8189 GAU  7.18e-03 -1.00e+00  3.24e+02 -1.00e+00    1.0000 >    0.7677   -0.0015    1.3506  737.5530 9820.0110   -1.3980    1.3245 341.77 341.8 150.2 10     0.0000    0.0154
M14          ?    BHE  e S      ? 20230120 1915    5.3652 GAU  6.21e-03 -1.00e+00  3.97e+02 -1.00e+00    1.0000 >    1.3117    0.0008    1.1777  737.5530 9820.0110   -1.3980    1.3245 341.77 341.8 148.9 10     0.0000    0.0262
M11          ?    BHZ  e P      c 20230120 1915    4.8675 GAU  1.20e-02 -1.00e+00 -1.00e+00 -1.00e+00    1.0000 >    0.8121    0.0027    1.3097  738.4670 9820.4900   -1.3120    1.8075  16.05  16.1 140.3 10     0.0000    0.0162
M11          ?    BHN  e S      ? 20230120 1915    5.4365 GAU  1.12e-02 -1.00e+00 -1.00e+00 -1.00e+00    1.0000 >    1.3866   -0.0027    1.1081  738.4670 9820.4900   -1.3120    1.8075  16.05  16.1 138.5 10     0.0000    0.0277
M09          ?    BHZ  e P      c 20230120 1915    4.9180 GAU  4.94e-03 -1.00e+00  2.63e+00 -1.00e+00    1.0000 >    0.8718   -0.0065    1.2788  737.8820 9820.9850   -1.2700    2.2337 357.81 357.8 132.8 10     0.0000    0.0174
M09          ?    BHE  e S      ? 20230120 1915    5.5640 GAU  1.43e-02 -1.00e+00  3.41e+02 -1.00e+00    1.0000 >    1.4876    0.0237    0.9811  737.8820 9820.9850   -1.2700    2.2337 357.81 357.8 130.6 10     0.0000    0.0298
M13          ?    BHZ  e P      c 20230120 1915    5.0414 GAU  1.15e-02 -1.00e+00 -1.00e+00 -1.00e+00    1.0000 >    0.9858    0.0030    1.2607  737.1780 9821.5410   -1.2220    2.8976 344.19 344.2 122.7 10     0.0000    0.0197
M13          ?    BHN  e S      ? 20230120 1915    5.7494 GAU  4.15e-03 -1.00e+00 -1.00e+00 -1.00e+00    1.0000 >    1.6799    0.0168    1.0271  737.1780 9821.5410   -1.2220    2.8976 344.19 344.2 120.0 10     0.0000    0.0336
END_PHASE
END_NLLOC

