NLLOC "./loc/SEML.20230120.183001.grid0" "LOCATED" "Location completed."
PUBLIC_ID None
SIGNATURE "Arham Zakki Edelo - edelo.17034@mhs.its.ac.id   obs:./obs/2023_01.obs   NLLoc:v7.00.10(30Aug2020)   run:28Dec2023 19h50m18"
COMMENT "SEML"
GRID  2001 2001 1001  727 9811 -2  0.01 0.01 0.01 PROB_DENSITY
SEARCH OCTREE nInitial 4851 nEvaluated 20003 smallestNodeSide 0.014881/0.014881/0.014205 oct_tree_integral 4.631406e-02 scatter_volume 4.592775e-02
HYPOCENTER  x 737.112 y 9818.18 z 0.862216  OT 0.360447  ix -1 iy -1 iz -1 MAXIMUM_LIKELIHOOD
GEOGRAPHIC  OT 2023 01 20  18 30 0.360447  Lat 9818.180060 Long 737.111607 Depth 0.862216
QUALITY  Pmax 6.38163e+47 MFmin 50.461 MFmax 58.7664 RMS 0.0165306 Nphs 15 Gap 295.795 Dist 1.52118 Mamp -9.90 0 Mdur -9.90 0
VPVSRATIO  VpVsRatio 1.75452  Npair 7  Diff 0.545584
STATISTICS  ExpectX 737.157745 Y 9818.163500 Z 0.904212  CovXX 0.0517741 XY -0.00337931 XZ 0.0332682 YY 0.0121281 YZ -0.00953125 ZZ 0.0421067 EllAz1  156.585 Dip1  -32.0921 Len1  0.158067 Az2  223.117 Dip2  32.4168 Len2  0.246804 Len3  5.369486e-01
STAT_GEOG  ExpectLat 9818.163500 Long 737.157745 Depth 0.904212
TRANSFORM  NONE
QML_OriginQuality  assocPhCt 15  usedPhCt 15  assocStaCt -1  usedStaCt 8  depthPhCt -1  stdErr 0.0165306  azGap 295.795  secAzGap 295.795  gtLevel -  minDist 1.52118 maxDist 5.20642 medDist 3.1352
QML_OriginUncertainty  horUnc -1  minHorUnc 0.165036  maxHorUnc 0.346032  azMaxHorUnc 94.8372
QML_ConfidenceEllipsoid  semiMajorAxisLength 0.536949  semiMinorAxisLength 0.158067  semiIntermediateAxisLength 0.246804  majorAxisPlunge 40.9971  majorAxisAzimuth 99.6151  majorAxisRotation 277.999
FOCALMECH  Hyp  9818.180060 737.111607 0.862216 Mech  0 0 0 mf  0 nObs -1
PHASE ID Ins Cmp On Pha  FM Date     HrMn   Sec     Err  ErrMag    Coda      Amp       Per       PriorWt  >   TTpred    Res       Weight    StaLoc(X  Y         Z)        SDist    SAzim  RAz  RDip RQual    Tcorr       TTerr
M06          ?    BHZ  e P      c 20230120 1830    1.0928 GAU  2.31e-03 -1.00e+00 -1.00e+00 -1.00e+00    1.0000 >    0.7193    0.0131    1.3527  738.3100 9819.1170   -1.3960    1.5212  51.98  52.0 144.9 10     0.0000    0.0144
M06          ?    BHN  e S      ? 20230120 1830    1.5881 GAU  8.61e-03 -1.00e+00 -1.00e+00 -1.00e+00    1.0000 >    1.2378   -0.0102    1.2807  738.3100 9819.1170   -1.3960    1.5212  51.98  52.0 142.0 10     0.0000    0.0248
M14          ?    BHZ  e P      d 20230120 1830    1.1288 GAU  1.15e-02 -1.00e+00  7.98e+02 -1.00e+00    1.0000 >    0.7770   -0.0087    1.3897  737.5530 9820.0110   -1.3980    1.8834  13.55  13.6 138.9 10     0.0000    0.0155
M11          ?    BHZ  e P      c 20230120 1830    1.2563 GAU  4.13e-03 -1.00e+00 -1.00e+00 -1.00e+00    1.0000 >    0.9093   -0.0134    1.3388  738.4670 9820.4900   -1.3120    2.6782  30.40  30.4 126.9 10     0.0000    0.0182
M11          ?    BHE  e S      ? 20230120 1830    1.9233 GAU  1.72e-02 -1.00e+00 -1.00e+00 -1.00e+00    1.0000 >    1.5629   -0.0000    1.1610  738.4670 9820.4900   -1.3120    2.6782  30.40  30.4 121.5 10     0.0000    0.0313
M09          ?    BHZ  e P      c 20230120 1830    1.2983 GAU  1.38e-02 -1.00e+00  7.20e+01 -1.00e+00    1.0000 >    0.9499   -0.0120    1.3026  737.8820 9820.9850   -1.2700    2.9088  15.36  15.4 123.9 10     0.0000    0.0190
M09          ?    BHE  e S      ? 20230120 1830    2.0165 GAU  9.57e-03 -1.00e+00  3.49e+02 -1.00e+00    1.0000 >    1.6319    0.0242    1.0280  737.8820 9820.9850   -1.2700    2.9088  15.36  15.4 118.0 10     0.0000    0.0326
M13          ?    BHZ  e P      d 20230120 1830    1.4352 GAU  7.43e-03 -1.00e+00  6.11e+00 -1.00e+00    1.0000 >    1.0406    0.0342    0.8955  737.1780 9821.5410   -1.2220    3.3616   1.13   1.1 119.2 10     0.0000    0.0208
M13          ?    BHN  e S      ? 20230120 1830    2.1517 GAU  1.44e-02 -1.00e+00 -1.00e+00 -1.00e+00    1.0000 >    1.7859    0.0054    1.1090  737.1780 9821.5410   -1.2220    3.3616   1.13   1.1 112.3 10     0.0000    0.0357
M05          ?    BHZ  e P      c 20230120 1830    1.7455 GAU  1.48e-02 -1.00e+00  1.05e+02 -1.00e+00    1.0000 >    1.1744    0.2106    0.0003  736.2660 9822.0830   -1.1500    3.9935 347.78 347.8 113.9 10     0.0000    0.0235
M05          ?    BHE  e S      ? 20230120 1830    2.7549 GAU  1.15e-02 -1.00e+00 -1.00e+00 -1.00e+00    1.0000 >    2.0113    0.3832    0.0003  736.2660 9822.0830   -1.1500    3.9935 347.78 347.8 105.9 10     0.0000    0.0402
M08          ?    BHZ  e P      c 20230120 1830    1.5767 GAU  4.59e-03 -1.00e+00 -1.00e+00 -1.00e+00    1.0000 >    1.2087    0.0076    1.3206  738.2480 9822.1600   -1.1510    4.1390  15.94  15.9 113.0 10     0.0000    0.0242
M08          ?    BHE  e S      ? 20230120 1830    2.4336 GAU  7.18e-03 -1.00e+00 -1.00e+00 -1.00e+00    1.0000 >    2.0690    0.0041    1.0594  738.2480 9822.1600   -1.1510    4.1390  15.94  15.9 104.9 10     0.0000    0.0414
M12          ?    BHZ  e P      c 20230120 1830    1.7661 GAU  6.35e-03 -1.00e+00 -1.00e+00 -1.00e+00    1.0000 >    1.4450   -0.0394    0.8193  736.8520 9823.3800   -0.9890    5.2064 357.14 357.1 106.4 10     0.0000    0.0289
M12          ?    BHN  e S      ? 20230120 1830    2.8069 GAU  6.64e-03 -1.00e+00 -1.00e+00 -1.00e+00    1.0000 >    2.4577   -0.0113    0.9420  736.8520 9823.3800   -0.9890    5.2064 357.14 357.1  98.6 10     0.0000    0.0492
END_PHASE
END_NLLOC

