NLLOC "./loc/SEML.20230130.173005.grid0" "LOCATED" "Location completed."
PUBLIC_ID None
SIGNATURE "Arham Zakki Edelo - edelo.17034@mhs.its.ac.id   obs:./obs/2023_01.obs   NLLoc:v7.00.10(30Aug2020)   run:28Dec2023 19h51m05"
COMMENT "SEML"
GRID  2001 2001 1001  727 9811 -2  0.01 0.01 0.01 PROB_DENSITY
SEARCH OCTREE nInitial 4851 nEvaluated 20003 smallestNodeSide 0.029762/0.029762/0.028409 oct_tree_integral 9.205261e-02 scatter_volume 9.152125e-02
HYPOCENTER  x 738.86 y 9818.25 z 1.16761  OT 4.76676  ix -1 iy -1 iz -1 MAXIMUM_LIKELIHOOD
GEOGRAPHIC  OT 2023 01 30  17 30 4.766760  Lat 9818.247024 Long 738.860119 Depth 1.167614
QUALITY  Pmax 1.60444e+22 MFmin 28.0253 MFmax 35.7089 RMS 0.0152209 Nphs 8 Gap 337.634 Dist 1.02932 Mamp -9.90 0 Mdur -9.90 0
VPVSRATIO  VpVsRatio 1.65257  Npair 4  Diff 0.316504
STATISTICS  ExpectX 738.915189 Y 9818.346975 Z 1.113547  CovXX 0.330405 XY 0.252184 XZ -0.0826996 YY 0.323919 YZ -0.123476 ZZ 0.138734 EllAz1  326.08 Dip1  33.8159 Len1  0.439271 Az2  292.429 Dip2  -51.1767 Len2  0.637503 Len3  1.483282e+00
STAT_GEOG  ExpectLat 9818.346975 Long 738.915189 Depth 1.113547
TRANSFORM  NONE
QML_OriginQuality  assocPhCt 8  usedPhCt 8  assocStaCt -1  usedStaCt 4  depthPhCt -1  stdErr 0.0152209  azGap 337.634  secAzGap 337.634  gtLevel -  minDist 1.02932 maxDist 3.69862 medDist 2.5923
QML_OriginUncertainty  horUnc -1  minHorUnc 0.415214  maxHorUnc 1.15436  azMaxHorUnc 45.3684
QML_ConfidenceEllipsoid  semiMajorAxisLength 1.48328  semiMinorAxisLength 0.439271  semiIntermediateAxisLength 0.637503  majorAxisPlunge -16.7761  majorAxisAzimuth 44.4305  majorAxisRotation 139.398
FOCALMECH  Hyp  9818.247024 738.860119 1.167614 Mech  0 0 0 mf  0 nObs -1
PHASE ID Ins Cmp On Pha  FM Date     HrMn   Sec     Err  ErrMag    Coda      Amp       Per       PriorWt  >   TTpred    Res       Weight    StaLoc(X  Y         Z)        SDist    SAzim  RAz  RDip RQual    Tcorr       TTerr
M06          ?    BHZ  i P      c 20230130 1730    5.4913 GAU  2.50e-03 -1.00e+00 -1.00e+00 -1.00e+00    1.0000 >    0.7236    0.0010    1.2603  738.3100 9819.1170   -1.3960    1.0293 327.69 327.7 155.6 10     0.0000    0.0145
M06          ?    BHE  e S      ? 20230130 1730    5.9988 GAU  2.88e-03 -1.00e+00 -1.00e+00 -1.00e+00    1.0000 >    1.2374   -0.0054    1.1269  738.3100 9819.1170   -1.3960    1.0293 327.69 327.7 154.6 10     0.0000    0.0247
M11          ?    BHZ  e P      c 20230130 1730    5.6464 GAU  3.99e-03 -1.00e+00 -1.00e+00 -1.00e+00    1.0000 >    0.8793    0.0003    1.2309  738.4670 9820.4900   -1.3120    2.2772 350.06 350.1 131.7 10     0.0000    0.0176
M11          ?    BHN  e S      ? 20230130 1730    6.2887 GAU  2.53e-03 -1.00e+00 -1.00e+00 -1.00e+00    1.0000 >    1.5019    0.0200    0.8864  738.4670 9820.4900   -1.3120    2.2772 350.06 350.1 129.3 10     0.0000    0.0300
M09          ?    BHZ  i P      c 20230130 1730    5.7252 GAU  2.46e-03 -1.00e+00  5.55e+01 -1.00e+00    1.0000 >    0.9897   -0.0312    0.7755  737.8820 9820.9850   -1.2700    2.9074 340.34 340.3 122.1 10     0.0000    0.0198
M09          ?    BHN  e S      ? 20230130 1730    6.4266 GAU  2.15e-03 -1.00e+00  4.77e+02 -1.00e+00    1.0000 >    1.6884   -0.0286    0.8132  737.8820 9820.9850   -1.2700    2.9074 340.34 340.3 119.2 10     0.0000    0.0338
M13          ?    BHZ  e P      d 20230130 1730    5.9191 GAU  2.49e-03 -1.00e+00 -1.00e+00 -1.00e+00    1.0000 >    1.1467    0.0056    1.1295  737.1780 9821.5410   -1.2220    3.6986 332.95 332.9 112.5 10     0.0000    0.0229
M13          ?    BHN  e S      ? 20230130 1730    6.7431 GAU  2.21e-03 -1.00e+00 -1.00e+00 -1.00e+00    1.0000 >    1.9525    0.0238    0.7774  737.1780 9821.5410   -1.2220    3.6986 332.95 332.9 108.8 10     0.0000    0.0391
END_PHASE
END_NLLOC

