NLLOC "./loc/SEML.20230120.194957.grid0" "LOCATED" "Location completed."
PUBLIC_ID None
SIGNATURE "Arham Zakki Edelo - edelo.17034@mhs.its.ac.id   obs:./obs/2023_01.obs   NLLoc:v7.00.10(30Aug2020)   run:28Dec2023 19h51m02"
COMMENT "SEML"
GRID  2001 2001 1001  727 9811 -2  0.01 0.01 0.01 PROB_DENSITY
SEARCH OCTREE nInitial 4851 nEvaluated 20019 smallestNodeSide 0.014881/0.014881/0.014205 oct_tree_integral 4.531194e-02 scatter_volume 4.498133e-02
HYPOCENTER  x 738.771 y 9818.37 z 0.769886  OT 56.5353  ix -1 iy -1 iz -1 MAXIMUM_LIKELIHOOD
GEOGRAPHIC  OT 2023 01 20  19 49 56.535301  Lat 9818.366071 Long 738.770833 Depth 0.769886
QUALITY  Pmax 4.42541e+73 MFmin 77.0865 MFmax 92.5965 RMS 0.0347726 Nphs 22 Gap 292.057 Dist 0.881057 Mamp -9.90 0 Mdur -9.90 0
VPVSRATIO  VpVsRatio 1.68936  Npair 11  Diff 0.507324
STATISTICS  ExpectX 738.791072 Y 9818.413455 Z 0.789419  CovXX 0.0235289 XY 0.00254944 XZ -0.00166337 YY 0.0187364 YZ -0.00173072 ZZ 0.0246396 EllAz1  339.17 Dip1  8.17898 Len1  0.248548 Az2  256.964 Dip2  -43.3348 Len2  0.281876 Len3  3.081301e-01
STAT_GEOG  ExpectLat 9818.413455 Long 738.791072 Depth 0.789419
TRANSFORM  NONE
QML_OriginQuality  assocPhCt 22  usedPhCt 22  assocStaCt -1  usedStaCt 11  depthPhCt -1  stdErr 0.0347726  azGap 292.057  secAzGap 292.057  gtLevel -  minDist 0.881057 maxDist 5.36856 medDist 3.55208
QML_OriginUncertainty  horUnc -1  minHorUnc 0.20139  maxHorUnc 0.238018  azMaxHorUnc 66.613
QML_ConfidenceEllipsoid  semiMajorAxisLength 0.30813  semiMinorAxisLength 0.248548  semiIntermediateAxisLength 0.281876  majorAxisPlunge -45.5047  majorAxisAzimuth 60.7587  majorAxisRotation 265.143
FOCALMECH  Hyp  9818.366071 738.770833 0.769886 Mech  0 0 0 mf  0 nObs -1
PHASE ID Ins Cmp On Pha  FM Date     HrMn   Sec     Err  ErrMag    Coda      Amp       Per       PriorWt  >   TTpred    Res       Weight    StaLoc(X  Y         Z)        SDist    SAzim  RAz  RDip RQual    Tcorr       TTerr
M06          ?    BHZ  i P      c 20230120 1949   57.2942 GAU  1.55e-03 -1.00e+00 -1.00e+00 -1.00e+00    1.0000 >    0.6188    0.1401    0.1126  738.3100 9819.1170   -1.3960    0.8811 328.46 328.5 157.1 10     0.0000    0.0124
M06          ?    BHN  e S      ? 20230120 1949   57.8145 GAU  4.61e-03 -1.00e+00 -1.00e+00 -1.00e+00    1.0000 >    1.0682    0.2110    0.0565  738.3100 9819.1170   -1.3960    0.8811 328.46 328.5 155.3 10     0.0000    0.0214
M04          ?    BHZ  i P      c 20230120 1949   57.3199 GAU  2.00e-03 -1.00e+00 -1.00e+00 -1.00e+00    1.0000 >    0.7923   -0.0077    1.6348  737.1400 9819.2520   -1.5710    1.8559 298.51 298.5 140.1 10     0.0000    0.0158
M04          ?    BHN  e S      ? 20230120 1949   57.8662 GAU  1.60e-03 -1.00e+00  7.15e+02 -1.00e+00    1.0000 >    1.3672   -0.0363    1.1687  737.1400 9819.2520   -1.5710    1.8559 298.51 298.5 136.4 10     0.0000    0.0273
M14          ?    BHZ  i P      d 20230120 1949   57.3232 GAU  6.49e-03 -1.00e+00  1.04e+03 -1.00e+00    1.0000 >    0.7882   -0.0003    1.6549  737.5530 9820.0110   -1.3980    2.0467 323.49 323.5 135.0 10     0.0000    0.0158
M14          ?    BHE  e S      ? 20230120 1949   57.9120 GAU  2.40e-03 -1.00e+00  2.11e+02 -1.00e+00    1.0000 >    1.3601    0.0166    1.3681  737.5530 9820.0110   -1.3980    2.0467 323.49 323.5 130.6 10     0.0000    0.0272
M11          ?    BHZ  i P      c 20230120 1949   57.3326 GAU  4.81e-03 -1.00e+00 -1.00e+00 -1.00e+00    1.0000 >    0.7891    0.0082    1.6011  738.4670 9820.4900   -1.3120    2.1456 351.86 351.9 132.3 10     0.0000    0.0158
M11          ?    BHN  e S      ? 20230120 1949   57.9106 GAU  4.15e-03 -1.00e+00 -1.00e+00 -1.00e+00    1.0000 >    1.3613    0.0140    1.3981  738.4670 9820.4900   -1.3120    2.1456 351.86 351.9 127.6 10     0.0000    0.0272
M09          ?    BHZ  i P      c 20230120 1949   57.4394 GAU  2.68e-03 -1.00e+00  1.88e+02 -1.00e+00    1.0000 >    0.9063   -0.0022    1.6377  737.8820 9820.9850   -1.2700    2.7656 341.25 341.3 123.9 10     0.0000    0.0181
M09          ?    BHE  e S      ? 20230120 1949   58.0461 GAU  1.92e-03 -1.00e+00  3.28e+02 -1.00e+00    1.0000 >    1.5623   -0.0514    0.9350  737.8820 9820.9850   -1.2700    2.7656 341.25 341.3 117.5 10     0.0000    0.0312
M13          ?    BHZ  i P      c 20230120 1949   57.5611 GAU  2.88e-03 -1.00e+00 -1.00e+00 -1.00e+00    1.0000 >    1.0727   -0.0469    0.9514  737.1780 9821.5410   -1.2220    3.5521 333.36 333.4 116.4 10     0.0000    0.0215
M13          ?    BHE  e S      ? 20230120 1949   58.2138 GAU  4.15e-03 -1.00e+00 -1.00e+00 -1.00e+00    1.0000 >    1.8461   -0.1676    0.0622  737.1780 9821.5410   -1.2220    3.5521 333.36 333.4 108.0 10     0.0000    0.0369
M10          ?    BHZ  i P      c 20230120 1949   57.6547 GAU  3.06e-03 -1.00e+00 -1.00e+00 -1.00e+00    1.0000 >    1.1140    0.0054    1.5509  736.5490 9821.3650   -1.2200    3.7323 323.47 323.5 115.0 10     0.0000    0.0223
M10          ?    BHN  e S      ? 20230120 1949   58.4551 GAU  3.46e-03 -1.00e+00 -1.00e+00 -1.00e+00    1.0000 >    1.9162    0.0036    1.3183  736.5490 9821.3650   -1.2200    3.7323 323.47 323.5 106.3 10     0.0000    0.0383
M08          ?    BHZ  i P      c 20230120 1949   57.7065 GAU  5.77e-03 -1.00e+00 -1.00e+00 -1.00e+00    1.0000 >    1.1267    0.0444    0.8344  738.2480 9822.1600   -1.1510    3.8298 352.15 352.2 113.6 10     0.0000    0.0225
M08          ?    BHN  e S      ? 20230120 1949   58.6312 GAU  3.84e-03 -1.00e+00  2.69e+02 -1.00e+00    1.0000 >    1.9368    0.1591    0.1787  738.2480 9822.1600   -1.1510    3.8298 352.15 352.2 104.6 10     0.0000    0.0387
M05          ?    BHZ  i P      d 20230120 1949   57.8728 GAU  4.15e-03 -1.00e+00  1.12e+01 -1.00e+00    1.0000 >    1.2817    0.0558    0.6374  736.2660 9822.0830   -1.1500    4.4822 326.02 326.0 109.8 10     0.0000    0.0256
M05          ?    BHE  e S      ? 20230120 1949   58.7538 GAU  3.10e-03 -1.00e+00 -1.00e+00 -1.00e+00    1.0000 >    2.1978    0.0207    1.1473  736.2660 9822.0830   -1.1500    4.4822 326.02 326.0 100.3 10     0.0000    0.0440
M15          ?    BHZ  i P      d 20230120 1949   57.8542 GAU  6.64e-03 -1.00e+00  1.41e+02 -1.00e+00    1.0000 >    1.3790   -0.0601    0.7823  739.3310 9823.3170   -0.9530    4.9825   6.46   6.5 105.8 10     0.0000    0.0276
M15          ?    BHE  e S      ? 20230120 1949   58.7925 GAU  4.81e-03 -1.00e+00 -1.00e+00 -1.00e+00    1.0000 >    2.3528   -0.0956    0.4808  739.3310 9823.3170   -0.9530    4.9825   6.46   6.5  97.1 10     0.0000    0.0471
M12          ?    BHZ  i P      d 20230120 1949   57.9989 GAU  1.40e-02 -1.00e+00 -1.00e+00 -1.00e+00    1.0000 >    1.4787   -0.0150    1.3806  736.8520 9823.3800   -0.9890    5.3686 339.06 339.1 104.6 10     0.0000    0.0296
M12          ?    BHE  e S      ? 20230120 1949   59.0266 GAU  2.87e-03 -1.00e+00 -1.00e+00 -1.00e+00    1.0000 >    2.5187   -0.0274    1.1080  736.8520 9823.3800   -0.9890    5.3686 339.06 339.1  96.3 10     0.0000    0.0504
END_PHASE
END_NLLOC

