NLLOC "./loc/SEML.20230104.201710.grid0" "LOCATED" "Location completed."
PUBLIC_ID None
SIGNATURE "Arham Zakki Edelo - edelo.17034@mhs.its.ac.id   obs:./obs/2023_01.obs   NLLoc:v7.00.10(30Aug2020)   run:28Dec2023 19h50m14"
COMMENT "SEML"
GRID  2001 2001 1001  727 9811 -2  0.01 0.01 0.01 PROB_DENSITY
SEARCH OCTREE nInitial 4851 nEvaluated 20019 smallestNodeSide 0.014881/0.014881/0.014205 oct_tree_integral 3.145345e-02 scatter_volume 3.145345e-02
HYPOCENTER  x 738.317 y 9818.28 z 1.16051  OT 9.67677  ix -1 iy -1 iz -1 MAXIMUM_LIKELIHOOD
GEOGRAPHIC  OT 2023 01 04  20 17 9.676774  Lat 9818.284226 Long 738.316964 Depth 1.160511
QUALITY  Pmax 7.14237e+43 MFmin 47.7497 MFmax 57.4272 RMS 0.0150768 Nphs 14 Gap 327.744 Dist 0.832803 Mamp -9.90 0 Mdur -9.90 0
VPVSRATIO  VpVsRatio 1.73185  Npair 7  Diff 0.454417
STATISTICS  ExpectX 738.291411 Y 9818.280673 Z 1.120708  CovXX 0.0577535 XY 0.00891939 XZ 0.0415171 YY 0.0175057 YZ 0.010044 ZZ 0.0791472 EllAz1  171.108 Dip1  3.15538 Len1  0.234288 Az2  263.611 Dip2  38.387 Len2  0.300941 Len3  6.321380e-01
STAT_GEOG  ExpectLat 9818.280673 Long 738.291411 Depth 1.120708
TRANSFORM  NONE
QML_OriginQuality  assocPhCt 14  usedPhCt 14  assocStaCt -1  usedStaCt 7  depthPhCt -1  stdErr 0.0150768  azGap 327.744  secAzGap 327.744  gtLevel -  minDist 0.832803 maxDist 4.31708 medDist 2.73558
QML_OriginUncertainty  horUnc -1  minHorUnc 0.189527  maxHorUnc 0.370372  azMaxHorUnc 78.048
QML_ConfidenceEllipsoid  semiMajorAxisLength 0.632138  semiMinorAxisLength 0.234288  semiIntermediateAxisLength 0.300941  majorAxisPlunge 51.4348  majorAxisAzimuth 77.1433  majorAxisRotation 338.299
FOCALMECH  Hyp  9818.284226 738.316964 1.160511 Mech  0 0 0 mf  0 nObs -1
PHASE ID Ins Cmp On Pha  FM Date     HrMn   Sec     Err  ErrMag    Coda      Amp       Per       PriorWt  >   TTpred    Res       Weight    StaLoc(X  Y         Z)        SDist    SAzim  RAz  RDip RQual    Tcorr       TTerr
M06          ?    BHZ  i P      c 20230104 2017   10.3815 GAU  4.15e-03 -1.00e+00 -1.00e+00 -1.00e+00    1.0000 >    0.7045    0.0003    1.5236  738.3100 9819.1170   -1.3960    0.8328 359.52 359.5 159.8 10     0.0000    0.0141
M06          ?    BHN  e S      ? 20230104 2017   10.8888 GAU  3.32e-03 -1.00e+00 -1.00e+00 -1.00e+00    1.0000 >    1.2050    0.0070    1.3246  738.3100 9819.1170   -1.3960    0.8328 359.52 359.5 159.0 10     0.0000    0.0241
M14          ?    BHZ  e P      c 20230104 2017   10.3723 GAU  1.07e-02 -1.00e+00  2.40e+02 -1.00e+00    1.0000 >    0.8326   -0.1370    0.0251  737.5530 9820.0110   -1.3980    1.8882 336.13 336.1 138.9 10     0.0000    0.0167
M14          ?    BHE  e S      ? 20230104 2017   10.8172 GAU  5.74e-03 -1.00e+00  4.15e+02 -1.00e+00    1.0000 >    1.4233   -0.2829    0.0000  737.5530 9820.0110   -1.3980    1.8882 336.13 336.1 137.0 10     0.0000    0.0285
M11          ?    BHZ  i P      c 20230104 2017   10.5322 GAU  1.20e-02 -1.00e+00 -1.00e+00 -1.00e+00    1.0000 >    0.8666   -0.0113    1.3330  738.4670 9820.4900   -1.3120    2.2109   3.89   3.9 132.6 10     0.0000    0.0173
M11          ?    BHN  e S      ? 20230104 2017   11.1462 GAU  9.57e-03 -1.00e+00 -1.00e+00 -1.00e+00    1.0000 >    1.4805   -0.0111    1.1737  738.4670 9820.4900   -1.3120    2.2109   3.89   3.9 130.3 10     0.0000    0.0296
M09          ?    BHZ  i P      c 20230104 2017   10.6352 GAU  2.77e-03 -1.00e+00  1.41e+02 -1.00e+00    1.0000 >    0.9549    0.0035    1.4401  737.8820 9820.9850   -1.2700    2.7356 350.85 350.9 124.2 10     0.0000    0.0191
M09          ?    BHN  e S      ? 20230104 2017   11.3366 GAU  1.20e-02 -1.00e+00  4.96e+02 -1.00e+00    1.0000 >    1.6297    0.0301    0.9178  737.8820 9820.9850   -1.2700    2.7356 350.85 350.9 121.5 10     0.0000    0.0326
M13          ?    BHZ  i P      c 20230104 2017   10.7608 GAU  8.61e-03 -1.00e+00 -1.00e+00 -1.00e+00    1.0000 >    1.0925   -0.0085    1.3255  737.1780 9821.5410   -1.2220    3.4502 340.72 340.7 114.9 10     0.0000    0.0218
M13          ?    BHE  e S      ? 20230104 2017   11.4786 GAU  7.18e-03 -1.00e+00 -1.00e+00 -1.00e+00    1.0000 >    1.8615   -0.0596    0.5135  737.1780 9821.5410   -1.2220    3.4502 340.72 340.7 111.4 10     0.0000    0.0372
M08          ?    BHZ  e P      d 20230104 2017   10.8592 GAU  2.01e-02 -1.00e+00  2.32e+02 -1.00e+00    1.0000 >    1.1735    0.0089    1.1949  738.2480 9822.1600   -1.1510    3.8764 358.98 359.0 109.6 10     0.0000    0.0235
M08          ?    BHE  e S      ? 20230104 2017   11.6841 GAU  6.15e-03 -1.00e+00 -1.00e+00 -1.00e+00    1.0000 >    1.9962    0.0111    1.0339  738.2480 9822.1600   -1.1510    3.8764 358.98 359.0 105.9 10     0.0000    0.0399
M05          ?    BHZ  e P      c 20230104 2017   10.9522 GAU  1.66e-02 -1.00e+00  1.39e+02 -1.00e+00    1.0000 >    1.2723    0.0031    1.2285  736.2660 9822.0830   -1.1500    4.3171 331.64 331.6 105.4 10     0.0000    0.0254
M05          ?    BHN  e S      ? 20230104 2017   11.8515 GAU  1.14e-02 -1.00e+00  2.77e+02 -1.00e+00    1.0000 >    2.1613    0.0134    0.9657  736.2660 9822.0830   -1.1500    4.3171 331.64 331.6 101.7 10     0.0000    0.0432
END_PHASE
END_NLLOC

