NLLOC "./loc/SEML.20230120.193521.grid0" "LOCATED" "Location completed."
PUBLIC_ID None
SIGNATURE "Arham Zakki Edelo - edelo.17034@mhs.its.ac.id   obs:./obs/2023_01.obs   NLLoc:v7.00.10(30Aug2020)   run:28Dec2023 19h50m59"
COMMENT "SEML"
GRID  2001 2001 1001  727 9811 -2  0.01 0.01 0.01 PROB_DENSITY
SEARCH OCTREE nInitial 4851 nEvaluated 20003 smallestNodeSide 0.029762/0.029762/0.028409 oct_tree_integral 8.894409e-02 scatter_volume 8.894409e-02
HYPOCENTER  x 737.967 y 9818.75 z 1.67898  OT 21.0924  ix -1 iy -1 iz -1 MAXIMUM_LIKELIHOOD
GEOGRAPHIC  OT 2023 01 20  19 35 21.092436  Lat 9818.752976 Long 737.967262 Depth 1.678977
QUALITY  Pmax 2.26734e+34 MFmin 42.7723 MFmax 47.9282 RMS 0.0216656 Nphs 12 Gap 298.499 Dist 0.499983 Mamp -9.90 0 Mdur -9.90 0
VPVSRATIO  VpVsRatio 1.74778  Npair 6  Diff 0.385876
STATISTICS  ExpectX 738.179071 Y 9818.685332 Z 1.665085  CovXX 0.177796 XY 0.0176701 XZ 0.00878646 YY 0.0304828 YZ 0.00978201 ZZ 0.0287195 EllAz1  176.837 Dip1  45.4085 Len1  0.262826 Az2  349.384 Dip2  44.3485 Len2  0.360908 Len3  7.982921e-01
STAT_GEOG  ExpectLat 9818.685332 Long 738.179071 Depth 1.665085
TRANSFORM  NONE
QML_OriginQuality  assocPhCt 12  usedPhCt 12  assocStaCt -1  usedStaCt 6  depthPhCt -1  stdErr 0.0216656  azGap 298.499  secAzGap 298.499  gtLevel -  minDist 0.499983 maxDist 3.41857 medDist 2.02057
QML_OriginUncertainty  horUnc -1  minHorUnc 0.255546  maxHorUnc 0.643223  azMaxHorUnc 83.2549
QML_ConfidenceEllipsoid  semiMajorAxisLength 0.798292  semiMinorAxisLength 0.262826  semiIntermediateAxisLength 0.360908  majorAxisPlunge 3.73372  majorAxisAzimuth 83.0415  majorAxisRotation 45.7762
FOCALMECH  Hyp  9818.752976 737.967262 1.678977 Mech  0 0 0 mf  0 nObs -1
PHASE ID Ins Cmp On Pha  FM Date     HrMn   Sec     Err  ErrMag    Coda      Amp       Per       PriorWt  >   TTpred    Res       Weight    StaLoc(X  Y         Z)        SDist    SAzim  RAz  RDip RQual    Tcorr       TTerr
M06          ?    BHZ  i P      c 20230120 1935   21.8982 GAU  2.23e-03 -1.00e+00 -1.00e+00 -1.00e+00    1.0000 >    0.8011    0.0047    1.6743  738.3100 9819.1170   -1.3960    0.5000  43.27  43.3 169.6 10     0.0000    0.0160
M06          ?    BHN  e S      ? 20230120 1935   22.4791 GAU  2.22e-03 -1.00e+00 -1.00e+00 -1.00e+00    1.0000 >    1.3620    0.0248    1.2631  738.3100 9819.1170   -1.3960    0.5000  43.27  43.3 169.2 10     0.0000    0.0272
M14          ?    BHZ  e P      d 20230120 1935   21.9400 GAU  5.83e-03 -1.00e+00  7.53e+02 -1.00e+00    1.0000 >    0.8614   -0.0139    1.4373  737.5530 9820.0110   -1.3980    1.3245 341.77 341.8 153.9 10     0.0000    0.0172
M14          ?    BHE  e S      ? 20230120 1935   22.5465 GAU  1.11e-03 -1.00e+00  3.67e+02 -1.00e+00    1.0000 >    1.4641   -0.0100    1.3422  737.5530 9820.0110   -1.3980    1.3245 341.77 341.8 153.0 10     0.0000    0.0293
M11          ?    BHZ  i P      d 20230120 1935   21.9906 GAU  4.01e-03 -1.00e+00  1.56e+02 -1.00e+00    1.0000 >    0.8966    0.0016    1.6521  738.4670 9820.4900   -1.3120    1.8075  16.05  16.1 145.0 10     0.0000    0.0179
M11          ?    BHN  e S      ? 20230120 1935   22.5994 GAU  3.90e-04 -1.00e+00 -1.00e+00 -1.00e+00    1.0000 >    1.5226   -0.0155    1.2444  738.4670 9820.4900   -1.3120    1.8075  16.05  16.1 143.8 10     0.0000    0.0305
M09          ?    BHZ  i P      c 20230120 1935   22.0378 GAU  2.88e-03 -1.00e+00 -1.00e+00 -1.00e+00    1.0000 >    0.9477   -0.0023    1.6234  737.8820 9820.9850   -1.2700    2.2337 357.81 357.8 138.1 10     0.0000    0.0190
M09          ?    BHE  e S      ? 20230120 1935   22.7317 GAU  3.56e-03 -1.00e+00  3.44e+02 -1.00e+00    1.0000 >    1.6083    0.0310    1.1310  737.8820 9820.9850   -1.2700    2.2337 357.81 357.8 136.7 10     0.0000    0.0322
M13          ?    BHZ  i P      c 20230120 1935   22.1950 GAU  4.93e-03 -1.00e+00 -1.00e+00 -1.00e+00    1.0000 >    1.0481    0.0545    0.5664  737.1780 9821.5410   -1.2220    2.8976 344.19 344.2 128.8 10     0.0000    0.0210
M13          ?    BHE  e S      ? 20230120 1935   23.0246 GAU  2.78e-03 -1.00e+00 -1.00e+00 -1.00e+00    1.0000 >    1.7769    0.1553    0.0425  737.1780 9821.5410   -1.2220    2.8976 344.19 344.2 127.0 10     0.0000    0.0355
M08          ?    BHZ  e P      d 20230120 1935   22.4659 GAU  5.90e-03 -1.00e+00  2.20e+02 -1.00e+00    1.0000 >    1.1316    0.2418    0.0233  738.2480 9822.1600   -1.1510    3.4186   4.71   4.7 121.9 10     0.0000    0.0226
M08          ?    BHE  e S      ? 20230120 1935   23.4326 GAU  2.40e-03 -1.00e+00 -1.00e+00 -1.00e+00    1.0000 >    1.9158    0.4245    0.0000  738.2480 9822.1600   -1.1510    3.4186   4.71   4.7 120.1 10     0.0000    0.0383
END_PHASE
END_NLLOC

