NLLOC "./loc/SEML.20230120.193044.grid0" "LOCATED" "Location completed."
PUBLIC_ID None
SIGNATURE "Arham Zakki Edelo - edelo.17034@mhs.its.ac.id   obs:./obs/2023_01.obs   NLLoc:v7.00.10(30Aug2020)   run:28Dec2023 19h50m50"
COMMENT "SEML"
GRID  2001 2001 1001  727 9811 -2  0.01 0.01 0.01 PROB_DENSITY
SEARCH OCTREE nInitial 4851 nEvaluated 20011 smallestNodeSide 0.014881/0.014881/0.014205 oct_tree_integral 1.555707e-02 scatter_volume 1.537570e-02
HYPOCENTER  x 739.076 y 9818.6 z 0.961648  OT 43.7849  ix -1 iy -1 iz -1 MAXIMUM_LIKELIHOOD
GEOGRAPHIC  OT 2023 01 20  19 30 43.784938  Lat 9818.596726 Long 739.075893 Depth 0.961648
QUALITY  Pmax 2.22197e+67 MFmin 68.7071 MFmax 79.8309 RMS 0.0287905 Nphs 20 Gap 301.095 Dist 0.925892 Mamp -9.90 0 Mdur -9.90 0
VPVSRATIO  VpVsRatio 1.73485  Npair 10  Diff 0.540226
STATISTICS  ExpectX 739.067581 Y 9818.581765 Z 0.937032  CovXX 0.0175981 XY 0.00227182 XZ -0.00171355 YY 0.0120038 YZ -0.0053541 ZZ 0.0121612 EllAz1  356.745 Dip1  43.9172 Len1  0.153913 Az2  304.526 Dip2  -32.4665 Len2  0.227888 Len3  2.679584e-01
STAT_GEOG  ExpectLat 9818.581765 Long 739.067581 Depth 0.937032
TRANSFORM  NONE
QML_OriginQuality  assocPhCt 20  usedPhCt 20  assocStaCt -1  usedStaCt 10  depthPhCt -1  stdErr 0.0287905  azGap 301.095  secAzGap 301.095  gtLevel -  minDist 0.925892 maxDist 5.27498 medDist 3.58057
QML_OriginUncertainty  horUnc -1  minHorUnc 0.160481  maxHorUnc 0.205743  azMaxHorUnc 70.4583
QML_ConfidenceEllipsoid  semiMajorAxisLength 0.267958  semiMinorAxisLength 0.153913  semiIntermediateAxisLength 0.227888  majorAxisPlunge -28.708  majorAxisAzimuth 54.9186  majorAxisRotation 112.626
FOCALMECH  Hyp  9818.596726 739.075893 0.961648 Mech  0 0 0 mf  0 nObs -1
PHASE ID Ins Cmp On Pha  FM Date     HrMn   Sec     Err  ErrMag    Coda      Amp       Per       PriorWt  >   TTpred    Res       Weight    StaLoc(X  Y         Z)        SDist    SAzim  RAz  RDip RQual    Tcorr       TTerr
M06          ?    BHZ  i P      c 20230120 1930   44.4507 GAU  1.11e-03 -1.00e+00  1.17e+02 -1.00e+00    1.0000 >    0.6685   -0.0027    1.5720  738.3100 9819.1170   -1.3960    0.9259 304.19 304.2 157.9 10     0.0000    0.0134
M06          ?    BHE  e S      ? 20230120 1930   44.9605 GAU  3.64e-03 -1.00e+00 -1.00e+00 -1.00e+00    1.0000 >    1.1474    0.0281    1.1720  738.3100 9819.1170   -1.3960    0.9259 304.19 304.2 156.3 10     0.0000    0.0229
M11          ?    BHZ  i P      c 20230120 1930   44.5823 GAU  2.67e-03 -1.00e+00 -1.00e+00 -1.00e+00    1.0000 >    0.7954    0.0020    1.5615  738.4670 9820.4900   -1.3120    1.9888 342.17 342.2 137.6 10     0.0000    0.0159
M11          ?    BHN  e S      ? 20230120 1930   45.1415 GAU  9.57e-03 -1.00e+00 -1.00e+00 -1.00e+00    1.0000 >    1.3641   -0.0076    1.3167  738.4670 9820.4900   -1.3120    1.9888 342.17 342.2 134.0 10     0.0000    0.0273
M14          ?    BHZ  e P      c 20230120 1930   44.4993 GAU  2.39e-03 -1.00e+00 -1.00e+00 -1.00e+00    1.0000 >    0.8292   -0.1149    0.0754  737.5530 9820.0110   -1.3980    2.0783 312.88 312.9 137.3 10     0.0000    0.0166
M14          ?    BHE  e S      ? 20230120 1930   44.9775 GAU  2.77e-03 -1.00e+00  2.62e+02 -1.00e+00    1.0000 >    1.4224   -0.2298    0.0879  737.5530 9820.0110   -1.3980    2.0783 312.88 312.9 133.6 10     0.0000    0.0284
M09          ?    BHZ  i P      c 20230120 1930   44.6742 GAU  2.82e-03 -1.00e+00  6.67e+01 -1.00e+00    1.0000 >    0.9153   -0.0260    1.1016  737.8820 9820.9850   -1.2700    2.6701 333.44 333.4 127.9 10     0.0000    0.0183
M09          ?    BHN  e S      ? 20230120 1930   45.3367 GAU  5.74e-03 -1.00e+00  3.99e+02 -1.00e+00    1.0000 >    1.5682   -0.0165    1.1961  737.8820 9820.9850   -1.2700    2.6701 333.44 333.4 123.0 10     0.0000    0.0314
M13          ?    BHZ  i P      c 20230120 1930   44.7944 GAU  3.46e-03 -1.00e+00 -1.00e+00 -1.00e+00    1.0000 >    1.0846   -0.0752    0.2793  737.1780 9821.5410   -1.2220    3.5030 327.19 327.2 119.5 10     0.0000    0.0217
M13          ?    BHE  e S      ? 20230120 1930   45.4107 GAU  3.56e-03 -1.00e+00 -1.00e+00 -1.00e+00    1.0000 >    1.8551   -0.2293    0.0898  737.1780 9821.5410   -1.2220    3.5030 327.19 327.2 113.2 10     0.0000    0.0371
M08          ?    BHZ  e P      d 20230120 1930   44.9051 GAU  7.56e-03 -1.00e+00  2.78e+01 -1.00e+00    1.0000 >    1.1083    0.0119    1.4068  738.2480 9822.1600   -1.1510    3.6582 346.92 346.9 117.5 10     0.0000    0.0222
M08          ?    BHE  e S      ? 20230120 1930   45.6897 GAU  4.01e-03 -1.00e+00 -1.00e+00 -1.00e+00    1.0000 >    1.8940    0.0108    1.1865  738.2480 9822.1600   -1.1510    3.6582 346.92 346.9 111.0 10     0.0000    0.0379
M10          ?    BHZ  i P      d 20230120 1930   44.9612 GAU  6.89e-03 -1.00e+00  1.39e+03 -1.00e+00    1.0000 >    1.1394    0.0369    0.9949  736.5490 9821.3650   -1.2200    3.7481 317.61 317.6 117.6 10     0.0000    0.0228
M10          ?    BHN  e S      ? 20230120 1930   45.7284 GAU  2.90e-03 -1.00e+00 -1.00e+00 -1.00e+00    1.0000 >    1.9477   -0.0042    1.1793  736.5490 9821.3650   -1.2200    3.7481 317.61 317.6 111.1 10     0.0000    0.0390
M05          ?    BHZ  e P      d 20230120 1930   45.0823 GAU  8.04e-03 -1.00e+00  1.62e+02 -1.00e+00    1.0000 >    1.2983   -0.0009    1.3782  736.2660 9822.0830   -1.1500    4.4777 321.13 321.1 112.4 10     0.0000    0.0260
M05          ?    BHN  e S      ? 20230120 1930   46.0433 GAU  2.41e-03 -1.00e+00  2.49e+02 -1.00e+00    1.0000 >    2.2134    0.0449    0.8330  736.2660 9822.0830   -1.1500    4.4777 321.13 321.1 105.1 10     0.0000    0.0443
M15          ?    BHZ  e P      d 20230120 1930   45.1225 GAU  5.74e-03 -1.00e+00  1.01e+02 -1.00e+00    1.0000 >    1.3317    0.0059    1.3776  739.3310 9823.3170   -0.9530    4.7272   3.09   3.1 109.4 10     0.0000    0.0266
M15          ?    BHE  e S      ? 20230120 1930   46.0864 GAU  3.46e-03 -1.00e+00 -1.00e+00 -1.00e+00    1.0000 >    2.2625    0.0389    0.8921  739.3310 9823.3170   -0.9530    4.7272   3.09   3.1  88.4  9     0.0000    0.0453
M12          ?    BHZ  e P      d 20230120 1930   45.2448 GAU  9.63e-03 -1.00e+00 -1.00e+00 -1.00e+00    1.0000 >    1.4692   -0.0094    1.2736  736.8520 9823.3800   -0.9890    5.2750 335.06 335.1 104.8  9     0.0000    0.0294
M12          ?    BHE  e S      ? 20230120 1930   46.2632 GAU  9.57e-03 -1.00e+00 -1.00e+00 -1.00e+00    1.0000 >    2.4845   -0.0062    1.0256  736.8520 9823.3800   -0.9890    5.2750 335.06 335.1  70.4 10     0.0000    0.0497
END_PHASE
END_NLLOC

