NLLOC "./loc/SEML.20230120.191242.grid0" "LOCATED" "Location completed."
PUBLIC_ID None
SIGNATURE "Arham Zakki Edelo - edelo.17034@mhs.its.ac.id   obs:./obs/2023_01.obs   NLLoc:v7.00.10(30Aug2020)   run:28Dec2023 19h50m25"
COMMENT "SEML"
GRID  2001 2001 1001  727 9811 -2  0.01 0.01 0.01 PROB_DENSITY
SEARCH OCTREE nInitial 4851 nEvaluated 20019 smallestNodeSide 0.014881/0.014881/0.014205 oct_tree_integral 1.122943e-02 scatter_volume 1.122943e-02
HYPOCENTER  x 738.406 y 9819.04 z 0.975852  OT 41.4329  ix -1 iy -1 iz -1 MAXIMUM_LIKELIHOOD
GEOGRAPHIC  OT 2023 01 20  19 12 41.432900  Lat 9819.043155 Long 738.406250 Depth 0.975852
QUALITY  Pmax 3.6343e+84 MFmin 89.8981 MFmax 103.715 RMS 0.025784 Nphs 24 Gap 267.156 Dist 0.121314 Mamp -9.90 0 Mdur -9.90 0
VPVSRATIO  VpVsRatio 1.72545  Npair 12  Diff 0.483303
STATISTICS  ExpectX 738.503417 Y 9819.038418 Z 1.007924  CovXX 0.0383844 XY 0.00642089 XZ 0.00449244 YY 0.00936172 YZ -0.000995299 ZZ 0.0100964 EllAz1  343.2 Dip1  33.759 Len1  0.154112 Az2  180.026 Dip2  55.0734 Len2  0.195163 Len3  3.772861e-01
STAT_GEOG  ExpectLat 9819.038418 Long 738.503417 Depth 1.007924
TRANSFORM  NONE
QML_OriginQuality  assocPhCt 24  usedPhCt 24  assocStaCt -1  usedStaCt 12  depthPhCt -1  stdErr 0.025784  azGap 267.156  secAzGap 267.156  gtLevel -  minDist 0.121314 maxDist 4.60694 medDist 2.39743
QML_OriginUncertainty  horUnc -1  minHorUnc 0.135686  maxHorUnc 0.302333  azMaxHorUnc 78.0659
QML_ConfidenceEllipsoid  semiMajorAxisLength 0.377286  semiMinorAxisLength 0.154112  semiIntermediateAxisLength 0.195163  majorAxisPlunge 7.91951  majorAxisAzimuth 78.5352  majorAxisRotation 144.834
FOCALMECH  Hyp  9819.043155 738.406250 0.975852 Mech  0 0 0 mf  0 nObs -1
PHASE ID Ins Cmp On Pha  FM Date     HrMn   Sec     Err  ErrMag    Coda      Amp       Per       PriorWt  >   TTpred    Res       Weight    StaLoc(X  Y         Z)        SDist    SAzim  RAz  RDip RQual    Tcorr       TTerr
M06          ?    BHZ  i P      c 20230120 1912   42.0686 GAU  2.24e-03 -1.00e+00  3.25e+01 -1.00e+00    1.0000 >    0.6264    0.0093    1.6047  738.3100 9819.1170   -1.3960    0.1213 307.50 307.5 176.8  9     0.0000    0.0125
M06          ?    BHN  e S      ? 20230120 1912   42.5536 GAU  2.02e-03 -1.00e+00 -1.00e+00 -1.00e+00    1.0000 >    1.0749    0.0458    0.7340  738.3100 9819.1170   -1.3960    0.1213 307.50 307.5 176.6  9     0.0000    0.0215
M04          ?    BHZ  e P      c 20230120 1912   42.0987 GAU  2.03e-03 -1.00e+00 -1.00e+00 -1.00e+00    1.0000 >    0.7545   -0.0887    0.1280  737.1400 9819.2520   -1.5710    1.2834 279.37 279.4 152.4 10     0.0000    0.0151
M04          ?    BHE  e S      ? 20230120 1912   42.5754 GAU  2.22e-03 -1.00e+00  3.10e+02 -1.00e+00    1.0000 >    1.2949   -0.1525    0.1194  737.1400 9819.2520   -1.5710    1.2834 279.37 279.4 150.3 10     0.0000    0.0259
M14          ?    BHZ  e P      c 20230120 1912   42.1406 GAU  2.18e-03 -1.00e+00 -1.00e+00 -1.00e+00    1.0000 >    0.7128   -0.0052    1.6672  737.5530 9820.0110   -1.3980    1.2903 318.60 318.6 150.7 10     0.0000    0.0143
M14          ?    BHE  e S      ? 20230120 1912   42.6624 GAU  2.29e-03 -1.00e+00  4.70e+02 -1.00e+00    1.0000 >    1.2229    0.0066    1.4430  737.5530 9820.0110   -1.3980    1.2903 318.60 318.6 148.4 10     0.0000    0.0245
M11          ?    BHZ  i P      c 20230120 1912   42.1413 GAU  2.31e-03 -1.00e+00 -1.00e+00 -1.00e+00    1.0000 >    0.7132   -0.0048    1.6699  738.4670 9820.4900   -1.3120    1.4481   2.40   2.4 146.8 10     0.0000    0.0143
M11          ?    BHN  e S      ? 20230120 1912   42.6609 GAU  4.32e-03 -1.00e+00 -1.00e+00 -1.00e+00    1.0000 >    1.2231    0.0049    1.4477  738.4670 9820.4900   -1.3120    1.4481   2.40   2.4 144.2 10     0.0000    0.0245
M02          ?    BHZ  e P      d 20230120 1912   42.2233 GAU  2.16e-03 -1.00e+00 -1.00e+00 -1.00e+00    1.0000 >    0.8148   -0.0244    1.2041  736.5970 9819.4060   -1.4960    1.8453 281.34 281.3 142.0 10     0.0000    0.0163
M02          ?    BHE  e S      ? 20230120 1912   42.8169 GAU  2.51e-03 -1.00e+00  3.85e+03 -1.00e+00    1.0000 >    1.3978   -0.0139    1.3072  736.5970 9819.4060   -1.4960    1.8453 281.34 281.3 139.0 10     0.0000    0.0280
M09          ?    BHZ  i P      c 20230120 1912   42.2302 GAU  2.09e-03 -1.00e+00  1.76e+02 -1.00e+00    1.0000 >    0.7931    0.0042    1.6346  737.8820 9820.9850   -1.2700    2.0114 344.89 344.9 136.9 10     0.0000    0.0159
M09          ?    BHE  e S      ? 20230120 1912   42.7812 GAU  2.12e-03 -1.00e+00  3.21e+02 -1.00e+00    1.0000 >    1.3593   -0.0110    1.3514  737.8820 9820.9850   -1.2700    2.0114 344.89 344.9 133.3 10     0.0000    0.0272
M13          ?    BHZ  i P      c 20230120 1912   42.3570 GAU  2.37e-03 -1.00e+00 -1.00e+00 -1.00e+00    1.0000 >    0.9318   -0.0077    1.5554  737.1780 9821.5410   -1.2220    2.7835 333.82 333.8 126.3 10     0.0000    0.0186
M13          ?    BHE  e S      ? 20230120 1912   43.0417 GAU  2.73e-03 -1.00e+00 -1.00e+00 -1.00e+00    1.0000 >    1.5952    0.0136    1.2597  737.1780 9821.5410   -1.2220    2.7835 333.82 333.8 121.2 10     0.0000    0.0319
M10          ?    BHZ  e P      c 20230120 1912   42.4757 GAU  2.52e-03 -1.00e+00 -1.00e+00 -1.00e+00    1.0000 >    0.9711    0.0717    0.3280  736.5490 9821.3650   -1.2200    2.9733 321.34 321.3 124.3 10     0.0000    0.0194
M10          ?    BHN  e S      ? 20230120 1912   43.2547 GAU  2.78e-03 -1.00e+00  3.28e+03 -1.00e+00    1.0000 >    1.6619    0.1599    0.0228  736.5490 9821.3650   -1.2200    2.9733 321.34 321.3 119.0 10     0.0000    0.0332
M08          ?    BHZ  e P      d 20230120 1912   42.3870 GAU  3.87e-03 -1.00e+00  3.17e+02 -1.00e+00    1.0000 >    0.9909   -0.0367    0.8649  738.2480 9822.1600   -1.1510    3.1209 357.09 357.1 122.1 10     0.0000    0.0198
M08          ?    BHE  e S      ? 20230120 1912   43.1000 GAU  2.21e-03 -1.00e+00 -1.00e+00 -1.00e+00    1.0000 >    1.6946   -0.0275    1.0587  738.2480 9822.1600   -1.1510    3.1209 357.09 357.1 116.4 10     0.0000    0.0339
M05          ?    BHZ  e P      c 20230120 1912   42.5739 GAU  2.06e-03 -1.00e+00  1.27e+00 -1.00e+00    1.0000 >    1.1234    0.0176    1.3370  736.2660 9822.0830   -1.1500    3.7177 324.85 324.9 117.3 10     0.0000    0.0225
M05          ?    BHN  e S      ? 20230120 1912   43.3957 GAU  2.25e-03 -1.00e+00  2.92e+02 -1.00e+00    1.0000 >    1.9186    0.0442    0.8523  736.2660 9822.0830   -1.1500    3.7177 324.85 324.9 110.7 10     0.0000    0.0384
M15          ?    BHZ  e P      d 20230120 1912   42.5551 GAU  2.67e-03 -1.00e+00 -1.00e+00 -1.00e+00    1.0000 >    1.2479   -0.1257    0.1515  739.3310 9823.3170   -0.9530    4.3727  12.21  12.2 111.3 10     0.0000    0.0250
M15          ?    BHN  e S      ? 20230120 1912   43.3420 GAU  2.76e-03 -1.00e+00 -1.00e+00 -1.00e+00    1.0000 >    2.1227   -0.2136    0.0492  739.3310 9823.3170   -0.9530    4.3727  12.21  12.2  97.0  9     0.0000    0.0425
M12          ?    BHZ  e P      d 20230120 1912   42.7461 GAU  2.39e-03 -1.00e+00 -1.00e+00 -1.00e+00    1.0000 >    1.3087    0.0044    1.4199  736.8520 9823.3800   -0.9890    4.6069 340.28 340.3 110.5 10     0.0000    0.0262
M12          ?    BHN  e S      ? 20230120 1912   43.7061 GAU  4.15e-03 -1.00e+00 -1.00e+00 -1.00e+00    1.0000 >    2.2243    0.0489    0.7896  736.8520 9823.3800   -0.9890    4.6069 340.28 340.3  82.5  9     0.0000    0.0445
END_PHASE
END_NLLOC

