NLLOC "./loc/SEML.20230120.191754.grid0" "LOCATED" "Location completed."
PUBLIC_ID None
SIGNATURE "Arham Zakki Edelo - edelo.17034@mhs.its.ac.id   obs:./obs/2023_01.obs   NLLoc:v7.00.10(30Aug2020)   run:28Dec2023 19h50m36"
COMMENT "SEML"
GRID  2001 2001 1001  727 9811 -2  0.01 0.01 0.01 PROB_DENSITY
SEARCH OCTREE nInitial 4851 nEvaluated 20011 smallestNodeSide 0.014881/0.014881/0.014205 oct_tree_integral 1.175022e-02 scatter_volume 1.172218e-02
HYPOCENTER  x 738.882 y 9818.67 z 0.166193  OT 53.4299  ix -1 iy -1 iz -1 MAXIMUM_LIKELIHOOD
GEOGRAPHIC  OT 2023 01 20  19 17 53.429892  Lat 9818.671131 Long 738.882440 Depth 0.166193
QUALITY  Pmax 3.0226e+83 MFmin 88.9251 MFmax 102.724 RMS 0.0301507 Nphs 24 Gap 282.31 Dist 0.725594 Mamp -9.90 0 Mdur -9.90 0
VPVSRATIO  VpVsRatio 1.67407  Npair 12  Diff 0.581757
STATISTICS  ExpectX 738.873563 Y 9818.673954 Z 0.177235  CovXX 0.016226 XY -0.00115017 XZ -0.0114793 YY 0.0051742 YZ -0.00242432 ZZ 0.0204367 EllAz1  28.2122 Dip1  23.8632 Len1  0.108585 Az2  312.715 Dip2  -29.5147 Len2  0.172639 Len3  3.257138e-01
STAT_GEOG  ExpectLat 9818.673954 Long 738.873563 Depth 0.177235
TRANSFORM  NONE
QML_OriginQuality  assocPhCt 24  usedPhCt 24  assocStaCt -1  usedStaCt 12  depthPhCt -1  stdErr 0.0301507  azGap 282.31  secAzGap 282.31  gtLevel -  minDist 0.725594 maxDist 5.12798 medDist 2.92937
QML_OriginUncertainty  horUnc -1  minHorUnc 0.107834  maxHorUnc 0.193887  azMaxHorUnc 95.8789
QML_ConfidenceEllipsoid  semiMajorAxisLength 0.325714  semiMinorAxisLength 0.108585  semiIntermediateAxisLength 0.172639  majorAxisPlunge -50.3967  majorAxisAzimuth 85.8905  majorAxisRotation 257.154
FOCALMECH  Hyp  9818.671131 738.882440 0.166193 Mech  0 0 0 mf  0 nObs -1
PHASE ID Ins Cmp On Pha  FM Date     HrMn   Sec     Err  ErrMag    Coda      Amp       Per       PriorWt  >   TTpred    Res       Weight    StaLoc(X  Y         Z)        SDist    SAzim  RAz  RDip RQual    Tcorr       TTerr
M06          ?    BHZ  i P      c 20230120 1917   54.0455 GAU  2.00e-03 -1.00e+00 -1.00e+00 -1.00e+00    1.0000 >    0.4607    0.1549    0.1012  738.3100 9819.1170   -1.3960    0.7256 307.91 307.9 154.3 10     0.0000    0.0092
M06          ?    BHE  e S      ? 20230120 1917   54.5555 GAU  7.81e-03 -1.00e+00 -1.00e+00 -1.00e+00    1.0000 >    0.8054    0.3202    0.0000  738.3100 9819.1170   -1.3960    0.7256 307.91 307.9 153.8 10     0.0000    0.0161
M04          ?    BHZ  e P      c 20230120 1917   54.1060 GAU  4.98e-03 -1.00e+00 -1.00e+00 -1.00e+00    1.0000 >    0.6773   -0.0012    1.7378  737.1400 9819.2520   -1.5710    1.8367 288.44 288.4 131.2 10     0.0000    0.0135
M04          ?    BHN  e S      ? 20230120 1917   54.6164 GAU  4.81e-03 -1.00e+00  7.54e+02 -1.00e+00    1.0000 >    1.1828    0.0037    1.5294  737.1400 9819.2520   -1.5710    1.8367 288.44 288.4 130.1 10     0.0000    0.0237
M11          ?    BHZ  i P      c 20230120 1917   54.1136 GAU  2.31e-03 -1.00e+00 -1.00e+00 -1.00e+00    1.0000 >    0.6350    0.0487    0.5991  738.4670 9820.4900   -1.3120    1.8657 347.13 347.1 126.0 10     0.0000    0.0127
M11          ?    BHN  e S      ? 20230120 1917   54.7192 GAU  6.87e-03 -1.00e+00 -1.00e+00 -1.00e+00    1.0000 >    1.1113    0.1780    0.1003  738.4670 9820.4900   -1.3120    1.8657 347.13 347.1 124.5 10     0.0000    0.0222
M14          ?    BHZ  i P      c 20230120 1917   54.0748 GAU  1.97e-02 -1.00e+00  7.94e+02 -1.00e+00    1.0000 >    0.6550   -0.0100    1.4663  737.5530 9820.0110   -1.3980    1.8875 315.22 315.2 127.3 10     0.0000    0.0131
M14          ?    BHN  e S      ? 20230120 1917   54.5483 GAU  8.31e-03 -1.00e+00  2.30e+02 -1.00e+00    1.0000 >    1.1454   -0.0270    1.1470  737.5530 9820.0110   -1.3980    1.8875 315.22 315.2 125.9 10     0.0000    0.0229
M02          ?    BHZ  e P      c 20230120 1917   54.2110 GAU  1.83e-03 -1.00e+00 -1.00e+00 -1.00e+00    1.0000 >    0.7813   -0.0003    1.7147  736.5970 9819.4060   -1.4960    2.4007 287.82 287.8 121.8 10     0.0000    0.0156
M02          ?    BHE  e S      ? 20230120 1917   54.8294 GAU  2.32e-03 -1.00e+00  2.65e+03 -1.00e+00    1.0000 >    1.3655    0.0341    1.0736  736.5970 9819.4060   -1.4960    2.4007 287.82 287.8 120.2 10     0.0000    0.0273
M09          ?    BHZ  i P      c 20230120 1917   54.2004 GAU  2.31e-03 -1.00e+00  1.13e+02 -1.00e+00    1.0000 >    0.7731   -0.0026    1.7058  737.8820 9820.9850   -1.2700    2.5209 336.62 336.6 116.6 10     0.0000    0.0155
M09          ?    BHE  e S      ? 20230120 1917   54.7972 GAU  1.60e-03 -1.00e+00  3.21e+02 -1.00e+00    1.0000 >    1.3540    0.0133    1.4091  737.8820 9820.9850   -1.2700    2.5209 336.62 336.6 114.4 10     0.0000    0.0271
M13          ?    BHZ  i P      c 20230120 1917   54.3342 GAU  3.46e-03 -1.00e+00 -1.00e+00 -1.00e+00    1.0000 >    0.9615   -0.0572    0.4552  737.1780 9821.5410   -1.2220    3.3379 329.29 329.3 108.9 10     0.0000    0.0192
M13          ?    BHE  e S      ? 20230120 1917   54.9845 GAU  4.98e-03 -1.00e+00 -1.00e+00 -1.00e+00    1.0000 >    1.6852   -0.1305    0.1686  737.1780 9821.5410   -1.2220    3.3379 329.29 329.3 105.4 10     0.0000    0.0337
M08          ?    BHZ  i P      d 20230120 1917   54.4289 GAU  8.27e-03 -1.00e+00  1.78e+02 -1.00e+00    1.0000 >    1.0042   -0.0052    1.5556  738.2480 9822.1600   -1.1510    3.5461 349.69 349.7 106.8 10     0.0000    0.0201
M08          ?    BHN  e S      ? 20230120 1917   55.2094 GAU  2.31e-03 -1.00e+00  2.62e+02 -1.00e+00    1.0000 >    1.7613    0.0183    1.2295  738.2480 9822.1600   -1.1510    3.5461 349.69 349.7 102.6 10     0.0000    0.0352
M10          ?    BHZ  i P      d 20230120 1917   54.4536 GAU  4.41e-03 -1.00e+00  1.31e+03 -1.00e+00    1.0000 >    1.0168    0.0069    1.5850  736.5490 9821.3650   -1.2200    3.5640 319.10 319.1 107.5 10     0.0000    0.0203
M10          ?    BHN  e S      ? 20230120 1917   55.2212 GAU  6.64e-03 -1.00e+00 -1.00e+00 -1.00e+00    1.0000 >    1.7821    0.0092    1.2742  736.5490 9821.3650   -1.2200    3.5640 319.10 319.1 103.6 10     0.0000    0.0356
M05          ?    BHZ  i P      d 20230120 1917   54.6259 GAU  4.48e-03 -1.00e+00  1.44e+02 -1.00e+00    1.0000 >    1.1923    0.0037    1.5267  736.2660 9822.0830   -1.1500    4.2996 322.52 322.5 103.1 10     0.0000    0.0238
M05          ?    BHN  e S      ? 20230120 1917   55.4787 GAU  2.58e-03 -1.00e+00  2.37e+02 -1.00e+00    1.0000 >    2.0908   -0.0420    0.8863  736.2660 9822.0830   -1.1500    4.2996 322.52 322.5  98.1 10     0.0000    0.0418
M15          ?    BHZ  i P      c 20230120 1917   54.5885 GAU  3.47e-03 -1.00e+00 -1.00e+00 -1.00e+00    1.0000 >    1.2649   -0.1062    0.1952  739.3310 9823.3170   -0.9530    4.6675   5.51   5.5 100.2 10     0.0000    0.0253
M15          ?    BHE  e S      ? 20230120 1917   55.4664 GAU  4.98e-03 -1.00e+00 -1.00e+00 -1.00e+00    1.0000 >    2.2201   -0.1835    0.0765  739.3310 9823.3170   -0.9530    4.6675   5.51   5.5  95.1  9     0.0000    0.0444
M12          ?    BHZ  i P      c 20230120 1917   54.8249 GAU  4.49e-03 -1.00e+00 -1.00e+00 -1.00e+00    1.0000 >    1.3858    0.0092    1.4246  736.8520 9823.3800   -0.9890    5.1280 336.67 336.7  99.3 10     0.0000    0.0277
M12          ?    BHE  e S      ? 20230120 1917   55.8801 GAU  4.15e-03 -1.00e+00  2.00e+01 -1.00e+00    1.0000 >    2.4301    0.0201    1.0382  736.8520 9823.3800   -0.9890    5.1280 336.67 336.7  94.4  9     0.0000    0.0486
END_PHASE
END_NLLOC

