NLLOC "./loc/SEML.20230120.191322.grid0" "LOCATED" "Location completed."
PUBLIC_ID None
SIGNATURE "Arham Zakki Edelo - edelo.17034@mhs.its.ac.id   obs:./obs/2023_01.obs   NLLoc:v7.00.10(30Aug2020)   run:28Dec2023 19h50m27"
COMMENT "SEML"
GRID  2001 2001 1001  727 9811 -2  0.01 0.01 0.01 PROB_DENSITY
SEARCH OCTREE nInitial 4851 nEvaluated 20019 smallestNodeSide 0.014881/0.014881/0.014205 oct_tree_integral 3.968922e-02 scatter_volume 3.953104e-02
HYPOCENTER  x 737.409 y 9818.28 z 0.848011  OT 21.5247  ix -1 iy -1 iz -1 MAXIMUM_LIKELIHOOD
GEOGRAPHIC  OT 2023 01 20  19 13 21.524724  Lat 9818.284226 Long 737.409226 Depth 0.848011
QUALITY  Pmax 3.03644e+50 MFmin 55.2633 MFmax 64.8049 RMS 0.0237233 Nphs 16 Gap 296.005 Dist 1.22675 Mamp -9.90 0 Mdur -9.90 0
VPVSRATIO  VpVsRatio 1.7834  Npair 8  Diff 0.690483
STATISTICS  ExpectX 737.563235 Y 9818.307551 Z 0.894724  CovXX 0.0806188 XY 0.0212086 XZ 0.0299241 YY 0.0235534 YZ 0.00603732 ZZ 0.0321382 EllAz1  146.426 Dip1  -32.5667 Len1  0.223134 Az2  11.8004 Dip2  -47.7219 Len2  0.273567 Len3  5.971162e-01
STAT_GEOG  ExpectLat 9818.307551 Long 737.563235 Depth 0.894724
TRANSFORM  NONE
QML_OriginQuality  assocPhCt 16  usedPhCt 16  assocStaCt -1  usedStaCt 8  depthPhCt -1  stdErr 0.0237233  azGap 296.005  secAzGap 296.005  gtLevel -  minDist 1.22675 maxDist 5.12615 medDist 3.00341
QML_OriginUncertainty  horUnc -1  minHorUnc 0.195011  maxHorUnc 0.448962  azMaxHorUnc 71.6881
QML_ConfidenceEllipsoid  semiMajorAxisLength 0.597116  semiMinorAxisLength 0.223134  semiIntermediateAxisLength 0.273567  majorAxisPlunge 23.7976  majorAxisAzimuth 72.7861  majorAxisRotation 312.829
FOCALMECH  Hyp  9818.284226 737.409226 0.848011 Mech  0 0 0 mf  0 nObs -1
PHASE ID Ins Cmp On Pha  FM Date     HrMn   Sec     Err  ErrMag    Coda      Amp       Per       PriorWt  >   TTpred    Res       Weight    StaLoc(X  Y         Z)        SDist    SAzim  RAz  RDip RQual    Tcorr       TTerr
M06          ?    BHZ  i P      c 20230120 1913   22.2003 GAU  8.61e-03 -1.00e+00 -1.00e+00 -1.00e+00    1.0000 >    0.6759   -0.0003    1.6236  738.3100 9819.1170   -1.3960    1.2267  47.25  47.2 150.4 10     0.0000    0.0135
M06          ?    BHE  e S      ? 20230120 1913   22.6989 GAU  5.98e-03 -1.00e+00 -1.00e+00 -1.00e+00    1.0000 >    1.1638    0.0104    1.3967  738.3100 9819.1170   -1.3960    1.2267  47.25  47.2 148.0 10     0.0000    0.0233
M14          ?    BHZ  e P      c 20230120 1913   22.2814 GAU  1.01e-02 -1.00e+00  3.76e+02 -1.00e+00    1.0000 >    0.7494    0.0073    1.5327  737.5530 9820.0110   -1.3980    1.7327   4.76   4.8 141.1 10     0.0000    0.0150
M14          ?    BHE  e S      ? 20230120 1913   22.7992 GAU  1.16e-02 -1.00e+00  4.30e+02 -1.00e+00    1.0000 >    1.2900   -0.0155    1.3097  737.5530 9820.0110   -1.3980    1.7327   4.76   4.8 137.7 10     0.0000    0.0258
M11          ?    BHZ  e P      c 20230120 1913   22.2974 GAU  6.65e-03 -1.00e+00 -1.00e+00 -1.00e+00    1.0000 >    0.8604   -0.0877    0.2293  738.4670 9820.4900   -1.3120    2.4463  25.62  25.6 129.4 10     0.0000    0.0172
M11          ?    BHN  e S      ? 20230120 1913   22.9046 GAU  1.38e-02 -1.00e+00 -1.00e+00 -1.00e+00    1.0000 >    1.4799   -0.1000    0.2544  738.4670 9820.4900   -1.3120    2.4463  25.62  25.6 124.4 10     0.0000    0.0296
M09          ?    BHZ  e P      c 20230120 1913   22.4068 GAU  9.97e-03 -1.00e+00  1.91e+01 -1.00e+00    1.0000 >    0.9127   -0.0306    1.0686  737.8820 9820.9850   -1.2700    2.7418   9.93   9.9 125.4 10     0.0000    0.0183
M09          ?    BHE  e S      ? 20230120 1913   23.0847 GAU  3.99e-03 -1.00e+00  3.73e+02 -1.00e+00    1.0000 >    1.5691   -0.0091    1.3077  737.8820 9820.9850   -1.2700    2.7418   9.93   9.9 119.7 10     0.0000    0.0314
M13          ?    BHZ  e P      c 20230120 1913   22.5388 GAU  1.67e-03 -1.00e+00 -1.00e+00 -1.00e+00    1.0000 >    1.0173   -0.0032    1.5427  737.1780 9821.5410   -1.2220    3.2650 355.94 355.9 119.8 10     0.0000    0.0203
M13          ?    BHE  e S      ? 20230120 1913   23.3168 GAU  1.38e-02 -1.00e+00 -1.00e+00 -1.00e+00    1.0000 >    1.7471    0.0450    0.7850  737.1780 9821.5410   -1.2220    3.2650 355.94 355.9 112.9 10     0.0000    0.0349
M08          ?    BHZ  e P      d 20230120 1913   22.6850 GAU  7.97e-03 -1.00e+00  2.45e+02 -1.00e+00    1.0000 >    1.1666   -0.0063    1.4475  738.2480 9822.1600   -1.1510    3.9655  12.21  12.2 113.9 10     0.0000    0.0233
M08          ?    BHN  e S      ? 20230120 1913   23.5684 GAU  5.77e-03 -1.00e+00  2.93e+02 -1.00e+00    1.0000 >    1.9989    0.0448    0.7937  738.2480 9822.1600   -1.1510    3.9655  12.21  12.2 105.8 10     0.0000    0.0400
M05          ?    BHZ  e P      c 20230120 1913   22.6953 GAU  6.89e-03 -1.00e+00  7.92e+01 -1.00e+00    1.0000 >    1.1668    0.0038    1.4518  736.2660 9822.0830   -1.1500    3.9671 343.25 343.3 113.9 10     0.0000    0.0233
M05          ?    BHN  e S      ? 20230120 1913   23.5143 GAU  5.54e-03 -1.00e+00  2.58e+02 -1.00e+00    1.0000 >    1.9992   -0.0097    1.1716  736.2660 9822.0830   -1.1500    3.9671 343.25 343.3 105.8 10     0.0000    0.0400
M12          ?    BHZ  i P      c 20230120 1913   23.0666 GAU  3.32e-03 -1.00e+00 -1.00e+00 -1.00e+00    1.0000 >    1.4243    0.1176    0.0846  736.8520 9823.3800   -0.9890    5.1261 353.76 353.8 106.6 10     0.0000    0.0285
M12          ?    BHN  e S      ? 20230120 1913   24.2556 GAU  1.02e-02 -1.00e+00 -1.00e+00 -1.00e+00    1.0000 >    2.4243    0.3066    0.0004  736.8520 9823.3800   -0.9890    5.1261 353.76 353.8  98.6 10     0.0000    0.0485
END_PHASE
END_NLLOC

