NLLOC "./loc/SEML.20230120.191245.grid0" "LOCATED" "Location completed."
PUBLIC_ID None
SIGNATURE "Arham Zakki Edelo - edelo.17034@mhs.its.ac.id   obs:./obs/2023_01.obs   NLLoc:v7.00.10(30Aug2020)   run:28Dec2023 19h50m26"
COMMENT "SEML"
GRID  2001 2001 1001  727 9811 -2  0.01 0.01 0.01 PROB_DENSITY
SEARCH OCTREE nInitial 4851 nEvaluated 20019 smallestNodeSide 0.014881/0.014881/0.014205 oct_tree_integral 4.925525e-02 scatter_volume 4.925525e-02
HYPOCENTER  x 738.205 y 9819.08 z 1.59375  OT 45.1901  ix -1 iy -1 iz -1 MAXIMUM_LIKELIHOOD
GEOGRAPHIC  OT 2023 01 20  19 12 45.190099  Lat 9819.080357 Long 738.205357 Depth 1.593750
QUALITY  Pmax 9.93128e+29 MFmin 35.4032 MFmax 42.1147 RMS 0.0145783 Nphs 10 Gap 254.269 Dist 0.110873 Mamp -9.90 0 Mdur -9.90 0
VPVSRATIO  VpVsRatio 1.75927  Npair 5  Diff 0.209679
STATISTICS  ExpectX 738.203366 Y 9819.074485 Z 1.596199  CovXX 0.0767591 XY 0.00609898 XZ -0.00440248 YY 0.0146223 YZ -0.00323742 ZZ 0.0181431 EllAz1  356.652 Dip1  27.977 Len1  0.21042 Az2  345.852 Dip2  -61.5966 Len2  0.260736 Len3  5.237954e-01
STAT_GEOG  ExpectLat 9819.074485 Long 738.203366 Depth 1.596199
TRANSFORM  NONE
QML_OriginQuality  assocPhCt 10  usedPhCt 10  assocStaCt -1  usedStaCt 5  depthPhCt -1  stdErr 0.0145783  azGap 254.269  secAzGap 254.269  gtLevel -  minDist 0.110873 maxDist 3.07994 medDist 1.43372
QML_OriginUncertainty  horUnc -1  minHorUnc 0.179631  maxHorUnc 0.421794  azMaxHorUnc 84.4468
QML_ConfidenceEllipsoid  semiMajorAxisLength 0.523795  semiMinorAxisLength 0.21042  semiIntermediateAxisLength 0.260736  majorAxisPlunge -4.51505  majorAxisAzimuth 84.2482  majorAxisRotation 151.63
FOCALMECH  Hyp  9819.080357 738.205357 1.593750 Mech  0 0 0 mf  0 nObs -1
PHASE ID Ins Cmp On Pha  FM Date     HrMn   Sec     Err  ErrMag    Coda      Amp       Per       PriorWt  >   TTpred    Res       Weight    StaLoc(X  Y         Z)        SDist    SAzim  RAz  RDip RQual    Tcorr       TTerr
M06          ?    BHZ  e P      c 20230120 1912   45.9635 GAU  6.00e-03 -1.00e+00  1.21e+03 -1.00e+00    1.0000 >    0.7715    0.0019    1.2200  738.3100 9819.1170   -1.3960    0.1109  70.70  70.7 177.4  9     0.0000    0.0154
M06          ?    BHN  e S      ? 20230120 1912   46.5033 GAU  8.61e-03 -1.00e+00 -1.00e+00 -1.00e+00    1.0000 >    1.3127    0.0005    1.0667  738.3100 9819.1170   -1.3960    0.1109  70.70  70.7 177.3  9     0.0000    0.0263
M14          ?    BHZ  e P      c 20230120 1912   46.0277 GAU  5.42e-03 -1.00e+00 -1.00e+00 -1.00e+00    1.0000 >    0.8255    0.0121    1.1106  737.5530 9820.0110   -1.3980    1.1365 324.97 325.0 156.6 10     0.0000    0.0165
M14          ?    BHN  e S      ? 20230120 1912   46.5942 GAU  2.32e-03 -1.00e+00  2.56e+02 -1.00e+00    1.0000 >    1.4044   -0.0003    1.0585  737.5530 9820.0110   -1.3980    1.1365 324.97 325.0 155.8 10     0.0000    0.0281
M11          ?    BHZ  e P      c 20230120 1912   46.0086 GAU  4.81e-03 -1.00e+00 -1.00e+00 -1.00e+00    1.0000 >    0.8341   -0.0156    1.0905  738.4670 9820.4900   -1.3120    1.4337  10.51  10.5 150.5 10     0.0000    0.0167
M11          ?    BHN  e S      ? 20230120 1912   46.6194 GAU  1.65e-02 -1.00e+00 -1.00e+00 -1.00e+00    1.0000 >    1.4181    0.0112    0.9457  738.4670 9820.4900   -1.3120    1.4337  10.51  10.5 149.5 10     0.0000    0.0284
M09          ?    BHZ  i P      c 20230120 1912   46.0498 GAU  8.26e-03 -1.00e+00 -1.00e+00 -1.00e+00    1.0000 >    0.8880   -0.0282    0.8303  737.8820 9820.9850   -1.2700    1.9319 350.36 350.4 141.6 10     0.0000    0.0178
M09          ?    BHE  e S      ? 20230120 1912   46.6828 GAU  1.03e-02 -1.00e+00  3.31e+02 -1.00e+00    1.0000 >    1.5087   -0.0160    0.9336  737.8820 9820.9850   -1.2700    1.9319 350.36 350.4 140.3 10     0.0000    0.0302
M08          ?    BHZ  i P      c 20230120 1912   46.2590 GAU  1.66e-02 -1.00e+00 -1.00e+00 -1.00e+00    1.0000 >    1.0557    0.0132    1.0048  738.2480 9822.1600   -1.1510    3.0799   0.79   0.8 124.3 10     0.0000    0.0211
M08          ?    BHE  e S      ? 20230120 1912   47.0085 GAU  1.40e-02 -1.00e+00 -1.00e+00 -1.00e+00    1.0000 >    1.7898    0.0287    0.7394  738.2480 9822.1600   -1.1510    3.0799   0.79   0.8 122.4 10     0.0000    0.0358
END_PHASE
END_NLLOC

