NLLOC "./loc/SEML.20230120.193433.grid0" "LOCATED" "Location completed."
PUBLIC_ID None
SIGNATURE "Arham Zakki Edelo - edelo.17034@mhs.its.ac.id   obs:./obs/2023_01.obs   NLLoc:v7.00.10(30Aug2020)   run:28Dec2023 19h50m57"
COMMENT "SEML"
GRID  2001 2001 1001  727 9811 -2  0.01 0.01 0.01 PROB_DENSITY
SEARCH OCTREE nInitial 4851 nEvaluated 20027 smallestNodeSide 0.029762/0.029762/0.028409 oct_tree_integral 8.364164e-02 scatter_volume 8.217532e-02
HYPOCENTER  x 736.866 y 9818.63 z -0.0539773  OT 33.225  ix -1 iy -1 iz -1 MAXIMUM_LIKELIHOOD
GEOGRAPHIC  OT 2023 01 20  19 34 33.224996  Lat 9818.633929 Long 736.866071 Depth -0.053977
QUALITY  Pmax 1.18263e+28 MFmin 37.0059 MFmax 45.0984 RMS 0.0222789 Nphs 10 Gap 294.622 Dist 1.52259 Mamp -9.90 0 Mdur -9.90 0
VPVSRATIO  VpVsRatio 1.77563  Npair 5  Diff 0.417412
STATISTICS  ExpectX 736.596809 Y 9818.550065 Z -0.931690  CovXX 0.0674074 XY 0.0235184 XZ 0.134255 YY 0.024899 YZ 0.025823 ZZ 0.482427 EllAz1  140.056 Dip1  -7.99934 Len1  0.187293 Az2  227.924 Dip2  14.8314 Len2  0.379249 Len3  1.360110e+00
STAT_GEOG  ExpectLat 9818.550065 Long 736.596809 Depth -0.931690
TRANSFORM  NONE
QML_OriginQuality  assocPhCt 10  usedPhCt 10  assocStaCt -1  usedStaCt 5  depthPhCt -1  stdErr 0.0222789  azGap 294.622  secAzGap 294.622  gtLevel -  minDist 1.52259 maxDist 3.7872 medDist 2.56118
QML_OriginUncertainty  horUnc -1  minHorUnc 0.182328  maxHorUnc 0.423156  azMaxHorUnc 66.0525
QML_ConfidenceEllipsoid  semiMajorAxisLength 1.36011  semiMinorAxisLength 0.187293  semiIntermediateAxisLength 0.379249  majorAxisPlunge 73.0608  majorAxisAzimuth 77.5338  majorAxisRotation 33.218
FOCALMECH  Hyp  9818.633929 736.866071 -0.053977 Mech  0 0 0 mf  0 nObs -1
PHASE ID Ins Cmp On Pha  FM Date     HrMn   Sec     Err  ErrMag    Coda      Amp       Per       PriorWt  >   TTpred    Res       Weight    StaLoc(X  Y         Z)        SDist    SAzim  RAz  RDip RQual    Tcorr       TTerr
M06          ?    BHZ  i P      c 20230120 1934   33.7628 GAU  2.27e-02 -1.00e+00  4.39e+01 -1.00e+00    1.0000 >    0.5452   -0.0074    1.2737  738.3100 9819.1170   -1.3960    1.5226  71.50  71.5 128.9 10     0.0000    0.0109
M06          ?    BHE  e S      ? 20230120 1934   34.1873 GAU  1.85e-03 -1.00e+00 -1.00e+00 -1.00e+00    1.0000 >    0.9544    0.0079    1.4130  738.3100 9819.1170   -1.3960    1.5226  71.50  71.5 130.6 10     0.0000    0.0191
M11          ?    BHZ  e P      c 20230120 1934   33.9642 GAU  2.77e-03 -1.00e+00 -1.00e+00 -1.00e+00    1.0000 >    0.7387    0.0005    1.4809  738.4670 9820.4900   -1.3120    2.4511  40.78  40.8 113.4 10     0.0000    0.0148
M11          ?    BHN  e S      ? 20230120 1934   34.5223 GAU  4.61e-03 -1.00e+00 -1.00e+00 -1.00e+00    1.0000 >    1.2954    0.0019    1.3083  738.4670 9820.4900   -1.3120    2.4511  40.78  40.8 116.0 10     0.0000    0.0259
M09          ?    BHZ  i P      c 20230120 1934   34.0173 GAU  1.67e-03 -1.00e+00  8.00e+01 -1.00e+00    1.0000 >    0.7594    0.0329    0.8283  737.8820 9820.9850   -1.2700    2.5612  23.37  23.4 111.5 10     0.0000    0.0152
M09          ?    BHE  e S      ? 20230120 1934   34.5343 GAU  4.61e-03 -1.00e+00  3.48e+02 -1.00e+00    1.0000 >    1.3327   -0.0234    0.9892  737.8820 9820.9850   -1.2700    2.5612  23.37  23.4 114.1 10     0.0000    0.0267
M13          ?    BHZ  e P      c 20230120 1934   34.0557 GAU  7.97e-03 -1.00e+00 -1.00e+00 -1.00e+00    1.0000 >    0.8420   -0.0113    1.3044  737.1780 9821.5410   -1.2220    2.9238   6.12   6.1 107.6 10     0.0000    0.0168
M13          ?    BHE  e S      ? 20230120 1934   34.7237 GAU  4.59e-03 -1.00e+00 -1.00e+00 -1.00e+00    1.0000 >    1.4795    0.0192    1.1448  737.1780 9821.5410   -1.2220    2.9238   6.12   6.1 110.4 10     0.0000    0.0296
M08          ?    BHZ  e P      c 20230120 1934   34.3762 GAU  3.46e-03 -1.00e+00  1.63e+02 -1.00e+00    1.0000 >    1.0508    0.1004    0.1381  738.2480 9822.1600   -1.1510    3.7872  21.40  21.4 101.7 10     0.0000    0.0210
M08          ?    BHE  e S      ? 20230120 1934   35.2181 GAU  4.61e-03 -1.00e+00 -1.00e+00 -1.00e+00    1.0000 >    1.8514    0.1417    0.1193  738.2480 9822.1600   -1.1510    3.7872  21.40  21.4 104.5 10     0.0000    0.0370
END_PHASE
END_NLLOC

