NLLOC "./loc/SEML.20230120.191832.grid0" "LOCATED" "Location completed."
PUBLIC_ID None
SIGNATURE "Arham Zakki Edelo - edelo.17034@mhs.its.ac.id   obs:./obs/2023_01.obs   NLLoc:v7.00.10(30Aug2020)   run:28Dec2023 19h50m37"
COMMENT "SEML"
GRID  2001 2001 1001  727 9811 -2  0.01 0.01 0.01 PROB_DENSITY
SEARCH OCTREE nInitial 4851 nEvaluated 20027 smallestNodeSide 0.029762/0.029762/0.028409 oct_tree_integral 5.242041e-01 scatter_volume 5.242041e-01
HYPOCENTER  x 738.086 y 9817.56 z 2.3608  OT 31.1907  ix -1 iy -1 iz -1 MAXIMUM_LIKELIHOOD
GEOGRAPHIC  OT 2023 01 20  19 18 31.190725  Lat 9817.562500 Long 738.086310 Depth 2.360795
QUALITY  Pmax 2.20327e+40 MFmin 43.3831 MFmax 48.3131 RMS 0.035864 Nphs 14 Gap 329.878 Dist 1.57051 Mamp -9.90 0 Mdur -9.90 0
VPVSRATIO  VpVsRatio 1.62188  Npair 7  Diff 0.527908
STATISTICS  ExpectX 737.887469 Y 9817.461577 Z 2.233208  CovXX 0.358414 XY 0.0815706 XZ 0.0842919 YY 0.0861664 YZ 0.0525099 ZZ 0.0871044 EllAz1  180.589 Dip1  45.2061 Len1  0.347015 Az2  328.629 Dip2  40.1087 Len2  0.558098 Len3  1.202062e+00
STAT_GEOG  ExpectLat 9817.461577 Long 737.887469 Depth 2.233208
TRANSFORM  NONE
QML_OriginQuality  assocPhCt 14  usedPhCt 14  assocStaCt -1  usedStaCt 7  depthPhCt -1  stdErr 0.035864  azGap 329.878  secAzGap 329.878  gtLevel -  minDist 1.57051 maxDist 4.87324 medDist 3.42859
QML_OriginUncertainty  horUnc -1  minHorUnc 0.382457  maxHorUnc 0.936088  azMaxHorUnc 74.5342
QML_ConfidenceEllipsoid  semiMajorAxisLength 1.20206  semiMinorAxisLength 0.347015  semiIntermediateAxisLength 0.558098  majorAxisPlunge 16.5729  majorAxisAzimuth 73.1467  majorAxisRotation 52.7611
FOCALMECH  Hyp  9817.562500 738.086310 2.360795 Mech  0 0 0 mf  0 nObs -1
PHASE ID Ins Cmp On Pha  FM Date     HrMn   Sec     Err  ErrMag    Coda      Amp       Per       PriorWt  >   TTpred    Res       Weight    StaLoc(X  Y         Z)        SDist    SAzim  RAz  RDip RQual    Tcorr       TTerr
M06          ?    BHZ  e P      c 20230120 1918   32.2678 GAU  2.30e-03 -1.00e+00 -1.00e+00 -1.00e+00    1.0000 >    1.0258    0.0513    1.1410  738.3100 9819.1170   -1.3960    1.5705   8.19   8.2 154.9 10     0.0000    0.0205
M06          ?    BHN  e S      ? 20230120 1918   32.9643 GAU  2.94e-03 -1.00e+00 -1.00e+00 -1.00e+00    1.0000 >    1.7340    0.0396    1.3073  738.3100 9819.1170   -1.3960    1.5705   8.19   8.2 154.3 10     0.0000    0.0347
M14          ?    BHZ  e P      c 20230120 1918   32.3304 GAU  7.18e-03 -1.00e+00 -1.00e+00 -1.00e+00    1.0000 >    1.1372    0.0025    1.5012  737.5530 9820.0110   -1.3980    2.5059 347.71 347.7 142.5 10     0.0000    0.0227
M14          ?    BHN  e S      ? 20230120 1918   33.1043 GAU  4.96e-03 -1.00e+00  2.99e+02 -1.00e+00    1.0000 >    1.9212   -0.0076    1.3151  737.5530 9820.0110   -1.3980    2.5059 347.71 347.7 141.6 10     0.0000    0.0384
M11          ?    BHZ  i P      c 20230120 1918   32.3495 GAU  2.31e-03 -1.00e+00 -1.00e+00 -1.00e+00    1.0000 >    1.1830   -0.0242    1.1890  738.4670 9820.4900   -1.3120    2.9521   7.41   7.4 136.8 10     0.0000    0.0237
M11          ?    BHN  e S      ? 20230120 1918   33.1703 GAU  1.38e-02 -1.00e+00 -1.00e+00 -1.00e+00    1.0000 >    1.9968   -0.0172    1.1930  738.4670 9820.4900   -1.3120    2.9521   7.41   7.4 135.8 10     0.0000    0.0399
M09          ?    BHZ  i P      c 20230120 1918   32.4239 GAU  4.78e-03 -1.00e+00  7.26e+01 -1.00e+00    1.0000 >    1.2515   -0.0184    1.2882  737.8820 9820.9850   -1.2700    3.4286 356.58 356.6 131.4 10     0.0000    0.0250
M09          ?    BHE  e S      ? 20230120 1918   33.3180 GAU  3.85e-03 -1.00e+00  3.58e+02 -1.00e+00    1.0000 >    2.1109    0.0164    1.3622  737.8820 9820.9850   -1.2700    3.4286 356.58 356.6 130.4 10     0.0000    0.0422
M13          ?    BHZ  e P      c 20230120 1918   32.5646 GAU  7.97e-03 -1.00e+00 -1.00e+00 -1.00e+00    1.0000 >    1.3580    0.0159    1.4891  737.1780 9821.5410   -1.2220    4.0809 347.14 347.1 125.1 10     0.0000    0.0272
M13          ?    BHE  e S      ? 20230120 1918   33.5221 GAU  4.81e-03 -1.00e+00 -1.00e+00 -1.00e+00    1.0000 >    2.2880    0.0434    1.2071  737.1780 9821.5410   -1.2220    4.0809 347.14 347.1 124.0 10     0.0000    0.0458
M08          ?    BHZ  e P      c 20230120 1918   32.7105 GAU  2.77e-03 -1.00e+00  1.19e+02 -1.00e+00    1.0000 >    1.4434    0.0764    0.7973  738.2480 9822.1600   -1.1510    4.6003   2.01   2.0 120.4 10     0.0000    0.0289
M08          ?    BHN  e S      ? 20230120 1918   33.7676 GAU  4.81e-03 -1.00e+00  2.95e+02 -1.00e+00    1.0000 >    2.4287    0.1482    0.2082  738.2480 9822.1600   -1.1510    4.6003   2.01   2.0 119.4 10     0.0000    0.0486
M05          ?    BHZ  i P      d 20230120 1918   33.0306 GAU  6.89e-03 -1.00e+00  2.56e+02 -1.00e+00    1.0000 >    1.4972    0.3427    0.0010  736.2660 9822.0830   -1.1500    4.8732 338.07 338.1 118.5 10     0.0000    0.0299
M05          ?    BHE  e S      ? 20230120 1918   34.2550 GAU  9.97e-03 -1.00e+00 -1.00e+00 -1.00e+00    1.0000 >    2.5183    0.5460    0.0004  736.2660 9822.0830   -1.1500    4.8732 338.07 338.1 117.4 10     0.0000    0.0504
END_PHASE
END_NLLOC

