NLLOC "./loc/SEML.20230120.192012.grid0" "LOCATED" "Location completed."
PUBLIC_ID None
SIGNATURE "Arham Zakki Edelo - edelo.17034@mhs.its.ac.id   obs:./obs/2023_01.obs   NLLoc:v7.00.10(30Aug2020)   run:28Dec2023 19h50m38"
COMMENT "SEML"
GRID  2001 2001 1001  727 9811 -2  0.01 0.01 0.01 PROB_DENSITY
SEARCH OCTREE nInitial 4851 nEvaluated 20011 smallestNodeSide 0.029762/0.029762/0.028409 oct_tree_integral 1.254485e-01 scatter_volume 1.254485e-01
HYPOCENTER  x 738.205 y 9818.87 z 1.36648  OT 12.1001  ix -1 iy -1 iz -1 MAXIMUM_LIKELIHOOD
GEOGRAPHIC  OT 2023 01 20  19 20 12.100096  Lat 9818.872024 Long 738.205357 Depth 1.366477
QUALITY  Pmax 1.95484e+21 MFmin 28.925 MFmax 35.3315 RMS 0.0157785 Nphs 8 Gap 315.817 Dist 0.26639 Mamp -9.90 0 Mdur -9.90 0
VPVSRATIO  VpVsRatio 1.53725  Npair 4  Diff 0.181517
STATISTICS  ExpectX 738.207142 Y 9818.662656 Z 0.857495  CovXX 1.57088 XY 0.230326 XZ 0.738026 YY 0.0786184 YZ 0.147781 ZZ 0.725133 EllAz1  174.478 Dip1  6.33512 Len1  0.37515 Az2  275.284 Dip2  59.3664 Len2  1.02564 Len3  2.681379e+00
STAT_GEOG  ExpectLat 9818.662656 Long 738.207142 Depth 0.857495
TRANSFORM  NONE
QML_OriginQuality  assocPhCt 8  usedPhCt 8  assocStaCt -1  usedStaCt 4  depthPhCt -1  stdErr 0.0157785  azGap 315.817  secAzGap 315.817  gtLevel -  minDist 0.26639 maxDist 2.85988 medDist 1.88829
QML_OriginUncertainty  horUnc -1  minHorUnc 0.317675  maxHorUnc 1.9217  azMaxHorUnc 81.4225
QML_ConfidenceEllipsoid  semiMajorAxisLength 2.68138  semiMinorAxisLength 0.37515  semiIntermediateAxisLength 1.02564  majorAxisPlunge 29.8317  majorAxisAzimuth 80.8281  majorAxisRotation 14.2465
FOCALMECH  Hyp  9818.872024 738.205357 1.366477 Mech  0 0 0 mf  0 nObs -1
PHASE ID Ins Cmp On Pha  FM Date     HrMn   Sec     Err  ErrMag    Coda      Amp       Per       PriorWt  >   TTpred    Res       Weight    StaLoc(X  Y         Z)        SDist    SAzim  RAz  RDip RQual    Tcorr       TTerr
M06          ?    BHZ  i P      c 20230120 1920   12.8225 GAU  2.40e-03 -1.00e+00 -1.00e+00 -1.00e+00    1.0000 >    0.7214    0.0010    1.4371  738.3100 9819.1170   -1.3960    0.2664  23.13  23.1 173.7 10     0.0000    0.0144
M06          ?    BHE  e S      ? 20230120 1920   13.3345 GAU  8.31e-03 -1.00e+00 -1.00e+00 -1.00e+00    1.0000 >    1.2308    0.0036    1.2501  738.3100 9819.1170   -1.3960    0.2664  23.13  23.1 173.5 10     0.0000    0.0246
M11          ?    BHZ  i P      c 20230120 1920   12.9087 GAU  3.97e-03 -1.00e+00 -1.00e+00 -1.00e+00    1.0000 >    0.8147   -0.0061    1.3454  738.4670 9820.4900   -1.3120    1.6390   9.19   9.2 145.1 10     0.0000    0.0163
M11          ?    BHN  e S      ? 20230120 1920   13.5028 GAU  6.92e-03 -1.00e+00 -1.00e+00 -1.00e+00    1.0000 >    1.3885    0.0142    1.1657  738.4670 9820.4900   -1.3120    1.6390   9.19   9.2 143.7 10     0.0000    0.0278
M09          ?    BHZ  i P      c 20230120 1920   13.0328 GAU  4.53e-03 -1.00e+00  1.24e+02 -1.00e+00    1.0000 >    0.8792    0.0535    0.3883  737.8820 9820.9850   -1.2700    2.1376 351.30 351.3 136.5 10     0.0000    0.0176
M09          ?    BHN  e S      ? 20230120 1920   13.7263 GAU  9.57e-03 -1.00e+00  5.00e+02 -1.00e+00    1.0000 >    1.4976    0.1286    0.0376  737.8820 9820.9850   -1.2700    2.1376 351.30 351.3 134.7 10     0.0000    0.0300
M13          ?    BHZ  e P      c 20230120 1920   13.1002 GAU  4.67e-03 -1.00e+00 -1.00e+00 -1.00e+00    1.0000 >    0.9973    0.0028    1.3505  737.1780 9821.5410   -1.2220    2.8599 338.95 338.9 125.8 10     0.0000    0.0199
M13          ?    BHE  e S      ? 20230120 1920   13.7874 GAU  8.31e-03 -1.00e+00 -1.00e+00 -1.00e+00    1.0000 >    1.6965   -0.0092    1.0253  737.1780 9821.5410   -1.2220    2.8599 338.95 338.9 123.6 10     0.0000    0.0339
END_PHASE
END_NLLOC

