NLLOC "./loc/SEML.20230120.193259.grid0" "LOCATED" "Location completed."
PUBLIC_ID None
SIGNATURE "Arham Zakki Edelo - edelo.17034@mhs.its.ac.id   obs:./obs/2023_01.obs   NLLoc:v7.00.10(30Aug2020)   run:28Dec2023 19h50m54"
COMMENT "SEML"
GRID  2001 2001 1001  727 9811 -2  0.01 0.01 0.01 PROB_DENSITY
SEARCH OCTREE nInitial 4851 nEvaluated 20003 smallestNodeSide 0.014881/0.014881/0.014205 oct_tree_integral 1.244876e-02 scatter_volume 1.239156e-02
HYPOCENTER  x 738.317 y 9818.27 z 0.450284  OT 59.2663  ix -1 iy -1 iz -1 MAXIMUM_LIKELIHOOD
GEOGRAPHIC  OT 2023 01 20  19 32 59.266344  Lat 9818.269345 Long 738.316964 Depth 0.450284
QUALITY  Pmax 3.50665e+80 MFmin 86.5075 MFmax 101.156 RMS 0.037956 Nphs 24 Gap 292.1 Dist 0.847683 Mamp -9.90 0 Mdur -9.90 0
VPVSRATIO  VpVsRatio 1.6554  Npair 12  Diff 0.538753
STATISTICS  ExpectX 738.337668 Y 9818.263988 Z 0.400119  CovXX 0.0223507 XY -0.00839795 XZ -0.00330472 YY 0.0139899 YZ -0.00173388 ZZ 0.0151335 EllAz1  34.0691 Dip1  23.0806 Len1  0.161827 Az2  190.66 Dip2  65.092 Len2  0.2392 Len3  3.135269e-01
STAT_GEOG  ExpectLat 9818.263988 Long 738.337668 Depth 0.400119
TRANSFORM  NONE
QML_OriginQuality  assocPhCt 24  usedPhCt 24  assocStaCt -1  usedStaCt 12  depthPhCt -1  stdErr 0.037956  azGap 292.1  secAzGap 292.1  gtLevel -  minDist 0.847683 maxDist 5.31648 medDist 3.10725
QML_OriginUncertainty  horUnc -1  minHorUnc 0.142182  maxHorUnc 0.251729  azMaxHorUnc 121.768
QML_ConfidenceEllipsoid  semiMajorAxisLength 0.313527  semiMinorAxisLength 0.161827  semiIntermediateAxisLength 0.2392  majorAxisPlunge -8.85469  majorAxisAzimuth 120.263  majorAxisRotation 155.595
FOCALMECH  Hyp  9818.269345 738.316964 0.450284 Mech  0 0 0 mf  0 nObs -1
PHASE ID Ins Cmp On Pha  FM Date     HrMn   Sec     Err  ErrMag    Coda      Amp       Per       PriorWt  >   TTpred    Res       Weight    StaLoc(X  Y         Z)        SDist    SAzim  RAz  RDip RQual    Tcorr       TTerr
M06          ?    BHZ  i P      c 20230120 1932   59.9068 GAU  2.40e-03 -1.00e+00  3.71e+01 -1.00e+00    1.0000 >    0.5405    0.0999    0.5254  738.3100 9819.1170   -1.3960    0.8477 359.53 359.5 154.7 10     0.0000    0.0108
M06          ?    BHN  e S      ? 20230120 1933    0.4166 GAU  3.84e-03 -1.00e+00 -1.00e+00 -1.00e+00    1.0000 >    0.9428    0.2075    0.0128  738.3100 9819.1170   -1.3960    0.8477 359.53 359.5 154.3 10     0.0000    0.0189
M04          ?    BHZ  i P      c 20230120 1932   59.9378 GAU  2.31e-03 -1.00e+00 -1.00e+00 -1.00e+00    1.0000 >    0.6765   -0.0051    1.8251  737.1400 9819.2520   -1.5710    1.5332 309.86 309.9 141.6 10     0.0000    0.0135
M04          ?    BHN  e S      ? 20230120 1933    0.4486 GAU  3.44e-03 -1.00e+00  6.86e+02 -1.00e+00    1.0000 >    1.1789    0.0034    1.6466  737.1400 9819.2520   -1.5710    1.5332 309.86 309.9 140.9 10     0.0000    0.0236
M14          ?    BHZ  i P      c 20230120 1932   59.9312 GAU  6.92e-03 -1.00e+00 -1.00e+00 -1.00e+00    1.0000 >    0.7049   -0.0401    1.0134  737.5530 9820.0110   -1.3980    1.9018 336.32 336.3 132.6 10     0.0000    0.0141
M14          ?    BHE  e S      ? 20230120 1933    0.4332 GAU  2.88e-03 -1.00e+00  3.43e+02 -1.00e+00    1.0000 >    1.2295   -0.0627    0.6234  737.5530 9820.0110   -1.3980    1.9018 336.32 336.3 131.7 10     0.0000    0.0246
M02          ?    BHZ  e P      c 20230120 1933    0.0298 GAU  4.77e-03 -1.00e+00 -1.00e+00 -1.00e+00    1.0000 >    0.7549    0.0085    1.7266  736.5970 9819.4060   -1.4960    2.0616 303.46 303.5 131.5 10     0.0000    0.0151
M02          ?    BHE  e S      ? 20230120 1933    0.7069 GAU  1.80e-03 -1.00e+00  2.82e+03 -1.00e+00    1.0000 >    1.3159    0.1246    0.3719  736.5970 9819.4060   -1.4960    2.0616 303.46 303.5 130.6 10     0.0000    0.0263
M11          ?    BHZ  i P      c 20230120 1933    0.0212 GAU  3.46e-03 -1.00e+00 -1.00e+00 -1.00e+00    1.0000 >    0.7534    0.0015    1.8149  738.4670 9820.4900   -1.3120    2.2257   3.87   3.9 126.4 10     0.0000    0.0151
M11          ?    BHE  e S      ? 20230120 1933    0.5882 GAU  3.46e-03 -1.00e+00 -1.00e+00 -1.00e+00    1.0000 >    1.3148    0.0070    1.5697  738.4670 9820.4900   -1.3120    2.2257   3.87   3.9 125.2 10     0.0000    0.0263
M09          ?    BHZ  i P      c 20230120 1933    0.1183 GAU  3.56e-03 -1.00e+00  1.80e+02 -1.00e+00    1.0000 >    0.8601   -0.0082    1.7495  737.8820 9820.9850   -1.2700    2.7503 350.90 350.9 119.7 10     0.0000    0.0172
M09          ?    BHE  e S      ? 20230120 1933    0.7629 GAU  2.88e-03 -1.00e+00  3.83e+02 -1.00e+00    1.0000 >    1.5015   -0.0049    1.5409  737.8820 9820.9850   -1.2700    2.7503 350.90 350.9 118.2 10     0.0000    0.0300
M13          ?    BHZ  i P      c 20230120 1933    0.2409 GAU  3.20e-03 -1.00e+00 -1.00e+00 -1.00e+00    1.0000 >    1.0185   -0.0440    0.9833  737.1780 9821.5410   -1.2220    3.4642 340.81 340.8 113.2 10     0.0000    0.0204
M13          ?    BHE  e S      ? 20230120 1933    0.8906 GAU  4.78e-03 -1.00e+00 -1.00e+00 -1.00e+00    1.0000 >    1.7785   -0.1542    0.0465  737.1780 9821.5410   -1.2220    3.4642 340.81 340.8 111.1 10     0.0000    0.0356
M08          ?    BHZ  e P      c 20230120 1933    0.3960 GAU  3.99e-03 -1.00e+00 -1.00e+00 -1.00e+00    1.0000 >    1.1119    0.0177    1.4690  738.2480 9822.1600   -1.1510    3.8913 358.98 359.0 109.7 10     0.0000    0.0222
M08          ?    BHN  e S      ? 20230120 1933    1.2949 GAU  2.15e-03 -1.00e+00  2.69e+02 -1.00e+00    1.0000 >    1.9424    0.0862    0.6482  738.2480 9822.1600   -1.1510    3.8913 358.98 359.0 107.3 10     0.0000    0.0388
M05          ?    BHZ  i P      c 20230120 1933    0.5735 GAU  7.97e-03 -1.00e+00 -1.00e+00 -1.00e+00    1.0000 >    1.2194    0.0878    0.5753  736.2660 9822.0830   -1.1500    4.3302 331.73 331.7 107.5 10     0.0000    0.0244
M05          ?    BHN  e S      ? 20230120 1933    1.4842 GAU  7.38e-03 -1.00e+00  2.44e+02 -1.00e+00    1.0000 >    2.1297    0.0881    0.6559  736.2660 9822.0830   -1.1500    4.3302 331.73 331.7 104.3  9     0.0000    0.0426
M01          ?    BHZ  e P      c 20230120 1933    0.5920 GAU  4.15e-03 -1.00e+00 -1.00e+00 -1.00e+00    1.0000 >    1.2960    0.0297    1.2105  736.4090 9822.5140   -1.1200    4.6538 335.80 335.8 105.8 10     0.0000    0.0259
M01          ?    BHN  e S      ? 20230120 1933    1.5154 GAU  5.74e-03 -1.00e+00  1.63e+03 -1.00e+00    1.0000 >    2.2585   -0.0094    1.2848  736.4090 9822.5140   -1.1200    4.6538 335.80 335.8  67.2 10     0.0000    0.0452
M15          ?    BHZ  i P      c 20230120 1933    0.4220 GAU  4.07e-03 -1.00e+00 -1.00e+00 -1.00e+00    1.0000 >    1.4014   -0.2458    0.0146  739.3310 9823.3170   -0.9530    5.1485  11.36  11.4 102.9 10     0.0000    0.0280
M15          ?    BHE  e S      ? 20230120 1933    1.2181 GAU  3.47e-03 -1.00e+00 -1.00e+00 -1.00e+00    1.0000 >    2.4219   -0.4702    0.0000  739.3310 9823.3170   -0.9530    5.1485  11.36  11.4  67.2 10     0.0000    0.0484
M12          ?    BHZ  e P      c 20230120 1933    0.7027 GAU  5.34e-03 -1.00e+00 -1.00e+00 -1.00e+00    1.0000 >    1.4476   -0.0113    1.5281  736.8520 9823.3800   -0.9890    5.3165 344.01 344.0 102.6 10     0.0000    0.0290
M12          ?    BHE  e S      ? 20230120 1933    1.7434 GAU  7.10e-03 -1.00e+00 -1.00e+00 -1.00e+00    1.0000 >    2.4994   -0.0223    1.1638  736.8520 9823.3800   -0.9890    5.3165 344.01 344.0  67.2 10     0.0000    0.0500
END_PHASE
END_NLLOC

