NLLOC "./loc/SEML.20230120.193221.grid0" "LOCATED" "Location completed."
PUBLIC_ID None
SIGNATURE "Arham Zakki Edelo - edelo.17034@mhs.its.ac.id   obs:./obs/2023_01.obs   NLLoc:v7.00.10(30Aug2020)   run:28Dec2023 19h50m53"
COMMENT "SEML"
GRID  2001 2001 1001  727 9811 -2  0.01 0.01 0.01 PROB_DENSITY
SEARCH OCTREE nInitial 4851 nEvaluated 20003 smallestNodeSide 0.014881/0.014881/0.014205 oct_tree_integral 3.295715e-02 scatter_volume 3.295715e-02
HYPOCENTER  x 738.146 y 9818.49 z 0.65625  OT 20.9027  ix -1 iy -1 iz -1 MAXIMUM_LIKELIHOOD
GEOGRAPHIC  OT 2023 01 20  19 32 20.902655  Lat 9818.485119 Long 738.145833 Depth 0.656250
QUALITY  Pmax 3.83638e+74 MFmin 80.2068 MFmax 92.9734 RMS 0.029365 Nphs 22 Gap 292.759 Dist 0.652859 Mamp -9.90 0 Mdur -9.90 0
VPVSRATIO  VpVsRatio 1.77266  Npair 11  Diff 0.579258
STATISTICS  ExpectX 738.126673 Y 9818.574741 Z 0.722977  CovXX 0.0500318 XY -0.00555087 XZ 0.00829714 YY 0.0223793 YZ 0.0052586 ZZ 0.0289868 EllAz1  18.5912 Dip1  -32.4443 Len1  0.244863 Az2  343.561 Dip2  52.1763 Len2  0.331226 Len3  4.338969e-01
STAT_GEOG  ExpectLat 9818.574741 Long 738.126673 Depth 0.722977
TRANSFORM  NONE
QML_OriginQuality  assocPhCt 22  usedPhCt 22  assocStaCt -1  usedStaCt 11  depthPhCt -1  stdErr 0.029365  azGap 292.759  secAzGap 292.759  gtLevel -  minDist 0.652859 maxDist 5.06299 medDist 3.20548
QML_OriginUncertainty  horUnc -1  minHorUnc 0.221372  maxHorUnc 0.342842  azMaxHorUnc 100.937
QML_ConfidenceEllipsoid  semiMajorAxisLength 0.433897  semiMinorAxisLength 0.244863  semiIntermediateAxisLength 0.331226  majorAxisPlunge 17.2812  majorAxisAzimuth 97.1846  majorAxisRotation 219.513
FOCALMECH  Hyp  9818.485119 738.145833 0.656250 Mech  0 0 0 mf  0 nObs -1
PHASE ID Ins Cmp On Pha  FM Date     HrMn   Sec     Err  ErrMag    Coda      Amp       Per       PriorWt  >   TTpred    Res       Weight    StaLoc(X  Y         Z)        SDist    SAzim  RAz  RDip RQual    Tcorr       TTerr
M06          ?    BHZ  i P      c 20230120 1932   21.5450 GAU  2.00e-03 -1.00e+00 -1.00e+00 -1.00e+00    1.0000 >    0.5710    0.0714    0.2741  738.3100 9819.1170   -1.3960    0.6529  14.56  14.6 161.7 10     0.0000    0.0114
M06          ?    BHN  i S      ? 20230120 1932   22.0801 GAU  2.32e-03 -1.00e+00 -1.00e+00 -1.00e+00    1.0000 >    0.9895    0.1879    0.0475  738.3100 9819.1170   -1.3960    0.6529  14.56  14.6 160.2 10     0.0000    0.0198
M04          ?    BHZ  e P      c 20230120 1932   21.5603 GAU  2.00e-03 -1.00e+00 -1.00e+00 -1.00e+00    1.0000 >    0.6808   -0.0232    1.3731  737.1400 9819.2520   -1.5710    1.2648 307.32 307.3 149.3 10     0.0000    0.0136
M04          ?    BHN  e S      ? 20230120 1932   22.0845 GAU  1.99e-03 -1.00e+00  6.66e+02 -1.00e+00    1.0000 >    1.1793    0.0026    1.5394  737.1400 9819.2520   -1.5710    1.2648 307.32 307.3 146.5 10     0.0000    0.0236
M14          ?    BHZ  i P      c 20230120 1932   21.6059 GAU  1.48e-03 -1.00e+00  2.06e+02 -1.00e+00    1.0000 >    0.6960    0.0073    1.6398  737.5530 9820.0110   -1.3980    1.6370 338.77 338.8 140.0 10     0.0000    0.0139
M14          ?    BHN  e S      ? 20230120 1932   22.0955 GAU  1.67e-03 -1.00e+00  1.94e+02 -1.00e+00    1.0000 >    1.2058   -0.0130    1.4880  737.5530 9820.0110   -1.3980    1.6370 338.77 338.8 136.1 10     0.0000    0.0241
M11          ?    BHZ  i P      c 20230120 1932   21.6539 GAU  3.03e-03 -1.00e+00 -1.00e+00 -1.00e+00    1.0000 >    0.7478    0.0035    1.6799  738.4670 9820.4900   -1.3120    2.0304   9.10   9.1 132.1 10     0.0000    0.0150
M11          ?    BHE  e S      ? 20230120 1932   22.2189 GAU  3.85e-03 -1.00e+00 -1.00e+00 -1.00e+00    1.0000 >    1.2955    0.0207    1.2789  738.4670 9820.4900   -1.3120    2.0304   9.10   9.1 127.0 10     0.0000    0.0259
M09          ?    BHZ  i P      c 20230120 1932   21.7313 GAU  2.79e-03 -1.00e+00  9.23e+00 -1.00e+00    1.0000 >    0.8367   -0.0081    1.6589  737.8820 9820.9850   -1.2700    2.5138 353.98 354.0 125.0 10     0.0000    0.0167
M09          ?    BHE  e S      ? 20230120 1932   22.3532 GAU  3.42e-03 -1.00e+00  3.32e+02 -1.00e+00    1.0000 >    1.4492    0.0013    1.4389  737.8820 9820.9850   -1.2700    2.5138 353.98 354.0 118.1 10     0.0000    0.0290
M13          ?    BHZ  i P      c 20230120 1932   21.8400 GAU  5.98e-03 -1.00e+00 -1.00e+00 -1.00e+00    1.0000 >    0.9805   -0.0432    0.8614  737.1780 9821.5410   -1.2220    3.2055 342.43 342.4 117.3 10     0.0000    0.0196
M13          ?    BHE  e S      ? 20230120 1932   22.5196 GAU  3.77e-03 -1.00e+00 -1.00e+00 -1.00e+00    1.0000 >    1.6965   -0.0796    0.4127  737.1780 9821.5410   -1.2220    3.2055 342.43 342.4 108.0 10     0.0000    0.0339
M10          ?    BHZ  e P      c 20230120 1932   21.9376 GAU  9.57e-03 -1.00e+00 -1.00e+00 -1.00e+00    1.0000 >    1.0001    0.0348    0.9781  736.5490 9821.3650   -1.2200    3.2930 330.99 331.0 116.6 10     0.0000    0.0200
M10          ?    BHN  e S      ? 20230120 1932   22.7648 GAU  3.99e-03 -1.00e+00 -1.00e+00 -1.00e+00    1.0000 >    1.7302    0.1319    0.1362  736.5490 9821.3650   -1.2200    3.2930 330.99 331.0 106.9 10     0.0000    0.0346
M08          ?    BHZ  i P      d 20230120 1932   21.9697 GAU  5.29e-03 -1.00e+00  2.28e+02 -1.00e+00    1.0000 >    1.0792   -0.0122    1.5303  738.2480 9822.1600   -1.1510    3.6763   1.59   1.6 112.9 10     0.0000    0.0216
M08          ?    BHE  e S      ? 20230120 1932   22.7070 GAU  3.99e-03 -1.00e+00 -1.00e+00 -1.00e+00    1.0000 >    1.8648   -0.0605    0.6861  738.2480 9822.1600   -1.1510    3.6763   1.59   1.6 101.8 10     0.0000    0.0373
M05          ?    BHZ  e P      d 20230120 1932   22.0801 GAU  4.13e-03 -1.00e+00  1.34e+02 -1.00e+00    1.0000 >    1.1702    0.0073    1.5005  736.2660 9822.0830   -1.1500    4.0594 332.41 332.4 110.4 10     0.0000    0.0234
M05          ?    BHN  e S      ? 20230120 1932   22.9285 GAU  3.99e-03 -1.00e+00  2.61e+02 -1.00e+00    1.0000 >    2.0191    0.0067    1.2326  736.2660 9822.0830   -1.1500    4.0594 332.41 332.4  98.9  9     0.0000    0.0404
M15          ?    BHZ  e P      c 20230120 1932   22.1195 GAU  2.92e-03 -1.00e+00 -1.00e+00 -1.00e+00    1.0000 >    1.3697   -0.1529    0.1053  739.3310 9823.3170   -0.9530    4.9751  13.78  13.8 104.1 10     0.0000    0.0274
M15          ?    BHN  e S      ? 20230120 1932   23.0644 GAU  4.15e-03 -1.00e+00 -1.00e+00 -1.00e+00    1.0000 >    2.3451   -0.1833    0.0960  739.3310 9823.3170   -0.9530    4.9751  13.78  13.8  94.4  9     0.0000    0.0469
M12          ?    BHZ  i P      d 20230120 1932   22.2970 GAU  5.54e-03 -1.00e+00 -1.00e+00 -1.00e+00    1.0000 >    1.3957   -0.0014    1.4578  736.8520 9823.3800   -0.9890    5.0630 345.19 345.2 104.1 10     0.0000    0.0279
M12          ?    BHE  e S      ? 20230120 1932   23.3658 GAU  2.78e-03 -1.00e+00 -1.00e+00 -1.00e+00    1.0000 >    2.3897    0.0735    0.5844  736.8520 9823.3800   -0.9890    5.0630 345.19 345.2  94.4  9     0.0000    0.0478
END_PHASE
END_NLLOC

