NLLOC "./loc/SEML.20230120.192213.grid0" "LOCATED" "Location completed."
PUBLIC_ID None
SIGNATURE "Arham Zakki Edelo - edelo.17034@mhs.its.ac.id   obs:./obs/2023_01.obs   NLLoc:v7.00.10(30Aug2020)   run:28Dec2023 19h50m40"
COMMENT "SEML"
GRID  2001 2001 1001  727 9811 -2  0.01 0.01 0.01 PROB_DENSITY
SEARCH OCTREE nInitial 4851 nEvaluated 20011 smallestNodeSide 0.029762/0.029762/0.028409 oct_tree_integral 3.263042e-01 scatter_volume 3.263042e-01
HYPOCENTER  x 738.771 y 9817.86 z 2.19034  OT 12.2074  ix -1 iy -1 iz -1 MAXIMUM_LIKELIHOOD
GEOGRAPHIC  OT 2023 01 20  19 22 12.207354  Lat 9817.860119 Long 738.770833 Depth 2.190341
QUALITY  Pmax 1.02798e+75 MFmin 76.2999 MFmax 90.3599 RMS 0.079179 Nphs 24 Gap 312.008 Dist 1.3387 Mamp -9.90 0 Mdur -9.90 0
VPVSRATIO  VpVsRatio 1.71966  Npair 12  Diff 0.643261
STATISTICS  ExpectX 738.822810 Y 9817.799846 Z 2.155749  CovXX 0.134414 XY 0.0177418 XZ -0.0122823 YY 0.0805049 YZ 0.0248599 ZZ 0.0868151 EllAz1  160.838 Dip1  39.0962 Len1  0.432353 Az2  173.591 Dip2  -50.2017 Len2  0.618986 Len3  7.035975e-01
STAT_GEOG  ExpectLat 9817.799846 Long 738.822810 Depth 2.155749
TRANSFORM  NONE
QML_OriginQuality  assocPhCt 24  usedPhCt 24  assocStaCt -1  usedStaCt 12  depthPhCt -1  stdErr 0.079179  azGap 312.008  secAzGap 312.008  gtLevel -  minDist 1.3387 maxDist 5.84389 medDist 3.39491
QML_OriginUncertainty  horUnc -1  minHorUnc 0.415857  maxHorUnc 0.566901  azMaxHorUnc 73.3233
QML_ConfidenceEllipsoid  semiMajorAxisLength 0.703597  semiMinorAxisLength 0.432353  semiIntermediateAxisLength 0.618986  majorAxisPlunge -6.29578  majorAxisAzimuth 75.9809  majorAxisRotation 40.0648
FOCALMECH  Hyp  9817.860119 738.770833 2.190341 Mech  0 0 0 mf  0 nObs -1
PHASE ID Ins Cmp On Pha  FM Date     HrMn   Sec     Err  ErrMag    Coda      Amp       Per       PriorWt  >   TTpred    Res       Weight    StaLoc(X  Y         Z)        SDist    SAzim  RAz  RDip RQual    Tcorr       TTerr
M06          ?    BHZ  i P      c 20230120 1922   13.1200 GAU  2.23e-03 -1.00e+00 -1.00e+00 -1.00e+00    1.0000 >    0.9689   -0.0562    1.1688  738.3100 9819.1170   -1.3960    1.3387 339.86 339.9 157.2 10     0.0000    0.0194
M06          ?    BHE  e S      ? 20230120 1922   13.8451 GAU  4.15e-03 -1.00e+00 -1.00e+00 -1.00e+00    1.0000 >    1.6398   -0.0021    1.3874  738.3100 9819.1170   -1.3960    1.3387 339.86 339.9 156.6 10     0.0000    0.0328
M04          ?    BHZ  i P      c 20230120 1922   13.3482 GAU  7.97e-03 -1.00e+00 -1.00e+00 -1.00e+00    1.0000 >    1.0995    0.0413    0.9836  737.1400 9819.2520   -1.5710    2.1440 310.48 310.5 146.7 10     0.0000    0.0220
M04          ?    BHE  e S      ? 20230120 1922   14.1010 GAU  9.97e-03 -1.00e+00  5.57e+02 -1.00e+00    1.0000 >    1.8619    0.0318    1.1134  737.1400 9819.2520   -1.5710    2.1440 310.48 310.5 145.9 10     0.0000    0.0372
M14          ?    BHZ  e P      c 20230120 1922   13.1818 GAU  2.46e-03 -1.00e+00 -1.00e+00 -1.00e+00    1.0000 >    1.1019   -0.1275    1.0955  737.5530 9820.0110   -1.3980    2.4717 330.48 330.5 141.3 10     0.0000    0.0220
M14          ?    BHN  e S      ? 20230120 1922   13.8001 GAU  4.00e-03 -1.00e+00  3.04e+02 -1.00e+00    1.0000 >    1.8635   -0.2708    0.0796  737.5530 9820.0110   -1.3980    2.4717 330.48 330.5 140.4 10     0.0000    0.0373
M11          ?    BHZ  i P      c 20230120 1922   13.2123 GAU  2.98e-03 -1.00e+00 -1.00e+00 -1.00e+00    1.0000 >    1.1077   -0.1027    1.3186  738.4670 9820.4900   -1.3120    2.6474 353.41 353.4 138.4 10     0.0000    0.0222
M11          ?    BHE  e S      ? 20230120 1922   13.9975 GAU  5.54e-03 -1.00e+00 -1.00e+00 -1.00e+00    1.0000 >    1.8720   -0.0819    1.3418  738.4670 9820.4900   -1.3120    2.6474 353.41 353.4 137.5 10     0.0000    0.0374
M02          ?    BHZ  i P      c 20230120 1922   13.3564 GAU  4.25e-03 -1.00e+00 -1.00e+00 -1.00e+00    1.0000 >    1.1531   -0.0040    1.4146  736.5970 9819.4060   -1.4960    2.6675 305.42 305.4 139.6 10     0.0000    0.0231
M02          ?    BHE  e S      ? 20230120 1922   14.0305 GAU  2.78e-03 -1.00e+00 -1.00e+00 -1.00e+00    1.0000 >    1.9509   -0.1278    1.0830  736.5970 9819.4060   -1.4960    2.6675 305.42 305.4 138.6 10     0.0000    0.0390
M09          ?    BHZ  i P      c 20230120 1922   13.3036 GAU  4.15e-03 -1.00e+00  7.13e+01 -1.00e+00    1.0000 >    1.1953   -0.0990    1.3268  737.8820 9820.9850   -1.2700    3.2488 344.12 344.1 131.3 10     0.0000    0.0239
M09          ?    BHE  e S      ? 20230120 1922   14.1724 GAU  4.01e-03 -1.00e+00  2.60e+02 -1.00e+00    1.0000 >    2.0183   -0.0533    1.3803  737.8820 9820.9850   -1.2700    3.2488 344.12 344.1 130.2 10     0.0000    0.0404
M03          ?    BHZ  e P      c 20230120 1922   13.7826 GAU  6.92e-03 -1.00e+00 -1.00e+00 -1.00e+00    1.0000 >    1.2599    0.3154    0.0047  736.8800 9820.8540   -1.3350    3.5410 327.72 327.7 128.9 10     0.0000    0.0252
M03          ?    BHE  e S      ? 20230120 1922   14.7928 GAU  3.99e-03 -1.00e+00 -1.00e+00 -1.00e+00    1.0000 >    2.1277    0.4577    0.0026  736.8800 9820.8540   -1.3350    3.5410 327.72 327.7 127.7 10     0.0000    0.0426
M13          ?    BHZ  i P      c 20230120 1922   13.4348 GAU  2.12e-03 -1.00e+00 -1.00e+00 -1.00e+00    1.0000 >    1.3230   -0.0955    1.3304  737.1780 9821.5410   -1.2220    4.0107 336.60 336.6 123.5 10     0.0000    0.0265
M13          ?    BHN  e S      ? 20230120 1922   14.2386 GAU  3.46e-03 -1.00e+00 -1.00e+00 -1.00e+00    1.0000 >    2.2310   -0.1998    0.4006  737.1780 9821.5410   -1.2220    4.0107 336.60 336.6 122.4 10     0.0000    0.0446
M10          ?    BHZ  e P      c 20230120 1922   13.3940 GAU  1.41e-02 -1.00e+00 -1.00e+00 -1.00e+00    1.0000 >    1.3491   -0.1625    0.6415  736.5490 9821.3650   -1.2200    4.1498 327.63 327.6 122.3 10     0.0000    0.0270
M10          ?    BHN  e S      ? 20230120 1922   14.3801 GAU  4.24e-03 -1.00e+00 -1.00e+00 -1.00e+00    1.0000 >    2.2746   -0.1018    1.2500  736.5490 9821.3650   -1.2200    4.1498 327.63 327.6 121.2 10     0.0000    0.0455
M08          ?    BHZ  i P      c 20230120 1922   13.5693 GAU  2.88e-03 -1.00e+00 -1.00e+00 -1.00e+00    1.0000 >    1.3711   -0.0091    1.4067  738.2480 9822.1600   -1.1510    4.3316 353.07 353.1 120.2 10     0.0000    0.0274
M08          ?    BHE  e S      ? 20230120 1922   14.5442 GAU  4.98e-03 -1.00e+00 -1.00e+00 -1.00e+00    1.0000 >    2.3096    0.0272    1.1269  738.2480 9822.1600   -1.1510    4.3316 353.07 353.1 119.1 10     0.0000    0.0462
M05          ?    BHZ  i P      d 20230120 1922   13.7074 GAU  2.05e-03 -1.00e+00  1.06e+02 -1.00e+00    1.0000 >    1.4869    0.0131    1.3356  736.2660 9822.0830   -1.1500    4.9099 329.33 329.3 115.9 10     0.0000    0.0297
M05          ?    BHN  e S      ? 20230120 1922   14.7174 GAU  3.46e-03 -1.00e+00  2.11e+02 -1.00e+00    1.0000 >    2.5024    0.0076    1.2546  736.2660 9822.0830   -1.1500    4.9099 329.33 329.3 114.8 10     0.0000    0.0500
M12          ?    BHZ  i P      d 20230120 1922   13.8622 GAU  3.32e-03 -1.00e+00 -1.00e+00 -1.00e+00    1.0000 >    1.6549   -0.0000    1.3808  736.8520 9823.3800   -0.9890    5.8439 340.83 340.8 109.1 10     0.0000    0.0331
M12          ?    BHE  e S      ? 20230120 1922   15.1238 GAU  8.33e-03 -1.00e+00 -1.00e+00 -1.00e+00    1.0000 >    2.7767    0.1398    0.1721  736.8520 9823.3800   -0.9890    5.8439 340.83 340.8 108.2 10     0.0000    0.0555
END_PHASE
END_NLLOC

