NLLOC "./loc/SEML.20230120.191724.grid0" "LOCATED" "Location completed."
PUBLIC_ID None
SIGNATURE "Arham Zakki Edelo - edelo.17034@mhs.its.ac.id   obs:./obs/2023_01.obs   NLLoc:v7.00.10(30Aug2020)   run:28Dec2023 19h50m35"
COMMENT "SEML"
GRID  2001 2001 1001  727 9811 -2  0.01 0.01 0.01 PROB_DENSITY
SEARCH OCTREE nInitial 4851 nEvaluated 20019 smallestNodeSide 0.014881/0.014881/0.014205 oct_tree_integral 1.529527e-02 scatter_volume 1.515908e-02
HYPOCENTER  x 737.915 y 9818.94 z 1.25994  OT 23.4443  ix -1 iy -1 iz -1 MAXIMUM_LIKELIHOOD
GEOGRAPHIC  OT 2023 01 20  19 17 23.444335  Lat 9818.938988 Long 737.915179 Depth 1.259943
QUALITY  Pmax 6.31093e+75 MFmin 78.8413 MFmax 90.6774 RMS 0.0274917 Nphs 22 Gap 226.258 Dist 0.433096 Mamp -9.90 0 Mdur -9.90 0
VPVSRATIO  VpVsRatio 1.70414  Npair 11  Diff 0.599207
STATISTICS  ExpectX 737.956397 Y 9818.941924 Z 1.215801  CovXX 0.0243474 XY 0.00293585 XZ -0.0145315 YY 0.0077807 YZ -0.0062873 ZZ 0.0216777 EllAz1  18.4186 Dip1  31.7975 Len1  0.12812 Az2  310.538 Dip2  -31.2729 Len2  0.189968 Len3  3.707184e-01
STAT_GEOG  ExpectLat 9818.941924 Long 737.956397 Depth 1.215801
TRANSFORM  NONE
QML_OriginQuality  assocPhCt 22  usedPhCt 22  assocStaCt -1  usedStaCt 11  depthPhCt -1  stdErr 0.0274917  azGap 226.258  secAzGap 226.258  gtLevel -  minDist 0.433096 maxDist 4.60125 medDist 2.17689
QML_OriginUncertainty  horUnc -1  minHorUnc 0.129361  maxHorUnc 0.239082  azMaxHorUnc 80.2421
QML_ConfidenceEllipsoid  semiMajorAxisLength 0.370718  semiMinorAxisLength 0.12812  semiIntermediateAxisLength 0.189968  majorAxisPlunge -42.296  majorAxisAzimuth 74.0825  majorAxisRotation 95.3047
FOCALMECH  Hyp  9818.938988 737.915179 1.259943 Mech  0 0 0 mf  0 nObs -1
PHASE ID Ins Cmp On Pha  FM Date     HrMn   Sec     Err  ErrMag    Coda      Amp       Per       PriorWt  >   TTpred    Res       Weight    StaLoc(X  Y         Z)        SDist    SAzim  RAz  RDip RQual    Tcorr       TTerr
M06          ?    BHZ  i P      c 20230120 1917   24.1469 GAU  2.00e-03 -1.00e+00 -1.00e+00 -1.00e+00    1.0000 >    0.7023    0.0003    1.6365  738.3100 9819.1170   -1.3960    0.4331  65.73  65.7 169.6 10     0.0000    0.0140
M06          ?    BHE  e S      ? 20230120 1917   24.6570 GAU  8.61e-03 -1.00e+00 -1.00e+00 -1.00e+00    1.0000 >    1.1997    0.0129    1.3410  738.3100 9819.1170   -1.3960    0.4331  65.73  65.7 169.2 10     0.0000    0.0240
M04          ?    BHZ  e P      c 20230120 1917   24.2025 GAU  3.32e-03 -1.00e+00 -1.00e+00 -1.00e+00    1.0000 >    0.7728   -0.0146    1.4648  737.1400 9819.2520   -1.5710    0.8360 291.99 292.0 161.7 10     0.0000    0.0155
M04          ?    BHE  e S      ? 20230120 1917   24.7711 GAU  4.62e-03 -1.00e+00  2.81e+02 -1.00e+00    1.0000 >    1.3210    0.0058    1.3871  737.1400 9819.2520   -1.5710    0.8360 291.99 292.0 160.9 10     0.0000    0.0264
M14          ?    BHZ  i P      c 20230120 1917   24.2003 GAU  5.54e-03 -1.00e+00 -1.00e+00 -1.00e+00    1.0000 >    0.7539    0.0021    1.6033  737.5530 9820.0110   -1.3980    1.1315 341.33 341.3 154.4 10     0.0000    0.0151
M14          ?    BHE  e S      ? 20230120 1917   24.7677 GAU  3.99e-03 -1.00e+00  2.29e+02 -1.00e+00    1.0000 >    1.2877    0.0357    0.9214  737.5530 9820.0110   -1.3980    1.1315 341.33 341.3 153.4 10     0.0000    0.0258
M11          ?    BHZ  i P      c 20230120 1917   24.2039 GAU  1.41e-02 -1.00e+00  2.57e+02 -1.00e+00    1.0000 >    0.7953   -0.0358    1.0155  738.4670 9820.4900   -1.3120    1.6463  19.58  19.6 143.6 10     0.0000    0.0159
M11          ?    BHN  e S      ? 20230120 1917   24.7362 GAU  1.15e-02 -1.00e+00 -1.00e+00 -1.00e+00    1.0000 >    1.3574   -0.0655    0.5318  738.4670 9820.4900   -1.3120    1.6463  19.58  19.6 142.1 10     0.0000    0.0271
M09          ?    BHZ  i P      c 20230120 1917   24.2959 GAU  2.77e-03 -1.00e+00  7.99e+01 -1.00e+00    1.0000 >    0.8463    0.0053    1.5634  737.8820 9820.9850   -1.2700    2.0463 359.07 359.1 136.3 10     0.0000    0.0169
M09          ?    BHE  e S      ? 20230120 1917   24.8590 GAU  6.64e-03 -1.00e+00  3.38e+02 -1.00e+00    1.0000 >    1.4436   -0.0290    1.1371  737.8820 9820.9850   -1.2700    2.0463 359.07 359.1 134.4 10     0.0000    0.0289
M03          ?    BHZ  i P      d 20230120 1917   24.2654 GAU  7.97e-03 -1.00e+00 -1.00e+00 -1.00e+00    1.0000 >    0.8820   -0.0610    0.5047  736.8800 9820.8540   -1.3350    2.1769 331.61 331.6 135.0 10     0.0000    0.0176
M03          ?    BHE  e S      ? 20230120 1917   24.9395 GAU  1.38e-02 -1.00e+00 -1.00e+00 -1.00e+00    1.0000 >    1.5049   -0.0097    1.2836  736.8800 9820.8540   -1.3350    2.1769 331.61 331.6 133.0 10     0.0000    0.0301
M13          ?    BHZ  i P      c 20230120 1917   24.4035 GAU  5.74e-03 -1.00e+00 -1.00e+00 -1.00e+00    1.0000 >    0.9529    0.0062    1.5079  737.1780 9821.5410   -1.2220    2.7044 344.18 344.2 125.9 10     0.0000    0.0191
M13          ?    BHE  e S      ? 20230120 1917   25.0619 GAU  4.15e-03 -1.00e+00 -1.00e+00 -1.00e+00    1.0000 >    1.6237   -0.0061    1.3010  737.1780 9821.5410   -1.2220    2.7044 344.18 344.2 123.6 10     0.0000    0.0325
M08          ?    BHZ  i P      d 20230120 1917   24.5238 GAU  7.18e-03 -1.00e+00  6.18e+01 -1.00e+00    1.0000 >    1.0459    0.0336    0.9536  738.2480 9822.1600   -1.1510    3.2382   5.90   5.9 118.4 10     0.0000    0.0209
M08          ?    BHN  e S      ? 20230120 1917   25.2263 GAU  2.88e-03 -1.00e+00  2.87e+02 -1.00e+00    1.0000 >    1.7794    0.0025    1.2472  738.2480 9822.1600   -1.1510    3.2382   5.90   5.9 115.6 10     0.0000    0.0356
M05          ?    BHZ  i P      d 20230120 1917   24.7158 GAU  8.31e-03 -1.00e+00  2.88e+02 -1.00e+00    1.0000 >    1.1113    0.1601    0.0509  736.2660 9822.0830   -1.1500    3.5503 332.32 332.3 115.2 10     0.0000    0.0222
M05          ?    BHE  e S      ? 20230120 1917   25.6086 GAU  2.88e-03 -1.00e+00 -1.00e+00 -1.00e+00    1.0000 >    1.8894    0.2749    0.0538  736.2660 9822.0830   -1.1500    3.5503 332.32 332.3 112.1 10     0.0000    0.0378
M12          ?    BHZ  e P      d 20230120 1917   24.8669 GAU  1.15e-02 -1.00e+00 -1.00e+00 -1.00e+00    1.0000 >    1.3106    0.1120    0.1053  736.8520 9823.3800   -0.9890    4.5665 346.54 346.5 104.4 10     0.0000    0.0262
M12          ?    BHE  e S      ? 20230120 1917   25.9762 GAU  1.79e-02 -1.00e+00  6.04e+00 -1.00e+00    1.0000 >    2.2178    0.3141    0.0516  736.8520 9823.3800   -0.9890    4.5665 346.54 346.5 101.8 10     0.0000    0.0444
M15          ?    BHZ  e P      c 20230120 1917   24.7431 GAU  3.34e-03 -1.00e+00 -1.00e+00 -1.00e+00    1.0000 >    1.3130   -0.0142    1.3560  739.3310 9823.3170   -0.9530    4.6013  17.92  17.9 103.9 10     0.0000    0.0263
M15          ?    BHE  e S      ? 20230120 1917   25.6907 GAU  5.77e-03 -1.00e+00 -1.00e+00 -1.00e+00    1.0000 >    2.2207    0.0257    0.9828  739.3310 9823.3170   -0.9530    4.6013  17.92  17.9 101.3 10     0.0000    0.0444
END_PHASE
END_NLLOC

