NLLOC "./loc/SEML.20230120.191400.grid0" "LOCATED" "Location completed."
PUBLIC_ID None
SIGNATURE "Arham Zakki Edelo - edelo.17034@mhs.its.ac.id   obs:./obs/2023_01.obs   NLLoc:v7.00.10(30Aug2020)   run:28Dec2023 19h50m28"
COMMENT "SEML"
GRID  2001 2001 1001  727 9811 -2  0.01 0.01 0.01 PROB_DENSITY
SEARCH OCTREE nInitial 4851 nEvaluated 20011 smallestNodeSide 0.014881/0.014881/0.014205 oct_tree_integral 5.661606e-02 scatter_volume 5.635846e-02
HYPOCENTER  x 735.936 y 9818.31 z -0.671875  OT 59.3918  ix -1 iy -1 iz -1 MAXIMUM_LIKELIHOOD
GEOGRAPHIC  OT 2023 01 20  19 13 59.391798  Lat 9818.313988 Long 735.936012 Depth -0.671875
QUALITY  Pmax 3.82487e+35 MFmin 42.0257 MFmax 48.2558 RMS 0.0187881 Nphs 12 Gap 309.739 Dist 2.34403 Mamp -9.90 0 Mdur -9.90 0
VPVSRATIO  VpVsRatio 1.77409  Npair 6  Diff 0.39565
STATISTICS  ExpectX 735.904399 Y 9818.312310 Z -0.993138  CovXX 0.0261197 XY -6.65511e-05 XZ 0.057015 YY 0.011285 YZ -0.00681898 ZZ 0.263868 EllAz1  153.398 Dip1  -7.11163 Len1  0.191298 Az2  242.049 Dip2  10.6861 Len2  0.22155 Len3  9.888443e-01
STAT_GEOG  ExpectLat 9818.312310 Long 735.904399 Depth -0.993138
TRANSFORM  NONE
QML_OriginQuality  assocPhCt 12  usedPhCt 12  assocStaCt -1  usedStaCt 6  depthPhCt -1  stdErr 0.0187881  azGap 309.739  secAzGap 309.739  gtLevel -  minDist 2.34403 maxDist 4.48744 medDist 3.32126
QML_OriginUncertainty  horUnc -1  minHorUnc 0.161105  maxHorUnc 0.245104  azMaxHorUnc 90.257
QML_ConfidenceEllipsoid  semiMajorAxisLength 0.988844  semiMinorAxisLength 0.191298  semiIntermediateAxisLength 0.22155  majorAxisPlunge 77.1171  majorAxisAzimuth 96.4567  majorAxisRotation 36.552
FOCALMECH  Hyp  9818.313988 735.936012 -0.671875 Mech  0 0 0 mf  0 nObs -1
PHASE ID Ins Cmp On Pha  FM Date     HrMn   Sec     Err  ErrMag    Coda      Amp       Per       PriorWt  >   TTpred    Res       Weight    StaLoc(X  Y         Z)        SDist    SAzim  RAz  RDip RQual    Tcorr       TTerr
M14          ?    BHZ  e P      c 20230120 1914    0.0556 GAU  4.78e-03 -1.00e+00 -1.00e+00 -1.00e+00    1.0000 >    0.6721   -0.0083    1.4356  737.5530 9820.0110   -1.3980    2.3440  43.62  43.6 106.4 10     0.0000    0.0134
M14          ?    BHE  e S      ? 20230120 1914    0.5677 GAU  8.30e-03 -1.00e+00  4.39e+02 -1.00e+00    1.0000 >    1.1613    0.0146    1.3143  737.5530 9820.0110   -1.3980    2.3440  43.62  43.6 106.8 10     0.0000    0.0232
M06          ?    BHZ  i P      d 20230120 1914    0.1236 GAU  4.15e-03 -1.00e+00 -1.00e+00 -1.00e+00    1.0000 >    0.7144    0.0174    1.3467  738.3100 9819.1170   -1.3960    2.5061  71.31  71.3 105.3 10     0.0000    0.0143
M06          ?    BHE  e S      ? 20230120 1914    0.6248 GAU  4.78e-03 -1.00e+00 -1.00e+00 -1.00e+00    1.0000 >    1.2345   -0.0014    1.3628  738.3100 9819.1170   -1.3960    2.5061  71.31  71.3 105.7 10     0.0000    0.0247
M09          ?    BHZ  e P      d 20230120 1914    0.2952 GAU  4.98e-03 -1.00e+00  1.66e+02 -1.00e+00    1.0000 >    0.9188   -0.0154    1.2561  737.8820 9820.9850   -1.2700    3.3047  36.08  36.1  99.4 10     0.0000    0.0184
M09          ?    BHN  e S      ? 20230120 1914    0.9585 GAU  9.97e-03 -1.00e+00  4.80e+02 -1.00e+00    1.0000 >    1.5883   -0.0216    1.0170  737.8820 9820.9850   -1.2700    3.3047  36.08  36.1  99.8 10     0.0000    0.0318
M11          ?    BHZ  e P      c 20230120 1914    0.1408 GAU  1.19e-02 -1.00e+00 -1.00e+00 -1.00e+00    1.0000 >    0.9301   -0.1811    0.0141  738.4670 9820.4900   -1.3120    3.3378  49.31  49.3  99.9 10     0.0000    0.0186
M11          ?    BHN  e S      ? 20230120 1914    0.7262 GAU  1.65e-02 -1.00e+00 -1.00e+00 -1.00e+00    1.0000 >    1.6076   -0.2732    0.0139  738.4670 9820.4900   -1.3120    3.3378  49.31  49.3 100.3 10     0.0000    0.0322
M13          ?    BHZ  e P      d 20230120 1914    0.3554 GAU  2.30e-02 -1.00e+00 -1.00e+00 -1.00e+00    1.0000 >    0.9575    0.0061    1.2787  737.1780 9821.5410   -1.2220    3.4578  21.05  21.1  98.2 10     0.0000    0.0191
M13          ?    BHE  e S      ? 20230120 1914    1.1040 GAU  1.08e-02 -1.00e+00 -1.00e+00 -1.00e+00    1.0000 >    1.6555    0.0567    0.5801  737.1780 9821.5410   -1.2220    3.4578  21.05  21.1  98.6 10     0.0000    0.0331
M08          ?    BHZ  e P      c 20230120 1914    0.6354 GAU  3.27e-03 -1.00e+00 -1.00e+00 -1.00e+00    1.0000 >    1.2329    0.0107    1.3488  738.2480 9822.1600   -1.1510    4.4874  31.01  31.0  91.5  9     0.0000    0.0247
M08          ?    BHN  e S      ? 20230120 1914    1.5323 GAU  1.20e-02 -1.00e+00  3.07e+02 -1.00e+00    1.0000 >    2.1325    0.0080    1.0318  738.2480 9822.1600   -1.1510    4.4874  31.01  31.0  95.7 10     0.0000    0.0426
END_PHASE
END_NLLOC

