NLLOC "./loc/SEML.20230120.193633.grid0" "LOCATED" "Location completed."
PUBLIC_ID None
SIGNATURE "Arham Zakki Edelo - edelo.17034@mhs.its.ac.id   obs:./obs/2023_01.obs   NLLoc:v7.00.10(30Aug2020)   run:28Dec2023 19h51m00"
COMMENT "SEML"
GRID  2001 2001 1001  727 9811 -2  0.01 0.01 0.01 PROB_DENSITY
SEARCH OCTREE nInitial 4851 nEvaluated 20019 smallestNodeSide 0.014881/0.014881/0.014205 oct_tree_integral 2.142708e-02 scatter_volume 2.131594e-02
HYPOCENTER  x 738.644 y 9818.86 z 0.464489  OT 32.6641  ix -1 iy -1 iz -1 MAXIMUM_LIKELIHOOD
GEOGRAPHIC  OT 2023 01 20  19 36 32.664148  Lat 9818.864583 Long 738.644345 Depth 0.464489
QUALITY  Pmax 4.7091e+102 MFmin 105.769 MFmax 122.27 RMS 0.0271909 Nphs 28 Gap 275.675 Dist 0.418928 Mamp -9.90 0 Mdur -9.90 0
VPVSRATIO  VpVsRatio 1.72368  Npair 14  Diff 0.511002
STATISTICS  ExpectX 738.611623 Y 9818.819812 Z 0.597229  CovXX 0.0130839 XY -0.00300556 XZ -0.00628492 YY 0.0126476 YZ -0.00405909 ZZ 0.0244505 EllAz1  47.7864 Dip1  22.7046 Len1  0.15501 Az2  320.246 Dip2  -5.85582 Len2  0.235335 Len3  3.126203e-01
STAT_GEOG  ExpectLat 9818.819812 Long 738.611623 Depth 0.597229
TRANSFORM  NONE
QML_OriginQuality  assocPhCt 28  usedPhCt 28  assocStaCt -1  usedStaCt 14  depthPhCt -1  stdErr 0.0271909  azGap 275.675  secAzGap 275.675  gtLevel -  minDist 0.418928 maxDist 4.85814 medDist 2.85543
QML_OriginUncertainty  horUnc -1  minHorUnc 0.150533  maxHorUnc 0.191108  azMaxHorUnc 132.924
QML_ConfidenceEllipsoid  semiMajorAxisLength 0.31262  semiMinorAxisLength 0.15501  semiIntermediateAxisLength 0.235335  majorAxisPlunge -66.4695  majorAxisAzimuth 63.8687  majorAxisRotation 259.792
FOCALMECH  Hyp  9818.864583 738.644345 0.464489 Mech  0 0 0 mf  0 nObs -1
PHASE ID Ins Cmp On Pha  FM Date     HrMn   Sec     Err  ErrMag    Coda      Amp       Per       PriorWt  >   TTpred    Res       Weight    StaLoc(X  Y         Z)        SDist    SAzim  RAz  RDip RQual    Tcorr       TTerr
M06          ?    BHZ  i P      c 20230120 1936   33.2402 GAU  2.01e-03 -1.00e+00  5.87e+02 -1.00e+00    1.0000 >    0.5073    0.0687    0.4036  738.3100 9819.1170   -1.3960    0.4189 307.05 307.1 166.9 10     0.0000    0.0101
M06          ?    BHE  e S      ? 20230120 1936   33.7570 GAU  2.95e-03 -1.00e+00  3.32e+01 -1.00e+00    1.0000 >    0.8847    0.2081    0.0004  738.3100 9819.1170   -1.3960    0.4189 307.05 307.1 166.7 10     0.0000    0.0177
M04          ?    BHZ  e P      d 20230120 1936   33.2840 GAU  2.01e-03 -1.00e+00  2.17e+03 -1.00e+00    1.0000 >    0.6826   -0.0628    0.4729  737.1400 9819.2520   -1.5710    1.5534 284.44 284.4 141.4 10     0.0000    0.0137
M04          ?    BHE  e S      ? 20230120 1936   33.8226 GAU  2.31e-03 -1.00e+00  1.24e+02 -1.00e+00    1.0000 >    1.1894   -0.0310    1.1744  737.1400 9819.2520   -1.5710    1.5534 284.44 284.4 140.8 10     0.0000    0.0238
M14          ?    BHZ  i P      c 20230120 1936   33.3171 GAU  2.77e-03 -1.00e+00 -1.00e+00 -1.00e+00    1.0000 >    0.6497    0.0032    1.5792  737.5530 9820.0110   -1.3980    1.5828 316.41 316.4 138.4 10     0.0000    0.0130
M14          ?    BHE  e S      ? 20230120 1936   33.8492 GAU  3.15e-03 -1.00e+00  4.72e+02 -1.00e+00    1.0000 >    1.1331    0.0520    0.6498  737.5530 9820.0110   -1.3980    1.5828 316.41 316.4 137.7 10     0.0000    0.0227
M11          ?    BHZ  i P      c 20230120 1936   33.3158 GAU  2.27e-03 -1.00e+00  2.74e+02 -1.00e+00    1.0000 >    0.6407    0.0110    1.4434  738.4670 9820.4900   -1.3120    1.6351 353.77 353.8 136.2 10     0.0000    0.0128
M11          ?    BHN  e S      ? 20230120 1936   33.8647 GAU  2.88e-03 -1.00e+00 -1.00e+00 -1.00e+00    1.0000 >    1.1180    0.0825    0.3326  738.4670 9820.4900   -1.3120    1.6351 353.77 353.8 135.4 10     0.0000    0.0224
M02          ?    BHZ  i P      d 20230120 1936   33.4357 GAU  1.64e-03 -1.00e+00  9.48e+02 -1.00e+00    1.0000 >    0.7682    0.0034    1.5471  736.5970 9819.4060   -1.4960    2.1177 284.81 284.8 130.9 10     0.0000    0.0154
M02          ?    BHN  i S      ? 20230120 1936   34.0169 GAU  2.10e-03 -1.00e+00  1.27e+04 -1.00e+00    1.0000 >    1.3390    0.0138    1.2646  736.5970 9819.4060   -1.4960    2.1177 284.81 284.8 130.0 10     0.0000    0.0268
M09          ?    BHZ  i P      c 20230120 1936   33.4083 GAU  1.97e-03 -1.00e+00  4.48e+02 -1.00e+00    1.0000 >    0.7539   -0.0097    1.5563  737.8820 9820.9850   -1.2700    2.2533 340.23 340.2 125.6 10     0.0000    0.0151
M09          ?    BHE  e S      ? 20230120 1936   33.9760 GAU  3.31e-03 -1.00e+00  2.15e+02 -1.00e+00    1.0000 >    1.3158   -0.0039    1.3909  737.8820 9820.9850   -1.2700    2.2533 340.23 340.2 124.4 10     0.0000    0.0263
M03          ?    BHZ  i P      d 20230120 1936   33.4946 GAU  2.41e-03 -1.00e+00 -1.00e+00 -1.00e+00    1.0000 >    0.8522   -0.0218    1.3645  736.8800 9820.8540   -1.3350    2.6591 318.43 318.4 121.9 10     0.0000    0.0170
M03          ?    BHN  e S      ? 20230120 1936   34.1150 GAU  2.95e-03 -1.00e+00 -1.00e+00 -1.00e+00    1.0000 >    1.4869   -0.0361    1.0610  736.8800 9820.8540   -1.3350    2.6591 318.43 318.4 120.5 10     0.0000    0.0297
M13          ?    BHZ  i P      c 20230120 1936   33.5453 GAU  2.53e-03 -1.00e+00  4.42e+02 -1.00e+00    1.0000 >    0.9233   -0.0421    0.9437  737.1780 9821.5410   -1.2220    3.0518 331.28 331.3 116.6 10     0.0000    0.0185
M13          ?    BHE  e S      ? 20230120 1936   34.2298 GAU  2.76e-03 -1.00e+00 -1.00e+00 -1.00e+00    1.0000 >    1.6120   -0.0463    0.8905  737.1780 9821.5410   -1.2220    3.0518 331.28 331.3 114.8 10     0.0000    0.0322
M10          ?    BHZ  i P      c 20230120 1936   33.6493 GAU  3.20e-03 -1.00e+00  1.38e+01 -1.00e+00    1.0000 >    0.9720    0.0132    1.3429  736.5490 9821.3650   -1.2200    3.2623 320.04 320.0 114.8 10     0.0000    0.0194
M10          ?    BHN  e S      ? 20230120 1936   34.3731 GAU  2.99e-03 -1.00e+00 -1.00e+00 -1.00e+00    1.0000 >    1.6971    0.0119    1.2042  736.5490 9821.3650   -1.2200    3.2623 320.04 320.0 113.0 10     0.0000    0.0339
M08          ?    BHZ  i P      d 20230120 1936   33.6282 GAU  2.87e-03 -1.00e+00  7.23e+01 -1.00e+00    1.0000 >    0.9758   -0.0117    1.4794  738.2480 9822.1600   -1.1510    3.3192 353.14 353.1 113.5 10     0.0000    0.0195
M08          ?    BHN  e S      ? 20230120 1936   34.3587 GAU  2.06e-03 -1.00e+00  4.69e+02 -1.00e+00    1.0000 >    1.7044   -0.0099    1.2589  738.2480 9822.1600   -1.1510    3.3192 353.14 353.1 111.5 10     0.0000    0.0341
M05          ?    BHZ  i P      d 20230120 1936   33.8063 GAU  4.20e-03 -1.00e+00  1.52e+01 -1.00e+00    1.0000 >    1.1400    0.0021    1.4284  736.2660 9822.0830   -1.1500    4.0018 323.54 323.5 109.3 10     0.0000    0.0228
M05          ?    BHE  e S      ? 20230120 1936   34.7220 GAU  2.17e-03 -1.00e+00 -1.00e+00 -1.00e+00    1.0000 >    1.9910    0.0669    0.5812  736.2660 9822.0830   -1.1500    4.0018 323.54 323.5 106.8  9     0.0000    0.0398
M01          ?    BHZ  i P      c 20230120 1936   33.8635 GAU  3.49e-03 -1.00e+00 -1.00e+00 -1.00e+00    1.0000 >    1.2044   -0.0051    1.4292  736.4090 9822.5140   -1.1200    4.2796 328.51 328.5 107.6 10     0.0000    0.0241
M01          ?    BHN  e S      ? 20230120 1936   34.7913 GAU  2.14e-03 -1.00e+00  1.79e+03 -1.00e+00    1.0000 >    2.1025    0.0246    1.0278  736.4090 9822.5140   -1.1200    4.2796 328.51 328.5  79.2  9     0.0000    0.0421
M15          ?    BHZ  i P      d 20230120 1936   33.6969 GAU  2.30e-03 -1.00e+00  2.83e+02 -1.00e+00    1.0000 >    1.2410   -0.2082    0.0014  739.3310 9823.3170   -0.9530    4.5051   8.77   8.8 105.2 10     0.0000    0.0248
M15          ?    BHN  e S      ? 20230120 1936   34.4753 GAU  2.26e-03 -1.00e+00 -1.00e+00 -1.00e+00    1.0000 >    2.1558   -0.3446    0.0014  739.3310 9823.3170   -0.9530    4.5051   8.77   8.8  67.2 10     0.0000    0.0431
M12          ?    BHZ  i P      d 20230120 1936   33.9657 GAU  2.95e-03 -1.00e+00 -1.00e+00 -1.00e+00    1.0000 >    1.3333   -0.0317    1.1466  736.8520 9823.3800   -0.9890    4.8581 338.35 338.3 104.2 10     0.0000    0.0267
M12          ?    BHE  e S      ? 20230120 1936   34.9935 GAU  2.72e-03 -1.00e+00 -1.00e+00 -1.00e+00    1.0000 >    2.3091    0.0202    1.0239  736.8520 9823.3800   -0.9890    4.8581 338.35 338.3  67.2 10     0.0000    0.0462
END_PHASE
END_NLLOC

