NLLOC "./loc/SEML.20230120.192830.grid0" "LOCATED" "Location completed."
PUBLIC_ID None
SIGNATURE "Arham Zakki Edelo - edelo.17034@mhs.its.ac.id   obs:./obs/2023_01.obs   NLLoc:v7.00.10(30Aug2020)   run:28Dec2023 19h50m48"
COMMENT "SEML"
GRID  2001 2001 1001  727 9811 -2  0.01 0.01 0.01 PROB_DENSITY
SEARCH OCTREE nInitial 4851 nEvaluated 20011 smallestNodeSide 0.014881/0.014881/0.014205 oct_tree_integral 3.929501e-02 scatter_volume 3.929501e-02
HYPOCENTER  x 738.592 y 9818.43 z 1.1392  OT 29.3262  ix -1 iy -1 iz -1 MAXIMUM_LIKELIHOOD
GEOGRAPHIC  OT 2023 01 20  19 28 29.326225  Lat 9818.425595 Long 738.592262 Depth 1.139205
QUALITY  Pmax 1.06924e+101 MFmin 95.6424 MFmax 114.406 RMS 0.0344749 Nphs 28 Gap 287.58 Dist 0.746801 Mamp -9.90 0 Mdur -9.90 0
VPVSRATIO  VpVsRatio 1.74591  Npair 14  Diff 0.521721
STATISTICS  ExpectX 738.614478 Y 9818.438268 Z 1.058067  CovXX 0.0305145 XY -0.00901943 XZ -0.00417686 YY 0.0218014 YZ -0.0084932 ZZ 0.0305117 EllAz1  30.9869 Dip1  26.357 Len1  0.201273 Az2  83.9508 Dip2  -50.5592 Len2  0.349809 Len3  3.598667e-01
STAT_GEOG  ExpectLat 9818.438268 Long 738.614478 Depth 1.058067
TRANSFORM  NONE
QML_OriginQuality  assocPhCt 28  usedPhCt 28  assocStaCt -1  usedStaCt 14  depthPhCt -1  stdErr 0.0344749  azGap 287.58  secAzGap 287.58  gtLevel -  minDist 0.746801 maxDist 5.25116 medDist 3.19637
QML_OriginUncertainty  horUnc -1  minHorUnc 0.192679  maxHorUnc 0.288446  azMaxHorUnc 122.109
QML_ConfidenceEllipsoid  semiMajorAxisLength 0.359867  semiMinorAxisLength 0.201273  semiIntermediateAxisLength 0.349809  majorAxisPlunge -27.0263  majorAxisAzimuth 315.627  majorAxisRotation 44.3999
FOCALMECH  Hyp  9818.425595 738.592262 1.139205 Mech  0 0 0 mf  0 nObs -1
PHASE ID Ins Cmp On Pha  FM Date     HrMn   Sec     Err  ErrMag    Coda      Amp       Per       PriorWt  >   TTpred    Res       Weight    StaLoc(X  Y         Z)        SDist    SAzim  RAz  RDip RQual    Tcorr       TTerr
M06          ?    BHZ  i P      c 20230120 1928   30.0559 GAU  7.18e-03 -1.00e+00 -1.00e+00 -1.00e+00    1.0000 >    0.6930    0.0366    1.1395  738.3100 9819.1170   -1.3960    0.7468 337.79 337.8 161.7 10     0.0000    0.0139
M06          ?    BHN  e S      ? 20230120 1928   30.5509 GAU  3.46e-03 -1.00e+00  3.53e+02 -1.00e+00    1.0000 >    1.1859    0.0388    1.1137  738.3100 9819.1170   -1.3960    0.7468 337.79 337.8 160.9 10     0.0000    0.0237
M04          ?    BHZ  e P      c 20230120 1928   30.1748 GAU  6.46e-03 -1.00e+00 -1.00e+00 -1.00e+00    1.0000 >    0.8371    0.0115    1.4750  737.1400 9819.2520   -1.5710    1.6709 299.64 299.6 144.3 10     0.0000    0.0167
M04          ?    BHN  e S      ? 20230120 1928   30.6675 GAU  7.97e-03 -1.00e+00  7.65e+02 -1.00e+00    1.0000 >    1.4326   -0.0913    0.3430  737.1400 9819.2520   -1.5710    1.6709 299.64 299.6 142.7 10     0.0000    0.0287
M14          ?    BHZ  i P      c 20230120 1928   30.1399 GAU  4.41e-03 -1.00e+00 -1.00e+00 -1.00e+00    1.0000 >    0.8300   -0.0163    1.3697  737.5530 9820.0110   -1.3980    1.8957 326.75 326.8 138.5 10     0.0000    0.0166
M14          ?    BHE  e S      ? 20230120 1928   30.6451 GAU  3.55e-03 -1.00e+00  3.85e+02 -1.00e+00    1.0000 >    1.4193   -0.1004    0.2768  737.5530 9820.0110   -1.3980    1.8957 326.75 326.8 136.5 10     0.0000    0.0284
M11          ?    BHZ  i P      c 20230120 1928   30.1692 GAU  6.89e-03 -1.00e+00 -1.00e+00 -1.00e+00    1.0000 >    0.8389    0.0041    1.4997  738.4670 9820.4900   -1.3120    2.0682 356.53 356.5 134.5 10     0.0000    0.0168
M11          ?    BHN  e S      ? 20230120 1928   30.7536 GAU  5.98e-03 -1.00e+00  1.83e+01 -1.00e+00    1.0000 >    1.4337   -0.0063    1.3579  738.4670 9820.4900   -1.3120    2.0682 356.53 356.5 132.3 10     0.0000    0.0287
M02          ?    BHZ  e P      c 20230120 1928   30.1933 GAU  5.41e-03 -1.00e+00 -1.00e+00 -1.00e+00    1.0000 >    0.9048   -0.0377    0.9718  736.5970 9819.4060   -1.4960    2.2231 296.17 296.2 134.3 10     0.0000    0.0181
M02          ?    BHN  i S      ? 20230120 1928   30.8614 GAU  5.05e-03 -1.00e+00  4.20e+03 -1.00e+00    1.0000 >    1.5475   -0.0123    1.2957  736.5970 9819.4060   -1.4960    2.2231 296.17 296.2 132.1 10     0.0000    0.0309
M09          ?    BHZ  i P      c 20230120 1928   30.2504 GAU  1.15e-02 -1.00e+00  2.13e+02 -1.00e+00    1.0000 >    0.9366   -0.0125    1.3868  737.8820 9820.9850   -1.2700    2.6561 344.49 344.5 124.9 10     0.0000    0.0187
M09          ?    BHN  e S      ? 20230120 1928   30.9416 GAU  4.01e-03 -1.00e+00  4.93e+01 -1.00e+00    1.0000 >    1.5993    0.0160    1.3132  737.8820 9820.9850   -1.2700    2.6561 344.49 344.5 122.2 10     0.0000    0.0320
M03          ?    BHZ  i P      d 20230120 1928   30.3638 GAU  1.38e-02 -1.00e+00 -1.00e+00 -1.00e+00    1.0000 >    1.0112    0.0264    1.2925  736.8800 9820.8540   -1.3350    2.9714 324.81 324.8 121.6 10     0.0000    0.0202
M03          ?    BHE  e S      ? 20230120 1928   31.0767 GAU  4.98e-03 -1.00e+00 -1.00e+00 -1.00e+00    1.0000 >    1.7263    0.0242    1.2303  736.8800 9820.8540   -1.3350    2.9714 324.81 324.8 118.5 10     0.0000    0.0345
M13          ?    BHZ  i P      c 20230120 1928   30.3809 GAU  1.44e-02 -1.00e+00 -1.00e+00 -1.00e+00    1.0000 >    1.0842   -0.0295    1.1314  737.1780 9821.5410   -1.2220    3.4214 335.58 335.6 114.8 10     0.0000    0.0217
M13          ?    BHE  e S      ? 20230120 1928   31.0460 GAU  6.64e-03 -1.00e+00 -1.00e+00 -1.00e+00    1.0000 >    1.8481   -0.1283    0.1774  737.1780 9821.5410   -1.2220    3.4214 335.58 335.6 111.1 10     0.0000    0.0370
M10          ?    BHZ  e P      d 20230120 1928   30.5558 GAU  4.03e-03 -1.00e+00  5.13e+03 -1.00e+00    1.0000 >    1.1180    0.1116    0.2408  736.5490 9821.3650   -1.2200    3.5798 325.20 325.2 113.0 10     0.0000    0.0224
M10          ?    BHN  e S      ? 20230120 1928   31.3941 GAU  5.88e-03 -1.00e+00  4.54e+02 -1.00e+00    1.0000 >    1.9049    0.1629    0.1125  736.5490 9821.3650   -1.2200    3.5798 325.20 325.2 109.3 10     0.0000    0.0381
M08          ?    BHZ  i P      d 20230120 1928   30.4578 GAU  1.19e-02 -1.00e+00  8.17e+02 -1.00e+00    1.0000 >    1.1439   -0.0123    1.3533  738.2480 9822.1600   -1.1510    3.7502 354.73 354.7 110.2 10     0.0000    0.0229
M08          ?    BHN  e S      ? 20230120 1928   31.2268 GAU  3.99e-03 -1.00e+00  2.68e+02 -1.00e+00    1.0000 >    1.9471   -0.0465    0.8834  738.2480 9822.1600   -1.1510    3.7502 354.73 354.7 106.4 10     0.0000    0.0389
M05          ?    BHZ  i P      d 20230120 1928   30.6545 GAU  1.24e-02 -1.00e+00  1.05e+03 -1.00e+00    1.0000 >    1.2750    0.0533    0.8879  736.2660 9822.0830   -1.1500    4.3345 327.54 327.5 104.6 10     0.0000    0.0255
M05          ?    BHN  e S      ? 20230120 1928   31.6040 GAU  1.65e-02 -1.00e+00  3.04e+02 -1.00e+00    1.0000 >    2.1663    0.1115    0.3813  736.2660 9822.0830   -1.1500    4.3345 327.54 327.5 100.7 10     0.0000    0.0433
M01          ?    BHZ  i P      c 20230120 1928   30.6993 GAU  1.15e-02 -1.00e+00 -1.00e+00 -1.00e+00    1.0000 >    1.3393    0.0338    1.1732  736.4090 9822.5140   -1.1200    4.6348 331.90 331.9 101.6 10     0.0000    0.0268
M01          ?    BHE  e S      ? 20230120 1928   31.6581 GAU  9.57e-03 -1.00e+00  4.68e+02 -1.00e+00    1.0000 >    2.2723    0.0596    0.8374  736.4090 9822.5140   -1.1200    4.6348 331.90 331.9  98.3  9     0.0000    0.0454
M15          ?    BHZ  e P      d 20230120 1928   30.7031 GAU  8.64e-03 -1.00e+00 -1.00e+00 -1.00e+00    1.0000 >    1.3875   -0.0107    1.3328  739.3310 9823.3170   -0.9530    4.9469   8.59   8.6  97.7  9     0.0000    0.0278
M15          ?    BHE  e S      ? 20230120 1928   31.7175 GAU  3.34e-03 -1.00e+00 -1.00e+00 -1.00e+00    1.0000 >    2.3457    0.0455    0.9660  739.3310 9823.3170   -0.9530    4.9469   8.59   8.6  95.8  9     0.0000    0.0469
M12          ?    BHZ  e P      c 20230120 1928   30.7823 GAU  2.39e-03 -1.00e+00 -1.00e+00 -1.00e+00    1.0000 >    1.4638   -0.0077    1.3490  736.8520 9823.3800   -0.9890    5.2512 340.65 340.6  96.6  9     0.0000    0.0293
M12          ?    BHE  e S      ? 20230120 1928   31.7881 GAU  5.27e-03 -1.00e+00 -1.00e+00 -1.00e+00    1.0000 >    2.4727   -0.0108    1.1078  736.8520 9823.3800   -0.9890    5.2512 340.65 340.6  95.1  9     0.0000    0.0495
END_PHASE
END_NLLOC

