NLLOC "./loc/SEML.20230120.191633.grid0" "LOCATED" "Location completed."
PUBLIC_ID None
SIGNATURE "Arham Zakki Edelo - edelo.17034@mhs.its.ac.id   obs:./obs/2023_01.obs   NLLoc:v7.00.10(30Aug2020)   run:28Dec2023 19h50m33"
COMMENT "SEML"
GRID  2001 2001 1001  727 9811 -2  0.01 0.01 0.01 PROB_DENSITY
SEARCH OCTREE nInitial 4851 nEvaluated 20035 smallestNodeSide 0.014881/0.014881/0.014205 oct_tree_integral 6.538540e-02 scatter_volume 6.538540e-02
HYPOCENTER  x 738.808 y 9818.95 z 1.33097  OT 33.0164  ix -1 iy -1 iz -1 MAXIMUM_LIKELIHOOD
GEOGRAPHIC  OT 2023 01 20  19 16 33.016355  Lat 9818.953869 Long 738.808036 Depth 1.330966
QUALITY  Pmax 1.68764e+22 MFmin 28.7731 MFmax 35.2548 RMS 0.0157098 Nphs 8 Gap 300.653 Dist 0.524072 Mamp -9.90 0 Mdur -9.90 0
VPVSRATIO  VpVsRatio 1.65862  Npair 4  Diff 0.220222
STATISTICS  ExpectX 738.801293 Y 9818.926270 Z 1.274569  CovXX 0.221534 XY 0.0758986 XZ 0.00865879 YY 0.0601433 YZ 0.000271684 ZZ 0.0573186 EllAz1  338.151 Dip1  6.1477 Len1  0.324018 Az2  179.621 Dip2  83.3978 Len2  0.449719 Len3  9.430910e-01
STAT_GEOG  ExpectLat 9818.926270 Long 738.801293 Depth 1.274569
TRANSFORM  NONE
QML_OriginQuality  assocPhCt 8  usedPhCt 8  assocStaCt -1  usedStaCt 4  depthPhCt -1  stdErr 0.0157098  azGap 300.653  secAzGap 300.653  gtLevel -  minDist 0.524072 maxDist 3.05782 medDist 1.9029
QML_OriginUncertainty  horUnc -1  minHorUnc 0.262932  maxHorUnc 0.760739  azMaxHorUnc 68.3773
QML_ConfidenceEllipsoid  semiMajorAxisLength 0.943091  semiMinorAxisLength 0.324018  semiIntermediateAxisLength 0.449719  majorAxisPlunge 2.39803  majorAxisAzimuth 68.409  majorAxisRotation 173.825
FOCALMECH  Hyp  9818.953869 738.808036 1.330966 Mech  0 0 0 mf  0 nObs -1
PHASE ID Ins Cmp On Pha  FM Date     HrMn   Sec     Err  ErrMag    Coda      Amp       Per       PriorWt  >   TTpred    Res       Weight    StaLoc(X  Y         Z)        SDist    SAzim  RAz  RDip RQual    Tcorr       TTerr
M06          ?    BHZ  i P      d 20230120 1916   33.7448 GAU  3.32e-03 -1.00e+00 -1.00e+00 -1.00e+00    1.0000 >    0.7229    0.0056    1.2402  738.3100 9819.1170   -1.3960    0.5241 288.14 288.1 167.8 10     0.0000    0.0145
M06          ?    BHE  e S      ? 20230120 1916   34.2496 GAU  5.74e-03 -1.00e+00 -1.00e+00 -1.00e+00    1.0000 >    1.2337   -0.0005    1.1112  738.3100 9819.1170   -1.3960    0.5241 288.14 288.1 167.4 10     0.0000    0.0247
M11          ?    BHZ  e P      d 20230120 1916   33.8094 GAU  4.13e-03 -1.00e+00 -1.00e+00 -1.00e+00    1.0000 >    0.7991   -0.0060    1.1871  738.4670 9820.4900   -1.3120    1.5735 347.48 347.5 145.8 10     0.0000    0.0160
M11          ?    BHE  e S      ? 20230120 1916   34.3751 GAU  9.04e-03 -1.00e+00 -1.00e+00 -1.00e+00    1.0000 >    1.3626   -0.0038    1.0427  738.4670 9820.4900   -1.3120    1.5735 347.48 347.5 144.5 10     0.0000    0.0273
M09          ?    BHZ  i P      c 20230120 1916   33.9443 GAU  7.18e-03 -1.00e+00  8.40e+01 -1.00e+00    1.0000 >    0.8889    0.0391    0.6331  737.8820 9820.9850   -1.2700    2.2323 335.49 335.5 134.5 10     0.0000    0.0178
M09          ?    BHN  e S      ? 20230120 1916   34.5642 GAU  4.96e-03 -1.00e+00  4.81e+02 -1.00e+00    1.0000 >    1.5146    0.0333    0.7947  737.8820 9820.9850   -1.2700    2.2323 335.49 335.5 132.6 10     0.0000    0.0303
M13          ?    BHZ  i P      d 20230120 1916   34.0375 GAU  3.32e-03 -1.00e+00 -1.00e+00 -1.00e+00    1.0000 >    1.0311   -0.0100    1.0893  737.1780 9821.5410   -1.2220    3.0578 327.79 327.8 122.7 10     0.0000    0.0206
M13          ?    BHN  e S      ? 20230120 1916   34.7624 GAU  1.18e-02 -1.00e+00 -1.00e+00 -1.00e+00    1.0000 >    1.7541   -0.0080    0.9017  737.1780 9821.5410   -1.2220    3.0578 327.79 327.8 120.3 10     0.0000    0.0351
END_PHASE
END_NLLOC

