NLLOC "./loc/SEML.20230120.191037.grid0" "LOCATED" "Location completed."
PUBLIC_ID None
SIGNATURE "Arham Zakki Edelo - edelo.17034@mhs.its.ac.id   obs:./obs/2023_01.obs   NLLoc:v7.00.10(30Aug2020)   run:28Dec2023 19h50m20"
COMMENT "SEML"
GRID  2001 2001 1001  727 9811 -2  0.01 0.01 0.01 PROB_DENSITY
SEARCH OCTREE nInitial 4851 nEvaluated 20011 smallestNodeSide 0.014881/0.014881/0.014205 oct_tree_integral 2.352727e-02 scatter_volume 2.352727e-02
HYPOCENTER  x 738.347 y 9818.89 z 0.578125  OT 36.4618  ix -1 iy -1 iz -1 MAXIMUM_LIKELIHOOD
GEOGRAPHIC  OT 2023 01 20  19 10 36.461839  Lat 9818.894345 Long 738.346726 Depth 0.578125
QUALITY  Pmax 2.28944e+85 MFmin 88.9666 MFmax 100.309 RMS 0.0286723 Nphs 24 Gap 282.198 Dist 0.225663 Mamp -9.90 0 Mdur -9.90 0
VPVSRATIO  VpVsRatio 1.73945  Npair 12  Diff 0.600948
STATISTICS  ExpectX 738.514484 Y 9818.831048 Z 0.552243  CovXX 0.0415984 XY -0.0138507 XZ -0.00674209 YY 0.0163162 YZ 0.00405299 ZZ 0.0194601 EllAz1  22.297 Dip1  -7.24167 Len1  0.188631 Az2  266.458 Dip2  -73.7463 Len2  0.249051 Len3  4.189562e-01
STAT_GEOG  ExpectLat 9818.831048 Long 738.514484 Depth 0.552243
TRANSFORM  NONE
QML_OriginQuality  assocPhCt 24  usedPhCt 24  assocStaCt -1  usedStaCt 12  depthPhCt -1  stdErr 0.0286723  azGap 282.198  secAzGap 282.198  gtLevel -  minDist 0.225663 maxDist 4.72814 medDist 2.67049
QML_OriginUncertainty  horUnc -1  minHorUnc 0.153206  maxHorUnc 0.331257  azMaxHorUnc 113.807
QML_ConfidenceEllipsoid  semiMajorAxisLength 0.418956  semiMinorAxisLength 0.188631  semiIntermediateAxisLength 0.249051  majorAxisPlunge -14.4715  majorAxisAzimuth 114.176  majorAxisRotation 188.533
FOCALMECH  Hyp  9818.894345 738.346726 0.578125 Mech  0 0 0 mf  0 nObs -1
PHASE ID Ins Cmp On Pha  FM Date     HrMn   Sec     Err  ErrMag    Coda      Amp       Per       PriorWt  >   TTpred    Res       Weight    StaLoc(X  Y         Z)        SDist    SAzim  RAz  RDip RQual    Tcorr       TTerr
M06          ?    BHZ  i P      c 20230120 1910   37.0125 GAU  2.88e-03 -1.00e+00  1.88e+04 -1.00e+00    1.0000 >    0.5274    0.0233    1.2775  738.3100 9819.1170   -1.3960    0.2257 350.63 350.6 173.0 10     0.0000    0.0105
M06          ?    BHE  e S      ? 20230120 1910   37.4729 GAU  1.24e-02 -1.00e+00 -1.00e+00 -1.00e+00    1.0000 >    0.9166    0.0945    0.3204  738.3100 9819.1170   -1.3960    0.2257 350.63 350.6 172.5 10     0.0000    0.0183
M04          ?    BHZ  e P      d 20230120 1910   37.1135 GAU  3.46e-03 -1.00e+00 -1.00e+00 -1.00e+00    1.0000 >    0.6629   -0.0112    1.4154  737.1400 9819.2520   -1.5710    1.2586 286.51 286.5 148.4 10     0.0000    0.0133
M04          ?    BHE  e S      ? 20230120 1910   37.5923 GAU  7.18e-03 -1.00e+00 -1.00e+00 -1.00e+00    1.0000 >    1.1513   -0.0209    1.0874  737.1400 9819.2520   -1.5710    1.2586 286.51 286.5 145.4 10     0.0000    0.0230
M14          ?    BHZ  i P      c 20230120 1910   37.1035 GAU  1.66e-03 -1.00e+00  5.24e+03 -1.00e+00    1.0000 >    0.6381    0.0035    1.6206  737.5530 9820.0110   -1.3980    1.3700 324.59 324.6 144.0 10     0.0000    0.0128
M14          ?    BHN  e S      ? 20230120 1910   37.5923 GAU  6.89e-03 -1.00e+00 -1.00e+00 -1.00e+00    1.0000 >    1.1090    0.0214    1.2905  737.5530 9820.0110   -1.3980    1.3700 324.59 324.6 140.4 10     0.0000    0.0222
M11          ?    BHZ  i P      c 20230120 1910   37.1170 GAU  6.88e-03 -1.00e+00  1.95e+04 -1.00e+00    1.0000 >    0.6560   -0.0008    1.5773  738.4670 9820.4900   -1.3120    1.6002   4.31   4.3 138.3 10     0.0000    0.0131
M11          ?    BHN  e S      ? 20230120 1910   37.6072 GAU  1.49e-02 -1.00e+00 -1.00e+00 -1.00e+00    1.0000 >    1.1403    0.0050    1.3428  738.4670 9820.4900   -1.3120    1.6002   4.31   4.3 133.8 10     0.0000    0.0228
M09          ?    BHZ  i P      c 20230120 1910   37.2028 GAU  3.99e-03 -1.00e+00  2.62e+03 -1.00e+00    1.0000 >    0.7484   -0.0075    1.4772  737.8820 9820.9850   -1.2700    2.1417 347.47 347.5 128.4 10     0.0000    0.0150
M09          ?    BHN  e S      ? 20230120 1910   37.7826 GAU  8.27e-03 -1.00e+00 -1.00e+00 -1.00e+00    1.0000 >    1.3011    0.0197    1.2626  737.8820 9820.9850   -1.2700    2.1417 347.47 347.5 122.0 10     0.0000    0.0260
M03          ?    BHZ  i P      d 20230120 1910   37.3058 GAU  8.27e-03 -1.00e+00 -1.00e+00 -1.00e+00    1.0000 >    0.8230    0.0210    1.3423  736.8800 9820.8540   -1.3350    2.4478 323.19 323.2 125.4 10     0.0000    0.0165
M03          ?    BHE  e S      ? 20230120 1910   38.0314 GAU  1.38e-02 -1.00e+00 -1.00e+00 -1.00e+00    1.0000 >    1.4301    0.1394    0.2182  736.8800 9820.8540   -1.3350    2.4478 323.19 323.2 118.1 10     0.0000    0.0286
M13          ?    BHZ  i P      c 20230120 1910   37.3477 GAU  5.54e-03 -1.00e+00  1.22e+04 -1.00e+00    1.0000 >    0.9006   -0.0147    1.2740  737.1780 9821.5410   -1.2220    2.8932 336.17 336.2 118.8 10     0.0000    0.0180
M13          ?    BHE  e S      ? 20230120 1910   37.9377 GAU  1.91e-02 -1.00e+00 -1.00e+00 -1.00e+00    1.0000 >    1.5649   -0.0890    0.1551  737.1780 9821.5410   -1.2220    2.8932 336.17 336.2 109.0 10     0.0000    0.0313
M10          ?    BHZ  i P      c 20230120 1910   37.4486 GAU  4.13e-03 -1.00e+00  1.90e+04 -1.00e+00    1.0000 >    0.9369    0.0499    0.6996  736.5490 9821.3650   -1.2200    3.0555 323.96 324.0 117.3 10     0.0000    0.0187
M10          ?    BHN  e S      ? 20230120 1910   38.1933 GAU  1.03e-02 -1.00e+00 -1.00e+00 -1.00e+00    1.0000 >    1.6277    0.1037    0.3535  736.5490 9821.3650   -1.2200    3.0555 323.96 324.0 106.7 10     0.0000    0.0326
M08          ?    BHZ  i P      d 20230120 1910   37.4333 GAU  3.99e-03 -1.00e+00 -1.00e+00 -1.00e+00    1.0000 >    0.9753   -0.0039    1.4512  738.2480 9822.1600   -1.1510    3.2671 358.27 358.3 114.6 10     0.0000    0.0195
M08          ?    BHN  e S      ? 20230120 1910   38.1443 GAU  4.98e-03 -1.00e+00 -1.00e+00 -1.00e+00    1.0000 >    1.6940   -0.0115    1.1173  738.2480 9822.1600   -1.1510    3.2671 358.27 358.3 102.3  9     0.0000    0.0339
M05          ?    BHZ  e P      d 20230120 1910   37.6291 GAU  2.07e-02 -1.00e+00 -1.00e+00 -1.00e+00    1.0000 >    1.1028    0.0645    0.6209  736.2660 9822.0830   -1.1500    3.8075 326.87 326.9 110.7 10     0.0000    0.0221
M05          ?    BHE  e S      ? 20230120 1910   38.5572 GAU  1.72e-02 -1.00e+00 -1.00e+00 -1.00e+00    1.0000 >    1.9124    0.1829    0.1156  736.2660 9822.0830   -1.1500    3.8075 326.87 326.9  96.7  9     0.0000    0.0382
M01          ?    BHZ  e P      c 20230120 1910   37.6473 GAU  3.99e-03 -1.00e+00  8.96e+03 -1.00e+00    1.0000 >    1.1708    0.0147    1.3669  736.4090 9822.5140   -1.1200    4.1057 331.84 331.8 108.6 10     0.0000    0.0234
M01          ?    BHE  e S      ? 20230120 1910   38.4700 GAU  8.31e-03 -1.00e+00  1.71e+02 -1.00e+00    1.0000 >    2.0269   -0.0188    0.9630  736.4090 9822.5140   -1.1200    4.1057 331.84 331.8  94.9  9     0.0000    0.0405
M12          ?    BHZ  i P      d 20230120 1910   37.7771 GAU  6.89e-03 -1.00e+00 -1.00e+00 -1.00e+00    1.0000 >    1.3078    0.0075    1.3450  736.8520 9823.3800   -0.9890    4.7281 341.57 341.6 104.2 10     0.0000    0.0262
M12          ?    BHE  e S      ? 20230120 1910   38.8385 GAU  8.61e-03 -1.00e+00 -1.00e+00 -1.00e+00    1.0000 >    2.2507    0.1260    0.3056  736.8520 9823.3800   -0.9890    4.7281 341.57 341.6  92.8  9     0.0000    0.0450
END_PHASE
END_NLLOC

