NLLOC "./loc/SEML.20230120.192840.grid0" "LOCATED" "Location completed."
PUBLIC_ID None
SIGNATURE "Arham Zakki Edelo - edelo.17034@mhs.its.ac.id   obs:./obs/2023_01.obs   NLLoc:v7.00.10(30Aug2020)   run:28Dec2023 19h50m48"
COMMENT "SEML"
GRID  2001 2001 1001  727 9811 -2  0.01 0.01 0.01 PROB_DENSITY
SEARCH OCTREE nInitial 4851 nEvaluated 20003 smallestNodeSide 0.014881/0.014881/0.014205 oct_tree_integral 4.217386e-02 scatter_volume 4.176003e-02
HYPOCENTER  x 738.347 y 9818.73 z 1.07528  OT 39.9273  ix -1 iy -1 iz -1 MAXIMUM_LIKELIHOOD
GEOGRAPHIC  OT 2023 01 20  19 28 39.927334  Lat 9818.730655 Long 738.346726 Depth 1.075284
QUALITY  Pmax 7.80958e+28 MFmin 37.9922 MFmax 52.5507 RMS 0.00952978 Nphs 10 Gap 324.293 Dist 0.388087 Mamp -9.90 0 Mdur -9.90 0
VPVSRATIO  VpVsRatio 1.7017  Npair 5  Diff 0.298077
STATISTICS  ExpectX 737.986269 Y 9818.488204 Z 0.149036  CovXX 0.335936 XY 0.186511 XZ 0.686272 YY 0.123484 YZ 0.410767 ZZ 1.63699 EllAz1  157.841 Dip1  4.28465 Len1  0.224637 Az2  249.957 Dip2  26.2447 Len2  0.393261 Len3  2.682391e+00
STAT_GEOG  ExpectLat 9818.488204 Long 737.986269 Depth 0.149036
TRANSFORM  NONE
QML_OriginQuality  assocPhCt 10  usedPhCt 10  assocStaCt -1  usedStaCt 5  depthPhCt -1  stdErr 0.00952978  azGap 324.293  secAzGap 324.293  gtLevel -  minDist 0.388087 maxDist 3.04368 medDist 1.76345
QML_OriginUncertainty  horUnc -1  minHorUnc 0.186178  maxHorUnc 1.01094  azMaxHorUnc 59.8317
QML_ConfidenceEllipsoid  semiMajorAxisLength 2.68239  semiMinorAxisLength 0.224637  semiIntermediateAxisLength 0.393261  majorAxisPlunge 63.3542  majorAxisAzimuth 59.2533  majorAxisRotation 344.217
FOCALMECH  Hyp  9818.730655 738.346726 1.075284 Mech  0 0 0 mf  0 nObs -1
PHASE ID Ins Cmp On Pha  FM Date     HrMn   Sec     Err  ErrMag    Coda      Amp       Per       PriorWt  >   TTpred    Res       Weight    StaLoc(X  Y         Z)        SDist    SAzim  RAz  RDip RQual    Tcorr       TTerr
M06          ?    BHZ  i P      c 20230120 1928   40.5891 GAU  3.46e-03 -1.00e+00 -1.00e+00 -1.00e+00    1.0000 >    0.6576    0.0041    1.4961  738.3100 9819.1170   -1.3960    0.3881 354.57 354.6 169.9 10     0.0000    0.0132
M06          ?    BHN  e S      ? 20230120 1928   41.0488 GAU  4.61e-03 -1.00e+00 -1.00e+00 -1.00e+00    1.0000 >    1.1264   -0.0049    1.3011  738.3100 9819.1170   -1.3960    0.3881 354.57 354.6 169.4 10     0.0000    0.0225
M14          ?    BHZ  e P      c 20230120 1928   40.4922 GAU  2.00e-03 -1.00e+00  1.76e+02 -1.00e+00    1.0000 >    0.7612   -0.1963    0.0000  737.5530 9820.0110   -1.3980    1.5064 328.20 328.2 144.7 10     0.0000    0.0152
M14          ?    BHN  e S      ? 20230120 1928   40.8773 GAU  3.32e-03 -1.00e+00  2.93e+02 -1.00e+00    1.0000 >    1.3033   -0.3533    0.0000  737.5530 9820.0110   -1.3980    1.5064 328.20 328.2 143.0 10     0.0000    0.0261
M11          ?    BHZ  e P      c 20230120 1928   40.6935 GAU  5.98e-03 -1.00e+00 -1.00e+00 -1.00e+00    1.0000 >    0.7787   -0.0125    1.3121  738.4670 9820.4900   -1.3120    1.7635   3.91   3.9 138.8 10     0.0000    0.0156
M11          ?    BHN  e S      ? 20230120 1928   41.2660 GAU  4.70e-03 -1.00e+00 -1.00e+00 -1.00e+00    1.0000 >    1.3325    0.0061    1.1927  738.4670 9820.4900   -1.3120    1.7635   3.91   3.9 136.8 10     0.0000    0.0267
M09          ?    BHZ  e P      c 20230120 1928   40.7882 GAU  3.72e-03 -1.00e+00 -1.00e+00 -1.00e+00    1.0000 >    0.8609    0.0000    1.4465  737.8820 9820.9850   -1.2700    2.3017 348.35 348.4 129.0 10     0.0000    0.0172
M09          ?    BHE  e S      ? 20230120 1928   41.4220 GAU  2.78e-03 -1.00e+00  3.42e+02 -1.00e+00    1.0000 >    1.4723    0.0224    0.9411  737.8820 9820.9850   -1.2700    2.3017 348.35 348.4 126.4 10     0.0000    0.0294
M13          ?    BHZ  e P      c 20230120 1928   40.9270 GAU  1.63e-03 -1.00e+00 -1.00e+00 -1.00e+00    1.0000 >    0.9978    0.0019    1.3832  737.1780 9821.5410   -1.2220    3.0437 337.42 337.4 117.7 10     0.0000    0.0200
M13          ?    BHE  e S      ? 20230120 1928   41.6102 GAU  3.67e-03 -1.00e+00 -1.00e+00 -1.00e+00    1.0000 >    1.7039   -0.0210    0.9273  737.1780 9821.5410   -1.2220    3.0437 337.42 337.4 114.0 10     0.0000    0.0341
END_PHASE
END_NLLOC

