NLLOC "./loc/SEML.20230120.192427.grid0" "LOCATED" "Location completed."
PUBLIC_ID None
SIGNATURE "Arham Zakki Edelo - edelo.17034@mhs.its.ac.id   obs:./obs/2023_01.obs   NLLoc:v7.00.10(30Aug2020)   run:28Dec2023 19h50m43"
COMMENT "SEML"
GRID  2001 2001 1001  727 9811 -2  0.01 0.01 0.01 PROB_DENSITY
SEARCH OCTREE nInitial 4851 nEvaluated 20011 smallestNodeSide 0.014881/0.014881/0.014205 oct_tree_integral 3.193963e-02 scatter_volume 3.193963e-02
HYPOCENTER  x 737.99 y 9818.86 z 0.862216  OT 26.9559  ix -1 iy -1 iz -1 MAXIMUM_LIKELIHOOD
GEOGRAPHIC  OT 2023 01 20  19 24 26.955878  Lat 9818.864583 Long 737.989583 Depth 0.862216
QUALITY  Pmax 3.93276e+57 MFmin 65.637 MFmax 73.8385 RMS 0.0333119 Nphs 18 Gap 280.059 Dist 0.407898 Mamp -9.90 0 Mdur -9.90 0
VPVSRATIO  VpVsRatio 1.69646  Npair 9  Diff 0.548952
STATISTICS  ExpectX 738.145325 Y 9818.822315 Z 0.820441  CovXX 0.0520456 XY -0.00591645 XZ -0.00240342 YY 0.01514 YZ -0.00612204 ZZ 0.0155951 EllAz1  190.545 Dip1  -42.0212 Len1  0.17248 Az2  186.026 Dip2  47.8901 Len2  0.274374 Len3  4.326490e-01
STAT_GEOG  ExpectLat 9818.822315 Long 738.145325 Depth 0.820441
TRANSFORM  NONE
QML_OriginQuality  assocPhCt 18  usedPhCt 18  assocStaCt -1  usedStaCt 9  depthPhCt -1  stdErr 0.0333119  azGap 280.059  secAzGap 280.059  gtLevel -  minDist 0.407898 maxDist 4.65651 medDist 2.79676
QML_OriginUncertainty  horUnc -1  minHorUnc 0.180815  maxHorUnc 0.349046  azMaxHorUnc 98.8886
QML_ConfidenceEllipsoid  semiMajorAxisLength 0.432649  semiMinorAxisLength 0.17248  semiIntermediateAxisLength 0.274374  majorAxisPlunge -2.24937  majorAxisAzimuth 98.5164  majorAxisRotation 317.851
FOCALMECH  Hyp  9818.864583 737.989583 0.862216 Mech  0 0 0 mf  0 nObs -1
PHASE ID Ins Cmp On Pha  FM Date     HrMn   Sec     Err  ErrMag    Coda      Amp       Per       PriorWt  >   TTpred    Res       Weight    StaLoc(X  Y         Z)        SDist    SAzim  RAz  RDip RQual    Tcorr       TTerr
M06          ?    BHZ  i P      c 20230120 1924   27.5720 GAU  1.39e-03 -1.00e+00 -1.00e+00 -1.00e+00    1.0000 >    0.6064    0.0097    1.5713  738.3100 9819.1170   -1.3960    0.4079  51.77  51.8 169.3 10     0.0000    0.0121
M06          ?    BHE  e S      ? 20230120 1924   27.9900 GAU  3.20e-03 -1.00e+00 -1.00e+00 -1.00e+00    1.0000 >    1.0439   -0.0098    1.5599  738.3100 9819.1170   -1.3960    0.4079  51.77  51.8 168.5 10     0.0000    0.0209
M14          ?    BHZ  e P      c 20230120 1924   27.6416 GAU  4.20e-03 -1.00e+00 -1.00e+00 -1.00e+00    1.0000 >    0.6795    0.0062    1.6441  737.5530 9820.0110   -1.3980    1.2267 339.15 339.2 150.6 10     0.0000    0.0136
M14          ?    BHE  e S      ? 20230120 1924   28.0995 GAU  3.32e-03 -1.00e+00  3.61e+02 -1.00e+00    1.0000 >    1.1696   -0.0260    1.2319  737.5530 9820.0110   -1.3980    1.2267 339.15 339.2 148.3 10     0.0000    0.0234
M11          ?    BHZ  i P      c 20230120 1924   27.6789 GAU  3.32e-03 -1.00e+00 -1.00e+00 -1.00e+00    1.0000 >    0.7269   -0.0039    1.7152  738.4670 9820.4900   -1.3120    1.6941  16.37  16.4 140.9 10     0.0000    0.0145
M11          ?    BHN  e S      ? 20230120 1924   28.2338 GAU  9.97e-03 -1.00e+00 -1.00e+00 -1.00e+00    1.0000 >    1.2506    0.0273    1.1517  738.4670 9820.4900   -1.3120    1.6941  16.37  16.4 137.5 10     0.0000    0.0250
M09          ?    BHZ  i P      c 20230120 1924   27.7330 GAU  3.99e-03 -1.00e+00  1.02e+00 -1.00e+00    1.0000 >    0.7925   -0.0154    1.5454  737.8820 9820.9850   -1.2700    2.1231 357.10 357.1 133.5 10     0.0000    0.0159
M09          ?    BHE  e S      ? 20230120 1924   28.3535 GAU  5.54e-03 -1.00e+00  3.42e+02 -1.00e+00    1.0000 >    1.3630    0.0346    1.0256  737.8820 9820.9850   -1.2700    2.1231 357.10 357.1 129.3 10     0.0000    0.0273
M13          ?    BHZ  e P      c 20230120 1924   27.8474 GAU  5.98e-03 -1.00e+00 -1.00e+00 -1.00e+00    1.0000 >    0.9178   -0.0263    1.2435  737.1780 9821.5410   -1.2220    2.7968 343.13 343.1 124.5 10     0.0000    0.0184
M13          ?    BHE  e S      ? 20230120 1924   28.5369 GAU  4.01e-03 -1.00e+00 -1.00e+00 -1.00e+00    1.0000 >    1.5767    0.0043    1.3676  737.1780 9821.5410   -1.2220    2.7968 343.13 343.1 118.6 10     0.0000    0.0315
M08          ?    BHZ  i P      c 20230120 1924   28.1663 GAU  3.25e-03 -1.00e+00 -1.00e+00 -1.00e+00    1.0000 >    1.0168    0.1936    0.1440  738.2480 9822.1600   -1.1510    3.3055   4.48   4.5 118.9 10     0.0000    0.0203
M08          ?    BHN  e S      ? 20230120 1924   29.0317 GAU  1.92e-03 -1.00e+00  2.68e+02 -1.00e+00    1.0000 >    1.7445    0.3312    0.0075  738.2480 9822.1600   -1.1510    3.3055   4.48   4.5 111.9 10     0.0000    0.0349
M05          ?    BHZ  i P      d 20230120 1924   28.1286 GAU  6.89e-03 -1.00e+00  1.53e+02 -1.00e+00    1.0000 >    1.0950    0.0777    0.4235  736.2660 9822.0830   -1.1500    3.6509 331.83 331.8 116.2 10     0.0000    0.0219
M05          ?    BHN  e S      ? 20230120 1924   29.0453 GAU  4.61e-03 -1.00e+00  2.47e+02 -1.00e+00    1.0000 >    1.8771    0.2123    0.1448  736.2660 9822.0830   -1.1500    3.6509 331.83 331.8 108.7 10     0.0000    0.0375
M15          ?    BHZ  e P      c 20230120 1924   28.2393 GAU  5.98e-03 -1.00e+00 -1.00e+00 -1.00e+00    1.0000 >    1.3047   -0.0214    1.2939  739.3310 9823.3170   -0.9530    4.6501  16.77  16.8 108.5 10     0.0000    0.0261
M15          ?    BHE  e S      ? 20230120 1924   29.1730 GAU  7.97e-03 -1.00e+00 -1.00e+00 -1.00e+00    1.0000 >    2.2238   -0.0067    1.1399  739.3310 9823.3170   -0.9530    4.6501  16.77  16.8 100.4 10     0.0000    0.0445
M12          ?    BHZ  e P      d 20230120 1924   28.3416 GAU  4.81e-03 -1.00e+00 -1.00e+00 -1.00e+00    1.0000 >    1.3109    0.0749    0.4774  736.8520 9823.3800   -0.9890    4.6565 345.86 345.9 108.8 10     0.0000    0.0262
M12          ?    BHE  e S      ? 20230120 1924   29.3086 GAU  4.48e-03 -1.00e+00  1.28e+01 -1.00e+00    1.0000 >    2.2354    0.1173    0.3126  736.8520 9823.3800   -0.9890    4.6565 345.86 345.9 100.6 10     0.0000    0.0447
END_PHASE
END_NLLOC

