NLLOC "./loc/SEML.20230130.173041.grid0" "LOCATED" "Location completed."
PUBLIC_ID None
SIGNATURE "Arham Zakki Edelo - edelo.17034@mhs.its.ac.id   obs:./obs/2023_01.obs   NLLoc:v7.00.10(30Aug2020)   run:28Dec2023 19h51m05"
COMMENT "SEML"
GRID  2001 2001 1001  727 9811 -2  0.01 0.01 0.01 PROB_DENSITY
SEARCH OCTREE nInitial 4851 nEvaluated 20003 smallestNodeSide 0.014881/0.014881/0.014205 oct_tree_integral 6.544524e-02 scatter_volume 6.489527e-02
HYPOCENTER  x 737.647 y 9818.24 z 1.07528  OT 40.7486  ix -1 iy -1 iz -1 MAXIMUM_LIKELIHOOD
GEOGRAPHIC  OT 2023 01 30  17 30 40.748569  Lat 9818.239583 Long 737.647321 Depth 1.075284
QUALITY  Pmax 1.89839e+42 MFmin 49.0452 MFmax 54.5452 RMS 0.0302921 Nphs 14 Gap 314.847 Dist 1.09955 Mamp -9.90 0 Mdur -9.90 0
VPVSRATIO  VpVsRatio 1.65264  Npair 7  Diff 0.589596
STATISTICS  ExpectX 737.699255 Y 9818.163338 Z 1.101286  CovXX 0.0428926 XY -0.00304649 XZ 0.0149424 YY 0.0319382 YZ -0.0156393 ZZ 0.0316641 EllAz1  151.035 Dip1  -48.6938 Len1  0.216531 Az2  224.461 Dip2  14.0718 Len2  0.348678 Len3  4.554832e-01
STAT_GEOG  ExpectLat 9818.163338 Long 737.699255 Depth 1.101286
TRANSFORM  NONE
QML_OriginQuality  assocPhCt 14  usedPhCt 14  assocStaCt -1  usedStaCt 7  depthPhCt -1  stdErr 0.0302921  azGap 314.847  secAzGap 314.847  gtLevel -  minDist 1.09955 maxDist 5.34929 medDist 2.75543
QML_OriginUncertainty  horUnc -1  minHorUnc 0.267657  maxHorUnc 0.316971  azMaxHorUnc 104.542
QML_ConfidenceEllipsoid  semiMajorAxisLength 0.455483  semiMinorAxisLength 0.216531  semiIntermediateAxisLength 0.348678  majorAxisPlunge 37.8556  majorAxisAzimuth 123.227  majorAxisRotation 274.567
FOCALMECH  Hyp  9818.239583 737.647321 1.075284 Mech  0 0 0 mf  0 nObs -1
PHASE ID Ins Cmp On Pha  FM Date     HrMn   Sec     Err  ErrMag    Coda      Amp       Per       PriorWt  >   TTpred    Res       Weight    StaLoc(X  Y         Z)        SDist    SAzim  RAz  RDip RQual    Tcorr       TTerr
M06          ?    BHZ  i P      c 20230130 1730   41.4475 GAU  1.39e-03 -1.00e+00 -1.00e+00 -1.00e+00    1.0000 >    0.7111   -0.0122    1.4875  738.3100 9819.1170   -1.3960    1.0995  37.06  37.1 153.1 10     0.0000    0.0142
M06          ?    BHE  e S      ? 20230130 1730   41.9962 GAU  2.31e-03 -1.00e+00 -1.00e+00 -1.00e+00    1.0000 >    1.2178    0.0299    1.0798  738.3100 9819.1170   -1.3960    1.0995  37.06  37.1 151.9 10     0.0000    0.0244
M14          ?    BHZ  i P      c 20230130 1730   41.5553 GAU  2.87e-03 -1.00e+00 -1.00e+00 -1.00e+00    1.0000 >    0.7998    0.0069    1.5870  737.5530 9820.0110   -1.3980    1.7739 356.95 357.0 139.6 10     0.0000    0.0160
M14          ?    BHE  e S      ? 20230130 1730   42.0930 GAU  4.15e-03 -1.00e+00  3.46e+02 -1.00e+00    1.0000 >    1.3692   -0.0248    1.1423  737.5530 9820.0110   -1.3980    1.7739 356.95 357.0 137.7 10     0.0000    0.0274
M11          ?    BHZ  i P      c 20230130 1730   41.6300 GAU  3.99e-03 -1.00e+00 -1.00e+00 -1.00e+00    1.0000 >    0.8867   -0.0053    1.5673  738.4670 9820.4900   -1.3120    2.3950  20.01  20.0 128.1 10     0.0000    0.0177
M11          ?    BHN  e S      ? 20230130 1730   42.2586 GAU  5.54e-03 -1.00e+00 -1.00e+00 -1.00e+00    1.0000 >    1.5164   -0.0064    1.3309  738.4670 9820.4900   -1.3120    2.3950  20.01  20.0 125.4 10     0.0000    0.0303
M09          ?    BHZ  i P      c 20230130 1730   41.7100 GAU  3.46e-03 -1.00e+00  3.02e+01 -1.00e+00    1.0000 >    0.9478    0.0137    1.4520  737.8820 9820.9850   -1.2700    2.7554   4.89   4.9 122.2 10     0.0000    0.0190
M09          ?    BHE  e S      ? 20230130 1730   42.4644 GAU  3.67e-03 -1.00e+00  3.60e+02 -1.00e+00    1.0000 >    1.6198    0.0960    0.1995  737.8820 9820.9850   -1.2700    2.7554   4.89   4.9 119.0 10     0.0000    0.0324
M13          ?    BHZ  i P      c 20230130 1730   41.8208 GAU  1.74e-03 -1.00e+00 -1.00e+00 -1.00e+00    1.0000 >    1.0594    0.0128    1.4426  737.1780 9821.5410   -1.2220    3.3346 351.91 351.9 114.1 10     0.0000    0.0212
M13          ?    BHN  e S      ? 20230130 1730   42.5454 GAU  1.63e-03 -1.00e+00 -1.00e+00 -1.00e+00    1.0000 >    1.8080   -0.0112    1.2113  737.1780 9821.5410   -1.2220    3.3346 351.91 351.9 110.1 10     0.0000    0.0362
M08          ?    BHZ  i P      c 20230130 1730   42.1555 GAU  2.47e-03 -1.00e+00 -1.00e+00 -1.00e+00    1.0000 >    1.1875    0.2194    0.0839  738.2480 9822.1600   -1.1510    3.9662   8.71   8.7 105.9 10     0.0000    0.0238
M08          ?    BHE  e S      ? 20230130 1730   43.0367 GAU  3.34e-03 -1.00e+00 -1.00e+00 -1.00e+00    1.0000 >    2.0221    0.2660    0.0818  738.2480 9822.1600   -1.1510    3.9662   8.71   8.7 101.2  9     0.0000    0.0404
M15          ?    BHZ  i P      c 20230130 1730   42.1798 GAU  3.58e-03 -1.00e+00 -1.00e+00 -1.00e+00    1.0000 >    1.4803   -0.0491    0.6550  739.3310 9823.3170   -0.9530    5.3493  18.35  18.3  93.7  9     0.0000    0.0296
M15          ?    BHE  e S      ? 20230130 1730   43.3071 GAU  5.23e-03 -1.00e+00 -1.00e+00 -1.00e+00    1.0000 >    2.4989    0.0596    0.6791  739.3310 9823.3170   -0.9530    5.3493  18.35  18.3  92.9  9     0.0000    0.0500
END_PHASE
END_NLLOC

