NLLOC "./loc/SEML.20230111.132851.grid0" "LOCATED" "Location completed."
PUBLIC_ID None
SIGNATURE "Arham Zakki Edelo - edelo.17034@mhs.its.ac.id   obs:./obs/2023_01.obs   NLLoc:v7.00.10(30Aug2020)   run:28Dec2023 19h50m16"
COMMENT "SEML"
GRID  2001 2001 1001  727 9811 -2  0.01 0.01 0.01 PROB_DENSITY
SEARCH OCTREE nInitial 4851 nEvaluated 20019 smallestNodeSide 0.059524/0.059524/0.056818 oct_tree_integral 1.376483e+00 scatter_volume 1.359687e+00
HYPOCENTER  x 736.821 y 9816.65 z 1.35227  OT 50.4426  ix -1 iy -1 iz -1 MAXIMUM_LIKELIHOOD
GEOGRAPHIC  OT 2023 01 11  13 28 50.442551  Lat 9816.654762 Long 736.821429 Depth 1.352273
QUALITY  Pmax 9.41092e+19 MFmin 23.93 MFmax 28.7032 RMS 0.0286062 Nphs 8 Gap 341.141 Dist 2.87723 Mamp -9.90 0 Mdur -9.90 0
VPVSRATIO  VpVsRatio 1.57019  Npair 4  Diff 0.271111
STATISTICS  ExpectX 737.282674 Y 9816.482756 Z 0.533841  CovXX 1.48581 XY 0.0343277 XZ 0.324822 YY 0.0950364 YZ 0.121238 ZZ 1.10097 EllAz1  180.188 Dip1  6.83498 Len1  0.533459 Az2  281.725 Dip2  59.0657 Len2  1.80713 Len3  2.432390e+00
STAT_GEOG  ExpectLat 9816.482756 Long 737.282674 Depth 0.533841
TRANSFORM  NONE
QML_OriginQuality  assocPhCt 8  usedPhCt 8  assocStaCt -1  usedStaCt 4  depthPhCt -1  stdErr 0.0286062  azGap 341.141  secAzGap 341.141  gtLevel -  minDist 2.87723 maxDist 4.45823 medDist 3.8042
QML_OriginUncertainty  horUnc -1  minHorUnc 0.465442  maxHorUnc 1.84914  azMaxHorUnc 88.5869
QML_ConfidenceEllipsoid  semiMajorAxisLength 2.43239  semiMinorAxisLength 0.533459  semiIntermediateAxisLength 1.80713  majorAxisPlunge 30.0059  majorAxisAzimuth 86.2187  majorAxisRotation 15.5142
FOCALMECH  Hyp  9816.654762 736.821429 1.352273 Mech  0 0 0 mf  0 nObs -1
PHASE ID Ins Cmp On Pha  FM Date     HrMn   Sec     Err  ErrMag    Coda      Amp       Per       PriorWt  >   TTpred    Res       Weight    StaLoc(X  Y         Z)        SDist    SAzim  RAz  RDip RQual    Tcorr       TTerr
M06          ?    BHZ  i P      c 20230111 1328   51.4898 GAU  7.97e-03 -1.00e+00 -1.00e+00 -1.00e+00    1.0000 >    1.0333    0.0140    1.2930  738.3100 9819.1170   -1.3960    2.8772  31.16  31.2 127.4 10     0.0000    0.0207
M06          ?    BHE  e S      ? 20230111 1328   52.2001 GAU  1.16e-02 -1.00e+00 -1.00e+00 -1.00e+00    1.0000 >    1.7599   -0.0023    1.2256  738.3100 9819.1170   -1.3960    2.8772  31.16  31.2 125.2 10     0.0000    0.0352
M14          ?    BHZ  e P      c 20230111 1328   51.5757 GAU  1.38e-02 -1.00e+00 -1.00e+00 -1.00e+00    1.0000 >    1.1422   -0.0091    1.3067  737.5530 9820.0110   -1.3980    3.4350  12.30  12.3 121.1 10     0.0000    0.0228
M14          ?    BHE  e S      ? 20230111 1328   52.3917 GAU  1.38e-02 -1.00e+00  4.75e+02 -1.00e+00    1.0000 >    1.9438    0.0053    1.1849  737.5530 9820.0110   -1.3980    3.4350  12.30  12.3 118.4 10     0.0000    0.0389
M11          ?    BHZ  e P      c 20230111 1328   51.7066 GAU  9.92e-03 -1.00e+00 -1.00e+00 -1.00e+00    1.0000 >    1.2817   -0.0177    1.2084  738.4670 9820.4900   -1.3120    4.1734  23.22  23.2 113.2 10     0.0000    0.0256
M11          ?    BHE  e S      ? 20230111 1328   52.6176 GAU  9.92e-03 -1.00e+00 -1.00e+00 -1.00e+00    1.0000 >    2.1765   -0.0014    1.1401  738.4670 9820.4900   -1.3120    4.1734  23.22  23.2 110.3 10     0.0000    0.0435
M09          ?    BHZ  e P      c 20230111 1328   51.8632 GAU  1.66e-02 -1.00e+00  4.40e+01 -1.00e+00    1.0000 >    1.3370    0.0837    0.4236  737.8820 9820.9850   -1.2700    4.4582  13.76  13.8 110.5 10     0.0000    0.0267
M09          ?    BHE  e S      ? 20230111 1328   52.8447 GAU  5.74e-03 -1.00e+00  3.40e+02 -1.00e+00    1.0000 >    2.2679    0.1342    0.2176  737.8820 9820.9850   -1.2700    4.4582  13.76  13.8 107.6 10     0.0000    0.0454
END_PHASE
END_NLLOC

