NLLOC "./loc/SEML.20230120.192445.grid0" "LOCATED" "Location completed."
PUBLIC_ID None
SIGNATURE "Arham Zakki Edelo - edelo.17034@mhs.its.ac.id   obs:./obs/2023_01.obs   NLLoc:v7.00.10(30Aug2020)   run:28Dec2023 19h50m43"
COMMENT "SEML"
GRID  2001 2001 1001  727 9811 -2  0.01 0.01 0.01 PROB_DENSITY
SEARCH OCTREE nInitial 4851 nEvaluated 20019 smallestNodeSide 0.014881/0.014881/0.014205 oct_tree_integral 4.153910e-02 scatter_volume 4.144907e-02
HYPOCENTER  x 736.382 y 9818.89 z 0.848011  OT 45.21  ix -1 iy -1 iz -1 MAXIMUM_LIKELIHOOD
GEOGRAPHIC  OT 2023 01 20  19 24 45.209973  Lat 9818.894345 Long 736.382440 Depth 0.848011
QUALITY  Pmax 1.33166e+21 MFmin 29.2938 MFmax 37.5581 RMS 0.00709883 Nphs 8 Gap 293.319 Dist 1.61775 Mamp -9.90 0 Mdur -9.90 0
VPVSRATIO  VpVsRatio 1.77077  Npair 4  Diff 0.483582
STATISTICS  ExpectX 736.419073 Y 9818.892579 Z 0.873016  CovXX 0.0775241 XY 0.0137992 XZ 0.0397802 YY 0.0192262 YZ 0.000870108 ZZ 0.0691628 EllAz1  159.132 Dip1  -13.6577 Len1  0.223824 Az2  234.654 Dip2  45.8142 Len2  0.362059 Len3  6.359944e-01
STAT_GEOG  ExpectLat 9818.892579 Long 736.419073 Depth 0.873016
TRANSFORM  NONE
QML_OriginQuality  assocPhCt 8  usedPhCt 8  assocStaCt -1  usedStaCt 4  depthPhCt -1  stdErr 0.00709883  azGap 293.319  secAzGap 293.319  gtLevel -  minDist 1.61775 maxDist 2.76364 medDist 2.25661
QML_OriginUncertainty  horUnc -1  minHorUnc 0.192581  maxHorUnc 0.430626  azMaxHorUnc 77.3335
QML_ConfidenceEllipsoid  semiMajorAxisLength 0.635994  semiMinorAxisLength 0.223824  semiIntermediateAxisLength 0.362059  majorAxisPlunge 40.9783  majorAxisAzimuth 81.3167  majorAxisRotation 293.023
FOCALMECH  Hyp  9818.894345 736.382440 0.848011 Mech  0 0 0 mf  0 nObs -1
PHASE ID Ins Cmp On Pha  FM Date     HrMn   Sec     Err  ErrMag    Coda      Amp       Per       PriorWt  >   TTpred    Res       Weight    StaLoc(X  Y         Z)        SDist    SAzim  RAz  RDip RQual    Tcorr       TTerr
M14          ?    BHZ  e P      c 20230120 1924   45.9479 GAU  2.67e-03 -1.00e+00 -1.00e+00 -1.00e+00    1.0000 >    0.7313    0.0066    1.4754  737.5530 9820.0110   -1.3980    1.6178  46.35  46.4 143.0 10     0.0000    0.0146
M14          ?    BHE  e S      ? 20230120 1924   46.4621 GAU  3.20e-03 -1.00e+00  3.87e+02 -1.00e+00    1.0000 >    1.2590   -0.0069    1.2872  737.5530 9820.0110   -1.3980    1.6178  46.35  46.4 139.9 10     0.0000    0.0252
M06          ?    BHZ  i P      c 20230120 1924   45.9853 GAU  1.18e-02 -1.00e+00 -1.00e+00 -1.00e+00    1.0000 >    0.7835   -0.0082    1.3939  738.3100 9819.1170   -1.3960    1.9404  83.41  83.4 137.8 10     0.0000    0.0157
M06          ?    BHE  e S      ? 20230120 1924   46.5657 GAU  5.54e-03 -1.00e+00 -1.00e+00 -1.00e+00    1.0000 >    1.3486    0.0071    1.2310  738.3100 9819.1170   -1.3960    1.9404  83.41  83.4 133.9 10     0.0000    0.0270
M09          ?    BHZ  e P      c 20230120 1924   46.0819 GAU  3.47e-03 -1.00e+00  2.89e+01 -1.00e+00    1.0000 >    0.8779   -0.0060    1.4568  737.8820 9820.9850   -1.2700    2.5728  35.65  35.7 127.3 10     0.0000    0.0176
M09          ?    BHN  e S      ? 20230120 1924   46.7281 GAU  4.81e-03 -1.00e+00  4.76e+02 -1.00e+00    1.0000 >    1.5096    0.0086    1.1558  737.8820 9820.9850   -1.2700    2.5728  35.65  35.7 122.0 10     0.0000    0.0302
M13          ?    BHZ  e P      c 20230120 1924   46.5362 GAU  1.15e-03 -1.00e+00 -1.00e+00 -1.00e+00    1.0000 >    0.9087    0.4175    0.0000  737.1780 9821.5410   -1.2220    2.7636  16.73  16.7 124.6 10     0.0000    0.0182
M13          ?    BHE  e S      ? 20230120 1924   47.5340 GAU  2.25e-03 -1.00e+00 -1.00e+00 -1.00e+00    1.0000 >    1.5620    0.7620    0.0000  737.1780 9821.5410   -1.2220    2.7636  16.73  16.7 118.7 10     0.0000    0.0312
END_PHASE
END_NLLOC

