NLLOC "./loc/SEML.20230104.201616.grid0" "LOCATED" "Location completed."
PUBLIC_ID None
SIGNATURE "Arham Zakki Edelo - edelo.17034@mhs.its.ac.id   obs:./obs/2023_01.obs   NLLoc:v7.00.10(30Aug2020)   run:28Dec2023 19h50m14"
COMMENT "SEML"
GRID  2001 2001 1001  727 9811 -2  0.01 0.01 0.01 PROB_DENSITY
SEARCH OCTREE nInitial 4851 nEvaluated 20011 smallestNodeSide 0.014881/0.014881/0.014205 oct_tree_integral 3.845375e-02 scatter_volume 3.845375e-02
HYPOCENTER  x 738.57 y 9818.19 z 0.294034  OT 15.5475  ix -1 iy -1 iz -1 MAXIMUM_LIKELIHOOD
GEOGRAPHIC  OT 2023 01 04  20 16 15.547550  Lat 9818.194940 Long 738.569940 Depth 0.294034
QUALITY  Pmax 1.21265e+58 MFmin 64.8716 MFmax 75.4296 RMS 0.0195562 Nphs 18 Gap 309.041 Dist 0.957999 Mamp -9.90 0 Mdur -9.90 0
VPVSRATIO  VpVsRatio 1.78879  Npair 9  Diff 0.444864
STATISTICS  ExpectX 738.375726 Y 9818.233978 Z 0.435850  CovXX 0.180607 XY -0.0425924 XZ -0.123569 YY 0.0249963 YZ 0.0239527 ZZ 0.103547 EllAz1  43.0932 Dip1  35.0571 Len1  0.16977 Az2  342.962 Dip2  -35.365 Len2  0.267481 Len3  9.954557e-01
STAT_GEOG  ExpectLat 9818.233978 Long 738.375726 Depth 0.435850
TRANSFORM  NONE
QML_OriginQuality  assocPhCt 18  usedPhCt 18  assocStaCt -1  usedStaCt 9  depthPhCt -1  stdErr 0.0195562  azGap 309.041  secAzGap 309.041  gtLevel -  minDist 0.957999 maxDist 4.51942 medDist 2.87362
QML_OriginUncertainty  horUnc -1  minHorUnc 0.180091  maxHorUnc 0.663667  azMaxHorUnc 104.349
QML_ConfidenceEllipsoid  semiMajorAxisLength 0.995456  semiMinorAxisLength 0.16977  semiIntermediateAxisLength 0.267481  majorAxisPlunge -35.3707  majorAxisAzimuth 103.217  majorAxisRotation 108.384
FOCALMECH  Hyp  9818.194940 738.569940 0.294034 Mech  0 0 0 mf  0 nObs -1
PHASE ID Ins Cmp On Pha  FM Date     HrMn   Sec     Err  ErrMag    Coda      Amp       Per       PriorWt  >   TTpred    Res       Weight    StaLoc(X  Y         Z)        SDist    SAzim  RAz  RDip RQual    Tcorr       TTerr
M06          ?    BHZ  i P      c 20230104 2016   16.2510 GAU  2.67e-03 -1.00e+00  9.53e+01 -1.00e+00    1.0000 >    0.5182    0.1853    0.0008  738.3100 9819.1170   -1.3960    0.9580 344.26 344.3 149.5 10     0.0000    0.0104
M06          ?    BHE  e S      ? 20230104 2016   16.7733 GAU  6.92e-03 -1.00e+00 -1.00e+00 -1.00e+00    1.0000 >    0.9049    0.3209    0.0000  738.3100 9819.1170   -1.3960    0.9580 344.26 344.3 149.0 10     0.0000    0.0181
M04          ?    BHZ  e P      c 20230104 2016   16.2387 GAU  7.97e-03 -1.00e+00 -1.00e+00 -1.00e+00    1.0000 >    0.6887    0.0024    1.6940  737.1400 9819.2520   -1.5710    1.7782 306.47 306.5 134.5 10     0.0000    0.0138
M04          ?    BHN  e S      ? 20230104 2016   16.7543 GAU  6.64e-03 -1.00e+00  6.91e+02 -1.00e+00    1.0000 >    1.2015    0.0053    1.5278  737.1400 9819.2520   -1.5710    1.7782 306.47 306.5 133.8 10     0.0000    0.0240
M14          ?    BHZ  e P      c 20230104 2016   16.2616 GAU  9.57e-03 -1.00e+00  3.66e+02 -1.00e+00    1.0000 >    0.7149   -0.0008    1.6761  737.5530 9820.0110   -1.3980    2.0814 330.75 330.8 126.9 10     0.0000    0.0143
M14          ?    BHE  e S      ? 20230104 2016   16.7701 GAU  6.89e-03 -1.00e+00  2.90e+02 -1.00e+00    1.0000 >    1.2485   -0.0260    1.1840  737.5530 9820.0110   -1.3980    2.0814 330.75 330.8 125.7 10     0.0000    0.0250
M11          ?    BHZ  i P      c 20230104 2016   16.3223 GAU  6.64e-03 -1.00e+00 -1.00e+00 -1.00e+00    1.0000 >    0.7458    0.0289    1.1680  738.4670 9820.4900   -1.3120    2.2974 357.43 357.4 122.5 10     0.0000    0.0149
M11          ?    BHN  e S      ? 20230104 2016   16.9339 GAU  8.81e-03 -1.00e+00 -1.00e+00 -1.00e+00    1.0000 >    1.3035    0.0828    0.2543  738.4670 9820.4900   -1.3120    2.2974 357.43 357.4 121.0 10     0.0000    0.0261
M09          ?    BHZ  i P      c 20230104 2016   16.4001 GAU  9.97e-03 -1.00e+00 -1.00e+00 -1.00e+00    1.0000 >    0.8695   -0.0170    1.4213  737.8820 9820.9850   -1.2700    2.8736 346.15 346.1 115.7 10     0.0000    0.0174
M09          ?    BHN  e S      ? 20230104 2016   17.0754 GAU  3.11e-03 -1.00e+00  4.30e+02 -1.00e+00    1.0000 >    1.5204    0.0075    1.4105  737.8820 9820.9850   -1.2700    2.8736 346.15 346.1 113.6 10     0.0000    0.0304
M13          ?    BHZ  i P      c 20230104 2016   16.5866 GAU  6.74e-03 -1.00e+00 -1.00e+00 -1.00e+00    1.0000 >    1.0423   -0.0032    1.5839  737.1780 9821.5410   -1.2220    3.6240 337.41 337.4 109.5 10     0.0000    0.0208
M13          ?    BHN  e S      ? 20230104 2016   17.3855 GAU  5.98e-03 -1.00e+00 -1.00e+00 -1.00e+00    1.0000 >    1.8232    0.0147    1.2604  737.1780 9821.5410   -1.2220    3.6240 337.41 337.4 106.6 10     0.0000    0.0365
M10          ?    BHZ  e P      c 20230104 2016   16.5125 GAU  1.28e-02 -1.00e+00 -1.00e+00 -1.00e+00    1.0000 >    1.0751   -0.1101    0.0533  736.5490 9821.3650   -1.2200    3.7595 327.48 327.5 108.7 10     0.0000    0.0215
M10          ?    BHE  e S      ? 20230104 2016   17.2086 GAU  1.32e-02 -1.00e+00 -1.00e+00 -1.00e+00    1.0000 >    1.8806   -0.2195    0.0076  736.5490 9821.3650   -1.2200    3.7595 327.48 327.5 105.6 10     0.0000    0.0376
M08          ?    BHZ  e P      d 20230104 2016   16.6403 GAU  1.91e-02 -1.00e+00  3.49e+02 -1.00e+00    1.0000 >    1.1206   -0.0279    1.1285  738.2480 9822.1600   -1.1510    3.9781 355.36 355.4 106.7 10     0.0000    0.0224
M08          ?    BHN  e S      ? 20230104 2016   17.5002 GAU  7.71e-03 -1.00e+00  2.81e+02 -1.00e+00    1.0000 >    1.9612   -0.0085    1.2266  738.2480 9822.1600   -1.1510    3.9781 355.36 355.4 103.3 10     0.0000    0.0392
M05          ?    BHZ  e P      d 20230104 2016   16.8193 GAU  1.65e-02 -1.00e+00  1.96e+02 -1.00e+00    1.0000 >    1.2553    0.0164    1.3502  736.2660 9822.0830   -1.1500    4.5194 329.35 329.4 104.3 10     0.0000    0.0251
M05          ?    BHE  e S      ? 20230104 2016   17.7727 GAU  8.61e-03 -1.00e+00 -1.00e+00 -1.00e+00    1.0000 >    2.1965    0.0287    1.0528  736.2660 9822.0830   -1.1500    4.5194 329.35 329.4 100.6 10     0.0000    0.0439
END_PHASE
END_NLLOC

