NLLOC "./loc/SEML.20230120.193253.grid0" "LOCATED" "Location completed."
PUBLIC_ID None
SIGNATURE "Arham Zakki Edelo - edelo.17034@mhs.its.ac.id   obs:./obs/2023_01.obs   NLLoc:v7.00.10(30Aug2020)   run:28Dec2023 19h50m53"
COMMENT "SEML"
GRID  2001 2001 1001  727 9811 -2  0.01 0.01 0.01 PROB_DENSITY
SEARCH OCTREE nInitial 4851 nEvaluated 20011 smallestNodeSide 0.014881/0.014881/0.014205 oct_tree_integral 4.634072e-02 scatter_volume 4.611633e-02
HYPOCENTER  x 737.365 y 9818.43 z 0.805398  OT 52.8823  ix -1 iy -1 iz -1 MAXIMUM_LIKELIHOOD
GEOGRAPHIC  OT 2023 01 20  19 32 52.882284  Lat 9818.433036 Long 737.364583 Depth 0.805398
QUALITY  Pmax 1.57799e+58 MFmin 66.1941 MFmax 78.6152 RMS 0.0284543 Nphs 18 Gap 289.133 Dist 0.8492 Mamp -9.90 0 Mdur -9.90 0
VPVSRATIO  VpVsRatio 1.67648  Npair 9  Diff 0.515491
STATISTICS  ExpectX 737.724371 Y 9818.335217 Z 0.583799  CovXX 0.145334 XY -0.0393157 XZ -0.0795762 YY 0.0256137 YZ 0.0222935 ZZ 0.0588022 EllAz1  62.7594 Dip1  51.8342 Len1  0.198975 Az2  183.28 Dip2  21.7592 Len2  0.225832 Len3  8.487793e-01
STAT_GEOG  ExpectLat 9818.335217 Long 737.724371 Depth 0.583799
TRANSFORM  NONE
QML_OriginQuality  assocPhCt 18  usedPhCt 18  assocStaCt -1  usedStaCt 9  depthPhCt -1  stdErr 0.0284543  azGap 289.133  secAzGap 289.133  gtLevel -  minDist 0.8492 maxDist 4.97345 medDist 2.60389
QML_OriginUncertainty  horUnc -1  minHorUnc 0.178526  maxHorUnc 0.601089  azMaxHorUnc 106.648
QML_ConfidenceEllipsoid  semiMajorAxisLength 0.848779  semiMinorAxisLength 0.198975  semiIntermediateAxisLength 0.225832  majorAxisPlunge -29.6297  majorAxisAzimuth 106.402  majorAxisRotation 103.55
FOCALMECH  Hyp  9818.433036 737.364583 0.805398 Mech  0 0 0 mf  0 nObs -1
PHASE ID Ins Cmp On Pha  FM Date     HrMn   Sec     Err  ErrMag    Coda      Amp       Per       PriorWt  >   TTpred    Res       Weight    StaLoc(X  Y         Z)        SDist    SAzim  RAz  RDip RQual    Tcorr       TTerr
M04          ?    BHZ  e P      c 20230120 1932   53.5404 GAU  3.85e-03 -1.00e+00 -1.00e+00 -1.00e+00    1.0000 >    0.6693   -0.0112    1.5351  737.1400 9819.2520   -1.5710    0.8492 344.66 344.7 159.6 10     0.0000    0.0134
M04          ?    BHN  e S      ? 20230120 1932   54.0535 GAU  9.00e-04 -1.00e+00  7.36e+02 -1.00e+00    1.0000 >    1.1542    0.0170    1.4150  737.1400 9819.2520   -1.5710    0.8492 344.66 344.7 158.0 10     0.0000    0.0231
M06          ?    BHZ  i P      c 20230120 1932   53.5398 GAU  1.33e-03 -1.00e+00  6.93e+01 -1.00e+00    1.0000 >    0.6589   -0.0014    1.6929  738.3100 9819.1170   -1.3960    1.1669  54.12  54.1 151.2 10     0.0000    0.0132
M06          ?    BHN  e S      ? 20230120 1932   54.0415 GAU  2.82e-03 -1.00e+00 -1.00e+00 -1.00e+00    1.0000 >    1.1361    0.0232    1.3019  738.3100 9819.1170   -1.3960    1.1669  54.12  54.1 148.8 10     0.0000    0.0227
M14          ?    BHZ  i P      c 20230120 1932   53.6222 GAU  1.66e-03 -1.00e+00 -1.00e+00 -1.00e+00    1.0000 >    0.7182    0.0217    1.3649  737.5530 9820.0110   -1.3980    1.5892   6.81   6.8 143.0 10     0.0000    0.0144
M14          ?    BHE  e S      ? 20230120 1932   54.1099 GAU  4.08e-03 -1.00e+00  3.78e+02 -1.00e+00    1.0000 >    1.2381   -0.0104    1.4178  737.5530 9820.0110   -1.3980    1.5892   6.81   6.8 139.8 10     0.0000    0.0248
M11          ?    BHZ  e P      c 20230120 1932   53.6820 GAU  2.73e-03 -1.00e+00  3.14e+01 -1.00e+00    1.0000 >    0.8313   -0.0316    0.9415  738.4670 9820.4900   -1.3120    2.3338  28.19  28.2 130.2 10     0.0000    0.0166
M11          ?    BHE  e S      ? 20230120 1932   54.2524 GAU  1.92e-03 -1.00e+00 -1.00e+00 -1.00e+00    1.0000 >    1.4321   -0.0619    0.4286  738.4670 9820.4900   -1.3120    2.3338  28.19  28.2 125.2 10     0.0000    0.0286
M09          ?    BHZ  i P      c 20230120 1932   53.7583 GAU  2.31e-03 -1.00e+00  1.26e+02 -1.00e+00    1.0000 >    0.8777   -0.0017    1.6338  737.8820 9820.9850   -1.2700    2.6039  11.46  11.5 126.3 10     0.0000    0.0176
M09          ?    BHN  e S      ? 20230120 1932   54.4037 GAU  3.20e-03 -1.00e+00  4.48e+02 -1.00e+00    1.0000 >    1.5114    0.0100    1.3659  737.8820 9820.9850   -1.2700    2.6039  11.46  11.5 120.6 10     0.0000    0.0302
M13          ?    BHZ  e P      c 20230120 1932   53.8635 GAU  2.88e-03 -1.00e+00 -1.00e+00 -1.00e+00    1.0000 >    0.9784    0.0029    1.6069  737.1780 9821.5410   -1.2220    3.1136 356.56 356.6 120.5 10     0.0000    0.0196
M13          ?    BHE  e S      ? 20230120 1932   54.5331 GAU  3.84e-03 -1.00e+00 -1.00e+00 -1.00e+00    1.0000 >    1.6831   -0.0323    0.9890  737.1780 9821.5410   -1.2220    3.1136 356.56 356.6 113.5 10     0.0000    0.0337
M05          ?    BHZ  e P      d 20230120 1932   54.1880 GAU  5.29e-03 -1.00e+00  2.35e+02 -1.00e+00    1.0000 >    1.1261    0.1797    0.1132  736.2660 9822.0830   -1.1500    3.8117 343.25 343.2 114.2 10     0.0000    0.0225
M05          ?    BHN  e S      ? 20230120 1932   55.1305 GAU  3.08e-03 -1.00e+00  2.59e+02 -1.00e+00    1.0000 >    1.9332    0.3150    0.0028  736.2660 9822.0830   -1.1500    3.8117 343.25 343.2 105.8 10     0.0000    0.0387
M08          ?    BHZ  i P      c 20230120 1932   54.0391 GAU  3.46e-03 -1.00e+00 -1.00e+00 -1.00e+00    1.0000 >    1.1305    0.0263    1.2348  738.2480 9822.1600   -1.1510    3.8302  13.33  13.3 114.2 10     0.0000    0.0226
M08          ?    BHN  e S      ? 20230120 1932   54.8975 GAU  4.91e-03 -1.00e+00  2.84e+02 -1.00e+00    1.0000 >    1.9408    0.0745    0.5142  738.2480 9822.1600   -1.1510    3.8302  13.33  13.3 105.7 10     0.0000    0.0388
M12          ?    BHZ  e P      c 20230120 1932   54.3823 GAU  7.39e-03 -1.00e+00 -1.00e+00 -1.00e+00    1.0000 >    1.3837    0.1162    0.2046  736.8520 9823.3800   -0.9890    4.9734 354.08 354.1 106.6 10     0.0000    0.0277
M12          ?    BHE  e S      ? 20230120 1932   55.3855 GAU  4.15e-03 -1.00e+00  6.35e+00 -1.00e+00    1.0000 >    2.3599    0.1434    0.2369  736.8520 9823.3800   -0.9890    4.9734 354.08 354.1  98.1 10     0.0000    0.0472
END_PHASE
END_NLLOC

