NLLOC "./loc/SEML.20230120.191026.grid0" "LOCATED" "Location completed."
PUBLIC_ID None
SIGNATURE "Arham Zakki Edelo - edelo.17034@mhs.its.ac.id   obs:./obs/2023_01.obs   NLLoc:v7.00.10(30Aug2020)   run:28Dec2023 19h50m19"
COMMENT "SEML"
GRID  2001 2001 1001  727 9811 -2  0.01 0.01 0.01 PROB_DENSITY
SEARCH OCTREE nInitial 4851 nEvaluated 20003 smallestNodeSide 0.014881/0.014881/0.014205 oct_tree_integral 6.722192e-02 scatter_volume 6.722192e-02
HYPOCENTER  x 736.501 y 9818.45 z 1.07528  OT 25.4675  ix -1 iy -1 iz -1 MAXIMUM_LIKELIHOOD
GEOGRAPHIC  OT 2023 01 20  19 10 25.467541  Lat 9818.447917 Long 736.501488 Depth 1.075284
QUALITY  Pmax 5.22568e+21 MFmin 28.2777 MFmax 35.3681 RMS 0.0176912 Nphs 8 Gap 302.64 Dist 1.02677 Mamp -9.90 0 Mdur -9.90 0
VPVSRATIO  VpVsRatio 1.71602  Npair 4  Diff 0.205618
STATISTICS  ExpectX 736.363186 Y 9818.380837 Z 0.913473  CovXX 0.123428 XY -0.00637053 XZ 0.141837 YY 0.0451879 YZ -0.00774173 ZZ 0.321769 EllAz1  199.426 Dip1  8.17212 Len1  0.394644 Az2  293.466 Dip2  26.1357 Len2  0.421476 Len3  1.182231e+00
STAT_GEOG  ExpectLat 9818.380837 Long 736.363186 Depth 0.913473
TRANSFORM  NONE
QML_OriginQuality  assocPhCt 8  usedPhCt 8  assocStaCt -1  usedStaCt 4  depthPhCt -1  stdErr 0.0176912  azGap 302.64  secAzGap 302.64  gtLevel -  minDist 1.02677 maxDist 3.1662 medDist 2.40833
QML_OriginUncertainty  horUnc -1  minHorUnc 0.320542  maxHorUnc 0.533919  azMaxHorUnc 94.6246
QML_ConfidenceEllipsoid  semiMajorAxisLength 1.18223  semiMinorAxisLength 0.394644  semiIntermediateAxisLength 0.421476  majorAxisPlunge 62.4278  majorAxisAzimuth 93.4627  majorAxisRotation 330.549
FOCALMECH  Hyp  9818.447917 736.501488 1.075284 Mech  0 0 0 mf  0 nObs -1
PHASE ID Ins Cmp On Pha  FM Date     HrMn   Sec     Err  ErrMag    Coda      Amp       Per       PriorWt  >   TTpred    Res       Weight    StaLoc(X  Y         Z)        SDist    SAzim  RAz  RDip RQual    Tcorr       TTerr
M04          ?    BHZ  e P      c 20230120 1910   26.2241 GAU  9.42e-03 -1.00e+00 -1.00e+00 -1.00e+00    1.0000 >    0.7484    0.0082    1.2710  737.1400 9819.2520   -1.5710    1.0268  38.45  38.5 156.1 10     0.0000    0.0150
M04          ?    BHN  e S      ? 20230120 1910   26.7535 GAU  3.05e-03 -1.00e+00  7.22e+02 -1.00e+00    1.0000 >    1.2824    0.0035    1.1837  737.1400 9819.2520   -1.5710    1.0268  38.45  38.5 155.1 10     0.0000    0.0256
M06          ?    BHZ  i P      c 20230120 1910   26.2822 GAU  4.65e-03 -1.00e+00 -1.00e+00 -1.00e+00    1.0000 >    0.8236   -0.0089    1.2127  738.3100 9819.1170   -1.3960    1.9283  69.70  69.7 136.9 10     0.0000    0.0165
M06          ?    BHE  e S      ? 20230120 1910   26.8777 GAU  4.98e-03 -1.00e+00 -1.00e+00 -1.00e+00    1.0000 >    1.4096    0.0005    1.1362  738.3100 9819.1170   -1.3960    1.9283  69.70  69.7 134.7 10     0.0000    0.0282
M09          ?    BHZ  e P      c 20230120 1910   26.4700 GAU  1.99e-03 -1.00e+00  6.63e+01 -1.00e+00    1.0000 >    0.9746    0.0279    0.9177  737.8820 9820.9850   -1.2700    2.8884  28.55  28.6 120.4 10     0.0000    0.0195
M09          ?    BHE  e S      ? 20230120 1910   27.2049 GAU  2.78e-03 -1.00e+00  3.51e+02 -1.00e+00    1.0000 >    1.6651    0.0723    0.2934  737.8820 9820.9850   -1.2700    2.8884  28.55  28.6 117.0 10     0.0000    0.0333
M13          ?    BHZ  e P      c 20230120 1910   26.4826 GAU  4.74e-03 -1.00e+00 -1.00e+00 -1.00e+00    1.0000 >    1.0235   -0.0085    1.1859  737.1780 9821.5410   -1.2220    3.1662  12.34  12.3 116.1 10     0.0000    0.0205
M13          ?    BHE  e S      ? 20230120 1910   27.1880 GAU  9.35e-03 -1.00e+00 -1.00e+00 -1.00e+00    1.0000 >    1.7474   -0.0269    0.7995  737.1780 9821.5410   -1.2220    3.1662  12.34  12.3 112.3 10     0.0000    0.0349
END_PHASE
END_NLLOC

