NLLOC "./loc/SEML.20230120.191259.grid0" "LOCATED" "Location completed."
PUBLIC_ID None
SIGNATURE "Arham Zakki Edelo - edelo.17034@mhs.its.ac.id   obs:./obs/2023_01.obs   NLLoc:v7.00.10(30Aug2020)   run:28Dec2023 19h50m26"
COMMENT "SEML"
GRID  2001 2001 1001  727 9811 -2  0.01 0.01 0.01 PROB_DENSITY
SEARCH OCTREE nInitial 4851 nEvaluated 20011 smallestNodeSide 0.014881/0.014881/0.014205 oct_tree_integral 5.262532e-02 scatter_volume 5.262532e-02
HYPOCENTER  x 738.064 y 9818.88 z 1.57244  OT 58.7822  ix -1 iy -1 iz -1 MAXIMUM_LIKELIHOOD
GEOGRAPHIC  OT 2023 01 20  19 12 58.782197  Lat 9818.879464 Long 738.063988 Depth 1.572443
QUALITY  Pmax 1.38019e+23 MFmin 28.62 MFmax 31.4349 RMS 0.00660537 Nphs 8 Gap 289.692 Dist 0.341972 Mamp -9.90 0 Mdur -9.90 0
VPVSRATIO  VpVsRatio 1.42348  Npair 4  Diff 0.104641
STATISTICS  ExpectX 738.068049 Y 9818.874192 Z 1.589554  CovXX 0.0626933 XY 0.00704251 XZ 0.00294697 YY 0.0176656 YZ 0.000478512 ZZ 0.0205578 EllAz1  171.342 Dip1  0.424863 Len1  0.241994 Az2  87.4966 Dip2  -86.0434 Len2  0.268039 Len3  4.752153e-01
STAT_GEOG  ExpectLat 9818.874192 Long 738.068049 Depth 1.589554
TRANSFORM  NONE
QML_OriginQuality  assocPhCt 8  usedPhCt 8  assocStaCt -1  usedStaCt 4  depthPhCt -1  stdErr 0.00660537  azGap 289.692  secAzGap 289.692  gtLevel -  minDist 0.341972 maxDist 2.11339 medDist 1.45088
QML_OriginUncertainty  horUnc -1  minHorUnc 0.195337  maxHorUnc 0.382974  azMaxHorUnc 81.315
QML_ConfidenceEllipsoid  semiMajorAxisLength 0.475215  semiMinorAxisLength 0.241994  semiIntermediateAxisLength 0.268039  majorAxisPlunge 3.93361  majorAxisAzimuth 81.3126  majorAxisRotation 0.429913
FOCALMECH  Hyp  9818.879464 738.063988 1.572443 Mech  0 0 0 mf  0 nObs -1
PHASE ID Ins Cmp On Pha  FM Date     HrMn   Sec     Err  ErrMag    Coda      Amp       Per       PriorWt  >   TTpred    Res       Weight    StaLoc(X  Y         Z)        SDist    SAzim  RAz  RDip RQual    Tcorr       TTerr
M06          ?    BHZ  e P      c 20230120 1912   59.5569 GAU  1.39e-03 -1.00e+00 -1.00e+00 -1.00e+00    1.0000 >    0.7713    0.0034    1.1727  738.3100 9819.1170   -1.3960    0.3420  46.00  46.0 172.5 10     0.0000    0.0154
M06          ?    BHN  e S      ? 20230120 1913    0.0875 GAU  2.70e-03 -1.00e+00 -1.00e+00 -1.00e+00    1.0000 >    1.3126   -0.0073    0.9544  738.3100 9819.1170   -1.3960    0.3420  46.00  46.0 172.2 10     0.0000    0.0263
M14          ?    BHZ  e P      c 20230120 1912   59.6128 GAU  7.97e-03 -1.00e+00  9.42e+01 -1.00e+00    1.0000 >    0.8311   -0.0005    1.1320  737.5530 9820.0110   -1.3980    1.2416 335.70 335.7 154.5 10     0.0000    0.0166
M14          ?    BHE  e S      ? 20230120 1913    0.2073 GAU  1.65e-02 -1.00e+00  3.97e+02 -1.00e+00    1.0000 >    1.4141    0.0110    0.8415  737.5530 9820.0110   -1.3980    1.2416 335.70 335.7 153.6 10     0.0000    0.0283
M11          ?    BHZ  e P      c 20230120 1912   59.6358 GAU  6.63e-03 -1.00e+00 -1.00e+00 -1.00e+00    1.0000 >    0.8572   -0.0037    1.1211  738.4670 9820.4900   -1.3120    1.6602  14.05  14.0 146.3 10     0.0000    0.0171
M11          ?    BHE  e S      ? 20230120 1913    0.2574 GAU  9.96e-03 -1.00e+00 -1.00e+00 -1.00e+00    1.0000 >    1.4575    0.0177    0.8120  738.4670 9820.4900   -1.3120    1.6602  14.05  14.0 145.1 10     0.0000    0.0292
M09          ?    BHZ  i P      c 20230120 1912   59.6903 GAU  7.18e-03 -1.00e+00  3.94e+01 -1.00e+00    1.0000 >    0.9110   -0.0029    1.1034  737.8820 9820.9850   -1.2700    2.1134 355.06 355.1 138.5 10     0.0000    0.0182
M09          ?    BHE  e S      ? 20230120 1913    0.3255 GAU  1.08e-02 -1.00e+00  3.53e+02 -1.00e+00    1.0000 >    1.5479   -0.0046    0.8629  737.8820 9820.9850   -1.2700    2.1134 355.06 355.1 137.0 10     0.0000    0.0310
END_PHASE
END_NLLOC

