NLLOC "./loc/SEML.20230120.193110.grid0" "LOCATED" "Location completed."
PUBLIC_ID None
SIGNATURE "Arham Zakki Edelo - edelo.17034@mhs.its.ac.id   obs:./obs/2023_01.obs   NLLoc:v7.00.10(30Aug2020)   run:28Dec2023 19h50m51"
COMMENT "SEML"
GRID  2001 2001 1001  727 9811 -2  0.01 0.01 0.01 PROB_DENSITY
SEARCH OCTREE nInitial 4851 nEvaluated 20003 smallestNodeSide 0.014881/0.014881/0.014205 oct_tree_integral 3.692198e-02 scatter_volume 3.664197e-02
HYPOCENTER  x 736.799 y 9818.52 z 0.137784  OT 9.8346  ix -1 iy -1 iz -1 MAXIMUM_LIKELIHOOD
GEOGRAPHIC  OT 2023 01 20  19 31 9.834605  Lat 9818.522321 Long 736.799107 Depth 0.137784
QUALITY  Pmax 9.97681e+21 MFmin 31.5533 MFmax 41.8095 RMS 0.00894991 Nphs 8 Gap 298.638 Dist 1.62371 Mamp -9.90 0 Mdur -9.90 0
VPVSRATIO  VpVsRatio 1.72745  Npair 4  Diff 0.295585
STATISTICS  ExpectX 738.107696 Y 9818.461173 Z -0.152042  CovXX 1.1703 XY 0.139066 XZ 0.0398032 YY 0.154664 YZ 0.198931 ZZ 0.434509 EllAz1  173.965 Dip1  26.2257 Len1  0.382367 Az2  341.042 Dip2  63.187 Len2  1.35883 Len3  2.053856e+00
STAT_GEOG  ExpectLat 9818.461173 Long 738.107696 Depth -0.152042
TRANSFORM  NONE
QML_OriginQuality  assocPhCt 8  usedPhCt 8  assocStaCt -1  usedStaCt 4  depthPhCt -1  stdErr 0.00894991  azGap 298.638  secAzGap 298.638  gtLevel -  minDist 1.62371 maxDist 3.04236 medDist 2.17947
QML_OriginUncertainty  horUnc -1  minHorUnc 0.559216  maxHorUnc 1.65369  azMaxHorUnc 82.3425
QML_ConfidenceEllipsoid  semiMajorAxisLength 2.05386  semiMinorAxisLength 0.382367  semiIntermediateAxisLength 1.35883  majorAxisPlunge 5.19223  majorAxisAzimuth 81.3993  majorAxisRotation 26.7202
FOCALMECH  Hyp  9818.522321 736.799107 0.137784 Mech  0 0 0 mf  0 nObs -1
PHASE ID Ins Cmp On Pha  FM Date     HrMn   Sec     Err  ErrMag    Coda      Amp       Per       PriorWt  >   TTpred    Res       Weight    StaLoc(X  Y         Z)        SDist    SAzim  RAz  RDip RQual    Tcorr       TTerr
M06          ?    BHZ  e P      c 20230120 1931   10.4317 GAU  3.46e-03 -1.00e+00 -1.00e+00 -1.00e+00    1.0000 >    0.5971    0.0000    1.5155  738.3100 9819.1170   -1.3960    1.6237  68.52  68.5 131.3 10     0.0000    0.0119
M06          ?    BHN  e S      ? 20230120 1931   10.8811 GAU  3.20e-03 -1.00e+00 -1.00e+00 -1.00e+00    1.0000 >    1.0445    0.0020    1.2508  738.3100 9819.1170   -1.3960    1.6237  68.52  68.5 130.1 10     0.0000    0.0209
M14          ?    BHZ  e P      c 20230120 1931   10.4393 GAU  2.25e-03 -1.00e+00 -1.00e+00 -1.00e+00    1.0000 >    0.6063   -0.0016    1.5088  737.5530 9820.0110   -1.3980    1.6687  26.86  26.9 130.4 10     0.0000    0.0121
M14          ?    BHE  e S      ? 20230120 1931   10.8983 GAU  1.60e-03 -1.00e+00  3.92e+02 -1.00e+00    1.0000 >    1.0605    0.0031    1.2428  737.5530 9820.0110   -1.3980    1.6687  26.86  26.9 129.2 10     0.0000    0.0212
M09          ?    BHZ  e P      c 20230120 1931   10.6462 GAU  3.99e-03 -1.00e+00  5.48e+01 -1.00e+00    1.0000 >    0.8095    0.0021    1.3897  737.8820 9820.9850   -1.2700    2.6902  23.74  23.7 114.4 10     0.0000    0.0162
M09          ?    BHE  e S      ? 20230120 1931   11.2538 GAU  2.46e-03 -1.00e+00  3.50e+02 -1.00e+00    1.0000 >    1.4183    0.0009    1.0507  737.8820 9820.9850   -1.2700    2.6902  23.74  23.7 111.7 10     0.0000    0.0284
M13          ?    BHZ  e P      c 20230120 1931   10.8322 GAU  6.13e-04 -1.00e+00 -1.00e+00 -1.00e+00    1.0000 >    0.8872    0.1105    0.0215  737.1780 9821.5410   -1.2220    3.0424   7.15   7.2 110.5 10     0.0000    0.0177
M13          ?    BHN  e S      ? 20230120 1931   11.5772 GAU  4.18e-03 -1.00e+00 -1.00e+00 -1.00e+00    1.0000 >    1.5555    0.1871    0.0202  737.1780 9821.5410   -1.2220    3.0424   7.15   7.2 107.1 10     0.0000    0.0311
END_PHASE
END_NLLOC

