NLLOC "./loc/SEML.20230120.193348.grid0" "LOCATED" "Location completed."
PUBLIC_ID None
SIGNATURE "Arham Zakki Edelo - edelo.17034@mhs.its.ac.id   obs:./obs/2023_01.obs   NLLoc:v7.00.10(30Aug2020)   run:28Dec2023 19h50m56"
COMMENT "SEML"
GRID  2001 2001 1001  727 9811 -2  0.01 0.01 0.01 PROB_DENSITY
SEARCH OCTREE nInitial 4851 nEvaluated 20019 smallestNodeSide 0.029762/0.029762/0.028409 oct_tree_integral 1.468898e-01 scatter_volume 1.468898e-01
HYPOCENTER  x 739.426 y 9818.99 z 1.19602  OT 47.9998  ix -1 iy -1 iz -1 MAXIMUM_LIKELIHOOD
GEOGRAPHIC  OT 2023 01 20  19 33 47.999825  Lat 9818.991071 Long 739.425595 Depth 1.196023
QUALITY  Pmax 1.97783e+21 MFmin 28.6655 MFmax 35.4455 RMS 0.0184088 Nphs 8 Gap 309.04 Dist 1.12268 Mamp -9.90 0 Mdur -9.90 0
VPVSRATIO  VpVsRatio 1.68947  Npair 4  Diff 0.211105
STATISTICS  ExpectX 739.337104 Y 9818.766502 Z 0.870993  CovXX 1.13204 XY 0.343684 XZ -0.29377 YY 0.143089 YZ -0.0806473 ZZ 0.372426 EllAz1  341.994 Dip1  -2.39422 Len1  0.35112 Az2  244.47 Dip2  -72.2903 Len2  0.988267 Len3  2.171612e+00
STAT_GEOG  ExpectLat 9818.766502 Long 739.337104 Depth 0.870993
TRANSFORM  NONE
QML_OriginQuality  assocPhCt 8  usedPhCt 8  assocStaCt -1  usedStaCt 4  depthPhCt -1  stdErr 0.0184088  azGap 309.04  secAzGap 309.04  gtLevel -  minDist 1.12268 maxDist 3.39909 medDist 2.15042
QML_OriginUncertainty  horUnc -1  minHorUnc 0.285264  maxHorUnc 1.68861  azMaxHorUnc 72.5994
QML_ConfidenceEllipsoid  semiMajorAxisLength 2.17161  semiMinorAxisLength 0.35112  semiIntermediateAxisLength 0.988267  majorAxisPlunge -17.5365  majorAxisAzimuth 72.7511  majorAxisRotation 183.067
FOCALMECH  Hyp  9818.991071 739.425595 1.196023 Mech  0 0 0 mf  0 nObs -1
PHASE ID Ins Cmp On Pha  FM Date     HrMn   Sec     Err  ErrMag    Coda      Amp       Per       PriorWt  >   TTpred    Res       Weight    StaLoc(X  Y         Z)        SDist    SAzim  RAz  RDip RQual    Tcorr       TTerr
M06          ?    BHZ  e P      c 20230120 1933   48.7338 GAU  1.02e-03 -1.00e+00 -1.00e+00 -1.00e+00    1.0000 >    0.7390   -0.0050    1.3501  738.3100 9819.1170   -1.3960    1.1227 276.44 276.4 153.9 10     0.0000    0.0148
M06          ?    BHN  e S      ? 20230120 1933   49.2763 GAU  2.75e-03 -1.00e+00 -1.00e+00 -1.00e+00    1.0000 >    1.2633    0.0133    1.2053  738.3100 9819.1170   -1.3960    1.1227 276.44 276.4 152.8 10     0.0000    0.0253
M11          ?    BHZ  e P      d 20230120 1933   48.8072 GAU  3.99e-03 -1.00e+00 -1.00e+00 -1.00e+00    1.0000 >    0.8027    0.0047    1.3808  738.4670 9820.4900   -1.3120    1.7792 327.40 327.4 140.3 10     0.0000    0.0161
M11          ?    BHN  e S      ? 20230120 1933   49.3682 GAU  2.23e-03 -1.00e+00 -1.00e+00 -1.00e+00    1.0000 >    1.3711   -0.0028    1.1805  738.4670 9820.4900   -1.3120    1.7792 327.40 327.4 138.6 10     0.0000    0.0274
M09          ?    BHZ  e P      c 20230120 1933   48.9726 GAU  6.89e-03 -1.00e+00  8.29e+01 -1.00e+00    1.0000 >    0.9191    0.0536    0.4534  737.8820 9820.9850   -1.2700    2.5216 322.25 322.3 127.9 10     0.0000    0.0184
M09          ?    BHN  e S      ? 20230120 1933   49.6717 GAU  5.15e-03 -1.00e+00  4.73e+02 -1.00e+00    1.0000 >    1.5684    0.1035    0.1397  737.8820 9820.9850   -1.2700    2.5216 322.25 322.3 125.5 10     0.0000    0.0314
M13          ?    BHZ  e P      c 20230120 1933   49.0856 GAU  1.25e-03 -1.00e+00 -1.00e+00 -1.00e+00    1.0000 >    1.0853    0.0005    1.3013  737.1780 9821.5410   -1.2220    3.3991 318.61 318.6 116.3 10     0.0000    0.0217
M13          ?    BHE  e S      ? 20230120 1933   49.8393 GAU  3.34e-03 -1.00e+00 -1.00e+00 -1.00e+00    1.0000 >    1.8484   -0.0090    0.9890  737.1780 9821.5410   -1.2220    3.3991 318.61 318.6 113.0 10     0.0000    0.0370
END_PHASE
END_NLLOC

