NLLOC "./loc/SEML.20230120.191309.grid0" "LOCATED" "Location completed."
PUBLIC_ID None
SIGNATURE "Arham Zakki Edelo - edelo.17034@mhs.its.ac.id   obs:./obs/2023_01.obs   NLLoc:v7.00.10(30Aug2020)   run:28Dec2023 19h50m27"
COMMENT "SEML"
GRID  2001 2001 1001  727 9811 -2  0.01 0.01 0.01 PROB_DENSITY
SEARCH OCTREE nInitial 4851 nEvaluated 20003 smallestNodeSide 0.029762/0.029762/0.028409 oct_tree_integral 9.509996e-02 scatter_volume 9.470894e-02
HYPOCENTER  x 738.92 y 9818.51 z 1.4517  OT 8.8137  ix -1 iy -1 iz -1 MAXIMUM_LIKELIHOOD
GEOGRAPHIC  OT 2023 01 20  19 13 8.813699  Lat 9818.514881 Long 738.919643 Depth 1.451705
QUALITY  Pmax 1.42066e+34 MFmin 38.2369 MFmax 46.8191 RMS 0.0289297 Nphs 12 Gap 325.084 Dist 0.856862 Mamp -9.90 0 Mdur -9.90 0
VPVSRATIO  VpVsRatio 1.51871  Npair 6  Diff 0.686728
STATISTICS  ExpectX 738.886769 Y 9818.354728 Z 1.402422  CovXX 0.117539 XY 0.0470654 XZ 0.0168836 YY 0.0946004 YZ 0.0172344 ZZ 0.210188 EllAz1  142.148 Dip1  1.21921 Len1  0.450764 Az2  232.6 Dip2  20.3077 Len2  0.717059 Len3  8.794625e-01
STAT_GEOG  ExpectLat 9818.354728 Long 738.886769 Depth 1.402422
TRANSFORM  NONE
QML_OriginQuality  assocPhCt 12  usedPhCt 12  assocStaCt -1  usedStaCt 6  depthPhCt -1  stdErr 0.0289297  azGap 325.084  secAzGap 325.084  gtLevel -  minDist 0.856862 maxDist 5.28626 medDist 3.599
QML_OriginUncertainty  horUnc -1  minHorUnc 0.364063  maxHorUnc 0.596136  azMaxHorUnc 51.8476
QML_ConfidenceEllipsoid  semiMajorAxisLength 0.879463  semiMinorAxisLength 0.450764  semiIntermediateAxisLength 0.717059  majorAxisPlunge 69.6524  majorAxisAzimuth 48.8586  majorAxisRotation 355.377
FOCALMECH  Hyp  9818.514881 738.919643 1.451705 Mech  0 0 0 mf  0 nObs -1
PHASE ID Ins Cmp On Pha  FM Date     HrMn   Sec     Err  ErrMag    Coda      Amp       Per       PriorWt  >   TTpred    Res       Weight    StaLoc(X  Y         Z)        SDist    SAzim  RAz  RDip RQual    Tcorr       TTerr
M06          ?    BHZ  e P      c 20230120 1913    9.5945 GAU  2.31e-03 -1.00e+00 -1.00e+00 -1.00e+00    1.0000 >    0.7710    0.0097    1.3497  738.3100 9819.1170   -1.3960    0.8569 314.64 314.6 161.5 10     0.0000    0.0154
M06          ?    BHE  e S      ? 20230120 1913   10.1143 GAU  7.69e-03 -1.00e+00 -1.00e+00 -1.00e+00    1.0000 >    1.3138   -0.0133    1.4185  738.3100 9819.1170   -1.3960    0.8569 314.64 314.6 160.9 10     0.0000    0.0263
M09          ?    BHZ  e P      c 20230120 1913    9.7557 GAU  1.27e-02 -1.00e+00  5.96e+02 -1.00e+00    1.0000 >    0.9858   -0.0439    1.0544  737.8820 9820.9850   -1.2700    2.6792 337.21 337.2 130.1 10     0.0000    0.0197
M09          ?    BHN  e S      ? 20230120 1913   10.6166 GAU  5.79e-03 -1.00e+00  4.46e+02 -1.00e+00    1.0000 >    1.6764    0.1265    0.1184  737.8820 9820.9850   -1.2700    2.6792 337.21 337.2 128.1 10     0.0000    0.0335
M13          ?    BHZ  e P      c 20230120 1913    9.8900 GAU  6.64e-03 -1.00e+00 -1.00e+00 -1.00e+00    1.0000 >    1.1330   -0.0567    0.7910  737.1780 9821.5410   -1.2220    3.4915 330.08 330.1 120.2 10     0.0000    0.0227
M13          ?    BHN  e S      ? 20230120 1913   10.7213 GAU  8.31e-03 -1.00e+00 -1.00e+00 -1.00e+00    1.0000 >    1.9232   -0.0156    1.2615  737.1780 9821.5410   -1.2220    3.4915 330.08 330.1 117.8 10     0.0000    0.0385
M08          ?    BHZ  e P      c 20230120 1913    9.9716 GAU  1.60e-03 -1.00e+00 -1.00e+00 -1.00e+00    1.0000 >    1.1645   -0.0066    1.4653  738.2480 9822.1600   -1.1510    3.7065 349.56 349.6 117.4 10     0.0000    0.0233
M08          ?    BHN  e S      ? 20230120 1913   10.7910 GAU  5.54e-03 -1.00e+00  2.57e+02 -1.00e+00    1.0000 >    1.9746    0.0027    1.2357  738.2480 9822.1600   -1.1510    3.7065 349.56 349.6 115.0 10     0.0000    0.0395
M05          ?    BHZ  e P      c 20230120 1913   10.1251 GAU  6.89e-03 -1.00e+00 -1.00e+00 -1.00e+00    1.0000 >    1.3231   -0.0117    1.4230  736.2660 9822.0830   -1.1500    4.4467 323.36 323.4 111.3 10     0.0000    0.0265
M05          ?    BHN  e S      ? 20230120 1913   11.0740 GAU  4.08e-03 -1.00e+00  2.52e+02 -1.00e+00    1.0000 >    2.2398    0.0205    1.0637  736.2660 9822.0830   -1.1500    4.4467 323.36 323.4 108.8 10     0.0000    0.0448
M12          ?    BHZ  e P      d 20230120 1913   10.3452 GAU  2.67e-02 -1.00e+00 -1.00e+00 -1.00e+00    1.0000 >    1.4859    0.0456    0.7866  736.8520 9823.3800   -0.9890    5.2863 336.97 337.0 104.6 10     0.0000    0.0297
M12          ?    BHE  e S      ? 20230120 1913   11.5517 GAU  8.57e-03 -1.00e+00  5.54e+01 -1.00e+00    1.0000 >    2.5052    0.2328    0.0322  736.8520 9823.3800   -0.9890    5.2863 336.97 337.0 102.7 10     0.0000    0.0501
END_PHASE
END_NLLOC

