NLLOC "./loc/SEML.20230120.195724.grid0" "LOCATED" "Location completed."
PUBLIC_ID None
SIGNATURE "Arham Zakki Edelo - edelo.17034@mhs.its.ac.id   obs:./obs/2023_01.obs   NLLoc:v7.00.10(30Aug2020)   run:28Dec2023 19h51m03"
COMMENT "SEML"
GRID  2001 2001 1001  727 9811 -2  0.01 0.01 0.01 PROB_DENSITY
SEARCH OCTREE nInitial 4851 nEvaluated 20003 smallestNodeSide 0.014881/0.014881/0.014205 oct_tree_integral 1.584619e-02 scatter_volume 1.584619e-02
HYPOCENTER  x 739.671 y 9819.01 z 0.634943  OT 23.6649  ix -1 iy -1 iz -1 MAXIMUM_LIKELIHOOD
GEOGRAPHIC  OT 2023 01 20  19 57 23.664906  Lat 9819.013393 Long 739.671131 Depth 0.634943
QUALITY  Pmax 3.69419e+55 MFmin 63.5669 MFmax 74.5113 RMS 0.0390203 Nphs 18 Gap 278.872 Dist 1.36507 Mamp -9.90 0 Mdur -9.90 0
VPVSRATIO  VpVsRatio 1.6491  Npair 9  Diff 0.539486
STATISTICS  ExpectX 739.625629 Y 9819.039842 Z 0.600351  CovXX 0.0770536 XY 0.0134063 XZ 0.0167539 YY 0.0186079 YZ -0.0091184 ZZ 0.0309652 EllAz1  160.604 Dip1  -31.5999 Len1  0.167422 Az2  193.416 Dip2  53.7961 Len2  0.349544 Len3  5.447760e-01
STAT_GEOG  ExpectLat 9819.039842 Long 739.625629 Depth 0.600351
TRANSFORM  NONE
QML_OriginQuality  assocPhCt 18  usedPhCt 18  assocStaCt -1  usedStaCt 9  depthPhCt -1  stdErr 0.0390203  azGap 278.872  secAzGap 278.872  gtLevel -  minDist 1.36507 maxDist 5.19757 medDist 3.45347
QML_OriginUncertainty  horUnc -1  minHorUnc 0.189902  maxHorUnc 0.428904  azMaxHorUnc 77.6781
QML_ConfidenceEllipsoid  semiMajorAxisLength 0.544776  semiMinorAxisLength 0.167422  semiIntermediateAxisLength 0.349544  majorAxisPlunge 15.8201  majorAxisAzimuth 80.6427  majorAxisRotation 322.666
FOCALMECH  Hyp  9819.013393 739.671131 0.634943 Mech  0 0 0 mf  0 nObs -1
PHASE ID Ins Cmp On Pha  FM Date     HrMn   Sec     Err  ErrMag    Coda      Amp       Per       PriorWt  >   TTpred    Res       Weight    StaLoc(X  Y         Z)        SDist    SAzim  RAz  RDip RQual    Tcorr       TTerr
M06          ?    BHZ  i P      c 20230120 1957   24.3097 GAU  1.93e-03 -1.00e+00 -1.00e+00 -1.00e+00    1.0000 >    0.6487   -0.0039    1.8945  738.3100 9819.1170   -1.3960    1.3651 274.35 274.4 144.8 10     0.0000    0.0130
M06          ?    BHN  e S      ? 20230120 1957   24.7820 GAU  2.58e-03 -1.00e+00 -1.00e+00 -1.00e+00    1.0000 >    1.1250   -0.0080    1.7183  738.3100 9819.1170   -1.3960    1.3651 274.35 274.4 141.5 10     0.0000    0.0225
M11          ?    BHZ  e P      c 20230120 1957   24.3995 GAU  1.92e-03 -1.00e+00 -1.00e+00 -1.00e+00    1.0000 >    0.7206    0.0140    1.6774  738.4670 9820.4900   -1.3120    1.9053 320.80 320.8 133.8 10     0.0000    0.0144
M11          ?    BHN  e S      ? 20230120 1957   24.9364 GAU  2.67e-03 -1.00e+00 -1.00e+00 -1.00e+00    1.0000 >    1.2497    0.0218    1.3952  738.4670 9820.4900   -1.3120    1.9053 320.80 320.8 128.8 10     0.0000    0.0250
M14          ?    BHZ  i P      c 20230120 1957   24.3417 GAU  3.38e-03 -1.00e+00 -1.00e+00 -1.00e+00    1.0000 >    0.8215   -0.1447    0.2125  737.5530 9820.0110   -1.3980    2.3413 295.22 295.2 128.6 10     0.0000    0.0164
M14          ?    BHE  e S      ? 20230120 1957   24.8566 GAU  4.15e-03 -1.00e+00  4.91e+02 -1.00e+00    1.0000 >    1.4240   -0.2323    0.1422  737.5530 9820.0110   -1.3980    2.3413 295.22 295.2 122.5 10     0.0000    0.0285
M09          ?    BHZ  i P      c 20230120 1957   24.5056 GAU  2.31e-03 -1.00e+00  1.55e+02 -1.00e+00    1.0000 >    0.8652   -0.0245    1.4087  737.8820 9820.9850   -1.2700    2.6624 317.78 317.8 122.9 10     0.0000    0.0173
M09          ?    BHN  e S      ? 20230120 1957   25.1042 GAU  4.21e-03 -1.00e+00  5.09e+02 -1.00e+00    1.0000 >    1.4997   -0.0604    0.6863  737.8820 9820.9850   -1.2700    2.6624 317.78 317.8 115.3 10     0.0000    0.0300
M08          ?    BHZ  i P      c 20230120 1957   24.8876 GAU  2.88e-03 -1.00e+00 -1.00e+00 -1.00e+00    1.0000 >    1.0247    0.1979    0.0077  738.2480 9822.1600   -1.1510    3.4535 335.66 335.7 114.1 10     0.0000    0.0205
M08          ?    BHE  e S      ? 20230120 1957   25.7390 GAU  2.00e-03 -1.00e+00 -1.00e+00 -1.00e+00    1.0000 >    1.7737    0.3004    0.0073  738.2480 9822.1600   -1.1510    3.4535 335.66 335.7 103.1 10     0.0000    0.0355
M13          ?    BHZ  e P      c 20230120 1957   24.6047 GAU  4.81e-03 -1.00e+00 -1.00e+00 -1.00e+00    1.0000 >    1.0575   -0.1178    0.2646  737.1780 9821.5410   -1.2220    3.5503 315.39 315.4 114.2 10     0.0000    0.0212
M13          ?    BHE  e S      ? 20230120 1957   25.2796 GAU  2.23e-03 -1.00e+00 -1.00e+00 -1.00e+00    1.0000 >    1.8304   -0.2157    0.1825  737.1780 9821.5410   -1.2220    3.5503 315.39 315.4 103.2 10     0.0000    0.0366
M15          ?    BHZ  i P      c 20230120 1957   24.8711 GAU  1.39e-03 -1.00e+00 -1.00e+00 -1.00e+00    1.0000 >    1.2059    0.0003    1.7155  739.3310 9823.3170   -0.9530    4.3170 355.48 355.5 106.7 10     0.0000    0.0241
M15          ?    BHN  e S      ? 20230120 1957   25.7033 GAU  2.40e-03 -1.00e+00 -1.00e+00 -1.00e+00    1.0000 >    2.0755   -0.0371    1.1158  739.3310 9823.3170   -0.9530    4.3170 355.48 355.5  95.4  9     0.0000    0.0415
M05          ?    BHZ  i P      c 20230120 1957   24.9653 GAU  4.15e-03 -1.00e+00 -1.00e+00 -1.00e+00    1.0000 >    1.2956    0.0048    1.6476  736.2660 9822.0830   -1.1500    4.5845 312.03 312.0 107.3 10     0.0000    0.0259
M05          ?    BHE  e S      ? 20230120 1957   25.9195 GAU  4.81e-03 -1.00e+00 -1.00e+00 -1.00e+00    1.0000 >    2.2316    0.0230    1.1483  736.2660 9822.0830   -1.1500    4.5845 312.03 312.0  95.6  9     0.0000    0.0446
M12          ?    BHZ  i P      c 20230120 1957   25.1003 GAU  7.97e-03 -1.00e+00 -1.00e+00 -1.00e+00    1.0000 >    1.4279    0.0075    1.5526  736.8520 9823.3800   -0.9890    5.1976 327.15 327.2 103.3 10     0.0000    0.0286
M12          ?    BHE  e S      ? 20230120 1957   26.1120 GAU  2.43e-03 -1.00e+00 -1.00e+00 -1.00e+00    1.0000 >    2.4441    0.0030    1.2227  736.8520 9823.3800   -0.9890    5.1976 327.15 327.2  93.7  9     0.0000    0.0489
END_PHASE
END_NLLOC

