NLLOC "./loc/SEML.20230120.192240.grid0" "LOCATED" "Location completed."
PUBLIC_ID None
SIGNATURE "Arham Zakki Edelo - edelo.17034@mhs.its.ac.id   obs:./obs/2023_01.obs   NLLoc:v7.00.10(30Aug2020)   run:28Dec2023 19h50m41"
COMMENT "SEML"
GRID  2001 2001 1001  727 9811 -2  0.01 0.01 0.01 PROB_DENSITY
SEARCH OCTREE nInitial 4851 nEvaluated 20019 smallestNodeSide 0.029762/0.029762/0.028409 oct_tree_integral 1.742723e-01 scatter_volume 1.733311e-01
HYPOCENTER  x 739.039 y 9818.84 z 0.96875  OT 39.9323  ix -1 iy -1 iz -1 MAXIMUM_LIKELIHOOD
GEOGRAPHIC  OT 2023 01 20  19 22 39.932305  Lat 9818.842262 Long 739.038690 Depth 0.968750
QUALITY  Pmax 4.29137e+20 MFmin 30.5728 MFmax 46.5345 RMS 0.0261181 Nphs 8 Gap 309.792 Dist 0.778762 Mamp -9.90 0 Mdur -9.90 0
VPVSRATIO  VpVsRatio 2.72278  Npair 4  Diff 0.24234
STATISTICS  ExpectX 739.360470 Y 9818.829925 Z 0.736738  CovXX 0.720537 XY 0.0621866 XZ -0.359611 YY 0.0740211 YZ -0.0073714 ZZ 0.333438 EllAz1  344.516 Dip1  -17.9664 Len1  0.457424 Az2  228.611 Dip2  -53.4152 Len2  0.676287 Len3  1.820775e+00
STAT_GEOG  ExpectLat 9818.829925 Long 739.360470 Depth 0.736738
TRANSFORM  NONE
QML_OriginQuality  assocPhCt 8  usedPhCt 8  assocStaCt -1  usedStaCt 4  depthPhCt -1  stdErr 0.0261181  azGap 309.792  secAzGap 309.792  gtLevel -  minDist 0.778762 maxDist 2.43501 medDist 1.8172
QML_OriginUncertainty  horUnc -1  minHorUnc 0.395747  maxHorUnc 1.29262  azMaxHorUnc 84.5554
QML_ConfidenceEllipsoid  semiMajorAxisLength 1.82078  semiMinorAxisLength 0.457424  semiIntermediateAxisLength 0.676287  majorAxisPlunge -30.6627  majorAxisAzimuth 85.5999  majorAxisRotation 218.68
FOCALMECH  Hyp  9818.842262 739.038690 0.968750 Mech  0 0 0 mf  0 nObs -1
PHASE ID Ins Cmp On Pha  FM Date     HrMn   Sec     Err  ErrMag    Coda      Amp       Per       PriorWt  >   TTpred    Res       Weight    StaLoc(X  Y         Z)        SDist    SAzim  RAz  RDip RQual    Tcorr       TTerr
M06          ?    BHZ  i P      c 20230120 1922   40.5412 GAU  2.12e-03 -1.00e+00 -1.00e+00 -1.00e+00    1.0000 >    0.6570   -0.0482    0.8467  738.3100 9819.1170   -1.3960    0.7788 290.66 290.7 161.2 10     0.0000    0.0131
M06          ?    BHN  e S      ? 20230120 1922   41.0524 GAU  4.15e-03 -1.00e+00 -1.00e+00 -1.00e+00    1.0000 >    1.1276   -0.0075    1.2975  738.3100 9819.1170   -1.3960    0.7788 290.66 290.7 159.8 10     0.0000    0.0226
M11          ?    BHZ  e P      d 20230120 1922   40.6931 GAU  3.32e-03 -1.00e+00 -1.00e+00 -1.00e+00    1.0000 >    0.7561    0.0047    1.1793  738.4670 9820.4900   -1.3120    1.7441 340.87 340.9 141.5 10     0.0000    0.0151
M11          ?    BHN  e S      ? 20230120 1922   41.2167 GAU  8.31e-03 -1.00e+00 -1.00e+00 -1.00e+00    1.0000 >    1.2968   -0.0124    1.2725  738.4670 9820.4900   -1.3120    1.7441 340.87 340.9 138.4 10     0.0000    0.0259
M14          ?    BHZ  e P      c 20230120 1922   40.7396 GAU  1.92e-03 -1.00e+00 -1.00e+00 -1.00e+00    1.0000 >    0.7988    0.0084    1.0985  737.5530 9820.0110   -1.3980    1.8903 308.19 308.2 140.2 10     0.0000    0.0160
M14          ?    BHE  e S      ? 20230120 1922   41.4931 GAU  5.60e-03 -1.00e+00  3.85e+02 -1.00e+00    1.0000 >    1.3702    0.1906    0.0000  737.5530 9820.0110   -1.3980    1.8903 308.19 308.2 136.9 10     0.0000    0.0274
M09          ?    BHZ  i P      c 20230120 1922   40.7679 GAU  2.00e-03 -1.00e+00  6.82e+01 -1.00e+00    1.0000 >    0.8700   -0.0343    1.1691  737.8820 9820.9850   -1.2700    2.4350 331.64 331.6 130.8 10     0.0000    0.0174
M09          ?    BHE  e S      ? 20230120 1922   41.3901 GAU  6.92e-03 -1.00e+00  3.61e+02 -1.00e+00    1.0000 >    1.4907   -0.0329    1.1365  737.8820 9820.9850   -1.2700    2.4350 331.64 331.6 126.5 10     0.0000    0.0298
END_PHASE
END_NLLOC

