NLLOC "./loc/SEML.20230120.193059.grid0" "LOCATED" "Location completed."
PUBLIC_ID None
SIGNATURE "Arham Zakki Edelo - edelo.17034@mhs.its.ac.id   obs:./obs/2023_01.obs   NLLoc:v7.00.10(30Aug2020)   run:28Dec2023 19h50m50"
COMMENT "SEML"
GRID  2001 2001 1001  727 9811 -2  0.01 0.01 0.01 PROB_DENSITY
SEARCH OCTREE nInitial 4851 nEvaluated 20019 smallestNodeSide 0.029762/0.029762/0.028409 oct_tree_integral 3.481289e-01 scatter_volume 3.481289e-01
HYPOCENTER  x 736.539 y 9817.95 z 0.00284091  OT 58.6231  ix -1 iy -1 iz -1 MAXIMUM_LIKELIHOOD
GEOGRAPHIC  OT 2023 01 20  19 30 58.623059  Lat 9817.949405 Long 736.538690 Depth 0.002841
QUALITY  Pmax 2.71326e+20 MFmin 28.9232 MFmax 35.1184 RMS 0.0330639 Nphs 8 Gap 313.485 Dist 2.12151 Mamp -9.90 0 Mdur -9.90 0
VPVSRATIO  VpVsRatio 1.5972  Npair 4  Diff 0.284199
STATISTICS  ExpectX 736.851345 Y 9817.889048 Z -0.068611  CovXX 0.78503 XY 0.0597642 XZ 0.460857 YY 0.0707399 YZ 0.111538 ZZ 0.651662 EllAz1  183.787 Dip1  13.2219 Len1  0.41348 Az2  287.914 Dip2  46.0912 Len2  0.962733 Len3  2.055095e+00
STAT_GEOG  ExpectLat 9817.889048 Long 736.851345 Depth -0.068611
TRANSFORM  NONE
QML_OriginQuality  assocPhCt 8  usedPhCt 8  assocStaCt -1  usedStaCt 4  depthPhCt -1  stdErr 0.0330639  azGap 313.485  secAzGap 313.485  gtLevel -  minDist 2.12151 maxDist 3.64805 medDist 2.80857
QML_OriginUncertainty  horUnc -1  minHorUnc 0.388948  maxHorUnc 1.34796  azMaxHorUnc 85.2501
QML_ConfidenceEllipsoid  semiMajorAxisLength 2.05509  semiMinorAxisLength 0.41348  semiIntermediateAxisLength 0.962733  majorAxisPlunge 40.8977  majorAxisAzimuth 82.0446  majorAxisRotation 65.7954
FOCALMECH  Hyp  9817.949405 736.538690 0.002841 Mech  0 0 0 mf  0 nObs -1
PHASE ID Ins Cmp On Pha  FM Date     HrMn   Sec     Err  ErrMag    Coda      Amp       Per       PriorWt  >   TTpred    Res       Weight    StaLoc(X  Y         Z)        SDist    SAzim  RAz  RDip RQual    Tcorr       TTerr
M06          ?    BHZ  i P      c 20230120 1930   59.3051 GAU  1.99e-03 -1.00e+00 -1.00e+00 -1.00e+00    1.0000 >    0.6815    0.0005    1.2331  738.3100 9819.1170   -1.3960    2.1215  56.61  56.6 120.2 10     0.0000    0.0136
M06          ?    BHN  e S      ? 20230120 1930   59.8179 GAU  2.20e-03 -1.00e+00 -1.00e+00 -1.00e+00    1.0000 >    1.1946    0.0003    1.1902  738.3100 9819.1170   -1.3960    2.1215  56.61  56.6 119.6  9     0.0000    0.0239
M14          ?    BHZ  e P      c 20230120 1930   59.2907 GAU  2.86e-03 -1.00e+00 -1.00e+00 -1.00e+00    1.0000 >    0.7217   -0.0541    0.8155  737.5530 9820.0110   -1.3980    2.2976  26.20  26.2 118.0 10     0.0000    0.0144
M14          ?    BHE  e S      ? 20230120 1930   59.8722 GAU  1.92e-03 -1.00e+00  3.83e+02 -1.00e+00    1.0000 >    1.2651   -0.0160    1.2080  737.5530 9820.0110   -1.3980    2.2976  26.20  26.2 117.2  9     0.0000    0.0253
M09          ?    BHZ  i P      c 20230120 1930   59.5093 GAU  2.32e-03 -1.00e+00  3.32e+01 -1.00e+00    1.0000 >    0.9500   -0.0638    0.7241  737.8820 9820.9850   -1.2700    3.3195  23.87  23.9 106.5 10     0.0000    0.0190
M09          ?    BHE  e S      ? 20230120 1931    0.2402 GAU  1.72e-02 -1.00e+00  3.67e+02 -1.00e+00    1.0000 >    1.6700   -0.0529    0.9022  737.8820 9820.9850   -1.2700    3.3195  23.87  23.9 103.5  9     0.0000    0.0334
M13          ?    BHZ  e P      d 20230120 1930   59.6580 GAU  7.18e-03 -1.00e+00  3.63e+00 -1.00e+00    1.0000 >    1.0266    0.0084    1.1221  737.1780 9821.5410   -1.2220    3.6481  10.09  10.1 104.0 10     0.0000    0.0205
M13          ?    BHE  e S      ? 20230120 1931    0.4551 GAU  5.98e-03 -1.00e+00 -1.00e+00 -1.00e+00    1.0000 >    1.8069    0.0251    0.8047  737.1780 9821.5410   -1.2220    3.6481  10.09  10.1  98.8  9     0.0000    0.0361
END_PHASE
END_NLLOC

