NLLOC "./loc/SEML.20230120.191719.grid0" "LOCATED" "Location completed."
PUBLIC_ID None
SIGNATURE "Arham Zakki Edelo - edelo.17034@mhs.its.ac.id   obs:./obs/2023_01.obs   NLLoc:v7.00.10(30Aug2020)   run:28Dec2023 19h50m34"
COMMENT "SEML"
GRID  2001 2001 1001  727 9811 -2  0.01 0.01 0.01 PROB_DENSITY
SEARCH OCTREE nInitial 4851 nEvaluated 20019 smallestNodeSide 0.029762/0.029762/0.028409 oct_tree_integral 1.399107e-01 scatter_volume 1.388811e-01
HYPOCENTER  x 738.801 y 9819.29 z 1.36648  OT 18.6591  ix -1 iy -1 iz -1 MAXIMUM_LIKELIHOOD
GEOGRAPHIC  OT 2023 01 20  19 17 18.659117  Lat 9819.288690 Long 738.800595 Depth 1.366477
QUALITY  Pmax 3.85802e+21 MFmin 29.5941 MFmax 35.5871 RMS 0.0183328 Nphs 8 Gap 266.231 Dist 0.51977 Mamp -9.90 0 Mdur -9.90 0
VPVSRATIO  VpVsRatio 1.61928  Npair 4  Diff 0.1075
STATISTICS  ExpectX 738.944341 Y 9819.058555 Z 1.157082  CovXX 0.247848 XY 0.0341804 XZ -0.101014 YY 0.07604 YZ 0.0306142 ZZ 0.119337 EllAz1  329.184 Dip1  -39.8642 Len1  0.302274 Az2  199.501 Dip2  -37.4038 Len2  0.631517 Len3  1.036533e+00
STAT_GEOG  ExpectLat 9819.058555 Long 738.944341 Depth 1.157082
TRANSFORM  NONE
QML_OriginQuality  assocPhCt 8  usedPhCt 8  assocStaCt -1  usedStaCt 4  depthPhCt -1  stdErr 0.0183328  azGap 266.231  secAzGap 266.231  gtLevel -  minDist 0.51977 maxDist 1.92906 medDist 1.34419
QML_OriginUncertainty  horUnc -1  minHorUnc 0.399783  maxHorUnc 0.764929  azMaxHorUnc 79.1514
QML_ConfidenceEllipsoid  semiMajorAxisLength 1.03653  semiMinorAxisLength 0.302274  semiIntermediateAxisLength 0.631517  majorAxisPlunge -27.9851  majorAxisAzimuth 85.5265  majorAxisRotation 242.061
FOCALMECH  Hyp  9819.288690 738.800595 1.366477 Mech  0 0 0 mf  0 nObs -1
PHASE ID Ins Cmp On Pha  FM Date     HrMn   Sec     Err  ErrMag    Coda      Amp       Per       PriorWt  >   TTpred    Res       Weight    StaLoc(X  Y         Z)        SDist    SAzim  RAz  RDip RQual    Tcorr       TTerr
M06          ?    BHZ  i P      c 20230120 1917   19.3945 GAU  7.97e-03 -1.00e+00 -1.00e+00 -1.00e+00    1.0000 >    0.7308    0.0045    1.3318  738.3100 9819.1170   -1.3960    0.5198 250.71 250.7 168.1 10     0.0000    0.0146
M06          ?    BHE  e S      ? 20230120 1917   19.9122 GAU  6.14e-03 -1.00e+00 -1.00e+00 -1.00e+00    1.0000 >    1.2467    0.0063    1.1775  738.3100 9819.1170   -1.3960    0.5198 250.71 250.7 167.7 10     0.0000    0.0249
M11          ?    BHZ  i P      c 20230120 1917   19.4247 GAU  3.99e-03 -1.00e+00 -1.00e+00 -1.00e+00    1.0000 >    0.7668   -0.0012    1.3463  738.4670 9820.4900   -1.3120    1.2468 344.48 344.5 152.4 10     0.0000    0.0153
M11          ?    BHN  e S      ? 20230120 1917   19.9639 GAU  9.97e-03 -1.00e+00 -1.00e+00 -1.00e+00    1.0000 >    1.3072   -0.0024    1.1192  738.4670 9820.4900   -1.3120    1.2468 344.48 344.5 151.3 10     0.0000    0.0261
M14          ?    BHZ  e P      c 20230120 1917   19.4647 GAU  6.89e-03 -1.00e+00 -1.00e+00 -1.00e+00    1.0000 >    0.8105   -0.0049    1.2837  737.5530 9820.0110   -1.3980    1.4416 300.07 300.1 149.4 10     0.0000    0.0162
M14          ?    BHE  e S      ? 20230120 1917   20.0415 GAU  6.92e-03 -1.00e+00  3.95e+02 -1.00e+00    1.0000 >    1.3821    0.0002    1.1233  737.5530 9820.0110   -1.3980    1.4416 300.07 300.1 148.3 10     0.0000    0.0276
M09          ?    BHZ  i P      c 20230120 1917   19.5624 GAU  3.99e-03 -1.00e+00 -1.00e+00 -1.00e+00    1.0000 >    0.8465    0.0568    0.3646  737.8820 9820.9850   -1.2700    1.9291 331.56 331.6 139.8 10     0.0000    0.0169
M09          ?    BHE  e S      ? 20230120 1917   20.1877 GAU  1.50e-02 -1.00e+00  3.56e+02 -1.00e+00    1.0000 >    1.4421    0.0865    0.2536  737.8820 9820.9850   -1.2700    1.9291 331.56 331.6 138.2 10     0.0000    0.0288
END_PHASE
END_NLLOC

