NLLOC "./loc/SEML.20230120.191147.grid0" "LOCATED" "Location completed."
PUBLIC_ID None
SIGNATURE "Arham Zakki Edelo - edelo.17034@mhs.its.ac.id   obs:./obs/2023_01.obs   NLLoc:v7.00.10(30Aug2020)   run:28Dec2023 19h50m23"
COMMENT "SEML"
GRID  2001 2001 1001  727 9811 -2  0.01 0.01 0.01 PROB_DENSITY
SEARCH OCTREE nInitial 4851 nEvaluated 20003 smallestNodeSide 0.007440/0.007440/0.007102 oct_tree_integral 7.783633e-03 scatter_volume 7.724561e-03
HYPOCENTER  x 738.551 y 9819.08 z 0.489347  OT 46.8535  ix -1 iy -1 iz -1 MAXIMUM_LIKELIHOOD
GEOGRAPHIC  OT 2023 01 20  19 11 46.853540  Lat 9819.076637 Long 738.551339 Depth 0.489347
QUALITY  Pmax 7.15106e+91 MFmin 99.6343 MFmax 112.661 RMS 0.030645 Nphs 26 Gap 266.664 Dist 0.244691 Mamp -9.90 0 Mdur -9.90 0
VPVSRATIO  VpVsRatio 1.7236  Npair 13  Diff 0.522846
STATISTICS  ExpectX 738.548424 Y 9819.074985 Z 0.519413  CovXX 0.00869493 XY -0.00304751 XZ -0.00241933 YY 0.00726382 YZ -0.0028228 ZZ 0.010341 EllAz1  218.902 Dip1  -26.7699 Len1  0.102475 Az2  311.741 Dip2  -5.60841 Len2  0.197909 Len3  2.077723e-01
STAT_GEOG  ExpectLat 9819.074985 Long 738.548424 Depth 0.519413
TRANSFORM  NONE
QML_OriginQuality  assocPhCt 26  usedPhCt 26  assocStaCt -1  usedStaCt 13  depthPhCt -1  stdErr 0.030645  azGap 266.664  secAzGap 266.664  gtLevel -  minDist 0.244691 maxDist 4.62674 medDist 2.8212
QML_OriginUncertainty  horUnc -1  minHorUnc 0.105606  maxHorUnc 0.159851  azMaxHorUnc 128.393
QML_ConfidenceEllipsoid  semiMajorAxisLength 0.207772  semiMinorAxisLength 0.102475  semiIntermediateAxisLength 0.197909  majorAxisPlunge -62.5555  majorAxisAzimuth 52.6405  majorAxisRotation 82.8864
FOCALMECH  Hyp  9819.076637 738.551339 0.489347 Mech  0 0 0 mf  0 nObs -1
PHASE ID Ins Cmp On Pha  FM Date     HrMn   Sec     Err  ErrMag    Coda      Amp       Per       PriorWt  >   TTpred    Res       Weight    StaLoc(X  Y         Z)        SDist    SAzim  RAz  RDip RQual    Tcorr       TTerr
M06          ?    BHZ  i P      c 20230120 1911   47.4167 GAU  2.56e-03 -1.00e+00 -1.00e+00 -1.00e+00    1.0000 >    0.5054    0.0577    0.6310  738.3100 9819.1170   -1.3960    0.2447 279.49 279.5 172.3 10     0.0000    0.0101
M06          ?    BHN  e S      ? 20230120 1911   47.8809 GAU  2.27e-03 -1.00e+00 -1.00e+00 -1.00e+00    1.0000 >    0.8813    0.1461    0.1632  738.3100 9819.1170   -1.3960    0.2447 279.49 279.5 172.2 10     0.0000    0.0176
M14          ?    BHZ  e P      d 20230120 1911   47.4681 GAU  3.04e-03 -1.00e+00  1.10e+03 -1.00e+00    1.0000 >    0.6195   -0.0049    1.7284  737.5530 9820.0110   -1.3980    1.3674 313.10 313.1 143.0 10     0.0000    0.0124
M14          ?    BHE  e S      ? 20230120 1911   47.9356 GAU  2.76e-03 -1.00e+00  3.77e+02 -1.00e+00    1.0000 >    1.0801    0.0019    1.5854  737.5530 9820.0110   -1.3980    1.3674 313.10 313.1 142.4 10     0.0000    0.0216
M11          ?    BHZ  e P      c 20230120 1911   47.4720 GAU  3.77e-03 -1.00e+00 -1.00e+00 -1.00e+00    1.0000 >    0.6080    0.0105    1.6450  738.4670 9820.4900   -1.3120    1.4159 356.59 356.6 140.9 10     0.0000    0.0122
M11          ?    BHE  e S      ? 20230120 1911   47.9277 GAU  2.06e-03 -1.00e+00 -1.00e+00 -1.00e+00    1.0000 >    1.0606    0.0136    1.5173  738.4670 9820.4900   -1.3120    1.4159 356.59 356.6 140.2 10     0.0000    0.0212
M04          ?    BHZ  e P      c 20230120 1911   47.5162 GAU  3.15e-03 -1.00e+00 -1.00e+00 -1.00e+00    1.0000 >    0.6673   -0.0046    1.7183  737.1400 9819.2520   -1.5710    1.4222 277.08 277.1 144.2 10     0.0000    0.0133
M04          ?    BHE  e S      ? 20230120 1911   48.0098 GAU  2.40e-03 -1.00e+00  3.45e+02 -1.00e+00    1.0000 >    1.1625   -0.0062    1.5140  737.1400 9819.2520   -1.5710    1.4222 277.08 277.1 143.7 10     0.0000    0.0232
M02          ?    BHZ  e P      d 20230120 1911   47.4333 GAU  2.02e-03 -1.00e+00  4.09e+02 -1.00e+00    1.0000 >    0.7465   -0.1667    0.0061  736.5970 9819.4060   -1.4960    1.9819 279.57 279.6 133.4 10     0.0000    0.0149
M02          ?    BHN  e S      ? 20230120 1911   47.9079 GAU  2.32e-03 -1.00e+00 -1.00e+00 -1.00e+00    1.0000 >    1.3009   -0.2466    0.0036  736.5970 9819.4060   -1.4960    1.9819 279.57 279.6 132.6 10     0.0000    0.0260
M09          ?    BHZ  i P      c 20230120 1911   47.6153 GAU  2.18e-03 -1.00e+00  9.39e+00 -1.00e+00    1.0000 >    0.7104    0.0513    0.7744  737.8820 9820.9850   -1.2700    2.0223 340.67 340.7 129.3 10     0.0000    0.0142
M09          ?    BHE  e S      ? 20230120 1911   48.1956 GAU  2.24e-03 -1.00e+00  3.15e+02 -1.00e+00    1.0000 >    1.2396    0.1024    0.2940  737.8820 9820.9850   -1.2700    2.0223 340.67 340.7 128.2 10     0.0000    0.0248
M13          ?    BHZ  e P      c 20230120 1911   47.6969 GAU  1.03e-02 -1.00e+00 -1.00e+00 -1.00e+00    1.0000 >    0.8735   -0.0302    1.0529  737.1780 9821.5410   -1.2220    2.8212 330.87 330.9 119.1 10     0.0000    0.0175
M13          ?    BHE  e S      ? 20230120 1911   48.3081 GAU  8.31e-03 -1.00e+00 -1.00e+00 -1.00e+00    1.0000 >    1.5248   -0.0703    0.3515  737.1780 9821.5410   -1.2220    2.8212 330.87 330.9 117.5 10     0.0000    0.0305
M10          ?    BHZ  e P      c 20230120 1911   47.7793 GAU  2.79e-03 -1.00e+00 -1.00e+00 -1.00e+00    1.0000 >    0.9233    0.0024    1.6480  736.5490 9821.3650   -1.2200    3.0407 318.81 318.8 117.0 10     0.0000    0.0185
M10          ?    BHN  e S      ? 20230120 1911   48.4715 GAU  3.17e-03 -1.00e+00 -1.00e+00 -1.00e+00    1.0000 >    1.6117    0.0063    1.3822  736.5490 9821.3650   -1.2200    3.0407 318.81 318.8 115.4 10     0.0000    0.0322
M08          ?    BHZ  e P      c 20230120 1911   47.7642 GAU  2.05e-03 -1.00e+00 -1.00e+00 -1.00e+00    1.0000 >    0.9265   -0.0158    1.4405  738.2480 9822.1600   -1.1510    3.0982 354.38 354.4 115.6 10     0.0000    0.0185
M08          ?    BHE  e S      ? 20230120 1911   48.4718 GAU  2.14e-03 -1.00e+00 -1.00e+00 -1.00e+00    1.0000 >    1.6180    0.0003    1.3766  738.2480 9822.1600   -1.1510    3.0982 354.38 354.4 113.8 10     0.0000    0.0324
M05          ?    BHZ  e P      d 20230120 1911   47.9641 GAU  3.19e-03 -1.00e+00  4.16e+02 -1.00e+00    1.0000 >    1.0875    0.0231    1.3678  736.2660 9822.0830   -1.1500    3.7764 322.76 322.8 110.9 10     0.0000    0.0217
M05          ?    BHE  e S      ? 20230120 1911   48.7717 GAU  2.19e-03 -1.00e+00 -1.00e+00 -1.00e+00    1.0000 >    1.8989    0.0193    1.2471  736.2660 9822.0830   -1.1500    3.7764 322.76 322.8  89.8  9     0.0000    0.0380
M01          ?    BHZ  e P      d 20230120 1911   48.1295 GAU  3.25e-03 -1.00e+00 -1.00e+00 -1.00e+00    1.0000 >    1.1502    0.1257    0.2345  736.4090 9822.5140   -1.1200    4.0503 328.07 328.1 109.1 10     0.0000    0.0230
M01          ?    BHN  e S      ? 20230120 1911   49.1080 GAU  2.58e-03 -1.00e+00  1.66e+03 -1.00e+00    1.0000 >    2.0044    0.2501    0.0082  736.4090 9822.5140   -1.1200    4.0503 328.07 328.1  67.8  8     0.0000    0.0401
M15          ?    BHZ  e P      d 20230120 1911   48.0186 GAU  5.27e-03 -1.00e+00  8.78e+01 -1.00e+00    1.0000 >    1.1945   -0.0295    1.0790  739.3310 9823.3170   -0.9530    4.3114  10.42  10.4 106.3 10     0.0000    0.0239
M15          ?    BHN  e S      ? 20230120 1911   48.9155 GAU  2.18e-03 -1.00e+00 -1.00e+00 -1.00e+00    1.0000 >    2.0721   -0.0102    1.1800  739.3310 9823.3170   -0.9530    4.3114  10.42  10.4  67.2 10     0.0000    0.0414
M12          ?    BHZ  e P      d 20230120 1911   48.1593 GAU  2.50e-03 -1.00e+00 -1.00e+00 -1.00e+00    1.0000 >    1.2771    0.0286    1.2639  736.8520 9823.3800   -0.9890    4.6267 338.45 338.5 105.4 10     0.0000    0.0255
M12          ?    BHE  e S      ? 20230120 1911   49.1274 GAU  2.37e-03 -1.00e+00  3.45e+01 -1.00e+00    1.0000 >    2.2100    0.0639    0.7872  736.8520 9823.3800   -0.9890    4.6267 338.45 338.5  67.2 10     0.0000    0.0442
END_PHASE
END_NLLOC

