NLLOC "./loc/SEML.20230120.193104.grid0" "LOCATED" "Location completed."
PUBLIC_ID None
SIGNATURE "Arham Zakki Edelo - edelo.17034@mhs.its.ac.id   obs:./obs/2023_01.obs   NLLoc:v7.00.10(30Aug2020)   run:28Dec2023 19h50m51"
COMMENT "SEML"
GRID  2001 2001 1001  727 9811 -2  0.01 0.01 0.01 PROB_DENSITY
SEARCH OCTREE nInitial 4851 nEvaluated 20003 smallestNodeSide 0.014881/0.014881/0.014205 oct_tree_integral 3.094442e-02 scatter_volume 3.086288e-02
HYPOCENTER  x 738.823 y 9819.52 z 0.805398  OT 4.3858  ix -1 iy -1 iz -1 MAXIMUM_LIKELIHOOD
GEOGRAPHIC  OT 2023 01 20  19 31 4.385804  Lat 9819.519345 Long 738.822917 Depth 0.805398
QUALITY  Pmax 7.3193e+21 MFmin 31.5211 MFmax 41.8665 RMS 0.00563581 Nphs 8 Gap 264.588 Dist 0.651894 Mamp -9.90 0 Mdur -9.90 0
VPVSRATIO  VpVsRatio 1.79624  Npair 4  Diff 0.302688
STATISTICS  ExpectX 738.028122 Y 9818.860481 Z 0.288820  CovXX 1.01888 XY 0.804865 XZ 0.640267 YY 0.656267 YZ 0.509777 ZZ 0.50494 EllAz1  140.756 Dip1  -1.19178 Len1  0.210092 Az2  228.456 Dip2  62.6047 Len2  0.535988 Len3  2.713722e+00
STAT_GEOG  ExpectLat 9818.860481 Long 738.028122 Depth 0.288820
TRANSFORM  NONE
QML_OriginQuality  assocPhCt 8  usedPhCt 8  assocStaCt -1  usedStaCt 4  depthPhCt -1  stdErr 0.00563581  azGap 264.588  secAzGap 264.588  gtLevel -  minDist 0.651894 maxDist 2.60631 medDist 1.55173
QML_OriginUncertainty  horUnc -1  minHorUnc 0.169838  maxHorUnc 1.9555  azMaxHorUnc 51.3474
QML_ConfidenceEllipsoid  semiMajorAxisLength 2.71372  semiMinorAxisLength 0.210092  semiIntermediateAxisLength 0.535988  majorAxisPlunge 27.365  majorAxisAzimuth 51.3731  majorAxisRotation 357.677
FOCALMECH  Hyp  9819.519345 738.822917 0.805398 Mech  0 0 0 mf  0 nObs -1
PHASE ID Ins Cmp On Pha  FM Date     HrMn   Sec     Err  ErrMag    Coda      Amp       Per       PriorWt  >   TTpred    Res       Weight    StaLoc(X  Y         Z)        SDist    SAzim  RAz  RDip RQual    Tcorr       TTerr
M06          ?    BHZ  i P      c 20230120 1931    4.9872 GAU  1.60e-03 -1.00e+00 -1.00e+00 -1.00e+00    1.0000 >    0.6073   -0.0059    1.4509  738.3100 9819.1170   -1.3960    0.6519 231.89 231.9 162.9 10     0.0000    0.0121
M06          ?    BHN  e S      ? 20230120 1931    5.4429 GAU  2.38e-03 -1.00e+00 -1.00e+00 -1.00e+00    1.0000 >    1.0472    0.0099    1.2212  738.3100 9819.1170   -1.3960    0.6519 231.89 231.9 161.6 10     0.0000    0.0209
M14          ?    BHZ  e P      c 20230120 1931    5.0759 GAU  3.32e-03 -1.00e+00 -1.00e+00 -1.00e+00    1.0000 >    0.6849    0.0052    1.4676  737.5530 9820.0110   -1.3980    1.3618 291.16 291.2 147.2 10     0.0000    0.0137
M14          ?    BHE  e S      ? 20230120 1931    5.5625 GAU  4.24e-03 -1.00e+00  4.28e+02 -1.00e+00    1.0000 >    1.1808   -0.0042    1.1925  737.5530 9820.0110   -1.3980    1.3618 291.16 291.2 144.5 10     0.0000    0.0236
M09          ?    BHZ  e P      c 20230120 1931    5.1024 GAU  4.61e-03 -1.00e+00  2.78e+01 -1.00e+00    1.0000 >    0.7144    0.0022    1.4747  737.8820 9820.9850   -1.2700    1.7417 327.30 327.3 138.7 10     0.0000    0.0143
M09          ?    BHE  e S      ? 20230120 1931    5.6169 GAU  1.85e-03 -1.00e+00  3.45e+02 -1.00e+00    1.0000 >    1.2313   -0.0002    1.1926  737.8820 9820.9850   -1.2700    1.7417 327.30 327.3 135.0 10     0.0000    0.0246
M13          ?    BHZ  e P      d 20230120 1931    5.4149 GAU  8.30e-03 -1.00e+00 -1.00e+00 -1.00e+00    1.0000 >    0.8696    0.1596    0.0003  737.1780 9821.5410   -1.2220    2.6063 320.87 320.9 125.6 10     0.0000    0.0174
M13          ?    BHE  e S      ? 20230120 1931    6.1734 GAU  5.90e-03 -1.00e+00 -1.00e+00 -1.00e+00    1.0000 >    1.4972    0.2904    0.0003  737.1780 9821.5410   -1.2220    2.6063 320.87 320.9 119.8 10     0.0000    0.0299
END_PHASE
END_NLLOC

