NLLOC "./loc/SEML.20230116.161737.grid0" "LOCATED" "Location completed."
PUBLIC_ID None
SIGNATURE "Arham Zakki Edelo - edelo.17034@mhs.its.ac.id   obs:./obs/2023_01.obs   NLLoc:v7.00.10(30Aug2020)   run:28Dec2023 19h50m18"
COMMENT "SEML"
GRID  2001 2001 1001  727 9811 -2  0.01 0.01 0.01 PROB_DENSITY
SEARCH OCTREE nInitial 4851 nEvaluated 20019 smallestNodeSide 0.119048/0.119048/0.113636 oct_tree_integral 5.918713e+00 scatter_volume 5.881886e+00
HYPOCENTER  x 742.774 y 9814.51 z -1.375  OT 35.8394  ix -1 iy -1 iz -1 MAXIMUM_LIKELIHOOD
GEOGRAPHIC  OT 2023 01 16  16 17 35.839354  Lat 9814.511905 Long 742.773810 Depth -1.375000
QUALITY  Pmax 1.09076e+31 MFmin 26.5016 MFmax 29.255 RMS 0.0580767 Nphs 12 Gap 346.508 Dist 6.41346 Mamp -9.90 0 Mdur -9.90 0
VPVSRATIO  VpVsRatio 1.97473  Npair 6  Diff 0.829426
STATISTICS  ExpectX 744.457548 Y 9814.561427 Z 1.895865  CovXX 2.24872 XY 0.972674 XZ 1.54214 YY 1.19952 YZ 0.374371 ZZ 5.18513 EllAz1  144.221 Dip1  -7.3631 Len1  1.40371 Az2  230.767 Dip2  24.9937 Len2  2.73227 Len3  4.586948e+00
STAT_GEOG  ExpectLat 9814.561427 Long 744.457548 Depth 1.895865
TRANSFORM  NONE
QML_OriginQuality  assocPhCt 12  usedPhCt 12  assocStaCt -1  usedStaCt 6  depthPhCt -1  stdErr 0.0580767  azGap 346.508  secAzGap 346.508  gtLevel -  minDist 6.41346 maxDist 10.6635 medDist 8.93568
QML_OriginUncertainty  horUnc -1  minHorUnc 1.19319  maxHorUnc 2.55093  azMaxHorUnc 59.1698
QML_ConfidenceEllipsoid  semiMajorAxisLength 4.58695  semiMinorAxisLength 1.40371  semiIntermediateAxisLength 2.73227  majorAxisPlunge 63.7986  majorAxisAzimuth 69.4454  majorAxisRotation 26.4344
FOCALMECH  Hyp  9814.511905 742.773810 -1.375000 Mech  0 0 0 mf  0 nObs -1
PHASE ID Ins Cmp On Pha  FM Date     HrMn   Sec     Err  ErrMag    Coda      Amp       Per       PriorWt  >   TTpred    Res       Weight    StaLoc(X  Y         Z)        SDist    SAzim  RAz  RDip RQual    Tcorr       TTerr
M06          ?    BHZ  e P      c 20230116 1617   37.5415 GAU  2.06e-02 -1.00e+00 -1.00e+00 -1.00e+00    1.0000 >    1.7620   -0.0599    1.0639  738.3100 9819.1170   -1.3960    6.4135 315.89 315.9  90.2  9     0.0000    0.0352
M06          ?    BHE  e S      ? 20230116 1617   38.8585 GAU  2.48e-02 -1.00e+00 -1.00e+00 -1.00e+00    1.0000 >    3.0396   -0.0205    1.2406  738.3100 9819.1170   -1.3960    6.4135 315.89 315.9  90.4  9     0.0000    0.0608
M09          ?    BHZ  e P      c 20230116 1617   38.2115 GAU  1.15e-02 -1.00e+00  2.33e+01 -1.00e+00    1.0000 >    2.2293    0.1429    0.5024  737.8820 9820.9850   -1.2700    8.1136 322.92 322.9  89.2  9     0.0000    0.0446
M09          ?    BHN  e S      ? 20230116 1617   40.0016 GAU  1.24e-02 -1.00e+00  4.73e+02 -1.00e+00    1.0000 >    3.8458    0.3165    0.0658  737.8820 9820.9850   -1.2700    8.1136 322.92 322.9  89.2  9     0.0000    0.0769
M08          ?    BHZ  e P      d 20230116 1617   38.2797 GAU  2.18e-03 -1.00e+00  3.10e+02 -1.00e+00    1.0000 >    2.4355    0.0049    1.3524  738.2480 9822.1600   -1.1510    8.8869 329.38 329.4  70.6 10     0.0000    0.0487
M08          ?    BHN  e S      ? 20230116 1617   40.0599 GAU  2.34e-03 -1.00e+00  3.13e+02 -1.00e+00    1.0000 >    4.2134    0.0072    1.1758  738.2480 9822.1600   -1.1510    8.8869 329.38 329.4  88.5 10     0.0000    0.0843
M13          ?    BHZ  e P      d 20230116 1617   38.3521 GAU  2.60e-03 -1.00e+00 -1.00e+00 -1.00e+00    1.0000 >    2.4672    0.0456    1.2147  737.1780 9821.5410   -1.2220    8.9845 321.48 321.5  71.5  9     0.0000    0.0493
M13          ?    BHN  e S      ? 20230116 1617   40.1423 GAU  2.61e-03 -1.00e+00 -1.00e+00 -1.00e+00    1.0000 >    4.2588    0.0442    1.1217  737.1780 9821.5410   -1.2220    8.9845 321.48 321.5  89.0 10     0.0000    0.0852
M05          ?    BHZ  e P      d 20230116 1617   38.5802 GAU  1.03e-02 -1.00e+00  1.93e+02 -1.00e+00    1.0000 >    2.7195    0.0213    1.3038  736.2660 9822.0830   -1.1500    9.9836 319.32 319.3  70.6 10     0.0000    0.0544
M05          ?    BHE  e S      ? 20230116 1617   40.6654 GAU  3.79e-03 -1.00e+00 -1.00e+00 -1.00e+00    1.0000 >    4.7330    0.0931    0.9156  736.2660 9822.0830   -1.1500    9.9836 319.32 319.3  88.3  9     0.0000    0.0947
M12          ?    BHZ  e P      c 20230116 1617   38.6725 GAU  2.16e-03 -1.00e+00 -1.00e+00 -1.00e+00    1.0000 >    2.8813   -0.0482    1.1425  736.8520 9823.3800   -0.9890   10.6635 326.27 326.3  70.6 10     0.0000    0.0576
M12          ?    BHN  e S      ? 20230116 1617   40.8189 GAU  2.68e-03 -1.00e+00 -1.00e+00 -1.00e+00    1.0000 >    5.0473   -0.0677    0.9008  736.8520 9823.3800   -0.9890   10.6635 326.27 326.3  84.4 10     0.0000    0.1009
END_PHASE
END_NLLOC

