NLLOC "./loc/SEML.20230120.191538.grid0" "LOCATED" "Location completed."
PUBLIC_ID None
SIGNATURE "Arham Zakki Edelo - edelo.17034@mhs.its.ac.id   obs:./obs/2023_01.obs   NLLoc:v7.00.10(30Aug2020)   run:28Dec2023 19h50m31"
COMMENT "SEML"
GRID  2001 2001 1001  727 9811 -2  0.01 0.01 0.01 PROB_DENSITY
SEARCH OCTREE nInitial 4851 nEvaluated 20011 smallestNodeSide 0.014881/0.014881/0.014205 oct_tree_integral 3.400490e-02 scatter_volume 3.400490e-02
HYPOCENTER  x 738.51 y 9818.7 z 0.663352  OT 37.7684  ix -1 iy -1 iz -1 MAXIMUM_LIKELIHOOD
GEOGRAPHIC  OT 2023 01 20  19 15 37.768435  Lat 9818.700893 Long 738.510417 Depth 0.663352
QUALITY  Pmax 3.27157e+92 MFmin 96.8785 MFmax 112.41 RMS 0.0353388 Nphs 26 Gap 280.149 Dist 0.461857 Mamp -9.90 0 Mdur -9.90 0
VPVSRATIO  VpVsRatio 1.68244  Npair 13  Diff 0.5121
STATISTICS  ExpectX 738.509347 Y 9818.708109 Z 0.734879  CovXX 0.028493 XY -0.00134232 XZ -0.00383483 YY 0.0119665 YZ -0.00329494 ZZ 0.0284337 EllAz1  7.12531 Dip1  12.1798 Len1  0.197787 Az2  287.968 Dip2  -41.0747 Len2  0.299522 Len3  3.381715e-01
STAT_GEOG  ExpectLat 9818.708109 Long 738.509347 Depth 0.734879
TRANSFORM  NONE
QML_OriginQuality  assocPhCt 26  usedPhCt 26  assocStaCt -1  usedStaCt 13  depthPhCt -1  stdErr 0.0353388  azGap 280.149  secAzGap 280.149  gtLevel -  minDist 0.461857 maxDist 4.96431 medDist 2.70076
QML_OriginUncertainty  horUnc -1  minHorUnc 0.165148  maxHorUnc 0.256482  azMaxHorUnc 94.6134
QML_ConfidenceEllipsoid  semiMajorAxisLength 0.338171  semiMinorAxisLength 0.197787  semiIntermediateAxisLength 0.299522  majorAxisPlunge -46.3631  majorAxisAzimuth 84.0423  majorAxisRotation 261.574
FOCALMECH  Hyp  9818.700893 738.510417 0.663352 Mech  0 0 0 mf  0 nObs -1
PHASE ID Ins Cmp On Pha  FM Date     HrMn   Sec     Err  ErrMag    Coda      Amp       Per       PriorWt  >   TTpred    Res       Weight    StaLoc(X  Y         Z)        SDist    SAzim  RAz  RDip RQual    Tcorr       TTerr
M06          ?    BHZ  i P      c 20230120 1915   38.4193 GAU  2.16e-03 -1.00e+00 -1.00e+00 -1.00e+00    1.0000 >    0.5594    0.0914    0.4200  738.3100 9819.1170   -1.3960    0.4619 334.28 334.3 166.8 10     0.0000    0.0112
M06          ?    BHN  e S      ? 20230120 1915   38.8934 GAU  2.46e-03 -1.00e+00 -1.00e+00 -1.00e+00    1.0000 >    0.9693    0.1556    0.0671  738.3100 9819.1170   -1.3960    0.4619 334.28 334.3 165.7 10     0.0000    0.0194
M04          ?    BHZ  e P      c 20230120 1915   38.4629 GAU  2.14e-03 -1.00e+00 -1.00e+00 -1.00e+00    1.0000 >    0.7117   -0.0172    1.2456  737.1400 9819.2520   -1.5710    1.4771 291.91 291.9 145.2 10     0.0000    0.0142
M04          ?    BHE  e S      ? 20230120 1915   38.9911 GAU  2.55e-03 -1.00e+00  2.56e+02 -1.00e+00    1.0000 >    1.2325   -0.0098    1.2933  737.1400 9819.2520   -1.5710    1.4771 291.91 291.9 142.0 10     0.0000    0.0247
M14          ?    BHZ  i P      c 20230120 1915   38.4653 GAU  2.94e-03 -1.00e+00 -1.00e+00 -1.00e+00    1.0000 >    0.6950    0.0019    1.5297  737.5530 9820.0110   -1.3980    1.6227 323.84 323.8 140.4 10     0.0000    0.0139
M14          ?    BHE  e S      ? 20230120 1915   38.9619 GAU  2.36e-03 -1.00e+00  4.82e+02 -1.00e+00    1.0000 >    1.2039   -0.0104    1.2927  737.5530 9820.0110   -1.3980    1.6227 323.84 323.8 136.5 10     0.0000    0.0241
M11          ?    BHZ  i P      c 20230120 1915   38.4966 GAU  2.04e-03 -1.00e+00 -1.00e+00 -1.00e+00    1.0000 >    0.7049    0.0233    1.3684  738.4670 9820.4900   -1.3120    1.7896 358.61 358.6 136.3 10     0.0000    0.0141
M11          ?    BHN  e S      ? 20230120 1915   39.0455 GAU  3.99e-03 -1.00e+00 -1.00e+00 -1.00e+00    1.0000 >    1.2211    0.0560    0.9692  738.4670 9820.4900   -1.3120    1.7896 358.61 358.6 131.8 10     0.0000    0.0244
M02          ?    BHZ  i P      d 20230120 1915   38.6000 GAU  2.07e-03 -1.00e+00  6.34e+02 -1.00e+00    1.0000 >    0.7879    0.0437    1.0822  736.5970 9819.4060   -1.4960    2.0392 290.23 290.2 134.8 10     0.0000    0.0158
M02          ?    BHN  i S      ? 20230120 1915   39.1778 GAU  2.80e-03 -1.00e+00  3.00e+03 -1.00e+00    1.0000 >    1.3644    0.0450    1.1181  736.5970 9819.4060   -1.4960    2.0392 290.23 290.2 130.0 10     0.0000    0.0273
M09          ?    BHZ  i P      c 20230120 1915   38.5743 GAU  2.36e-03 -1.00e+00  1.40e+02 -1.00e+00    1.0000 >    0.8078   -0.0020    1.4920  737.8820 9820.9850   -1.2700    2.3690 344.62 344.6 126.9 10     0.0000    0.0162
M09          ?    BHE  e S      ? 20230120 1915   39.1865 GAU  2.32e-03 -1.00e+00  3.56e+02 -1.00e+00    1.0000 >    1.3989    0.0193    1.3566  737.8820 9820.9850   -1.2700    2.3690 344.62 344.6 120.5 10     0.0000    0.0280
M03          ?    BHZ  i P      c 20230120 1915   38.7255 GAU  5.98e-03 -1.00e+00 -1.00e+00 -1.00e+00    1.0000 >    0.8887    0.0684    0.7677  736.8800 9820.8540   -1.3350    2.7008 322.87 322.9 123.9 10     0.0000    0.0178
M03          ?    BHN  e S      ? 20230120 1915   39.4201 GAU  8.61e-03 -1.00e+00 -1.00e+00 -1.00e+00    1.0000 >    1.5383    0.1134    0.3535  736.8800 9820.8540   -1.3350    2.7008 322.87 322.9 116.7 10     0.0000    0.0308
M13          ?    BHZ  i P      c 20230120 1915   38.7181 GAU  2.59e-03 -1.00e+00 -1.00e+00 -1.00e+00    1.0000 >    0.9658   -0.0162    1.2413  737.1780 9821.5410   -1.2220    3.1371 334.87 334.9 118.1 10     0.0000    0.0193
M13          ?    BHE  e S      ? 20230120 1915   39.3948 GAU  2.51e-03 -1.00e+00 -1.00e+00 -1.00e+00    1.0000 >    1.6709   -0.0445    0.6669  737.1780 9821.5410   -1.2220    3.1371 334.87 334.9 109.0 10     0.0000    0.0334
M10          ?    BHZ  e P      c 20230120 1915   38.7872 GAU  6.36e-03 -1.00e+00  2.76e+02 -1.00e+00    1.0000 >    1.0044    0.0143    1.4493  736.5490 9821.3650   -1.2200    3.3083 323.64 323.6 116.6 10     0.0000    0.0201
M10          ?    BHN  e S      ? 20230120 1915   39.5172 GAU  5.56e-03 -1.00e+00 -1.00e+00 -1.00e+00    1.0000 >    1.7371    0.0117    1.2822  736.5490 9821.3650   -1.2200    3.3083 323.64 323.6 107.0 10     0.0000    0.0347
M08          ?    BHZ  i P      d 20230120 1915   38.7937 GAU  4.29e-03 -1.00e+00  3.08e+02 -1.00e+00    1.0000 >    1.0314   -0.0061    1.3906  738.2480 9822.1600   -1.1510    3.4690 355.66 355.7 114.5 10     0.0000    0.0206
M08          ?    BHN  e S      ? 20230120 1915   39.5704 GAU  2.56e-03 -1.00e+00  3.11e+02 -1.00e+00    1.0000 >    1.7826    0.0193    1.2681  738.2480 9822.1600   -1.1510    3.4690 355.66 355.7 104.1 10     0.0000    0.0357
M05          ?    BHZ  e P      d 20230120 1915   38.9883 GAU  2.34e-03 -1.00e+00  4.60e+01 -1.00e+00    1.0000 >    1.1707    0.0491    1.0557  736.2660 9822.0830   -1.1500    4.0591 326.43 326.4 110.5 10     0.0000    0.0234
M05          ?    BHN  e S      ? 20230120 1915   39.8601 GAU  2.03e-03 -1.00e+00  2.37e+02 -1.00e+00    1.0000 >    2.0194    0.0722    0.8069  736.2660 9822.0830   -1.1500    4.0591 326.43 326.4  99.1 10     0.0000    0.0404
M15          ?    BHZ  e P      c 20230120 1915   38.9456 GAU  2.58e-03 -1.00e+00 -1.00e+00 -1.00e+00    1.0000 >    1.2993   -0.1221    0.0345  739.3310 9823.3170   -0.9530    4.6885  10.08  10.1 105.4 10     0.0000    0.0260
M15          ?    BHE  e S      ? 20230120 1915   39.7774 GAU  1.24e-03 -1.00e+00 -1.00e+00 -1.00e+00    1.0000 >    2.2282   -0.2193    0.0118  739.3310 9823.3170   -0.9530    4.6885  10.08  10.1  95.2  9     0.0000    0.0446
M12          ?    BHZ  i P      d 20230120 1915   39.1363 GAU  2.74e-03 -1.00e+00 -1.00e+00 -1.00e+00    1.0000 >    1.3717   -0.0038    1.3227  736.8520 9823.3800   -0.9890    4.9643 340.48 340.5 104.6 10     0.0000    0.0274
M12          ?    BHE  e S      ? 20230120 1915   40.1226 GAU  3.23e-03 -1.00e+00  4.11e+01 -1.00e+00    1.0000 >    2.3496    0.0045    1.1141  736.8520 9823.3800   -0.9890    4.9643 340.48 340.5  94.8  9     0.0000    0.0470
END_PHASE
END_NLLOC

