NLLOC "./loc/SEML.20230120.191448.grid0" "LOCATED" "Location completed."
PUBLIC_ID None
SIGNATURE "Arham Zakki Edelo - edelo.17034@mhs.its.ac.id   obs:./obs/2023_01.obs   NLLoc:v7.00.10(30Aug2020)   run:28Dec2023 19h50m29"
COMMENT "SEML"
GRID  2001 2001 1001  727 9811 -2  0.01 0.01 0.01 PROB_DENSITY
SEARCH OCTREE nInitial 4851 nEvaluated 20019 smallestNodeSide 0.029762/0.029762/0.028409 oct_tree_integral 7.900931e-02 scatter_volume 7.900931e-02
HYPOCENTER  x 738.92 y 9818.96 z 1.62216  OT 47.2646  ix -1 iy -1 iz -1 MAXIMUM_LIKELIHOOD
GEOGRAPHIC  OT 2023 01 20  19 14 47.264572  Lat 9818.961310 Long 738.919643 Depth 1.622159
QUALITY  Pmax 8.14551e+28 MFmin 35.773 MFmax 46.288 RMS 0.0115984 Nphs 10 Gap 300.82 Dist 0.629209 Mamp -9.90 0 Mdur -9.90 0
VPVSRATIO  VpVsRatio 1.84746  Npair 5  Diff 0.210209
STATISTICS  ExpectX 738.621943 Y 9818.770020 Z 1.450835  CovXX 0.222731 XY 0.100368 XZ 0.0915387 YY 0.0840928 YZ 0.0695126 ZZ 0.107495 EllAz1  165.706 Dip1  27.4368 Len1  0.274074 Az2  293.672 Dip2  49.8385 Len2  0.461356 Len3  1.083781e+00
STAT_GEOG  ExpectLat 9818.770020 Long 738.621943 Depth 1.450835
TRANSFORM  NONE
QML_OriginQuality  assocPhCt 10  usedPhCt 10  assocStaCt -1  usedStaCt 5  depthPhCt -1  stdErr 0.0115984  azGap 300.82  secAzGap 300.82  gtLevel -  minDist 0.629209 maxDist 3.11257 medDist 1.72324
QML_OriginUncertainty  horUnc -1  minHorUnc 0.268879  maxHorUnc 0.795864  azMaxHorUnc 62.3155
QML_ConfidenceEllipsoid  semiMajorAxisLength 1.08378  semiMinorAxisLength 0.274074  semiIntermediateAxisLength 0.461356  majorAxisPlunge 26.8251  majorAxisAzimuth 60.4857  majorAxisRotation 45.4891
FOCALMECH  Hyp  9818.961310 738.919643 1.622159 Mech  0 0 0 mf  0 nObs -1
PHASE ID Ins Cmp On Pha  FM Date     HrMn   Sec     Err  ErrMag    Coda      Amp       Per       PriorWt  >   TTpred    Res       Weight    StaLoc(X  Y         Z)        SDist    SAzim  RAz  RDip RQual    Tcorr       TTerr
M06          ?    BHZ  e P      c 20230120 1914   48.0632 GAU  2.17e-03 -1.00e+00 -1.00e+00 -1.00e+00    1.0000 >    0.7945    0.0042    1.4055  738.3100 9819.1170   -1.3960    0.6292 284.33 284.3 166.7 10     0.0000    0.0159
M06          ?    BHN  e S      ? 20230120 1914   48.6133 GAU  1.24e-03 -1.00e+00 -1.00e+00 -1.00e+00    1.0000 >    1.3513   -0.0026    1.2100  738.3100 9819.1170   -1.3960    0.6292 284.33 284.3 166.3 10     0.0000    0.0270
M11          ?    BHZ  e P      c 20230120 1914   48.1152 GAU  4.01e-03 -1.00e+00 -1.00e+00 -1.00e+00    1.0000 >    0.8586   -0.0079    1.3470  738.4670 9820.4900   -1.3120    1.5943 343.51 343.5 147.9 10     0.0000    0.0172
M11          ?    BHN  e S      ? 20230120 1914   48.7303 GAU  3.21e-03 -1.00e+00 -1.00e+00 -1.00e+00    1.0000 >    1.4592    0.0065    1.1391  738.4670 9820.4900   -1.3120    1.5943 343.51 343.5 146.8 10     0.0000    0.0292
M14          ?    BHZ  e P      c 20230120 1914   48.0925 GAU  2.47e-03 -1.00e+00 -1.00e+00 -1.00e+00    1.0000 >    0.8957   -0.0678    0.1655  737.5530 9820.0110   -1.3980    1.7232 307.53 307.5 146.6 10     0.0000    0.0179
M14          ?    BHE  e S      ? 20230120 1914   48.6203 GAU  2.42e-03 -1.00e+00  4.33e+02 -1.00e+00    1.0000 >    1.5227   -0.1670    0.0044  737.5530 9820.0110   -1.3980    1.7232 307.53 307.5 145.4 10     0.0000    0.0305
M09          ?    BHZ  e P      c 20230120 1914   48.2061 GAU  7.21e-03 -1.00e+00 -1.00e+00 -1.00e+00    1.0000 >    0.9443   -0.0028    1.3447  737.8820 9820.9850   -1.2700    2.2742 332.85 332.9 136.8 10     0.0000    0.0189
M09          ?    BHN  e S      ? 20230120 1914   48.8747 GAU  7.97e-03 -1.00e+00  4.57e+02 -1.00e+00    1.0000 >    1.6035    0.0066    1.0750  737.8820 9820.9850   -1.2700    2.2742 332.85 332.9 135.2 10     0.0000    0.0321
M13          ?    BHZ  i P      c 20230120 1914   48.3495 GAU  1.22e-03 -1.00e+00 -1.00e+00 -1.00e+00    1.0000 >    1.0797    0.0052    1.2957  737.1780 9821.5410   -1.2220    3.1126 325.98 326.0 125.2 10     0.0000    0.0216
M13          ?    BHN  e S      ? 20230120 1914   49.0875 GAU  1.05e-02 -1.00e+00 -1.00e+00 -1.00e+00    1.0000 >    1.8309   -0.0079    1.0131  737.1780 9821.5410   -1.2220    3.1126 325.98 326.0 123.3 10     0.0000    0.0366
END_PHASE
END_NLLOC

