NLLOC "./loc/SEML.20230120.192620.grid0" "LOCATED" "Location completed."
PUBLIC_ID None
SIGNATURE "Arham Zakki Edelo - edelo.17034@mhs.its.ac.id   obs:./obs/2023_01.obs   NLLoc:v7.00.10(30Aug2020)   run:28Dec2023 19h50m45"
COMMENT "SEML"
GRID  2001 2001 1001  727 9811 -2  0.01 0.01 0.01 PROB_DENSITY
SEARCH OCTREE nInitial 4851 nEvaluated 20011 smallestNodeSide 0.029762/0.029762/0.028409 oct_tree_integral 1.722230e-01 scatter_volume 1.696527e-01
HYPOCENTER  x 736.122 y 9817.71 z -0.59375  OT 19.5042  ix -1 iy -1 iz -1 MAXIMUM_LIKELIHOOD
GEOGRAPHIC  OT 2023 01 20  19 26 19.504208  Lat 9817.711310 Long 736.122024 Depth -0.593750
QUALITY  Pmax 1.02809e+22 MFmin 27.6358 MFmax 33.7685 RMS 0.0169919 Nphs 8 Gap 318.135 Dist 2.60062 Mamp -9.90 0 Mdur -9.90 0
VPVSRATIO  VpVsRatio 1.85172  Npair 4  Diff 0.270395
STATISTICS  ExpectX 736.219090 Y 9817.717491 Z -0.758611  CovXX 0.119684 XY 0.00410458 XZ 0.197437 YY 0.0145779 YZ 0.0085345 ZZ 0.544135 EllAz1  178.33 Dip1  0.300415 Len1  0.225565 Az2  268.448 Dip2  21.4827 Len2  0.385333 Len3  1.481681e+00
STAT_GEOG  ExpectLat 9817.717491 Long 736.219090 Depth -0.758611
TRANSFORM  NONE
QML_OriginQuality  assocPhCt 8  usedPhCt 8  assocStaCt -1  usedStaCt 4  depthPhCt -1  stdErr 0.0169919  azGap 318.135  secAzGap 318.135  gtLevel -  minDist 2.60062 maxDist 3.97261 medDist 3.21267
QML_OriginUncertainty  horUnc -1  minHorUnc 0.182102  maxHorUnc 0.525015  azMaxHorUnc 87.767
QML_ConfidenceEllipsoid  semiMajorAxisLength 1.48168  semiMinorAxisLength 0.225565  semiIntermediateAxisLength 0.385333  majorAxisPlunge 68.515  majorAxisAzimuth 87.5669  majorAxisRotation 358.879
FOCALMECH  Hyp  9817.711310 736.122024 -0.593750 Mech  0 0 0 mf  0 nObs -1
PHASE ID Ins Cmp On Pha  FM Date     HrMn   Sec     Err  ErrMag    Coda      Amp       Per       PriorWt  >   TTpred    Res       Weight    StaLoc(X  Y         Z)        SDist    SAzim  RAz  RDip RQual    Tcorr       TTerr
M06          ?    BHZ  i P      c 20230120 1926   20.2460 GAU  7.97e-03 -1.00e+00 -1.00e+00 -1.00e+00    1.0000 >    0.7450   -0.0033    1.2321  738.3100 9819.1170   -1.3960    2.6006  57.28  57.3 106.4 10     0.0000    0.0149
M06          ?    BHE  e S      ? 20230120 1926   20.8179 GAU  5.98e-03 -1.00e+00 -1.00e+00 -1.00e+00    1.0000 >    1.2876    0.0262    0.9113  738.3100 9819.1170   -1.3960    2.6006  57.28  57.3 106.7 10     0.0000    0.0258
M14          ?    BHZ  e P      c 20230120 1926   20.2820 GAU  8.14e-03 -1.00e+00 -1.00e+00 -1.00e+00    1.0000 >    0.7734    0.0043    1.2333  737.5530 9820.0110   -1.3980    2.7086  31.89  31.9 105.8 10     0.0000    0.0155
M14          ?    BHN  e S      ? 20230120 1926   20.8218 GAU  7.34e-03 -1.00e+00  3.34e+02 -1.00e+00    1.0000 >    1.3367   -0.0191    0.9472  737.5530 9820.0110   -1.3980    2.7086  31.89  31.9 106.1 10     0.0000    0.0267
M09          ?    BHZ  e P      c 20230120 1926   20.5187 GAU  3.20e-03 -1.00e+00  1.17e+02 -1.00e+00    1.0000 >    1.0331   -0.0186    0.9935  737.8820 9820.9850   -1.2700    3.7168  28.26  28.3  99.5 10     0.0000    0.0207
M09          ?    BHE  e S      ? 20230120 1926   21.2787 GAU  6.47e-03 -1.00e+00  3.50e+02 -1.00e+00    1.0000 >    1.7862   -0.0117    0.9331  737.8820 9820.9850   -1.2700    3.7168  28.26  28.3  99.9 10     0.0000    0.0357
M13          ?    BHZ  e P      c 20230120 1926   20.6267 GAU  1.20e-02 -1.00e+00 -1.00e+00 -1.00e+00    1.0000 >    1.0994    0.0231    0.9639  737.1780 9821.5410   -1.2220    3.9726  15.42  15.4  92.4  9     0.0000    0.0220
M13          ?    BHN  e S      ? 20230120 1926   21.4369 GAU  2.67e-03 -1.00e+00 -1.00e+00 -1.00e+00    1.0000 >    1.9011    0.0316    0.7856  737.1780 9821.5410   -1.2220    3.9726  15.42  15.4  98.6 10     0.0000    0.0380
END_PHASE
END_NLLOC

