NLLOC "./loc/SEML.20230120.202305.grid0" "LOCATED" "Location completed."
PUBLIC_ID None
SIGNATURE "Arham Zakki Edelo - edelo.17034@mhs.its.ac.id   obs:./obs/2023_01.obs   NLLoc:v7.00.10(30Aug2020)   run:28Dec2023 19h51m04"
COMMENT "SEML"
GRID  2001 2001 1001  727 9811 -2  0.01 0.01 0.01 PROB_DENSITY
SEARCH OCTREE nInitial 4851 nEvaluated 20011 smallestNodeSide 0.029762/0.029762/0.028409 oct_tree_integral 8.423031e-02 scatter_volume 8.356926e-02
HYPOCENTER  x 739.574 y 9819.41 z 1.05398  OT 4.66731  ix -1 iy -1 iz -1 MAXIMUM_LIKELIHOOD
GEOGRAPHIC  OT 2023 01 20  20 23 4.667314  Lat 9819.407738 Long 739.574405 Depth 1.053977
QUALITY  Pmax 4.35343e+27 MFmin 36.3124 MFmax 54.4993 RMS 0.0183898 Nphs 10 Gap 302.708 Dist 1.2974 Mamp -9.90 0 Mdur -9.90 0
VPVSRATIO  VpVsRatio 1.83271  Npair 5  Diff 0.436883
STATISTICS  ExpectX 739.083868 Y 9819.172606 Z 0.901852  CovXX 0.415622 XY 0.125717 XZ 0.039217 YY 0.134784 YZ 0.0857746 ZZ 0.130534 EllAz1  166.058 Dip1  37.737 Len1  0.352383 Az2  323.32 Dip2  49.9987 Len2  0.771466 Len3  1.297838e+00
STAT_GEOG  ExpectLat 9819.172606 Long 739.083868 Depth 0.901852
TRANSFORM  NONE
QML_OriginQuality  assocPhCt 10  usedPhCt 10  assocStaCt -1  usedStaCt 5  depthPhCt -1  stdErr 0.0183898  azGap 302.708  secAzGap 302.708  gtLevel -  minDist 1.2974 maxDist 4.25471 medDist 2.1095
QML_OriginUncertainty  horUnc -1  minHorUnc 0.446628  maxHorUnc 1.03269  azMaxHorUnc 69.0809
QML_ConfidenceEllipsoid  semiMajorAxisLength 1.29784  semiMinorAxisLength 0.352383  semiIntermediateAxisLength 0.771466  majorAxisPlunge 11.3317  majorAxisAzimuth 67.1362  majorAxisRotation 40.887
FOCALMECH  Hyp  9819.407738 739.574405 1.053977 Mech  0 0 0 mf  0 nObs -1
PHASE ID Ins Cmp On Pha  FM Date     HrMn   Sec     Err  ErrMag    Coda      Amp       Per       PriorWt  >   TTpred    Res       Weight    StaLoc(X  Y         Z)        SDist    SAzim  RAz  RDip RQual    Tcorr       TTerr
M06          ?    BHZ  i P      c 20230120 2023    5.3999 GAU  3.46e-03 -1.00e+00 -1.00e+00 -1.00e+00    1.0000 >    0.7294    0.0032    1.6026  738.3100 9819.1170   -1.3960    1.2974 257.05 257.1 148.6 10     0.0000    0.0146
M06          ?    BHN  e S      ? 20230120 2023    5.9112 GAU  2.40e-03 -1.00e+00 -1.00e+00 -1.00e+00    1.0000 >    1.2495   -0.0056    1.3946  738.3100 9819.1170   -1.3960    1.2974 257.05 257.1 147.1 10     0.0000    0.0250
M11          ?    BHZ  i P      c 20230120 2023    5.4103 GAU  4.98e-03 -1.00e+00 -1.00e+00 -1.00e+00    1.0000 >    0.7427    0.0003    1.6049  738.4670 9820.4900   -1.3120    1.5484 314.34 314.3 142.6 10     0.0000    0.0149
M11          ?    BHN  e S      ? 20230120 2023    5.9737 GAU  2.88e-03 -1.00e+00 -1.00e+00 -1.00e+00    1.0000 >    1.2716    0.0347    0.8645  738.4670 9820.4900   -1.3120    1.5484 314.34 314.3 140.8 10     0.0000    0.0254
M14          ?    BHZ  i P      c 20230120 2023    5.4214 GAU  2.88e-03 -1.00e+00 -1.00e+00 -1.00e+00    1.0000 >    0.8505   -0.0964    0.0765  737.5530 9820.0110   -1.3980    2.1095 286.62 286.6 133.5 10     0.0000    0.0170
M14          ?    BHN  e S      ? 20230120 2023    5.8970 GAU  2.00e-03 -1.00e+00  3.20e+02 -1.00e+00    1.0000 >    1.4560   -0.2264    0.0002  737.5530 9820.0110   -1.3980    2.1095 286.62 286.6 131.1 10     0.0000    0.0291
M09          ?    BHZ  i P      c 20230120 2023    5.5182 GAU  7.97e-03 -1.00e+00 -1.00e+00 -1.00e+00    1.0000 >    0.8599   -0.0090    1.4661  737.8820 9820.9850   -1.2700    2.3134 312.98 313.0 128.3 10     0.0000    0.0172
M09          ?    BHN  e S      ? 20230120 2023    6.0968 GAU  4.60e-03 -1.00e+00  4.70e+02 -1.00e+00    1.0000 >    1.4711   -0.0417    0.7631  737.8820 9820.9850   -1.2700    2.3134 312.98 313.0 125.7 10     0.0000    0.0294
M05          ?    BHZ  i P      d 20230120 2023    5.9212 GAU  9.57e-03 -1.00e+00  1.98e+02 -1.00e+00    1.0000 >    1.2521    0.0018    1.3783  736.2660 9822.0830   -1.1500    4.2547 308.96 309.0 101.9  9     0.0000    0.0250
M05          ?    BHN  e S      ? 20230120 2023    6.8337 GAU  1.66e-03 -1.00e+00  2.63e+02 -1.00e+00    1.0000 >    2.1307    0.0357    0.8493  736.2660 9822.0830   -1.1500    4.2547 308.96 309.0  96.7  9     0.0000    0.0426
END_PHASE
END_NLLOC

