NLLOC "./loc/SEML.20230120.193458.grid0" "LOCATED" "Location completed."
PUBLIC_ID None
SIGNATURE "Arham Zakki Edelo - edelo.17034@mhs.its.ac.id   obs:./obs/2023_01.obs   NLLoc:v7.00.10(30Aug2020)   run:28Dec2023 19h50m58"
COMMENT "SEML"
GRID  2001 2001 1001  727 9811 -2  0.01 0.01 0.01 PROB_DENSITY
SEARCH OCTREE nInitial 4851 nEvaluated 20003 smallestNodeSide 0.014881/0.014881/0.014205 oct_tree_integral 1.369120e-02 scatter_volume 1.359650e-02
HYPOCENTER  x 738.027 y 9818.72 z 0.571023  OT 58.1236  ix -1 iy -1 iz -1 MAXIMUM_LIKELIHOOD
GEOGRAPHIC  OT 2023 01 20  19 34 58.123613  Lat 9818.723214 Long 738.026786 Depth 0.571023
QUALITY  Pmax 1.31809e+66 MFmin 75.5622 MFmax 94.7321 RMS 0.0305207 Nphs 20 Gap 265.083 Dist 0.485054 Mamp -9.90 0 Mdur -9.90 0
VPVSRATIO  VpVsRatio 1.72012  Npair 10  Diff 0.645779
STATISTICS  ExpectX 738.026564 Y 9818.688545 Z 0.539427  CovXX 0.0222544 XY -0.000547343 XZ 5.10837e-05 YY 0.0105569 YZ -0.00213979 ZZ 0.00918871 EllAz1  181.87 Dip1  -53.7339 Len1  0.164017 Az2  183.296 Dip2  36.2577 Len2  0.206649 Len3  2.804545e-01
STAT_GEOG  ExpectLat 9818.688545 Long 738.026564 Depth 0.539427
TRANSFORM  NONE
QML_OriginQuality  assocPhCt 20  usedPhCt 20  assocStaCt -1  usedStaCt 10  depthPhCt -1  stdErr 0.0305207  azGap 265.083  secAzGap 265.083  gtLevel -  minDist 0.485054 maxDist 4.80268 medDist 2.60463
QML_OriginUncertainty  horUnc -1  minHorUnc 0.155634  maxHorUnc 0.226371  azMaxHorUnc 92.6732
QML_ConfidenceEllipsoid  semiMajorAxisLength 0.280454  semiMinorAxisLength 0.164017  semiIntermediateAxisLength 0.206649  majorAxisPlunge 0.680133  majorAxisAzimuth 92.7967  majorAxisRotation 306.253
FOCALMECH  Hyp  9818.723214 738.026786 0.571023 Mech  0 0 0 mf  0 nObs -1
PHASE ID Ins Cmp On Pha  FM Date     HrMn   Sec     Err  ErrMag    Coda      Amp       Per       PriorWt  >   TTpred    Res       Weight    StaLoc(X  Y         Z)        SDist    SAzim  RAz  RDip RQual    Tcorr       TTerr
M06          ?    BHZ  i P      c 20230120 1934   58.6634 GAU  1.70e-03 -1.00e+00 -1.00e+00 -1.00e+00    1.0000 >    0.5379    0.0019    1.7751  738.3100 9819.1170   -1.3960    0.4851  35.72  35.7 165.6 10     0.0000    0.0108
M06          ?    BHE  e S      ? 20230120 1934   59.0580 GAU  2.99e-03 -1.00e+00 -1.00e+00 -1.00e+00    1.0000 >    0.9352   -0.0009    1.6778  738.3100 9819.1170   -1.3960    0.4851  35.72  35.7 164.3 10     0.0000    0.0187
M04          ?    BHZ  e P      c 20230120 1934   58.7769 GAU  1.92e-03 -1.00e+00 -1.00e+00 -1.00e+00    1.0000 >    0.6330    0.0203    1.3123  737.1400 9819.2520   -1.5710    1.0325 300.81 300.8 153.2 10     0.0000    0.0127
M04          ?    BHN  e S      ? 20230120 1934   59.1477 GAU  3.34e-03 -1.00e+00  8.57e+02 -1.00e+00    1.0000 >    1.0998   -0.0757    0.2202  737.1400 9819.2520   -1.5710    1.0325 300.81 300.8 150.8 10     0.0000    0.0220
M14          ?    BHZ  i P      c 20230120 1934   58.7356 GAU  2.88e-03 -1.00e+00 -1.00e+00 -1.00e+00    1.0000 >    0.6370   -0.0250    1.2725  737.5530 9820.0110   -1.3980    1.3722 339.80 339.8 143.8 10     0.0000    0.0127
M14          ?    BHN  e S      ? 20230120 1934   59.2266 GAU  9.66e-04 -1.00e+00  2.46e+02 -1.00e+00    1.0000 >    1.1073   -0.0043    1.6018  737.5530 9820.0110   -1.3980    1.3722 339.80 339.8 140.2 10     0.0000    0.0221
M11          ?    BHZ  i P      c 20230120 1934   58.7952 GAU  4.01e-03 -1.00e+00 -1.00e+00 -1.00e+00    1.0000 >    0.6937   -0.0221    1.3829  738.4670 9820.4900   -1.3120    1.8208  13.99  14.0 134.1 10     0.0000    0.0139
M11          ?    BHE  e S      ? 20230120 1934   59.3515 GAU  3.16e-03 -1.00e+00 -1.00e+00 -1.00e+00    1.0000 >    1.2063    0.0216    1.2742  738.4670 9820.4900   -1.3120    1.8208  13.99  14.0 128.9 10     0.0000    0.0241
M09          ?    BHZ  i P      c 20230120 1934   58.8971 GAU  1.93e-03 -1.00e+00  1.69e+02 -1.00e+00    1.0000 >    0.7727    0.0008    1.7379  737.8820 9820.9850   -1.2700    2.2664 356.34 356.3 126.6 10     0.0000    0.0155
M09          ?    BHE  e S      ? 20230120 1934   59.4928 GAU  1.64e-03 -1.00e+00  3.11e+02 -1.00e+00    1.0000 >    1.3435    0.0257    1.1714  737.8820 9820.9850   -1.2700    2.2664 356.34 356.3 119.6 10     0.0000    0.0269
M13          ?    BHZ  i P      c 20230120 1934   59.0291 GAU  1.35e-03 -1.00e+00 -1.00e+00 -1.00e+00    1.0000 >    0.9109   -0.0054    1.6813  737.1780 9821.5410   -1.2220    2.9428 343.24 343.2 118.3 10     0.0000    0.0182
M13          ?    BHE  e S      ? 20230120 1934   59.6666 GAU  1.16e-03 -1.00e+00 -1.00e+00 -1.00e+00    1.0000 >    1.5833   -0.0403    0.9352  737.1780 9821.5410   -1.2220    2.9428 343.24 343.2 108.0 10     0.0000    0.0317
M08          ?    BHZ  e P      c 20230120 1934   59.3308 GAU  1.75e-03 -1.00e+00 -1.00e+00 -1.00e+00    1.0000 >    1.0159    0.1912    0.1350  738.2480 9822.1600   -1.1510    3.4439   3.68   3.7 113.1 10     0.0000    0.0203
M08          ?    BHN  e S      ? 20230120 1935    0.2023 GAU  2.12e-03 -1.00e+00  2.50e+02 -1.00e+00    1.0000 >    1.7646    0.3141    0.0159  738.2480 9822.1600   -1.1510    3.4439   3.68   3.7  99.7  9     0.0000    0.0353
M05          ?    BHZ  i P      c 20230120 1934   59.3478 GAU  3.85e-03 -1.00e+00 -1.00e+00 -1.00e+00    1.0000 >    1.0987    0.1255    0.1372  736.2660 9822.0830   -1.1500    3.7932 332.34 332.3 110.7 10     0.0000    0.0220
M05          ?    BHN  e S      ? 20230120 1935    0.2446 GAU  4.61e-03 -1.00e+00  2.50e+02 -1.00e+00    1.0000 >    1.9063    0.2147    0.1389  736.2660 9822.0830   -1.1500    3.7932 332.34 332.3  96.4  9     0.0000    0.0381
M15          ?    BHZ  i P      d 20230120 1934   59.4299 GAU  4.98e-03 -1.00e+00  1.97e+02 -1.00e+00    1.0000 >    1.3149   -0.0086    1.4773  739.3310 9823.3170   -0.9530    4.7753  15.85  15.8 103.6 10     0.0000    0.0263
M15          ?    BHE  e S      ? 20230120 1935    0.3758 GAU  3.50e-03 -1.00e+00 -1.00e+00 -1.00e+00    1.0000 >    2.2612   -0.0090    1.1401  739.3310 9823.3170   -0.9530    4.7753  15.85  15.8  92.5  9     0.0000    0.0452
M12          ?    BHZ  i P      c 20230120 1934   59.5012 GAU  6.19e-03 -1.00e+00 -1.00e+00 -1.00e+00    1.0000 >    1.3258    0.0517    0.6243  736.8520 9823.3800   -0.9890    4.8027 345.84 345.8 103.8 10     0.0000    0.0265
M12          ?    BHE  e S      ? 20230120 1935    0.5177 GAU  3.34e-03 -1.00e+00 -1.00e+00 -1.00e+00    1.0000 >    2.2810    0.1131    0.2886  736.8520 9823.3800   -0.9890    4.8027 345.84 345.8  92.5  9     0.0000    0.0456
END_PHASE
END_NLLOC

