NLLOC "./loc/SEML.20230104.201139.grid0" "LOCATED" "Location completed."
PUBLIC_ID None
SIGNATURE "Arham Zakki Edelo - edelo.17034@mhs.its.ac.id   obs:./obs/2023_01.obs   NLLoc:v7.00.10(30Aug2020)   run:28Dec2023 19h50m13"
COMMENT "SEML"
GRID  2001 2001 1001  727 9811 -2  0.01 0.01 0.01 PROB_DENSITY
SEARCH OCTREE nInitial 4851 nEvaluated 20011 smallestNodeSide 0.014881/0.014881/0.014205 oct_tree_integral 6.109217e-02 scatter_volume 6.109217e-02
HYPOCENTER  x 738.734 y 9819.07 z 0.805398  OT 39.3954  ix -1 iy -1 iz -1 MAXIMUM_LIKELIHOOD
GEOGRAPHIC  OT 2023 01 04  20 11 39.395422  Lat 9819.072917 Long 738.733631 Depth 0.805398
QUALITY  Pmax 1.68543e+44 MFmin 48.2041 MFmax 53.331 RMS 0.0222811 Nphs 14 Gap 284.881 Dist 0.425918 Mamp -9.90 0 Mdur -9.90 0
VPVSRATIO  VpVsRatio 1.81046  Npair 7  Diff 0.386803
STATISTICS  ExpectX 738.631150 Y 9818.953636 Z 0.821514  CovXX 0.0487515 XY 0.0251666 XZ -0.00531821 YY 0.0323118 YZ -0.00851311 ZZ 0.0306975 EllAz1  326.386 Dip1  13.3027 Len1  0.215574 Az2  279.021 Dip2  -70.7573 Len2  0.321768 Len3  4.944781e-01
STAT_GEOG  ExpectLat 9818.953636 Long 738.631150 Depth 0.821514
TRANSFORM  NONE
QML_OriginQuality  assocPhCt 14  usedPhCt 14  assocStaCt -1  usedStaCt 7  depthPhCt -1  stdErr 0.0222811  azGap 284.881  secAzGap 284.881  gtLevel -  minDist 0.425918 maxDist 3.89227 medDist 2.09316
QML_OriginUncertainty  horUnc -1  minHorUnc 0.179807  maxHorUnc 0.392575  azMaxHorUnc 54.044
QML_ConfidenceEllipsoid  semiMajorAxisLength 0.494478  semiMinorAxisLength 0.215574  semiIntermediateAxisLength 0.321768  majorAxisPlunge -13.6477  majorAxisAzimuth 53.0944  majorAxisRotation 164.664
FOCALMECH  Hyp  9819.072917 738.733631 0.805398 Mech  0 0 0 mf  0 nObs -1
PHASE ID Ins Cmp On Pha  FM Date     HrMn   Sec     Err  ErrMag    Coda      Amp       Per       PriorWt  >   TTpred    Res       Weight    StaLoc(X  Y         Z)        SDist    SAzim  RAz  RDip RQual    Tcorr       TTerr
M06          ?    BHZ  i P      c 20230104 2011   39.9956 GAU  4.98e-03 -1.00e+00 -1.00e+00 -1.00e+00    1.0000 >    0.5930    0.0072    1.3019  738.3100 9819.1170   -1.3960    0.4259 275.94 275.9 168.6 10     0.0000    0.0119
M06          ?    BHE  e S      ? 20230104 2011   40.4466 GAU  2.49e-02 -1.00e+00 -1.00e+00 -1.00e+00    1.0000 >    1.0226    0.0285    0.9244  738.3100 9819.1170   -1.3960    0.4259 275.94 275.9 167.7 10     0.0000    0.0205
M11          ?    BHZ  i P      c 20230104 2011   40.0643 GAU  8.61e-03 -1.00e+00 -1.00e+00 -1.00e+00    1.0000 >    0.6763   -0.0074    1.3432  738.4670 9820.4900   -1.3120    1.4419 349.34 349.3 144.7 10     0.0000    0.0135
M11          ?    BHE  e S      ? 20230104 2011   40.5213 GAU  1.44e-02 -1.00e+00 -1.00e+00 -1.00e+00    1.0000 >    1.1658   -0.0400    0.8524  738.4670 9820.4900   -1.3120    1.4419 349.34 349.3 141.7 10     0.0000    0.0233
M14          ?    BHZ  e P      c 20230104 2011   40.0615 GAU  1.20e-02 -1.00e+00 -1.00e+00 -1.00e+00    1.0000 >    0.7059   -0.0399    0.8219  737.5530 9820.0110   -1.3980    1.5079 308.47 308.5 144.5 10     0.0000    0.0141
M14          ?    BHE  e S      ? 20230104 2011   40.6074 GAU  1.91e-02 -1.00e+00  4.23e+02 -1.00e+00    1.0000 >    1.2170   -0.0050    1.1762  737.5530 9820.0110   -1.3980    1.5079 308.47 308.5 141.4 10     0.0000    0.0243
M09          ?    BHZ  e P      c 20230104 2011   40.1434 GAU  2.54e-02 -1.00e+00  1.72e+02 -1.00e+00    1.0000 >    0.7770   -0.0290    1.0124  737.8820 9820.9850   -1.2700    2.0932 335.99 336.0 133.1 10     0.0000    0.0155
M09          ?    BHE  e S      ? 20230104 2011   40.7363 GAU  1.15e-02 -1.00e+00  3.52e+02 -1.00e+00    1.0000 >    1.3388    0.0021    1.1934  737.8820 9820.9850   -1.2700    2.0932 335.99 336.0 128.6 10     0.0000    0.0268
M13          ?    BHZ  e P      c 20230104 2011   40.3208 GAU  7.97e-03 -1.00e+00 -1.00e+00 -1.00e+00    1.0000 >    0.9355   -0.0102    1.2948  737.1780 9821.5410   -1.2220    2.9174 327.78 327.8 122.4 10     0.0000    0.0187
M13          ?    BHE  e S      ? 20230104 2011   41.0262 GAU  7.18e-03 -1.00e+00 -1.00e+00 -1.00e+00    1.0000 >    1.6100    0.0208    1.0122  737.1780 9821.5410   -1.2220    2.9174 327.78 327.8 115.8 10     0.0000    0.0322
M08          ?    BHZ  e P      d 20230104 2011   40.3979 GAU  1.44e-02 -1.00e+00  2.64e+02 -1.00e+00    1.0000 >    0.9694    0.0331    0.8528  738.2480 9822.1600   -1.1510    3.1250 351.06 351.1 119.5 10     0.0000    0.0194
M08          ?    BHE  e S      ? 20230104 2011   41.1613 GAU  1.67e-02 -1.00e+00 -1.00e+00 -1.00e+00    1.0000 >    1.6672    0.0987    0.1720  738.2480 9822.1600   -1.1510    3.1250 351.06 351.1 112.3 10     0.0000    0.0333
M05          ?    BHZ  e P      c 20230104 2011   40.5284 GAU  3.57e-02 -1.00e+00  1.39e+02 -1.00e+00    1.0000 >    1.1449   -0.0119    1.0083  736.2660 9822.0830   -1.1500    3.8923 320.66 320.7 113.7 10     0.0000    0.0229
M05          ?    BHN  e S      ? 20230104 2011   41.3661 GAU  9.92e-03 -1.00e+00  2.74e+02 -1.00e+00    1.0000 >    1.9650    0.0057    1.0343  736.2660 9822.0830   -1.1500    3.8923 320.66 320.7 105.1 10     0.0000    0.0393
END_PHASE
END_NLLOC

