NLLOC "./loc/SEML.20230120.191119.grid0" "LOCATED" "Location completed."
PUBLIC_ID None
SIGNATURE "Arham Zakki Edelo - edelo.17034@mhs.its.ac.id   obs:./obs/2023_01.obs   NLLoc:v7.00.10(30Aug2020)   run:28Dec2023 19h50m20"
COMMENT "SEML"
GRID  2001 2001 1001  727 9811 -2  0.01 0.01 0.01 PROB_DENSITY
SEARCH OCTREE nInitial 4851 nEvaluated 20011 smallestNodeSide 0.014881/0.014881/0.014205 oct_tree_integral 1.400810e-02 scatter_volume 1.388406e-02
HYPOCENTER  x 738.079 y 9818.89 z 0.634943  OT 19.4379  ix -1 iy -1 iz -1 MAXIMUM_LIKELIHOOD
GEOGRAPHIC  OT 2023 01 20  19 11 19.437870  Lat 9818.894345 Long 738.078869 Depth 0.634943
QUALITY  Pmax 5.9995e+30 MFmin 41.1215 MFmax 54.4157 RMS 0.013532 Nphs 10 Gap 244.784 Dist 0.320931 Mamp -9.90 0 Mdur -9.90 0
VPVSRATIO  VpVsRatio 1.72563  Npair 5  Diff 0.146097
STATISTICS  ExpectX 738.142943 Y 9818.893166 Z 0.651117  CovXX 0.020611 XY 0.000739879 XZ 0.00146507 YY 0.00694866 YZ -0.000903249 ZZ 0.0113806 EllAz1  175.655 Dip1  -12.188 Len1  0.153752 Az2  211.722 Dip2  75.0398 Len2  0.200429 Len3  2.713813e-01
STAT_GEOG  ExpectLat 9818.893166 Long 738.142943 Depth 0.651117
TRANSFORM  NONE
QML_OriginQuality  assocPhCt 10  usedPhCt 10  assocStaCt -1  usedStaCt 5  depthPhCt -1  stdErr 0.013532  azGap 244.784  secAzGap 244.784  gtLevel -  minDist 0.320931 maxDist 2.0999 medDist 1.23428
QML_OriginUncertainty  horUnc -1  minHorUnc 0.126056  maxHorUnc 0.217938  azMaxHorUnc 86.9092
QML_ConfidenceEllipsoid  semiMajorAxisLength 0.271381  semiMinorAxisLength 0.153752  semiIntermediateAxisLength 0.200429  majorAxisPlunge 8.54314  majorAxisAzimuth 87.5142  majorAxisRotation 347.122
FOCALMECH  Hyp  9818.894345 738.078869 0.634943 Mech  0 0 0 mf  0 nObs -1
PHASE ID Ins Cmp On Pha  FM Date     HrMn   Sec     Err  ErrMag    Coda      Amp       Per       PriorWt  >   TTpred    Res       Weight    StaLoc(X  Y         Z)        SDist    SAzim  RAz  RDip RQual    Tcorr       TTerr
M06          ?    BHZ  i P      c 20230120 1911   19.9849 GAU  3.34e-03 -1.00e+00 -1.00e+00 -1.00e+00    1.0000 >    0.5452    0.0018    1.2481  738.3100 9819.1170   -1.3960    0.3209  46.07  46.1 170.6 10     0.0000    0.0109
M06          ?    BHE  e S      ? 20230120 1911   20.3865 GAU  3.99e-03 -1.00e+00 -1.00e+00 -1.00e+00    1.0000 >    0.9457    0.0029    1.1252  738.3100 9819.1170   -1.3960    0.3209  46.07  46.1 169.8 10     0.0000    0.0189
M04          ?    BHZ  e P      c 20230120 1911   20.0749 GAU  7.48e-03 -1.00e+00 -1.00e+00 -1.00e+00    1.0000 >    0.6446   -0.0075    1.1897  737.1400 9819.2520   -1.5710    1.0047 290.85 290.9 154.6 10     0.0000    0.0129
M04          ?    BHE  e S      ? 20230120 1911   20.5293 GAU  2.88e-03 -1.00e+00  2.78e+02 -1.00e+00    1.0000 >    1.1175   -0.0260    0.7995  737.1400 9819.2520   -1.5710    1.0047 290.85 290.9 152.3 10     0.0000    0.0223
M14          ?    BHZ  i P      c 20230120 1911   20.0865 GAU  8.61e-03 -1.00e+00 -1.00e+00 -1.00e+00    1.0000 >    0.6306    0.0180    0.8965  737.5530 9820.0110   -1.3980    1.2343 334.78 334.8 147.6 10     0.0000    0.0126
M14          ?    BHE  e S      ? 20230120 1911   20.5530 GAU  9.57e-03 -1.00e+00  4.66e+02 -1.00e+00    1.0000 >    1.0936    0.0216    0.7940  737.5530 9820.0110   -1.3980    1.2343 334.78 334.8 144.6 10     0.0000    0.0219
M11          ?    BHZ  e P      c 20230120 1911   20.0883 GAU  2.88e-03 -1.00e+00 -1.00e+00 -1.00e+00    1.0000 >    0.6740   -0.0235    0.8459  738.4670 9820.4900   -1.3120    1.6422  13.67  13.7 138.4 10     0.0000    0.0135
M11          ?    BHN  e S      ? 20230120 1911   20.5918 GAU  9.52e-03 -1.00e+00 -1.00e+00 -1.00e+00    1.0000 >    1.1689   -0.0150    0.9510  738.4670 9820.4900   -1.3120    1.6422  13.67  13.7 134.2 10     0.0000    0.0234
M09          ?    BHZ  e P      c 20230120 1911   20.1898 GAU  4.78e-03 -1.00e+00  1.91e+02 -1.00e+00    1.0000 >    0.7494    0.0026    1.1908  737.8820 9820.9850   -1.2700    2.0999 354.62 354.6 130.1 10     0.0000    0.0150
M09          ?    BHE  e S      ? 20230120 1911   20.7375 GAU  1.20e-02 -1.00e+00  3.30e+02 -1.00e+00    1.0000 >    1.2994    0.0002    0.9594  737.8820 9820.9850   -1.2700    2.0999 354.62 354.6 124.3 10     0.0000    0.0260
END_PHASE
END_NLLOC

