NLLOC "./loc/SEML.20230120.194351.grid0" "LOCATED" "Location completed."
PUBLIC_ID None
SIGNATURE "Arham Zakki Edelo - edelo.17034@mhs.its.ac.id   obs:./obs/2023_01.obs   NLLoc:v7.00.10(30Aug2020)   run:28Dec2023 19h51m01"
COMMENT "SEML"
GRID  2001 2001 1001  727 9811 -2  0.01 0.01 0.01 PROB_DENSITY
SEARCH OCTREE nInitial 4851 nEvaluated 20019 smallestNodeSide 0.014881/0.014881/0.014205 oct_tree_integral 3.267927e-02 scatter_volume 3.267927e-02
HYPOCENTER  x 738.749 y 9818.82 z 0.379261  OT 50.4422  ix -1 iy -1 iz -1 MAXIMUM_LIKELIHOOD
GEOGRAPHIC  OT 2023 01 20  19 43 50.442194  Lat 9818.819940 Long 738.748512 Depth 0.379261
QUALITY  Pmax 9.9526e+65 MFmin 76.7495 MFmax 90.5782 RMS 0.039726 Nphs 20 Gap 277.655 Dist 0.529657 Mamp -9.90 0 Mdur -9.90 0
VPVSRATIO  VpVsRatio 1.85465  Npair 10  Diff 0.497231
STATISTICS  ExpectX 738.522471 Y 9818.800982 Z 0.655400  CovXX 0.136514 XY -0.0227067 XZ -0.10527 YY 0.0244685 YZ 0.006255 ZZ 0.142049 EllAz1  27.229 Dip1  18.5581 Len1  0.231225 Az2  312.967 Dip2  -38.9364 Len2  0.382431 Len3  9.327290e-01
STAT_GEOG  ExpectLat 9818.800982 Long 738.522471 Depth 0.655400
TRANSFORM  NONE
QML_OriginQuality  assocPhCt 20  usedPhCt 20  assocStaCt -1  usedStaCt 10  depthPhCt -1  stdErr 0.039726  azGap 277.655  secAzGap 277.655  gtLevel -  minDist 0.529657 maxDist 4.53463 medDist 2.73689
QML_OriginUncertainty  horUnc -1  minHorUnc 0.2147  maxHorUnc 0.569354  azMaxHorUnc 101.032
QML_ConfidenceEllipsoid  semiMajorAxisLength 0.932729  semiMinorAxisLength 0.231225  semiIntermediateAxisLength 0.382431  majorAxisPlunge -45.2148  majorAxisAzimuth 97.4588  majorAxisRotation 269.152
FOCALMECH  Hyp  9818.819940 738.748512 0.379261 Mech  0 0 0 mf  0 nObs -1
PHASE ID Ins Cmp On Pha  FM Date     HrMn   Sec     Err  ErrMag    Coda      Amp       Per       PriorWt  >   TTpred    Res       Weight    StaLoc(X  Y         Z)        SDist    SAzim  RAz  RDip RQual    Tcorr       TTerr
M06          ?    BHZ  i P      c 20230120 1943   51.1026 GAU  9.66e-04 -1.00e+00  1.19e+02 -1.00e+00    1.0000 >    0.4935    0.1669    0.1762  738.3100 9819.1170   -1.3960    0.5297 304.11 304.1 162.8 10     0.0000    0.0099
M06          ?    BHN  e S      ? 20230120 1943   51.6274 GAU  8.07e-03 -1.00e+00 -1.00e+00 -1.00e+00    1.0000 >    0.8612    0.3240    0.0000  738.3100 9819.1170   -1.3960    0.5297 304.11 304.1 162.6 10     0.0000    0.0172
M04          ?    BHZ  e P      c 20230120 1943   51.1282 GAU  2.31e-03 -1.00e+00 -1.00e+00 -1.00e+00    1.0000 >    0.6846    0.0015    1.6508  737.1400 9819.2520   -1.5710    1.6655 285.04 285.0 138.1 10     0.0000    0.0137
M04          ?    BHE  e S      ? 20230120 1943   51.6194 GAU  3.34e-03 -1.00e+00  3.05e+02 -1.00e+00    1.0000 >    1.1934   -0.0162    1.2541  737.1400 9819.2520   -1.5710    1.6655 285.04 285.0 137.3 10     0.0000    0.0239
M14          ?    BHZ  e P      c 20230120 1943   51.1370 GAU  1.16e-03 -1.00e+00 -1.00e+00 -1.00e+00    1.0000 >    0.6522    0.0426    0.8364  737.5530 9820.0110   -1.3980    1.6876 314.89 314.9 135.0 10     0.0000    0.0130
M14          ?    BHN  e S      ? 20230120 1943   51.5956 GAU  2.32e-03 -1.00e+00  2.43e+02 -1.00e+00    1.0000 >    1.1383    0.0152    1.4287  737.5530 9820.0110   -1.3980    1.6876 314.89 314.9 134.1 10     0.0000    0.0228
M11          ?    BHZ  i P      c 20230120 1943   51.1613 GAU  1.30e-03 -1.00e+00  1.84e+01 -1.00e+00    1.0000 >    0.6359    0.0832    0.4062  738.4670 9820.4900   -1.3120    1.6936 350.43 350.4 133.4 10     0.0000    0.0127
M11          ?    BHN  e S      ? 20230120 1943   51.7333 GAU  4.81e-03 -1.00e+00 -1.00e+00 -1.00e+00    1.0000 >    1.1104    0.1807    0.1714  738.4670 9820.4900   -1.3120    1.6936 350.43 350.4 132.5 10     0.0000    0.0222
M09          ?    BHZ  i P      c 20230120 1943   51.2012 GAU  3.46e-03 -1.00e+00 -1.00e+00 -1.00e+00    1.0000 >    0.7582    0.0007    1.6245  737.8820 9820.9850   -1.2700    2.3320 338.19 338.2 123.1 10     0.0000    0.0152
M09          ?    BHE  e S      ? 20230120 1943   51.8482 GAU  2.40e-03 -1.00e+00  3.28e+02 -1.00e+00    1.0000 >    1.3245    0.0815    0.5263  737.8820 9820.9850   -1.2700    2.3320 338.19 338.2 121.7 10     0.0000    0.0265
M13          ?    BHZ  i P      c 20230120 1943   51.3717 GAU  1.88e-03 -1.00e+00 -1.00e+00 -1.00e+00    1.0000 >    0.9348   -0.0053    1.5200  737.1780 9821.5410   -1.2220    3.1418 330.01 330.0 114.4 10     0.0000    0.0187
M13          ?    BHE  e S      ? 20230120 1943   52.0632 GAU  4.01e-03 -1.00e+00 -1.00e+00 -1.00e+00    1.0000 >    1.6335   -0.0126    1.1931  737.1780 9821.5410   -1.2220    3.1418 330.01 330.0 112.3 10     0.0000    0.0327
M10          ?    BHZ  e P      c 20230120 1943   51.4198 GAU  2.31e-03 -1.00e+00 -1.00e+00 -1.00e+00    1.0000 >    0.9872   -0.0095    1.4395  736.5490 9821.3650   -1.2200    3.3638 319.17 319.2 112.6 10     0.0000    0.0197
M10          ?    BHN  e S      ? 20230120 1943   52.1959 GAU  4.88e-03 -1.00e+00 -1.00e+00 -1.00e+00    1.0000 >    1.7251    0.0287    1.1846  736.5490 9821.3650   -1.2200    3.3638 319.17 319.2 110.4 10     0.0000    0.0345
M08          ?    BHZ  e P      c 20230120 1943   51.4234 GAU  3.85e-03 -1.00e+00 -1.00e+00 -1.00e+00    1.0000 >    0.9812    0.0000    1.5393  738.2480 9822.1600   -1.1510    3.3774 351.48 351.5 111.7 10     0.0000    0.0196
M08          ?    BHN  e S      ? 20230120 1943   52.1226 GAU  2.00e-03 -1.00e+00  2.85e+02 -1.00e+00    1.0000 >    1.7155   -0.0350    0.8360  738.2480 9822.1600   -1.1510    3.3774 351.48 351.5 109.3 10     0.0000    0.0343
M05          ?    BHZ  i P      d 20230120 1943   51.6355 GAU  7.97e-03 -1.00e+00  2.78e+02 -1.00e+00    1.0000 >    1.1571    0.0362    1.1144  736.2660 9822.0830   -1.1500    4.1001 322.74 322.7 107.5 10     0.0000    0.0231
M05          ?    BHE  e S      ? 20230120 1943   52.5560 GAU  3.20e-03 -1.00e+00 -1.00e+00 -1.00e+00    1.0000 >    2.0228    0.0911    0.5302  736.2660 9822.0830   -1.1500    4.1001 322.74 322.7 104.6 10     0.0000    0.0405
M15          ?    BHZ  i P      c 20230120 1943   51.6850 GAU  2.40e-03 -1.00e+00 -1.00e+00 -1.00e+00    1.0000 >    1.2428   -0.0000    1.4408  739.3310 9823.3170   -0.9530    4.5346   7.38   7.4 103.9 10     0.0000    0.0249
M15          ?    BHE  e S      ? 20230120 1943   52.6409 GAU  2.71e-03 -1.00e+00 -1.00e+00 -1.00e+00    1.0000 >    2.1746    0.0241    1.1274  739.3310 9823.3170   -0.9530    4.5346   7.38   7.4 100.5 10     0.0000    0.0435
END_PHASE
END_NLLOC

