NLLOC "./loc/SEML.20230107.014559.grid0" "LOCATED" "Location completed."
PUBLIC_ID None
SIGNATURE "Arham Zakki Edelo - edelo.17034@mhs.its.ac.id   obs:./obs/2023_01.obs   NLLoc:v7.00.10(30Aug2020)   run:28Dec2023 19h50m15"
COMMENT "SEML"
GRID  2001 2001 1001  727 9811 -2  0.01 0.01 0.01 PROB_DENSITY
SEARCH OCTREE nInitial 4851 nEvaluated 20003 smallestNodeSide 0.119048/0.119048/0.113636 oct_tree_integral 6.839794e+00 scatter_volume 6.839794e+00
HYPOCENTER  x 730.512 y 9821.89 z 5.44318  OT 57.3335  ix -1 iy -1 iz -1 MAXIMUM_LIKELIHOOD
GEOGRAPHIC  OT 2023 01 07  01 45 57.333468  Lat 9821.892857 Long 730.511905 Depth 5.443182
QUALITY  Pmax 7.19676e+48 MFmin 38.6953 MFmax 45.0759 RMS 0.0635697 Nphs 17 Gap 336.298 Dist 5.75724 Mamp -9.90 0 Mdur -9.90 0
VPVSRATIO  VpVsRatio 1.70822  Npair 8  Diff 0.434386
STATISTICS  ExpectX 731.082914 Y 9822.444637 Z 5.453367  CovXX 1.89573 XY 0.827138 XZ 1.74899 YY 0.889238 YZ 0.669674 ZZ 2.37831 EllAz1  123.581 Dip1  -27.2278 Len1  0.969685 Az2  194.53 Dip2  32.39 Len2  1.53185 Len3  3.865171e+00
STAT_GEOG  ExpectLat 9822.444637 Long 731.082914 Depth 5.453367
TRANSFORM  NONE
QML_OriginQuality  assocPhCt 17  usedPhCt 17  assocStaCt -1  usedStaCt 9  depthPhCt -1  stdErr 0.0635697  azGap 336.298  secAzGap 336.298  gtLevel -  minDist 5.75724 maxDist 8.27742 medDist 7.28824
QML_OriginUncertainty  horUnc -1  minHorUnc 0.987853  maxHorUnc 2.33015  azMaxHorUnc 60.6586
QML_ConfidenceEllipsoid  semiMajorAxisLength 3.86517  semiMinorAxisLength 0.969685  semiIntermediateAxisLength 1.53185  majorAxisPlunge 45.2128  majorAxisAzimuth 64.8045  majorAxisRotation 89.5018
FOCALMECH  Hyp  9821.892857 730.511905 5.443182 Mech  0 0 0 mf  0 nObs -1
PHASE ID Ins Cmp On Pha  FM Date     HrMn   Sec     Err  ErrMag    Coda      Amp       Per       PriorWt  >   TTpred    Res       Weight    StaLoc(X  Y         Z)        SDist    SAzim  RAz  RDip RQual    Tcorr       TTerr
M05          ?    BHZ  e P      c 20230107 0145   59.4158 GAU  5.74e-03 -1.00e+00  3.01e+02 -1.00e+00    1.0000 >    2.0802    0.0021    1.4823  736.2660 9822.0830   -1.1500    5.7572  88.11  88.1 135.9 10     0.0000    0.0416
M05          ?    BHN  e S      ? 20230107 0146    0.8181 GAU  6.61e-03 -1.00e+00  2.55e+02 -1.00e+00    1.0000 >    3.4661    0.0185    1.2303  736.2660 9822.0830   -1.1500    5.7572  88.11  88.1 135.4 10     0.0000    0.0693
M10          ?    BHZ  e P      c 20230107 0145   59.3443 GAU  2.16e-02 -1.00e+00  1.55e+03 -1.00e+00    1.0000 >    2.1434   -0.1326    0.6565  736.5490 9821.3650   -1.2200    6.0601  95.00  95.0 134.4 10     0.0000    0.0429
M10          ?    BHE  e S      ? 20230107 0146    0.6615 GAU  1.65e-02 -1.00e+00  6.93e+02 -1.00e+00    1.0000 >    3.5724   -0.2444    0.3094  736.5490 9821.3650   -1.2200    6.0601  95.00  95.0 133.9 10     0.0000    0.0714
M13          ?    BHZ  e P      d 20230107 0145   59.5830 GAU  1.38e-02 -1.00e+00 -1.00e+00 -1.00e+00    1.0000 >    2.2440    0.0056    1.4390  737.1780 9821.5410   -1.2220    6.6754  93.02  93.0 131.4 10     0.0000    0.0449
M13          ?    BHN  e S      ? 20230107 0146    1.1029 GAU  9.57e-03 -1.00e+00 -1.00e+00 -1.00e+00    1.0000 >    3.7390    0.0304    1.1456  737.1780 9821.5410   -1.2220    6.6754  93.02  93.0 130.9 10     0.0000    0.0748
M04          ?    BHZ  e P      c 20230107 0145   59.7435 GAU  8.97e-03 -1.00e+00 -1.00e+00 -1.00e+00    1.0000 >    2.3969    0.0131    1.4015  737.1400 9819.2520   -1.5710    7.1348 111.72 111.7 130.5 10     0.0000    0.0479
M04          ?    BHE  e S      ? 20230107 0146    1.2964 GAU  1.15e-02 -1.00e+00  3.75e+02 -1.00e+00    1.0000 >    4.0005   -0.0376    1.1839  737.1400 9819.2520   -1.5710    7.1348 111.72 111.7 129.9 10     0.0000    0.0800
M14          ?    BHZ  e P      d 20230107 0145   59.6978 GAU  2.14e-02 -1.00e+00  3.63e+02 -1.00e+00    1.0000 >    2.3858   -0.0214    1.3865  737.5530 9820.0110   -1.3980    7.2882 104.96 105.0 129.2 10     0.0000    0.0477
M14          ?    BHE  e S      ? 20230107 0146    1.2322 GAU  4.76e-03 -1.00e+00  4.29e+02 -1.00e+00    1.0000 >    3.9781   -0.0794    1.0438  737.5530 9820.0110   -1.3980    7.2882 104.96 105.0 128.6 10     0.0000    0.0796
M09          ?    BHZ  e P      d 20230107 0145   59.7020 GAU  1.03e-02 -1.00e+00  4.81e+01 -1.00e+00    1.0000 >    2.3824   -0.0139    1.4280  737.8820 9820.9850   -1.2700    7.4258  97.02  97.0 128.2 10     0.0000    0.0476
M09          ?    BHE  e S      ? 20230107 0146    1.3397 GAU  1.79e-02 -1.00e+00  3.75e+02 -1.00e+00    1.0000 >    3.9694    0.0368    1.0842  737.8820 9820.9850   -1.2700    7.4258  97.02  97.0 127.6 10     0.0000    0.0794
M08          ?    BHZ  e P      d 20230107 0145   59.5851 GAU  1.48e-02 -1.00e+00  1.44e+02 -1.00e+00    1.0000 >    2.4131   -0.1614    0.5360  738.2480 9822.1600   -1.1510    7.7407  88.02  88.0 126.5 10     0.0000    0.0483
M08          ?    BHN  e S      ? 20230107 0146    1.0831 GAU  7.18e-03 -1.00e+00  2.57e+02 -1.00e+00    1.0000 >    4.0172   -0.2676    0.2593  738.2480 9822.1600   -1.1510    7.7407  88.02  88.0 125.9 10     0.0000    0.0803
M11          ?    BHZ  e S      ? 20230107 0145   59.7779 GAU  8.27e-03 -1.00e+00 -1.00e+00 -1.00e+00    1.0000 >    4.1768   -1.7323    0.0000  738.4670 9820.4900   -1.3120    8.0778 100.00 100.0 125.0 10     0.0000    0.0835
M06          ?    BHZ  i P      d 20230107 0145   59.8953 GAU  1.24e-02 -1.00e+00 -1.00e+00 -1.00e+00    1.0000 >    2.5605    0.0013    1.4026  738.3100 9819.1170   -1.3960    8.2774 109.59 109.6 125.2 10     0.0000    0.0512
M06          ?    BHE  e S      ? 20230107 0146    1.6469 GAU  1.98e-02 -1.00e+00 -1.00e+00 -1.00e+00    1.0000 >    4.2674    0.0461    1.0111  738.3100 9819.1170   -1.3960    8.2774 109.59 109.6 124.5 10     0.0000    0.0853
END_PHASE
END_NLLOC

