NLLOC "./loc/SEML.20230120.192452.grid0" "LOCATED" "Location completed."
PUBLIC_ID None
SIGNATURE "Arham Zakki Edelo - edelo.17034@mhs.its.ac.id   obs:./obs/2023_01.obs   NLLoc:v7.00.10(30Aug2020)   run:28Dec2023 19h50m44"
COMMENT "SEML"
GRID  2001 2001 1001  727 9811 -2  0.01 0.01 0.01 PROB_DENSITY
SEARCH OCTREE nInitial 4851 nEvaluated 20003 smallestNodeSide 0.014881/0.014881/0.014205 oct_tree_integral 6.504722e-02 scatter_volume 6.504722e-02
HYPOCENTER  x 738.466 y 9818.27 z 0.492898  OT 52.185  ix -1 iy -1 iz -1 MAXIMUM_LIKELIHOOD
GEOGRAPHIC  OT 2023 01 20  19 24 52.184993  Lat 9818.269345 Long 738.465774 Depth 0.492898
QUALITY  Pmax 1.94465e+22 MFmin 29.8512 MFmax 35.851 RMS 0.0149217 Nphs 8 Gap 338.483 Dist 0.861849 Mamp -9.90 0 Mdur -9.90 0
VPVSRATIO  VpVsRatio 1.52414  Npair 4  Diff 0.36834
STATISTICS  ExpectX 738.583223 Y 9818.353643 Z 0.501166  CovXX 0.327144 XY 0.277762 XZ -0.044708 YY 0.331849 YZ -0.0826067 ZZ 0.0927386 EllAz1  320.286 Dip1  31.4312 Len1  0.354021 Az2  299.216 Dip2  -56.7777 Len2  0.574782 Len3  1.482534e+00
STAT_GEOG  ExpectLat 9818.353643 Long 738.583223 Depth 0.501166
TRANSFORM  NONE
QML_OriginQuality  assocPhCt 8  usedPhCt 8  assocStaCt -1  usedStaCt 4  depthPhCt -1  stdErr 0.0149217  azGap 338.483  secAzGap 338.483  gtLevel -  minDist 0.861849 maxDist 3.51598 medDist 2.49917
QML_OriginUncertainty  horUnc -1  minHorUnc 0.344916  maxHorUnc 1.18183  azMaxHorUnc 44.7574
QML_ConfidenceEllipsoid  semiMajorAxisLength 1.48253  semiMinorAxisLength 0.354021  semiIntermediateAxisLength 0.574782  majorAxisPlunge -9.67544  majorAxisAzimuth 44.3054  majorAxisRotation 146.548
FOCALMECH  Hyp  9818.269345 738.465774 0.492898 Mech  0 0 0 mf  0 nObs -1
PHASE ID Ins Cmp On Pha  FM Date     HrMn   Sec     Err  ErrMag    Coda      Amp       Per       PriorWt  >   TTpred    Res       Weight    StaLoc(X  Y         Z)        SDist    SAzim  RAz  RDip RQual    Tcorr       TTerr
M06          ?    BHZ  i P      c 20230120 1924   52.7411 GAU  3.99e-03 -1.00e+00 -1.00e+00 -1.00e+00    1.0000 >    0.5521    0.0041    1.2709  738.3100 9819.1170   -1.3960    0.8618 349.59 349.6 154.8 10     0.0000    0.0110
M06          ?    BHE  e S      ? 20230120 1924   53.1418 GAU  5.48e-03 -1.00e+00 -1.00e+00 -1.00e+00    1.0000 >    0.9626   -0.0058    1.2041  738.3100 9819.1170   -1.3960    0.8618 349.59 349.6 154.1  9     0.0000    0.0193
M11          ?    BHZ  e P      c 20230120 1924   52.9373 GAU  1.74e-03 -1.00e+00 -1.00e+00 -1.00e+00    1.0000 >    0.7590   -0.0067    1.2615  738.4670 9820.4900   -1.3120    2.2207   0.03   0.0 127.1 10     0.0000    0.0152
M11          ?    BHN  e S      ? 20230120 1924   53.5515 GAU  3.35e-03 -1.00e+00 -1.00e+00 -1.00e+00    1.0000 >    1.3241    0.0425    0.5128  738.4670 9820.4900   -1.3120    2.2207   0.03   0.0 125.1  9     0.0000    0.0265
M09          ?    BHZ  i P      c 20230120 1924   53.0290 GAU  5.54e-03 -1.00e+00 -1.00e+00 -1.00e+00    1.0000 >    0.8717   -0.0277    0.8073  737.8820 9820.9850   -1.2700    2.7777 347.87 347.9 120.0 10     0.0000    0.0174
M09          ?    BHN  e S      ? 20230120 1924   53.6900 GAU  4.98e-03 -1.00e+00  4.82e+02 -1.00e+00    1.0000 >    1.5212   -0.0162    0.9517  737.8820 9820.9850   -1.2700    2.7777 347.87 347.9 117.3  9     0.0000    0.0304
M13          ?    BHZ  e P      c 20230120 1924   53.2322 GAU  4.92e-03 -1.00e+00 -1.00e+00 -1.00e+00    1.0000 >    1.0351    0.0120    1.0809  737.1780 9821.5410   -1.2220    3.5160 338.51 338.5 113.3  9     0.0000    0.0207
M13          ?    BHN  e S      ? 20230120 1924   54.0011 GAU  5.98e-03 -1.00e+00 -1.00e+00 -1.00e+00    1.0000 >    1.8067    0.0095    0.9109  737.1780 9821.5410   -1.2220    3.5160 338.51 338.5 107.3  8     0.0000    0.0361
END_PHASE
END_NLLOC

