NLLOC "./loc/SEML.20230120.191451.grid0" "LOCATED" "Location completed."
PUBLIC_ID None
SIGNATURE "Arham Zakki Edelo - edelo.17034@mhs.its.ac.id   obs:./obs/2023_01.obs   NLLoc:v7.00.10(30Aug2020)   run:28Dec2023 19h50m29"
COMMENT "SEML"
GRID  2001 2001 1001  727 9811 -2  0.01 0.01 0.01 PROB_DENSITY
SEARCH OCTREE nInitial 4851 nEvaluated 20011 smallestNodeSide 0.029762/0.029762/0.028409 oct_tree_integral 2.514547e-01 scatter_volume 2.494815e-01
HYPOCENTER  x 738.949 y 9817.03 z -1.64489  OT 50.7766  ix -1 iy -1 iz -1 MAXIMUM_LIKELIHOOD
GEOGRAPHIC  OT 2023 01 20  19 14 50.776620  Lat 9817.026786 Long 738.949405 Depth -1.644886
QUALITY  Pmax 2.35872e+33 MFmin 40.2993 MFmax 49.5516 RMS 0.0211911 Nphs 12 Gap 342.704 Dist 2.18583 Mamp -9.90 0 Mdur -9.90 0
VPVSRATIO  VpVsRatio 1.73574  Npair 6  Diff 0.487545
STATISTICS  ExpectX 738.514711 Y 9817.093035 Z -1.081323  CovXX 0.941503 XY -0.196746 XZ -0.335709 YY 0.0683231 YZ 0.0730356 ZZ 0.370214 EllAz1  12.0485 Dip1  -0.224867 Len1  0.303163 Az2  281.546 Dip2  -65.8806 Len2  0.874018 Len3  2.003928e+00
STAT_GEOG  ExpectLat 9817.093035 Long 738.514711 Depth -1.081323
TRANSFORM  NONE
QML_OriginQuality  assocPhCt 12  usedPhCt 12  assocStaCt -1  usedStaCt 6  depthPhCt -1  stdErr 0.0211911  azGap 342.704  secAzGap 342.704  gtLevel -  minDist 2.18583 maxDist 5.18091 medDist 3.79813
QML_OriginUncertainty  horUnc -1  minHorUnc 0.244726  maxHorUnc 1.50423  azMaxHorUnc 102.129
QML_ConfidenceEllipsoid  semiMajorAxisLength 2.00393  semiMinorAxisLength 0.303163  semiIntermediateAxisLength 0.874018  majorAxisPlunge -24.1182  majorAxisAzimuth 102.149  majorAxisRotation 180.37
FOCALMECH  Hyp  9817.026786 738.949405 -1.644886 Mech  0 0 0 mf  0 nObs -1
PHASE ID Ins Cmp On Pha  FM Date     HrMn   Sec     Err  ErrMag    Coda      Amp       Per       PriorWt  >   TTpred    Res       Weight    StaLoc(X  Y         Z)        SDist    SAzim  RAz  RDip RQual    Tcorr       TTerr
M06          ?    BHZ  e P      c 20230120 1914   51.7848 GAU  5.41e-03 -1.00e+00 -1.00e+00 -1.00e+00    1.0000 >    0.6046    0.4035    0.0000  738.3100 9819.1170   -1.3960    2.1858 342.99 343.0  83.4 10     0.0000    0.0121
M06          ?    BHE  i S      ? 20230120 1914   52.3592 GAU  2.70e-03 -1.00e+00 -1.00e+00 -1.00e+00    1.0000 >    1.0430    0.5395    0.0000  738.3100 9819.1170   -1.3960    2.1858 342.99 343.0  83.4 10     0.0000    0.0209
M14          ?    BHZ  e P      c 20230120 1914   51.6926 GAU  3.09e-03 -1.00e+00 -1.00e+00 -1.00e+00    1.0000 >    0.9079    0.0081    1.6395  737.5530 9820.0110   -1.3980    3.2948 334.92 334.9  85.6 10     0.0000    0.0182
M14          ?    BHE  e S      ? 20230120 1914   52.3310 GAU  4.98e-03 -1.00e+00  4.87e+02 -1.00e+00    1.0000 >    1.5662   -0.0118    1.4733  737.5530 9820.0110   -1.3980    3.2948 334.92 334.9  85.6 10     0.0000    0.0313
M11          ?    BHZ  e P      d 20230120 1914   51.7316 GAU  4.15e-03 -1.00e+00  3.24e+02 -1.00e+00    1.0000 >    0.9652   -0.0103    1.6295  738.4670 9820.4900   -1.3120    3.4967 352.07 352.1  84.4 10     0.0000    0.0193
M11          ?    BHN  e S      ? 20230120 1914   52.4234 GAU  4.63e-03 -1.00e+00 -1.00e+00 -1.00e+00    1.0000 >    1.6652   -0.0183    1.3860  738.4670 9820.4900   -1.3120    3.4967 352.07 352.1  84.4 10     0.0000    0.0333
M09          ?    BHZ  i P      c 20230120 1914   51.9326 GAU  8.61e-03 -1.00e+00 -1.00e+00 -1.00e+00    1.0000 >    1.1313    0.0248    1.3121  737.8820 9820.9850   -1.2700    4.0996 344.91 344.9  84.6 10     0.0000    0.0226
M09          ?    BHN  e S      ? 20230120 1914   52.7728 GAU  1.46e-03 -1.00e+00  4.39e+02 -1.00e+00    1.0000 >    1.9516    0.0446    0.9223  737.8820 9820.9850   -1.2700    4.0996 344.91 344.9  84.6 10     0.0000    0.0390
M13          ?    BHZ  i P      c 20230120 1914   52.0695 GAU  8.31e-03 -1.00e+00 -1.00e+00 -1.00e+00    1.0000 >    1.3376   -0.0447    0.9269  737.1780 9821.5410   -1.2220    4.8493 338.57 338.6  84.9 10     0.0000    0.0268
M13          ?    BHN  e S      ? 20230120 1914   52.8956 GAU  5.77e-03 -1.00e+00 -1.00e+00 -1.00e+00    1.0000 >    2.3075   -0.1886    0.0112  737.1780 9821.5410   -1.2220    4.8493 338.57 338.6  84.9 10     0.0000    0.0462
M08          ?    BHZ  e P      c 20230120 1914   52.2005 GAU  8.31e-03 -1.00e+00 -1.00e+00 -1.00e+00    1.0000 >    1.4302   -0.0063    1.5362  738.2480 9822.1600   -1.1510    5.1809 352.22 352.2  84.4 10     0.0000    0.0286
M08          ?    BHE  e S      ? 20230120 1914   53.2625 GAU  2.01e-03 -1.00e+00 -1.00e+00 -1.00e+00    1.0000 >    2.4672    0.0186    1.1630  738.2480 9822.1600   -1.1510    5.1809 352.22 352.2  84.4 10     0.0000    0.0493
END_PHASE
END_NLLOC

