NLLOC "./loc/SEML.20230120.192654.grid0" "LOCATED" "Location completed."
PUBLIC_ID None
SIGNATURE "Arham Zakki Edelo - edelo.17034@mhs.its.ac.id   obs:./obs/2023_01.obs   NLLoc:v7.00.10(30Aug2020)   run:28Dec2023 19h50m46"
COMMENT "SEML"
GRID  2001 2001 1001  727 9811 -2  0.01 0.01 0.01 PROB_DENSITY
SEARCH OCTREE nInitial 4851 nEvaluated 20011 smallestNodeSide 0.029762/0.029762/0.028409 oct_tree_integral 3.420234e-01 scatter_volume 3.420234e-01
HYPOCENTER  x 739.217 y 9817.77 z 1.7358  OT 53.715  ix -1 iy -1 iz -1 MAXIMUM_LIKELIHOOD
GEOGRAPHIC  OT 2023 01 20  19 26 53.715047  Lat 9817.770833 Long 739.217262 Depth 1.735795
QUALITY  Pmax 2.78641e+20 MFmin 25.5163 MFmax 32.2181 RMS 0.0142837 Nphs 8 Gap 345.95 Dist 1.62336 Mamp -9.90 0 Mdur -9.90 0
VPVSRATIO  VpVsRatio 2.01269  Npair 4  Diff 0.189835
STATISTICS  ExpectX 737.090788 Y 9818.499979 Z 1.715338  CovXX 4.74831 XY -1.4405 XZ 0.0245832 YY 0.568517 YZ 0.000348266 ZZ 0.228715 EllAz1  197.307 Dip1  4.00931 Len1  0.649839 Az2  193.449 Dip2  -85.9816 Len2  0.899369 Len3  4.283062e+00
STAT_GEOG  ExpectLat 9818.499979 Long 737.090788 Depth 1.715338
TRANSFORM  NONE
QML_OriginQuality  assocPhCt 8  usedPhCt 8  assocStaCt -1  usedStaCt 4  depthPhCt -1  stdErr 0.0142837  azGap 345.95  secAzGap 345.95  gtLevel -  minDist 1.62336 maxDist 4.28634 medDist 3.1356
QML_OriginUncertainty  horUnc -1  minHorUnc 0.525717  maxHorUnc 3.45721  azMaxHorUnc 107.289
QML_ConfidenceEllipsoid  semiMajorAxisLength 4.28306  semiMinorAxisLength 0.649839  semiIntermediateAxisLength 0.899369  majorAxisPlunge 0.269509  majorAxisAzimuth 107.288  majorAxisRotation 4.00954
FOCALMECH  Hyp  9817.770833 739.217262 1.735795 Mech  0 0 0 mf  0 nObs -1
PHASE ID Ins Cmp On Pha  FM Date     HrMn   Sec     Err  ErrMag    Coda      Amp       Per       PriorWt  >   TTpred    Res       Weight    StaLoc(X  Y         Z)        SDist    SAzim  RAz  RDip RQual    Tcorr       TTerr
M06          ?    BHZ  i P      d 20230120 1926   54.6180 GAU  5.77e-03 -1.00e+00  4.58e+01 -1.00e+00    1.0000 >    0.9051   -0.0022    1.5162  738.3100 9819.1170   -1.3960    1.6234 326.02 326.0 149.3 10     0.0000    0.0181
M06          ?    BHN  e S      ? 20230120 1926   55.2562 GAU  2.70e-03 -1.00e+00 -1.00e+00 -1.00e+00    1.0000 >    1.5372    0.0040    1.2910  738.3100 9819.1170   -1.3960    1.6234 326.02 326.0 148.3 10     0.0000    0.0307
M14          ?    BHZ  e P      c 20230120 1926   54.7952 GAU  2.40e-03 -1.00e+00 -1.00e+00 -1.00e+00    1.0000 >    1.0754    0.0048    1.4633  737.5530 9820.0110   -1.3980    2.7907 323.39 323.4 132.6 10     0.0000    0.0215
M14          ?    BHN  e S      ? 20230120 1926   55.5325 GAU  2.63e-03 -1.00e+00  3.17e+02 -1.00e+00    1.0000 >    1.8245   -0.0070    1.1672  737.5530 9820.0110   -1.3980    2.7907 323.39 323.4 131.0 10     0.0000    0.0365
M09          ?    BHZ  e P      c 20230120 1926   54.8850 GAU  2.40e-03 -1.00e+00 -1.00e+00 -1.00e+00    1.0000 >    1.1738   -0.0039    1.4303  737.8820 9820.9850   -1.2700    3.4805 337.44 337.4 123.5 10     0.0000    0.0235
M09          ?    BHE  e S      ? 20230120 1926   55.7131 GAU  2.88e-03 -1.00e+00  3.48e+02 -1.00e+00    1.0000 >    1.9879    0.0101    1.1022  737.8820 9820.9850   -1.2700    3.4805 337.44 337.4 121.6 10     0.0000    0.0398
M13          ?    BHZ  e P      d 20230120 1926   54.8415 GAU  9.73e-03 -1.00e+00  3.37e+01 -1.00e+00    1.0000 >    1.3262   -0.1997    0.0150  737.1780 9821.5410   -1.2220    4.2863 331.59 331.6 115.6 10     0.0000    0.0265
M13          ?    BHN  e S      ? 20230120 1926   55.6356 GAU  3.34e-03 -1.00e+00 -1.00e+00 -1.00e+00    1.0000 >    2.2418   -0.3212    0.0149  737.1780 9821.5410   -1.2220    4.2863 331.59 331.6 113.5 10     0.0000    0.0448
END_PHASE
END_NLLOC

