NLLOC "./loc/SEML.20230120.193416.grid0" "LOCATED" "Location completed."
PUBLIC_ID None
SIGNATURE "Arham Zakki Edelo - edelo.17034@mhs.its.ac.id   obs:./obs/2023_01.obs   NLLoc:v7.00.10(30Aug2020)   run:28Dec2023 19h50m57"
COMMENT "SEML"
GRID  2001 2001 1001  727 9811 -2  0.01 0.01 0.01 PROB_DENSITY
SEARCH OCTREE nInitial 4851 nEvaluated 20011 smallestNodeSide 0.014881/0.014881/0.014205 oct_tree_integral 3.441347e-02 scatter_volume 3.430162e-02
HYPOCENTER  x 738.749 y 9818.76 z 1.14631  OT 15.7048  ix -1 iy -1 iz -1 MAXIMUM_LIKELIHOOD
GEOGRAPHIC  OT 2023 01 20  19 34 15.704760  Lat 9818.760417 Long 738.748512 Depth 1.146307
QUALITY  Pmax 2.99566e+40 MFmin 50.9426 MFmax 61.9375 RMS 0.0270164 Nphs 14 Gap 317.492 Dist 0.565194 Mamp -9.90 0 Mdur -9.90 0
VPVSRATIO  VpVsRatio 1.6842  Npair 7  Diff 0.435265
STATISTICS  ExpectX 738.543517 Y 9818.700829 Z 1.003619  CovXX 0.155507 XY 0.0362059 XZ 0.0454324 YY 0.023047 YZ 0.0153192 ZZ 0.0586099 EllAz1  167.826 Dip1  6.79838 Len1  0.217227 Az2  274.82 Dip2  67.8107 Len2  0.378899 Len3  8.040120e-01
STAT_GEOG  ExpectLat 9818.700829 Long 738.543517 Depth 1.003619
TRANSFORM  NONE
QML_OriginQuality  assocPhCt 14  usedPhCt 14  assocStaCt -1  usedStaCt 7  depthPhCt -1  stdErr 0.0270164  azGap 317.492  secAzGap 317.492  gtLevel -  minDist 0.565194 maxDist 4.14758 medDist 2.38739
QML_OriginUncertainty  horUnc -1  minHorUnc 0.178135  maxHorUnc 0.615582  azMaxHorUnc 75.6679
QML_ConfidenceEllipsoid  semiMajorAxisLength 0.804012  semiMinorAxisLength 0.217227  semiIntermediateAxisLength 0.378899  majorAxisPlunge 21.0165  majorAxisAzimuth 75.2004  majorAxisRotation 9.76606
FOCALMECH  Hyp  9818.760417 738.748512 1.146307 Mech  0 0 0 mf  0 nObs -1
PHASE ID Ins Cmp On Pha  FM Date     HrMn   Sec     Err  ErrMag    Coda      Amp       Per       PriorWt  >   TTpred    Res       Weight    StaLoc(X  Y         Z)        SDist    SAzim  RAz  RDip RQual    Tcorr       TTerr
M06          ?    BHZ  i P      c 20230120 1934   16.3875 GAU  4.33e-03 -1.00e+00  1.64e+02 -1.00e+00    1.0000 >    0.6827    0.0000    1.9610  738.3100 9819.1170   -1.3960    0.5652 309.12 309.1 165.9 10     0.0000    0.0137
M06          ?    BHN  e S      ? 20230120 1934   16.8738 GAU  2.75e-03 -1.00e+00 -1.00e+00 -1.00e+00    1.0000 >    1.1681    0.0009    1.7268  738.3100 9819.1170   -1.3960    0.5652 309.12 309.1 165.4 10     0.0000    0.0234
M14          ?    BHZ  e P      c 20230120 1934   16.4516 GAU  1.47e-03 -1.00e+00 -1.00e+00 -1.00e+00    1.0000 >    0.8062   -0.0593    0.3715  737.5530 9820.0110   -1.3980    1.7301 316.29 316.3 141.5 10     0.0000    0.0161
M14          ?    BHN  e S      ? 20230120 1934   16.9522 GAU  4.00e-03 -1.00e+00  3.11e+02 -1.00e+00    1.0000 >    1.3786   -0.1312    0.0313  737.5530 9820.0110   -1.3980    1.7301 316.29 316.3 139.7 10     0.0000    0.0276
M11          ?    BHZ  i P      c 20230120 1934   16.4970 GAU  3.46e-03 -1.00e+00 -1.00e+00 -1.00e+00    1.0000 >    0.7897    0.0026    1.9062  738.4670 9820.4900   -1.3120    1.7523 350.76 350.8 140.1 10     0.0000    0.0158
M11          ?    BHE  e S      ? 20230120 1934   17.0652 GAU  3.20e-03 -1.00e+00 -1.00e+00 -1.00e+00    1.0000 >    1.3499    0.0106    1.5259  738.4670 9820.4900   -1.3120    1.7523 350.76 350.8 138.3 10     0.0000    0.0270
M09          ?    BHZ  i P      c 20230120 1934   16.5755 GAU  2.64e-03 -1.00e+00  9.00e+01 -1.00e+00    1.0000 >    0.8871   -0.0163    1.6429  737.8820 9820.9850   -1.2700    2.3874 338.72 338.7 129.0 10     0.0000    0.0177
M09          ?    BHE  e S      ? 20230120 1934   17.2021 GAU  3.99e-03 -1.00e+00  3.43e+02 -1.00e+00    1.0000 >    1.5152   -0.0179    1.4631  737.8820 9820.9850   -1.2700    2.3874 338.72 338.7 126.6 10     0.0000    0.0303
M13          ?    BHZ  e P      c 20230120 1934   16.7540 GAU  1.24e-03 -1.00e+00 -1.00e+00 -1.00e+00    1.0000 >    1.0368    0.0125    1.6138  737.1780 9821.5410   -1.2220    3.1935 330.54 330.5 117.5 10     0.0000    0.0207
M13          ?    BHN  e S      ? 20230120 1934   17.4678 GAU  1.92e-03 -1.00e+00 -1.00e+00 -1.00e+00    1.0000 >    1.7679   -0.0049    1.4466  737.1780 9821.5410   -1.2220    3.1935 330.54 330.5 114.2 10     0.0000    0.0354
M08          ?    BHZ  e P      c 20230120 1934   17.0277 GAU  2.77e-03 -1.00e+00 -1.00e+00 -1.00e+00    1.0000 >    1.0760    0.2470    0.0574  738.2480 9822.1600   -1.1510    3.4362 351.62 351.6 113.7 10     0.0000    0.0215
M08          ?    BHN  e S      ? 20230120 1934   17.9493 GAU  1.29e-03 -1.00e+00  2.83e+02 -1.00e+00    1.0000 >    1.8327    0.4118    0.0001  738.2480 9822.1600   -1.1510    3.4362 351.62 351.6 110.1 10     0.0000    0.0367
M05          ?    BHZ  i P      c 20230120 1934   17.0597 GAU  2.39e-03 -1.00e+00  1.33e+02 -1.00e+00    1.0000 >    1.2330    0.1219    0.1005  736.2660 9822.0830   -1.1500    4.1476 323.23 323.2 106.5 10     0.0000    0.0247
M05          ?    BHN  e S      ? 20230120 1934   17.9765 GAU  5.54e-03 -1.00e+00  2.64e+02 -1.00e+00    1.0000 >    2.0961    0.1757    0.1532  736.2660 9822.0830   -1.1500    4.1476 323.23 323.2 102.7 10     0.0000    0.0419
END_PHASE
END_NLLOC

