NLLOC "./loc/SEML.20230120.192431.grid0" "LOCATED" "Location completed."
PUBLIC_ID None
SIGNATURE "Arham Zakki Edelo - edelo.17034@mhs.its.ac.id   obs:./obs/2023_01.obs   NLLoc:v7.00.10(30Aug2020)   run:28Dec2023 19h50m43"
COMMENT "SEML"
GRID  2001 2001 1001  727 9811 -2  0.01 0.01 0.01 PROB_DENSITY
SEARCH OCTREE nInitial 4851 nEvaluated 20011 smallestNodeSide 0.029762/0.029762/0.028409 oct_tree_integral 4.485270e-01 scatter_volume 4.485270e-01
HYPOCENTER  x 737.283 y 9817.35 z -1.58807  OT 30.9495  ix -1 iy -1 iz -1 MAXIMUM_LIKELIHOOD
GEOGRAPHIC  OT 2023 01 20  19 24 30.949541  Lat 9817.354167 Long 737.282738 Depth -1.588068
QUALITY  Pmax 1.15477e+20 MFmin 27.4969 MFmax 33.7826 RMS 0.0103363 Nphs 8 Gap 339.141 Dist 2.04031 Mamp -9.90 0 Mdur -9.90 0
VPVSRATIO  VpVsRatio 1.5653  Npair 4  Diff 0.424305
STATISTICS  ExpectX 737.642993 Y 9817.734139 Z -0.432657  CovXX 1.10197 XY 0.165818 XZ 0.737234 YY 0.196957 YZ 0.404088 ZZ 1.70577 EllAz1  181.637 Dip1  14.7804 Len1  0.579201 Az2  280.725 Dip2  30.9065 Len2  1.48104 Len3  2.842117e+00
STAT_GEOG  ExpectLat 9817.734139 Long 737.642993 Depth -0.432657
TRANSFORM  NONE
QML_OriginQuality  assocPhCt 8  usedPhCt 8  assocStaCt -1  usedStaCt 4  depthPhCt -1  stdErr 0.0103363  azGap 339.141  secAzGap 339.141  gtLevel -  minDist 2.04031 maxDist 4.90181 medDist 3.51598
QML_OriginUncertainty  horUnc -1  minHorUnc 0.620744  maxHorUnc 1.61314  azMaxHorUnc 79.9375
QML_ConfidenceEllipsoid  semiMajorAxisLength 2.84212  semiMinorAxisLength 0.579201  semiIntermediateAxisLength 1.48104  majorAxisPlunge 55.005  majorAxisAzimuth 69.4964  majorAxisRotation 304.565
FOCALMECH  Hyp  9817.354167 737.282738 -1.588068 Mech  0 0 0 mf  0 nObs -1
PHASE ID Ins Cmp On Pha  FM Date     HrMn   Sec     Err  ErrMag    Coda      Amp       Per       PriorWt  >   TTpred    Res       Weight    StaLoc(X  Y         Z)        SDist    SAzim  RAz  RDip RQual    Tcorr       TTerr
M06          ?    BHZ  i P      c 20230120 1924   31.7569 GAU  4.25e-03 -1.00e+00 -1.00e+00 -1.00e+00    1.0000 >    0.5632    0.2442    0.0000  738.3100 9819.1170   -1.3960    2.0403  30.23  30.2  84.5  9     0.0000    0.0113
M06          ?    BHN  e S      ? 20230120 1924   32.2752 GAU  5.54e-03 -1.00e+00 -1.00e+00 -1.00e+00    1.0000 >    0.9716    0.3541    0.0000  738.3100 9819.1170   -1.3960    2.0403  30.23  30.2  84.5  9     0.0000    0.0194
M11          ?    BHZ  i P      c 20230120 1924   31.8704 GAU  2.88e-03 -1.00e+00 -1.00e+00 -1.00e+00    1.0000 >    0.9242   -0.0034    1.5603  738.4670 9820.4900   -1.3120    3.3520  20.69  20.7  85.1 10     0.0000    0.0185
M11          ?    BHE  e S      ? 20230120 1924   32.5559 GAU  9.45e-03 -1.00e+00 -1.00e+00 -1.00e+00    1.0000 >    1.5944    0.0119    1.2978  738.4670 9820.4900   -1.3120    3.3520  20.69  20.7  85.1 10     0.0000    0.0319
M09          ?    BHZ  i P      c 20230120 1924   31.9617 GAU  3.32e-03 -1.00e+00 -1.00e+00 -1.00e+00    1.0000 >    1.0150   -0.0029    1.5437  737.8820 9820.9850   -1.2700    3.6800   9.37   9.4  84.9 10     0.0000    0.0203
M09          ?    BHN  e S      ? 20230120 1924   32.7081 GAU  7.97e-03 -1.00e+00  4.83e+02 -1.00e+00    1.0000 >    1.7510    0.0075    1.2751  737.8820 9820.9850   -1.2700    3.6800   9.37   9.4  84.9 10     0.0000    0.0350
M08          ?    BHZ  e P      c 20230120 1924   32.3186 GAU  1.38e-03 -1.00e+00 -1.00e+00 -1.00e+00    1.0000 >    1.3524    0.0166    1.3386  738.2480 9822.1600   -1.1510    4.9018  11.36  11.4  84.7 10     0.0000    0.0270
M08          ?    BHN  e S      ? 20230120 1924   33.2612 GAU  8.61e-03 -1.00e+00  2.89e+02 -1.00e+00    1.0000 >    2.3330   -0.0214    0.9845  738.2480 9822.1600   -1.1510    4.9018  11.36  11.4  84.7 10     0.0000    0.0467
END_PHASE
END_NLLOC

