NLLOC "./loc/SEML.20230120.193448.grid0" "LOCATED" "Location completed."
PUBLIC_ID None
SIGNATURE "Arham Zakki Edelo - edelo.17034@mhs.its.ac.id   obs:./obs/2023_01.obs   NLLoc:v7.00.10(30Aug2020)   run:28Dec2023 19h50m58"
COMMENT "SEML"
GRID  2001 2001 1001  727 9811 -2  0.01 0.01 0.01 PROB_DENSITY
SEARCH OCTREE nInitial 4851 nEvaluated 20011 smallestNodeSide 0.029762/0.029762/0.028409 oct_tree_integral 8.197741e-02 scatter_volume 8.166289e-02
HYPOCENTER  x 738.205 y 9818.34 z 1.36648  OT 48.1966  ix -1 iy -1 iz -1 MAXIMUM_LIKELIHOOD
GEOGRAPHIC  OT 2023 01 20  19 34 48.196556  Lat 9818.336310 Long 738.205357 Depth 1.366477
QUALITY  Pmax 9.43662e+20 MFmin 27.8939 MFmax 54.1792 RMS 0.00751122 Nphs 8 Gap 345.405 Dist 0.787672 Mamp -9.90 0 Mdur -9.90 0
VPVSRATIO  VpVsRatio 1.72753  Npair 4  Diff 0.497429
STATISTICS  ExpectX 738.256941 Y 9818.346807 Z 1.329711  CovXX 0.251647 XY 0.0322987 XZ 0.0154181 YY 0.0366998 YZ -0.0054838 ZZ 0.0380466 EllAz1  349.054 Dip1  35.6302 Len1  0.305562 Az2  176.998 Dip2  54.1078 Len2  0.387759 Len3  9.531239e-01
STAT_GEOG  ExpectLat 9818.346807 Long 738.256941 Depth 1.329711
TRANSFORM  NONE
QML_OriginQuality  assocPhCt 8  usedPhCt 8  assocStaCt -1  usedStaCt 4  depthPhCt -1  stdErr 0.00751122  azGap 345.405  secAzGap 345.405  gtLevel -  minDist 0.787672 maxDist 3.82393 medDist 2.41894
QML_OriginUncertainty  horUnc -1  minHorUnc 0.271087  maxHorUnc 0.767926  azMaxHorUnc 81.6366
QML_ConfidenceEllipsoid  semiMajorAxisLength 0.953124  semiMinorAxisLength 0.305562  semiIntermediateAxisLength 0.387759  majorAxisPlunge 3.77597  majorAxisAzimuth 81.7652  majorAxisRotation 144.043
FOCALMECH  Hyp  9818.336310 738.205357 1.366477 Mech  0 0 0 mf  0 nObs -1
PHASE ID Ins Cmp On Pha  FM Date     HrMn   Sec     Err  ErrMag    Coda      Amp       Per       PriorWt  >   TTpred    Res       Weight    StaLoc(X  Y         Z)        SDist    SAzim  RAz  RDip RQual    Tcorr       TTerr
M06          ?    BHZ  i P      c 20230120 1934   48.9443 GAU  1.02e-03 -1.00e+00 -1.00e+00 -1.00e+00    1.0000 >    0.7469    0.0008    1.5644  738.3100 9819.1170   -1.3960    0.7877   7.63   7.6 162.3 10     0.0000    0.0149
M06          ?    BHN  e S      ? 20230120 1934   49.4715 GAU  3.99e-03 -1.00e+00 -1.00e+00 -1.00e+00    1.0000 >    1.2741    0.0008    1.3320  738.3100 9819.1170   -1.3960    0.7877   7.63   7.6 161.7 10     0.0000    0.0255
M11          ?    BHZ  i P      c 20230120 1934   49.0809 GAU  1.63e-03 -1.00e+00 -1.00e+00 -1.00e+00    1.0000 >    0.8937   -0.0094    1.4113  738.4670 9820.4900   -1.3120    2.1695   6.93   6.9 136.5 10     0.0000    0.0179
M11          ?    BHN  e S      ? 20230120 1934   49.7336 GAU  1.27e-03 -1.00e+00 -1.00e+00 -1.00e+00    1.0000 >    1.5225    0.0145    1.1312  738.4670 9820.4900   -1.3120    2.1695   6.93   6.9 134.6 10     0.0000    0.0305
M09          ?    BHZ  i P      c 20230120 1934   49.1746 GAU  1.96e-03 -1.00e+00  3.87e+01 -1.00e+00    1.0000 >    0.9711    0.0069    1.4358  737.8820 9820.9850   -1.2700    2.6684 353.04 353.0 128.9 10     0.0000    0.0194
M09          ?    BHN  e S      ? 20230120 1934   49.8404 GAU  4.12e-03 -1.00e+00  4.68e+02 -1.00e+00    1.0000 >    1.6530   -0.0092    1.1253  737.8820 9820.9850   -1.2700    2.6684 353.04 353.0 126.8 10     0.0000    0.0331
M08          ?    BHZ  e P      c 20230120 1934   49.5989 GAU  1.48e-03 -1.00e+00 -1.00e+00 -1.00e+00    1.0000 >    1.1805    0.2219    0.0000  738.2480 9822.1600   -1.1510    3.8239   0.64   0.6 114.7 10     0.0000    0.0236
M08          ?    BHN  e S      ? 20230120 1934   50.6235 GAU  3.34e-03 -1.00e+00  2.90e+02 -1.00e+00    1.0000 >    2.0031    0.4239    0.0000  738.2480 9822.1600   -1.1510    3.8239   0.64   0.6 112.0 10     0.0000    0.0401
END_PHASE
END_NLLOC

