NLLOC "./loc/SEML.20230120.193209.grid0" "LOCATED" "Location completed."
PUBLIC_ID None
SIGNATURE "Arham Zakki Edelo - edelo.17034@mhs.its.ac.id   obs:./obs/2023_01.obs   NLLoc:v7.00.10(30Aug2020)   run:28Dec2023 19h50m52"
COMMENT "SEML"
GRID  2001 2001 1001  727 9811 -2  0.01 0.01 0.01 PROB_DENSITY
SEARCH OCTREE nInitial 4851 nEvaluated 20011 smallestNodeSide 0.029762/0.029762/0.028409 oct_tree_integral 7.007011e-02 scatter_volume 6.981331e-02
HYPOCENTER  x 738.771 y 9818.49 z 0.997159  OT 9.02716  ix -1 iy -1 iz -1 MAXIMUM_LIKELIHOOD
GEOGRAPHIC  OT 2023 01 20  19 32 9.027159  Lat 9818.485119 Long 738.770833 Depth 0.997159
QUALITY  Pmax 4.62589e+21 MFmin 29.1218 MFmax 39.5767 RMS 0.0132007 Nphs 8 Gap 332.514 Dist 0.782075 Mamp -9.90 0 Mdur -9.90 0
VPVSRATIO  VpVsRatio 1.82058  Npair 4  Diff 0.289137
STATISTICS  ExpectX 738.669918 Y 9818.671854 Z 0.779524  CovXX 0.693514 XY 0.19084 XZ -0.246252 YY 0.162202 YZ -0.176069 ZZ 0.296934 EllAz1  356.992 Dip1  32.403 Len1  0.377027 Az2  308.318 Dip2  -46.1346 Len2  0.873522 Len3  1.778670e+00
STAT_GEOG  ExpectLat 9818.671854 Long 738.669918 Depth 0.779524
TRANSFORM  NONE
QML_OriginQuality  assocPhCt 8  usedPhCt 8  assocStaCt -1  usedStaCt 4  depthPhCt -1  stdErr 0.0132007  azGap 332.514  secAzGap 332.514  gtLevel -  minDist 0.782075 maxDist 3.44609 medDist 2.34048
QML_OriginUncertainty  horUnc -1  minHorUnc 0.481403  maxHorUnc 1.31772  azMaxHorUnc 72.1538
QML_ConfidenceEllipsoid  semiMajorAxisLength 1.77867  semiMinorAxisLength 0.377027  semiIntermediateAxisLength 0.873522  majorAxisPlunge -26.0637  majorAxisAzimuth 68.9064  majorAxisRotation 129.555
FOCALMECH  Hyp  9818.485119 738.770833 0.997159 Mech  0 0 0 mf  0 nObs -1
PHASE ID Ins Cmp On Pha  FM Date     HrMn   Sec     Err  ErrMag    Coda      Amp       Per       PriorWt  >   TTpred    Res       Weight    StaLoc(X  Y         Z)        SDist    SAzim  RAz  RDip RQual    Tcorr       TTerr
M06          ?    BHZ  i P      c 20230120 1932    9.6888 GAU  2.13e-03 -1.00e+00 -1.00e+00 -1.00e+00    1.0000 >    0.6642   -0.0025    1.4146  738.3100 9819.1170   -1.3960    0.7821 323.90 323.9 160.7  9     0.0000    0.0133
M06          ?    BHN  e S      ? 20230120 1932   10.1659 GAU  2.13e-03 -1.00e+00 -1.00e+00 -1.00e+00    1.0000 >    1.1390   -0.0002    1.2638  738.3100 9819.1170   -1.3960    0.7821 323.90 323.9 159.6  9     0.0000    0.0228
M11          ?    BHZ  e P      c 20230120 1932    9.8416 GAU  2.87e-03 -1.00e+00 -1.00e+00 -1.00e+00    1.0000 >    0.8088    0.0056    1.3325  738.4670 9820.4900   -1.3120    2.0278 351.38 351.4 135.8  9     0.0000    0.0162
M11          ?    BHE  e S      ? 20230120 1932   10.4094 GAU  2.30e-03 -1.00e+00 -1.00e+00 -1.00e+00    1.0000 >    1.3857   -0.0035    1.1714  738.4670 9820.4900   -1.3120    2.0278 351.38 351.4 132.6  9     0.0000    0.0277
M09          ?    BHZ  e P      d 20230120 1932    9.9030 GAU  2.24e-03 -1.00e+00  1.72e+02 -1.00e+00    1.0000 >    0.9176   -0.0417    0.5303  737.8820 9820.9850   -1.2700    2.6532 340.43 340.4 126.3  9     0.0000    0.0184
M09          ?    BHN  e S      ? 20230120 1932   10.4763 GAU  2.42e-03 -1.00e+00  4.79e+02 -1.00e+00    1.0000 >    1.5705   -0.1213    0.0312  737.8820 9820.9850   -1.2700    2.6532 340.43 340.4 122.0  9     0.0000    0.0314
M13          ?    BHZ  e P      d 20230120 1932   10.1065 GAU  2.10e-03 -1.00e+00  6.64e+01 -1.00e+00    1.0000 >    1.0765    0.0028    1.2728  737.1780 9821.5410   -1.2220    3.4461 332.47 332.5 117.0  9     0.0000    0.0215
M13          ?    BHN  e S      ? 20230120 1932   10.8728 GAU  2.57e-03 -1.00e+00 -1.00e+00 -1.00e+00    1.0000 >    1.8397    0.0060    0.9834  737.1780 9821.5410   -1.2220    3.4461 332.47 332.5 111.3  9     0.0000    0.0368
END_PHASE
END_NLLOC

