NLLOC "./loc/SEML.20230120.195715.grid0" "LOCATED" "Location completed."
PUBLIC_ID None
SIGNATURE "Arham Zakki Edelo - edelo.17034@mhs.its.ac.id   obs:./obs/2023_01.obs   NLLoc:v7.00.10(30Aug2020)   run:28Dec2023 19h51m03"
COMMENT "SEML"
GRID  2001 2001 1001  727 9811 -2  0.01 0.01 0.01 PROB_DENSITY
SEARCH OCTREE nInitial 4851 nEvaluated 20011 smallestNodeSide 0.014881/0.014881/0.014205 oct_tree_integral 1.590044e-02 scatter_volume 1.590044e-02
HYPOCENTER  x 737.856 y 9818.92 z 0.990057  OT 15.2806  ix -1 iy -1 iz -1 MAXIMUM_LIKELIHOOD
GEOGRAPHIC  OT 2023 01 20  19 57 15.280616  Lat 9818.924107 Long 737.855655 Depth 0.990057
QUALITY  Pmax 4.55275e+29 MFmin 39.35 MFmax 47.0837 RMS 0.0116156 Nphs 10 Gap 277.443 Dist 0.493596 Mamp -9.90 0 Mdur -9.90 0
VPVSRATIO  VpVsRatio 1.69662  Npair 5  Diff 0.193289
STATISTICS  ExpectX 737.774879 Y 9818.854329 Z 0.964945  CovXX 0.0686331 XY 0.032172 XZ 0.0212006 YY 0.0275683 YZ 0.00827905 ZZ 0.0207288 EllAz1  322.857 Dip1  26.7783 Len1  0.172612 Az2  180.956 Dip2  57.3283 Len2  0.231588 Len3  5.738780e-01
STAT_GEOG  ExpectLat 9818.854329 Long 737.774879 Depth 0.964945
TRANSFORM  NONE
QML_OriginQuality  assocPhCt 10  usedPhCt 10  assocStaCt -1  usedStaCt 5  depthPhCt -1  stdErr 0.0116156  azGap 277.443  secAzGap 277.443  gtLevel -  minDist 0.493596 maxDist 2.70321 medDist 1.681
QML_OriginUncertainty  horUnc -1  minHorUnc 0.151164  maxHorUnc 0.445435  azMaxHorUnc 61.2732
QML_ConfidenceEllipsoid  semiMajorAxisLength 0.573878  semiMinorAxisLength 0.172612  semiIntermediateAxisLength 0.231588  majorAxisPlunge 17.2992  majorAxisAzimuth 61.9003  majorAxisRotation 146.968
FOCALMECH  Hyp  9818.924107 737.855655 0.990057 Mech  0 0 0 mf  0 nObs -1
PHASE ID Ins Cmp On Pha  FM Date     HrMn   Sec     Err  ErrMag    Coda      Amp       Per       PriorWt  >   TTpred    Res       Weight    StaLoc(X  Y         Z)        SDist    SAzim  RAz  RDip RQual    Tcorr       TTerr
M06          ?    BHZ  i P      c 20230120 1957   15.9255 GAU  2.09e-03 -1.00e+00 -1.00e+00 -1.00e+00    1.0000 >    0.6428    0.0021    1.4288  738.3100 9819.1170   -1.3960    0.4936  67.00  67.0 167.8  9     0.0000    0.0129
M06          ?    BHN  e S      ? 20230120 1957   16.3917 GAU  2.42e-03 -1.00e+00 -1.00e+00 -1.00e+00    1.0000 >    1.1026    0.0085    1.1861  738.3100 9819.1170   -1.3960    0.4936  67.00  67.0 167.0  9     0.0000    0.0221
M14          ?    BHZ  e P      c 20230120 1957   15.9668 GAU  2.15e-03 -1.00e+00 -1.00e+00 -1.00e+00    1.0000 >    0.6968   -0.0106    1.2442  737.5530 9820.0110   -1.3980    1.1282 344.44 344.4 153.9  9     0.0000    0.0139
M14          ?    BHN  e S      ? 20230120 1957   16.4826 GAU  2.88e-03 -1.00e+00  3.73e+02 -1.00e+00    1.0000 >    1.1950    0.0070    1.1595  737.5530 9820.0110   -1.3980    1.1282 344.44 344.4 152.0  9     0.0000    0.0239
M11          ?    BHZ  e P      d 20230120 1957   16.0320 GAU  2.60e-03 -1.00e+00  2.92e+01 -1.00e+00    1.0000 >    0.7505    0.0009    1.3868  738.4670 9820.4900   -1.3120    1.6810  21.33  21.3 142.8  9     0.0000    0.0150
M11          ?    BHE  e S      ? 20230120 1957   16.5594 GAU  2.19e-03 -1.00e+00 -1.00e+00 -1.00e+00    1.0000 >    1.2864   -0.0077    1.0817  738.4670 9820.4900   -1.3120    1.6810  21.33  21.3 139.9  9     0.0000    0.0257
M09          ?    BHZ  e P      d 20230120 1957   16.1449 GAU  2.31e-03 -1.00e+00  1.87e+02 -1.00e+00    1.0000 >    0.8044    0.0599    0.1802  737.8820 9820.9850   -1.2700    2.0611   0.73   0.7 136.4  9     0.0000    0.0161
M09          ?    BHE  e S      ? 20230120 1957   16.7887 GAU  2.36e-03 -1.00e+00  3.58e+02 -1.00e+00    1.0000 >    1.3782    0.1299    0.0185  737.8820 9820.9850   -1.2700    2.0611   0.73   0.7 132.7  9     0.0000    0.0276
M13          ?    BHZ  e P      c 20230120 1957   16.2011 GAU  2.16e-03 -1.00e+00 -1.00e+00 -1.00e+00    1.0000 >    0.9176    0.0029    1.3054  737.1780 9821.5410   -1.2220    2.7032 345.48 345.5 127.3  9     0.0000    0.0184
M13          ?    BHN  e S      ? 20230120 1957   16.8606 GAU  2.53e-03 -1.00e+00 -1.00e+00 -1.00e+00    1.0000 >    1.5704    0.0096    1.0087  737.1780 9821.5410   -1.2220    2.7032 345.48 345.5 122.5  9     0.0000    0.0314
END_PHASE
END_NLLOC

