NLLOC "./loc/SEML.20230120.191624.grid0" "LOCATED" "Location completed."
PUBLIC_ID None
SIGNATURE "Arham Zakki Edelo - edelo.17034@mhs.its.ac.id   obs:./obs/2023_01.obs   NLLoc:v7.00.10(30Aug2020)   run:28Dec2023 19h50m32"
COMMENT "SEML"
GRID  2001 2001 1001  727 9811 -2  0.01 0.01 0.01 PROB_DENSITY
SEARCH OCTREE nInitial 4851 nEvaluated 20019 smallestNodeSide 0.014881/0.014881/0.014205 oct_tree_integral 5.298952e-02 scatter_volume 5.298952e-02
HYPOCENTER  x 738.109 y 9817.94 z 0.464489  OT 23.3941  ix -1 iy -1 iz -1 MAXIMUM_LIKELIHOOD
GEOGRAPHIC  OT 2023 01 20  19 16 23.394122  Lat 9817.941964 Long 738.108631 Depth 0.464489
QUALITY  Pmax 5.71796e+50 MFmin 55.2602 MFmax 66.4969 RMS 0.0245986 Nphs 16 Gap 326.288 Dist 1.19217 Mamp -9.90 0 Mdur -9.90 0
VPVSRATIO  VpVsRatio 1.91622  Npair 8  Diff 0.616615
STATISTICS  ExpectX 738.123660 Y 9817.918299 Z 0.515209  CovXX 0.041553 XY 0.00296839 XZ 0.011196 YY 0.015508 YZ 0.00288626 ZZ 0.0334964 EllAz1  176.466 Dip1  6.74781 Len1  0.229975 Az2  275.893 Dip2  54.1565 Len2  0.300997 Len3  4.197383e-01
STAT_GEOG  ExpectLat 9817.918299 Long 738.123660 Depth 0.515209
TRANSFORM  NONE
QML_OriginQuality  assocPhCt 16  usedPhCt 16  assocStaCt -1  usedStaCt 8  depthPhCt -1  stdErr 0.0245986  azGap 326.288  secAzGap 326.288  gtLevel -  minDist 1.19217 maxDist 5.58134 medDist 3.38444
QML_OriginUncertainty  horUnc -1  minHorUnc 0.186816  maxHorUnc 0.310387  azMaxHorUnc 83.5796
QML_ConfidenceEllipsoid  semiMajorAxisLength 0.419738  semiMinorAxisLength 0.229975  semiIntermediateAxisLength 0.300997  majorAxisPlunge 35.0061  majorAxisAzimuth 81.7121  majorAxisRotation 22.9796
FOCALMECH  Hyp  9817.941964 738.108631 0.464489 Mech  0 0 0 mf  0 nObs -1
PHASE ID Ins Cmp On Pha  FM Date     HrMn   Sec     Err  ErrMag    Coda      Amp       Per       PriorWt  >   TTpred    Res       Weight    StaLoc(X  Y         Z)        SDist    SAzim  RAz  RDip RQual    Tcorr       TTerr
M06          ?    BHZ  i P      c 20230120 1916   24.1636 GAU  2.18e-03 -1.00e+00 -1.00e+00 -1.00e+00    1.0000 >    0.5876    0.1819    0.0047  738.3100 9819.1170   -1.3960    1.1922   9.72   9.7 146.4 10     0.0000    0.0118
M06          ?    BHE  e S      ? 20230120 1916   24.6802 GAU  9.57e-03 -1.00e+00 -1.00e+00 -1.00e+00    1.0000 >    1.0248    0.2613    0.0017  738.3100 9819.1170   -1.3960    1.1922   9.72   9.7 145.9 10     0.0000    0.0205
M14          ?    BHZ  e P      c 20230120 1916   24.1522 GAU  5.25e-03 -1.00e+00 -1.00e+00 -1.00e+00    1.0000 >    0.7544    0.0036    1.4089  737.5530 9820.0110   -1.3980    2.1423 344.97 345.0 129.1 10     0.0000    0.0151
M14          ?    BHE  e S      ? 20230120 1916   24.7308 GAU  1.38e-02 -1.00e+00  4.11e+02 -1.00e+00    1.0000 >    1.3157    0.0210    1.1395  737.5530 9820.0110   -1.3980    2.1423 344.97 345.0 128.1 10     0.0000    0.0263
M11          ?    BHZ  e P      c 20230120 1916   24.2522 GAU  2.45e-03 -1.00e+00 -1.00e+00 -1.00e+00    1.0000 >    0.8296    0.0284    1.0320  738.4670 9820.4900   -1.3120    2.5731   8.01   8.0 122.5 10     0.0000    0.0166
M11          ?    BHN  e S      ? 20230120 1916   24.8237 GAU  2.01e-03 -1.00e+00 -1.00e+00 -1.00e+00    1.0000 >    1.4476   -0.0181    1.2876  738.4670 9820.4900   -1.3120    2.5731   8.01   8.0 121.1 10     0.0000    0.0290
M09          ?    BHZ  i P      c 20230120 1916   24.2943 GAU  2.77e-03 -1.00e+00  4.42e+01 -1.00e+00    1.0000 >    0.9303   -0.0302    1.2029  737.8820 9820.9850   -1.2700    3.0515 355.74 355.7 117.2 10     0.0000    0.0186
M09          ?    BHE  e S      ? 20230120 1916   25.0186 GAU  6.76e-03 -1.00e+00  3.46e+02 -1.00e+00    1.0000 >    1.6238    0.0006    1.2710  737.8820 9820.9850   -1.2700    3.0515 355.74 355.7 115.5 10     0.0000    0.0325
M13          ?    BHZ  i P      c 20230120 1916   24.4234 GAU  3.32e-03 -1.00e+00 -1.00e+00 -1.00e+00    1.0000 >    1.0804   -0.0511    0.8059  737.1780 9821.5410   -1.2220    3.7174 345.50 345.5 111.7 10     0.0000    0.0216
M13          ?    BHE  e S      ? 20230120 1916   25.2441 GAU  4.61e-03 -1.00e+00 -1.00e+00 -1.00e+00    1.0000 >    1.8862   -0.0362    1.0264  737.1780 9821.5410   -1.2220    3.7174 345.50 345.5 109.5 10     0.0000    0.0377
M08          ?    BHZ  e P      d 20230120 1916   24.5609 GAU  8.86e-03 -1.00e+00  1.84e+02 -1.00e+00    1.0000 >    1.1936   -0.0268    1.2316  738.2480 9822.1600   -1.1510    4.2203   1.89   1.9 108.2 10     0.0000    0.0239
M08          ?    BHN  e S      ? 20230120 1916   25.4973 GAU  4.60e-03 -1.00e+00  3.13e+02 -1.00e+00    1.0000 >    2.0843    0.0189    1.0541  738.2480 9822.1600   -1.1510    4.2203   1.89   1.9  94.1  8     0.0000    0.0417
M05          ?    BHZ  e P      c 20230120 1916   24.6750 GAU  7.19e-03 -1.00e+00  4.02e+01 -1.00e+00    1.0000 >    1.2704    0.0105    1.2909  736.2660 9822.0830   -1.1500    4.5325 336.01 336.0 106.8 10     0.0000    0.0254
M05          ?    BHN  e S      ? 20230120 1916   25.5951 GAU  7.69e-03 -1.00e+00  2.59e+02 -1.00e+00    1.0000 >    2.2134   -0.0124    1.1123  736.2660 9822.0830   -1.1500    4.5325 336.01 336.0  67.3 10     0.0000    0.0443
M12          ?    BHZ  i P      c 20230120 1916   24.9029 GAU  5.98e-03 -1.00e+00 -1.00e+00 -1.00e+00    1.0000 >    1.5153   -0.0065    1.3102  736.8520 9823.3800   -0.9890    5.5813 346.99 347.0 102.1 10     0.0000    0.0303
M12          ?    BHN  e S      ? 20230120 1916   26.0361 GAU  1.40e-02 -1.00e+00 -1.00e+00 -1.00e+00    1.0000 >    2.6055    0.0365    0.8202  736.8520 9823.3800   -0.9890    5.5813 346.99 347.0  67.2 10     0.0000    0.0521
END_PHASE
END_NLLOC

