NLLOC "./loc/SEML.20230120.193354.grid0" "LOCATED" "Location completed."
PUBLIC_ID None
SIGNATURE "Arham Zakki Edelo - edelo.17034@mhs.its.ac.id   obs:./obs/2023_01.obs   NLLoc:v7.00.10(30Aug2020)   run:28Dec2023 19h50m57"
COMMENT "SEML"
GRID  2001 2001 1001  727 9811 -2  0.01 0.01 0.01 PROB_DENSITY
SEARCH OCTREE nInitial 4851 nEvaluated 20011 smallestNodeSide 0.029762/0.029762/0.028409 oct_tree_integral 1.032340e-01 scatter_volume 1.014192e-01
HYPOCENTER  x 738.994 y 9818.23 z 1.4375  OT 53.98  ix -1 iy -1 iz -1 MAXIMUM_LIKELIHOOD
GEOGRAPHIC  OT 2023 01 20  19 33 53.979950  Lat 9818.232143 Long 738.994048 Depth 1.437500
QUALITY  Pmax 2.82776e+22 MFmin 27.2478 MFmax 35.1231 RMS 0.0120477 Nphs 8 Gap 335.433 Dist 1.11843 Mamp -9.90 0 Mdur -9.90 0
VPVSRATIO  VpVsRatio 1.79614  Npair 4  Diff 0.268799
STATISTICS  ExpectX 739.023913 Y 9818.279966 Z 1.380918  CovXX 0.291192 XY 0.208239 XZ -0.0414972 YY 0.266065 YZ -0.0872376 ZZ 0.132908 EllAz1  323.207 Dip1  28.6965 Len1  0.423005 Az2  293.2 Dip2  -57.7016 Len2  0.678777 Len3  1.340376e+00
STAT_GEOG  ExpectLat 9818.279966 Long 739.023913 Depth 1.380918
TRANSFORM  NONE
QML_OriginQuality  assocPhCt 8  usedPhCt 8  assocStaCt -1  usedStaCt 4  depthPhCt -1  stdErr 0.0120477  azGap 335.433  secAzGap 335.433  gtLevel -  minDist 1.11843 maxDist 3.77446 medDist 2.64377
QML_OriginUncertainty  horUnc -1  minHorUnc 0.401279  maxHorUnc 1.05861  azMaxHorUnc 46.7263
QML_ConfidenceEllipsoid  semiMajorAxisLength 1.34038  semiMinorAxisLength 0.423005  semiIntermediateAxisLength 0.678777  majorAxisPlunge -13.5564  majorAxisAzimuth 45.6224  majorAxisRotation 147.454
FOCALMECH  Hyp  9818.232143 738.994048 1.437500 Mech  0 0 0 mf  0 nObs -1
PHASE ID Ins Cmp On Pha  FM Date     HrMn   Sec     Err  ErrMag    Coda      Amp       Per       PriorWt  >   TTpred    Res       Weight    StaLoc(X  Y         Z)        SDist    SAzim  RAz  RDip RQual    Tcorr       TTerr
M06          ?    BHZ  i P      c 20230120 1933   54.7660 GAU  2.88e-03 -1.00e+00 -1.00e+00 -1.00e+00    1.0000 >    0.7901   -0.0041    1.1870  738.3100 9819.1170   -1.3960    1.1184 322.29 322.3 156.2 10     0.0000    0.0158
M06          ?    BHN  e S      ? 20230120 1933   55.3342 GAU  2.39e-03 -1.00e+00 -1.00e+00 -1.00e+00    1.0000 >    1.3465    0.0078    1.0495  738.3100 9819.1170   -1.3960    1.1184 322.29 322.3 155.3 10     0.0000    0.0269
M11          ?    BHZ  e P      c 20230120 1933   54.9295 GAU  3.32e-03 -1.00e+00 -1.00e+00 -1.00e+00    1.0000 >    0.9301    0.0195    0.9953  738.4670 9820.4900   -1.3120    2.3186 346.86 346.9 135.3 10     0.0000    0.0186
M11          ?    BHN  e S      ? 20230120 1933   55.5510 GAU  4.98e-03 -1.00e+00 -1.00e+00 -1.00e+00    1.0000 >    1.5829   -0.0119    0.9307  738.4670 9820.4900   -1.3120    2.3186 346.86 346.9 133.5 10     0.0000    0.0317
M09          ?    BHZ  e P      c 20230120 1933   54.9999 GAU  4.15e-03 -1.00e+00 -1.00e+00 -1.00e+00    1.0000 >    1.0374   -0.0174    0.9681  737.8820 9820.9850   -1.2700    2.9690 338.00 338.0 126.3 10     0.0000    0.0207
M09          ?    BHN  e S      ? 20230120 1933   55.7556 GAU  2.82e-03 -1.00e+00  4.75e+02 -1.00e+00    1.0000 >    1.7635    0.0122    0.9102  737.8820 9820.9850   -1.2700    2.9690 338.00 338.0 124.2 10     0.0000    0.0353
M13          ?    BHZ  e P      d 20230120 1933   55.1728 GAU  3.46e-03 -1.00e+00 -1.00e+00 -1.00e+00    1.0000 >    1.1897    0.0031    1.1096  737.1780 9821.5410   -1.2220    3.7745 331.24 331.2 117.3 10     0.0000    0.0238
M13          ?    BHE  e S      ? 20230120 1933   56.0098 GAU  2.82e-03 -1.00e+00 -1.00e+00 -1.00e+00    1.0000 >    2.0188    0.0111    0.8496  737.1780 9821.5410   -1.2220    3.7745 331.24 331.2 114.7 10     0.0000    0.0404
END_PHASE
END_NLLOC

