NLLOC "./loc/SEML.20230120.193651.grid0" "LOCATED" "Location completed."
PUBLIC_ID None
SIGNATURE "Arham Zakki Edelo - edelo.17034@mhs.its.ac.id   obs:./obs/2023_01.obs   NLLoc:v7.00.10(30Aug2020)   run:28Dec2023 19h51m01"
COMMENT "SEML"
GRID  2001 2001 1001  727 9811 -2  0.01 0.01 0.01 PROB_DENSITY
SEARCH OCTREE nInitial 4851 nEvaluated 20019 smallestNodeSide 0.029762/0.029762/0.028409 oct_tree_integral 2.300285e-01 scatter_volume 2.282164e-01
HYPOCENTER  x 738.801 y 9818.51 z 1.22443  OT 50.896  ix -1 iy -1 iz -1 MAXIMUM_LIKELIHOOD
GEOGRAPHIC  OT 2023 01 20  19 36 50.896015  Lat 9818.514881 Long 738.800595 Depth 1.224432
QUALITY  Pmax 2.69352e+34 MFmin 41.6316 MFmax 51.8068 RMS 0.0350367 Nphs 12 Gap 329.448 Dist 0.776679 Mamp -9.90 0 Mdur -9.90 0
VPVSRATIO  VpVsRatio 1.6284  Npair 6  Diff 0.448975
STATISTICS  ExpectX 738.540122 Y 9818.476060 Z 1.184781  CovXX 0.286161 XY 0.153779 XZ -0.0260198 YY 0.222402 YZ -0.0705383 ZZ 0.113581 EllAz1  330.752 Dip1  42.9295 Len1  0.46436 Az2  307.436 Dip2  -44.6316 Len2  0.693097 Len3  1.224809e+00
STAT_GEOG  ExpectLat 9818.476060 Long 738.540122 Depth 1.184781
TRANSFORM  NONE
QML_OriginQuality  assocPhCt 12  usedPhCt 12  assocStaCt -1  usedStaCt 6  depthPhCt -1  stdErr 0.0350367  azGap 329.448  secAzGap 329.448  gtLevel -  minDist 0.776679 maxDist 4.37672 medDist 3.03454
QML_OriginUncertainty  horUnc -1  minHorUnc 0.472901  maxHorUnc 0.972657  azMaxHorUnc 50.856
QML_ConfidenceEllipsoid  semiMajorAxisLength 1.22481  semiMinorAxisLength 0.46436  semiIntermediateAxisLength 0.693097  majorAxisPlunge -11.9019  majorAxisAzimuth 49.4453  majorAxisRotation 133.342
FOCALMECH  Hyp  9818.514881 738.800595 1.224432 Mech  0 0 0 mf  0 nObs -1
PHASE ID Ins Cmp On Pha  FM Date     HrMn   Sec     Err  ErrMag    Coda      Amp       Per       PriorWt  >   TTpred    Res       Weight    StaLoc(X  Y         Z)        SDist    SAzim  RAz  RDip RQual    Tcorr       TTerr
M06          ?    BHZ  i P      c 20230120 1936   51.6165 GAU  1.92e-03 -1.00e+00 -1.00e+00 -1.00e+00    1.0000 >    0.7143    0.0062    1.2835  738.3100 9819.1170   -1.3960    0.7767 320.83 320.8 161.6 10     0.0000    0.0143
M06          ?    BHN  e S      ? 20230120 1936   52.1104 GAU  1.69e-03 -1.00e+00 -1.00e+00 -1.00e+00    1.0000 >    1.2208   -0.0063    1.3489  738.3100 9819.1170   -1.3960    0.7767 320.83 320.8 160.9 10     0.0000    0.0244
M11          ?    BHZ  e P      d 20230120 1936   51.7025 GAU  5.98e-03 -1.00e+00  8.74e+01 -1.00e+00    1.0000 >    0.8425   -0.0360    1.1662  738.4670 9820.4900   -1.3120    2.0031 350.41 350.4 136.9 10     0.0000    0.0169
M11          ?    BHN  e S      ? 20230120 1936   52.3185 GAU  2.47e-03 -1.00e+00 -1.00e+00 -1.00e+00    1.0000 >    1.4383   -0.0158    1.3221  738.4670 9820.4900   -1.3120    2.0031 350.41 350.4 135.0 10     0.0000    0.0288
M09          ?    BHZ  i P      c 20230120 1936   51.7806 GAU  3.34e-03 -1.00e+00  9.43e+01 -1.00e+00    1.0000 >    0.9444   -0.0598    0.8533  737.8820 9820.9850   -1.2700    2.6354 339.60 339.6 126.8 10     0.0000    0.0189
M09          ?    BHE  e S      ? 20230120 1936   52.4862 GAU  2.14e-03 -1.00e+00  3.50e+02 -1.00e+00    1.0000 >    1.6107   -0.0205    1.2826  737.8820 9820.9850   -1.2700    2.6354 339.60 339.6 124.4 10     0.0000    0.0322
M13          ?    BHZ  i P      c 20230120 1936   51.9177 GAU  1.67e-03 -1.00e+00 -1.00e+00 -1.00e+00    1.0000 >    1.0955   -0.0739    0.6546  737.1780 9821.5410   -1.2220    3.4337 331.80 331.8 116.6 10     0.0000    0.0219
M13          ?    BHE  e S      ? 20230120 1936   52.6548 GAU  6.83e-03 -1.00e+00 -1.00e+00 -1.00e+00    1.0000 >    1.8650   -0.1062    0.3630  737.1780 9821.5410   -1.2220    3.4337 331.80 331.8 113.4 10     0.0000    0.0373
M08          ?    BHZ  e P      c 20230120 1936   52.0416 GAU  6.92e-03 -1.00e+00 -1.00e+00 -1.00e+00    1.0000 >    1.1374    0.0082    1.2297  738.2480 9822.1600   -1.1510    3.6868 351.38 351.4 113.0 10     0.0000    0.0227
M08          ?    BHE  e S      ? 20230120 1936   52.8994 GAU  2.49e-03 -1.00e+00 -1.00e+00 -1.00e+00    1.0000 >    1.9340    0.0694    0.3760  738.2480 9822.1600   -1.1510    3.6868 351.38 351.4 109.8 10     0.0000    0.0387
M05          ?    BHZ  i P      c 20230120 1936   52.1796 GAU  3.29e-03 -1.00e+00  1.08e+02 -1.00e+00    1.0000 >    1.2900   -0.0064    1.3361  736.2660 9822.0830   -1.1500    4.3767 324.61 324.6 106.8 10     0.0000    0.0258
M05          ?    BHN  e S      ? 20230120 1936   53.1225 GAU  6.35e-03 -1.00e+00  2.69e+02 -1.00e+00    1.0000 >    2.1892    0.0373    0.7839  736.2660 9822.0830   -1.1500    4.3767 324.61 324.6 103.5 10     0.0000    0.0438
END_PHASE
END_NLLOC

