NLLOC "./loc/SEML.20230120.192913.grid0" "LOCATED" "Location completed."
PUBLIC_ID None
SIGNATURE "Arham Zakki Edelo - edelo.17034@mhs.its.ac.id   obs:./obs/2023_01.obs   NLLoc:v7.00.10(30Aug2020)   run:28Dec2023 19h50m48"
COMMENT "SEML"
GRID  2001 2001 1001  727 9811 -2  0.01 0.01 0.01 PROB_DENSITY
SEARCH OCTREE nInitial 4851 nEvaluated 20011 smallestNodeSide 0.029762/0.029762/0.028409 oct_tree_integral 1.098154e-01 scatter_volume 1.080323e-01
HYPOCENTER  x 737.848 y 9817.83 z 1.48011  OT 12.7437  ix -1 iy -1 iz -1 MAXIMUM_LIKELIHOOD
GEOGRAPHIC  OT 2023 01 20  19 29 12.743741  Lat 9817.830357 Long 737.848214 Depth 1.480114
QUALITY  Pmax 4.93178e+22 MFmin 26.5713 MFmax 32.8356 RMS 0.00617862 Nphs 8 Gap 330.018 Dist 1.367 Mamp -9.90 0 Mdur -9.90 0
VPVSRATIO  VpVsRatio 1.67284  Npair 4  Diff 0.252393
STATISTICS  ExpectX 737.940870 Y 9817.907436 Z 1.458152  CovXX 0.345463 XY 0.242783 XZ 0.0887307 YY 0.291696 YZ 0.0138093 ZZ 0.12688 EllAz1  312.7 Dip1  33.3402 Len1  0.385025 Az2  333.092 Dip2  -54.9363 Len2  0.718934 Len3  1.425465e+00
STAT_GEOG  ExpectLat 9817.907436 Long 737.940870 Depth 1.458152
TRANSFORM  NONE
QML_OriginQuality  assocPhCt 8  usedPhCt 8  assocStaCt -1  usedStaCt 4  depthPhCt -1  stdErr 0.00617862  azGap 330.018  secAzGap 330.018  gtLevel -  minDist 1.367 maxDist 3.77068 medDist 2.94275
QML_OriginUncertainty  horUnc -1  minHorUnc 0.413425  maxHorUnc 1.13778  azMaxHorUnc 48.1593
QML_ConfidenceEllipsoid  semiMajorAxisLength 1.42546  semiMinorAxisLength 0.385025  semiIntermediateAxisLength 0.718934  majorAxisPlunge 9.62679  majorAxisAzimuth 49.1073  majorAxisRotation 144.578
FOCALMECH  Hyp  9817.830357 737.848214 1.480114 Mech  0 0 0 mf  0 nObs -1
PHASE ID Ins Cmp On Pha  FM Date     HrMn   Sec     Err  ErrMag    Coda      Amp       Per       PriorWt  >   TTpred    Res       Weight    StaLoc(X  Y         Z)        SDist    SAzim  RAz  RDip RQual    Tcorr       TTerr
M06          ?    BHZ  i P      d 20230120 1929   13.5696 GAU  3.99e-03 -1.00e+00 -1.00e+00 -1.00e+00    1.0000 >    0.8247    0.0012    1.1894  738.3100 9819.1170   -1.3960    1.3670  19.74  19.7 152.0 10     0.0000    0.0165
M06          ?    BHE  e S      ? 20230120 1929   14.1480 GAU  5.77e-03 -1.00e+00 -1.00e+00 -1.00e+00    1.0000 >    1.4045   -0.0003    1.0042  738.3100 9819.1170   -1.3960    1.3670  19.74  19.7 151.0 10     0.0000    0.0281
M11          ?    BHZ  i P      c 20230120 1929   13.7477 GAU  3.85e-03 -1.00e+00 -1.00e+00 -1.00e+00    1.0000 >    1.0081   -0.0042    1.1280  738.4670 9820.4900   -1.3120    2.7307  13.10  13.1 130.4 10     0.0000    0.0202
M11          ?    BHN  e S      ? 20230120 1929   14.4526 GAU  6.73e-03 -1.00e+00 -1.00e+00 -1.00e+00    1.0000 >    1.7140   -0.0051    0.8984  738.4670 9820.4900   -1.3120    2.7307  13.10  13.1 128.4 10     0.0000    0.0343
M09          ?    BHZ  i P      c 20230120 1929   13.8268 GAU  5.74e-03 -1.00e+00  8.49e+00 -1.00e+00    1.0000 >    1.0788    0.0043    1.1011  737.8820 9820.9850   -1.2700    3.1548   0.61   0.6 124.8 10     0.0000    0.0216
M09          ?    BHN  e S      ? 20230120 1929   14.5962 GAU  5.54e-03 -1.00e+00  4.74e+02 -1.00e+00    1.0000 >    1.8325    0.0200    0.7912  737.8820 9820.9850   -1.2700    3.1548   0.61   0.6 122.7 10     0.0000    0.0367
M13          ?    BHZ  i P      c 20230120 1929   13.9333 GAU  5.28e-03 -1.00e+00 -1.00e+00 -1.00e+00    1.0000 >    1.1936   -0.0041    1.0663  737.1780 9821.5410   -1.2220    3.7707 349.76 349.8 118.1 10     0.0000    0.0239
M13          ?    BHE  e S      ? 20230120 1929   14.7641 GAU  4.61e-03 -1.00e+00 -1.00e+00 -1.00e+00    1.0000 >    2.0244   -0.0041    0.8214  737.1780 9821.5410   -1.2220    3.7707 349.76 349.8 115.6 10     0.0000    0.0405
END_PHASE
END_NLLOC

