NLLOC "./loc/SEML.20230103.035221.grid0" "LOCATED" "Location completed."
PUBLIC_ID None
SIGNATURE "Arham Zakki Edelo - edelo.17034@mhs.its.ac.id   obs:./obs/2023_01.obs   NLLoc:v7.00.10(30Aug2020)   run:28Dec2023 19h50m11"
COMMENT "SEML"
GRID  2001 2001 1001  727 9811 -2  0.01 0.01 0.01 PROB_DENSITY
SEARCH OCTREE nInitial 4851 nEvaluated 20003 smallestNodeSide 0.014881/0.014881/0.014205 oct_tree_integral 4.109719e-02 scatter_volume 4.109719e-02
HYPOCENTER  x 738.138 y 9819.44 z 1.16051  OT 21.0345  ix -1 iy -1 iz -1 MAXIMUM_LIKELIHOOD
GEOGRAPHIC  OT 2023 01 03  03 52 21.034483  Lat 9819.444940 Long 738.138393 Depth 1.160511
QUALITY  Pmax 2.49897e+42 MFmin 50.8719 MFmax 59.6185 RMS 0.0203819 Nphs 14 Gap 134.922 Dist 0.370127 Mamp -9.90 0 Mdur -9.90 0
VPVSRATIO  VpVsRatio 1.62779  Npair 7  Diff 0.423952
STATISTICS  ExpectX 737.931562 Y 9819.290552 Z 0.999973  CovXX 0.0511055 XY 0.0218488 XZ 0.0235629 YY 0.0306499 YZ 0.0122272 ZZ 0.036948 EllAz1  136.997 Dip1  -18.7525 Len1  0.23728 Az2  20.6707 Dip2  -52.5641 Len2  0.277549 Len3  5.344981e-01
STAT_GEOG  ExpectLat 9819.290552 Long 737.931562 Depth 0.999973
TRANSFORM  NONE
QML_OriginQuality  assocPhCt 14  usedPhCt 14  assocStaCt -1  usedStaCt 7  depthPhCt -1  stdErr 0.0203819  azGap 134.922  secAzGap 134.922  gtLevel -  minDist 0.370127 maxDist 3.235 medDist 1.56126
QML_OriginUncertainty  horUnc -1  minHorUnc 0.196299  maxHorUnc 0.386658  azMaxHorUnc 57.5426
QML_ConfidenceEllipsoid  semiMajorAxisLength 0.534498  semiMinorAxisLength 0.23728  semiIntermediateAxisLength 0.277549  majorAxisPlunge 31.0581  majorAxisAzimuth 58.7946  majorAxisRotation 319.117
FOCALMECH  Hyp  9819.444940 738.138393 1.160511 Mech  0 0 0 mf  0 nObs -1
PHASE ID Ins Cmp On Pha  FM Date     HrMn   Sec     Err  ErrMag    Coda      Amp       Per       PriorWt  >   TTpred    Res       Weight    StaLoc(X  Y         Z)        SDist    SAzim  RAz  RDip RQual    Tcorr       TTerr
M06          ?    BHZ  i P      c 20230103 0352   21.7122 GAU  5.20e-03 -1.00e+00 -1.00e+00 -1.00e+00    1.0000 >    0.6767    0.0011    1.7279  738.3100 9819.1170   -1.3960    0.3701 152.38 152.4 170.7 10     0.0000    0.0135
M06          ?    BHN  e S      ? 20230103 0352   22.1937 GAU  9.57e-03 -1.00e+00 -1.00e+00 -1.00e+00    1.0000 >    1.1576    0.0016    1.4830  738.3100 9819.1170   -1.3960    0.3701 152.38 152.4 170.3 10     0.0000    0.0232
M04          ?    BHZ  e P      c 20230103 0352   21.7034 GAU  4.98e-03 -1.00e+00  3.27e+03 -1.00e+00    1.0000 >    0.7659   -0.0970    0.1540  737.1400 9819.2520   -1.5710    1.0169 259.06 259.1 157.2 10     0.0000    0.0153
M04          ?    BHE  e S      ? 20230103 0352   22.2071 GAU  3.99e-03 -1.00e+00  2.59e+02 -1.00e+00    1.0000 >    1.3108   -0.1382    0.0956  737.1400 9819.2520   -1.5710    1.0169 259.06 259.1 156.2 10     0.0000    0.0262
M11          ?    BHZ  e P      c 20230103 0352   21.7491 GAU  1.90e-02 -1.00e+00 -1.00e+00 -1.00e+00    1.0000 >    0.7074    0.0072    1.4780  738.4670 9820.4900   -1.3120    1.0955  17.46  17.5 153.3 10     0.0000    0.0141
M11          ?    BHE  e S      ? 20230103 0352   22.2535 GAU  9.97e-03 -1.00e+00 -1.00e+00 -1.00e+00    1.0000 >    1.2095    0.0095    1.3984  738.4670 9820.4900   -1.3120    1.0955  17.46  17.5 152.2 10     0.0000    0.0242
M09          ?    BHZ  e P      c 20230103 0352   21.7718 GAU  8.27e-03 -1.00e+00  1.31e+02 -1.00e+00    1.0000 >    0.7547   -0.0173    1.3988  737.8820 9820.9850   -1.2700    1.5613 350.55 350.5 143.4 10     0.0000    0.0151
M09          ?    BHN  e S      ? 20230103 0352   22.2761 GAU  9.97e-03 -1.00e+00  4.15e+02 -1.00e+00    1.0000 >    1.2898   -0.0481    0.6679  737.8820 9820.9850   -1.2700    1.5613 350.55 350.5 141.8 10     0.0000    0.0258
M13          ?    BHZ  e P      c 20230103 0352   21.9029 GAU  5.98e-03 -1.00e+00 -1.00e+00 -1.00e+00    1.0000 >    0.8645    0.0040    1.6335  737.1780 9821.5410   -1.2220    2.3056 335.38 335.4 130.0 10     0.0000    0.0173
M13          ?    BHN  e S      ? 20230103 0352   22.5317 GAU  6.64e-03 -1.00e+00 -1.00e+00 -1.00e+00    1.0000 >    1.4760    0.0211    1.1559  737.1780 9821.5410   -1.2220    2.3056 335.38 335.4 127.6 10     0.0000    0.0295
M10          ?    BHZ  e P      c 20230103 0352   21.9286 GAU  8.06e-03 -1.00e+00 -1.00e+00 -1.00e+00    1.0000 >    0.8985   -0.0044    1.6054  736.5490 9821.3650   -1.2200    2.4925 320.38 320.4 127.0 10     0.0000    0.0180
M10          ?    BHN  e S      ? 20230103 0352   22.5753 GAU  2.07e-02 -1.00e+00 -1.00e+00 -1.00e+00    1.0000 >    1.5337    0.0071    1.2009  736.5490 9821.3650   -1.2200    2.4925 320.38 320.4 124.5 10     0.0000    0.0307
M05          ?    BHZ  e P      d 20230103 0352   22.3726 GAU  2.87e-02 -1.00e+00  4.28e+01 -1.00e+00    1.0000 >    1.0343    0.3038    0.0003  736.2660 9822.0830   -1.1500    3.2350 324.63 324.6 116.4 10     0.0000    0.0207
M05          ?    BHE  e S      ? 20230103 0352   23.2780 GAU  9.57e-03 -1.00e+00 -1.00e+00 -1.00e+00    1.0000 >    1.7622    0.4814    0.0003  736.2660 9822.0830   -1.1500    3.2350 324.63 324.6 113.0 10     0.0000    0.0352
END_PHASE
END_NLLOC

