NLLOC "./loc/SEML.20230120.192516.grid0" "LOCATED" "Location completed."
PUBLIC_ID None
SIGNATURE "Arham Zakki Edelo - edelo.17034@mhs.its.ac.id   obs:./obs/2023_01.obs   NLLoc:v7.00.10(30Aug2020)   run:28Dec2023 19h50m45"
COMMENT "SEML"
GRID  2001 2001 1001  727 9811 -2  0.01 0.01 0.01 PROB_DENSITY
SEARCH OCTREE nInitial 4851 nEvaluated 20011 smallestNodeSide 0.014881/0.014881/0.014205 oct_tree_integral 4.092865e-02 scatter_volume 4.092865e-02
HYPOCENTER  x 738.838 y 9819.06 z 0.919034  OT 16.074  ix -1 iy -1 iz -1 MAXIMUM_LIKELIHOOD
GEOGRAPHIC  OT 2023 01 20  19 25 16.073993  Lat 9819.058036 Long 738.837798 Depth 0.919034
QUALITY  Pmax 3.02565e+22 MFmin 30.1184 MFmax 39.7068 RMS 0.015079 Nphs 8 Gap 290.892 Dist 0.531081 Mamp -9.90 0 Mdur -9.90 0
VPVSRATIO  VpVsRatio 1.70245  Npair 4  Diff 0.225813
STATISTICS  ExpectX 738.869263 Y 9819.146077 Z 0.851924  CovXX 0.198447 XY 0.156037 XZ -0.0861782 YY 0.206919 YZ -0.11694 ZZ 0.136666 EllAz1  327.765 Dip1  27.7174 Len1  0.355925 Az2  276.678 Dip2  -50.0894 Len2  0.519475 Len3  1.231599e+00
STAT_GEOG  ExpectLat 9819.146077 Long 738.869263 Depth 0.851924
TRANSFORM  NONE
QML_OriginQuality  assocPhCt 8  usedPhCt 8  assocStaCt -1  usedStaCt 4  depthPhCt -1  stdErr 0.015079  azGap 290.892  secAzGap 290.892  gtLevel -  minDist 0.531081 maxDist 2.98664 medDist 1.81509
QML_OriginUncertainty  horUnc -1  minHorUnc 0.327344  maxHorUnc 0.908398  azMaxHorUnc 44.2225
QML_ConfidenceEllipsoid  semiMajorAxisLength 1.2316  semiMinorAxisLength 0.355925  semiIntermediateAxisLength 0.519475  majorAxisPlunge -26.2278  majorAxisAzimuth 42.7634  majorAxisRotation 135.142
FOCALMECH  Hyp  9819.058036 738.837798 0.919034 Mech  0 0 0 mf  0 nObs -1
PHASE ID Ins Cmp On Pha  FM Date     HrMn   Sec     Err  ErrMag    Coda      Amp       Per       PriorWt  >   TTpred    Res       Weight    StaLoc(X  Y         Z)        SDist    SAzim  RAz  RDip RQual    Tcorr       TTerr
M06          ?    BHZ  i P      c 20230120 1925   16.6915 GAU  7.18e-03 -1.00e+00 -1.00e+00 -1.00e+00    1.0000 >    0.6272   -0.0097    1.1958  738.3100 9819.1170   -1.3960    0.5311 276.37 276.4 166.6 10     0.0000    0.0125
M06          ?    BHN  e S      ? 20230120 1925   17.1557 GAU  4.61e-03 -1.00e+00 -1.00e+00 -1.00e+00    1.0000 >    1.0779    0.0038    1.1200  738.3100 9819.1170   -1.3960    0.5311 276.37 276.4 165.7 10     0.0000    0.0216
M11          ?    BHZ  e P      c 20230120 1925   16.7871 GAU  4.48e-03 -1.00e+00 -1.00e+00 -1.00e+00    1.0000 >    0.7056    0.0076    1.1577  738.4670 9820.4900   -1.3120    1.4792 345.48 345.5 145.5 10     0.0000    0.0141
M11          ?    BHN  e S      ? 20230120 1925   17.2885 GAU  5.37e-03 -1.00e+00 -1.00e+00 -1.00e+00    1.0000 >    1.2120    0.0025    1.0831  738.4670 9820.4900   -1.3120    1.4792 345.48 345.5 142.7 10     0.0000    0.0242
M09          ?    BHZ  i P      c 20230120 1925   16.8508 GAU  2.40e-03 -1.00e+00  6.77e+01 -1.00e+00    1.0000 >    0.8077   -0.0309    0.7419  737.8820 9820.9850   -1.2700    2.1510 333.62 333.6 134.0 10     0.0000    0.0162
M09          ?    BHE  e S      ? 20230120 1925   17.4248 GAU  1.59e-02 -1.00e+00  3.66e+02 -1.00e+00    1.0000 >    1.3866   -0.0358    0.7042  737.8820 9820.9850   -1.2700    2.1510 333.62 333.6 130.0 10     0.0000    0.0277
M13          ?    BHZ  e P      c 20230120 1925   17.0497 GAU  1.29e-03 -1.00e+00 -1.00e+00 -1.00e+00    1.0000 >    0.9662    0.0095    1.0890  737.1780 9821.5410   -1.2220    2.9866 326.24 326.2 123.4 10     0.0000    0.0193
M13          ?    BHE  e S      ? 20230120 1925   17.7398 GAU  1.07e-03 -1.00e+00 -1.00e+00 -1.00e+00    1.0000 >    1.6563    0.0094    0.9082  737.1780 9821.5410   -1.2220    2.9866 326.24 326.2 117.6 10     0.0000    0.0331
END_PHASE
END_NLLOC

