NLLOC "./loc/SEML.20230120.192803.grid0" "LOCATED" "Location completed."
PUBLIC_ID None
SIGNATURE "Arham Zakki Edelo - edelo.17034@mhs.its.ac.id   obs:./obs/2023_01.obs   NLLoc:v7.00.10(30Aug2020)   run:28Dec2023 19h50m47"
COMMENT "SEML"
GRID  2001 2001 1001  727 9811 -2  0.01 0.01 0.01 PROB_DENSITY
SEARCH OCTREE nInitial 4851 nEvaluated 20011 smallestNodeSide 0.014881/0.014881/0.014205 oct_tree_integral 3.909511e-02 scatter_volume 3.909511e-02
HYPOCENTER  x 738.585 y 9817.96 z 0.137784  OT 3.13867  ix -1 iy -1 iz -1 MAXIMUM_LIKELIHOOD
GEOGRAPHIC  OT 2023 01 20  19 28 3.138670  Lat 9817.956845 Long 738.584821 Depth 0.137784
QUALITY  Pmax 8.95892e+71 MFmin 76.2248 MFmax 90.0746 RMS 0.0343506 Nphs 22 Gap 303.948 Dist 1.19226 Mamp -9.90 0 Mdur -9.90 0
VPVSRATIO  VpVsRatio 1.6978  Npair 11  Diff 0.688608
STATISTICS  ExpectX 738.499860 Y 9818.025552 Z 0.240701  CovXX 0.106055 XY -0.0117046 XZ -0.0667049 YY 0.0209638 YZ 0.0117835 ZZ 0.0696308 EllAz1  330.711 Dip1  -38.9767 Len1  0.242052 Az2  213.717 Dip2  -29.2924 Len2  0.272917 Len3  7.490657e-01
STAT_GEOG  ExpectLat 9818.025552 Long 738.499860 Depth 0.240701
TRANSFORM  NONE
QML_OriginQuality  assocPhCt 22  usedPhCt 22  assocStaCt -1  usedStaCt 11  depthPhCt -1  stdErr 0.0343506  azGap 303.948  secAzGap 303.948  gtLevel -  minDist 1.19226 maxDist 5.69327 medDist 3.85037
QML_OriginUncertainty  horUnc -1  minHorUnc 0.211143  maxHorUnc 0.497556  azMaxHorUnc 97.691
QML_ConfidenceEllipsoid  semiMajorAxisLength 0.749066  semiMinorAxisLength 0.242052  semiIntermediateAxisLength 0.272917  majorAxisPlunge -37.1662  majorAxisAzimuth 98.547  majorAxisRotation 258.137
FOCALMECH  Hyp  9817.956845 738.584821 0.137784 Mech  0 0 0 mf  0 nObs -1
PHASE ID Ins Cmp On Pha  FM Date     HrMn   Sec     Err  ErrMag    Coda      Amp       Per       PriorWt  >   TTpred    Res       Weight    StaLoc(X  Y         Z)        SDist    SAzim  RAz  RDip RQual    Tcorr       TTerr
M06          ?    BHZ  i P      c 20230120 1928    3.8405 GAU  1.39e-03 -1.00e+00 -1.00e+00 -1.00e+00    1.0000 >    0.5196    0.1823    0.0036  738.3100 9819.1170   -1.3960    1.1923 346.67 346.7 140.8 10     0.0000    0.0104
M06          ?    BHE  e S      ? 20230120 1928    4.3682 GAU  9.97e-03 -1.00e+00 -1.00e+00 -1.00e+00    1.0000 >    0.9087    0.3208    0.0000  738.3100 9819.1170   -1.3960    1.1923 346.67 346.7 140.0 10     0.0000    0.0182
M04          ?    BHZ  i P      c 20230120 1928    3.8220 GAU  5.74e-03 -1.00e+00 -1.00e+00 -1.00e+00    1.0000 >    0.6931   -0.0098    1.6083  737.1400 9819.2520   -1.5710    1.9403 311.87 311.9 128.9 10     0.0000    0.0139
M04          ?    BHN  e S      ? 20230120 1928    4.3544 GAU  6.64e-03 -1.00e+00  7.89e+02 -1.00e+00    1.0000 >    1.2107    0.0050    1.6343  737.1400 9819.2520   -1.5710    1.9403 311.87 311.9 127.7 10     0.0000    0.0242
M14          ?    BHZ  e P      c 20230120 1928    3.9598 GAU  5.74e-03 -1.00e+00 -1.00e+00 -1.00e+00    1.0000 >    0.7390    0.0822    0.4738  737.5530 9820.0110   -1.3980    2.2987 333.33 333.3 120.8 10     0.0000    0.0148
M14          ?    BHE  e S      ? 20230120 1928    4.4413 GAU  1.19e-02 -1.00e+00  4.22e+02 -1.00e+00    1.0000 >    1.2930    0.0096    1.5876  737.5530 9820.0110   -1.3980    2.2987 333.33 333.3 119.0 10     0.0000    0.0259
M11          ?    BHZ  i P      c 20230120 1928    3.9577 GAU  2.77e-03 -1.00e+00 -1.00e+00 -1.00e+00    1.0000 >    0.7795    0.0395    1.2235  738.4670 9820.4900   -1.3120    2.5359 357.34 357.3 116.6 10     0.0000    0.0156
M11          ?    BHN  e S      ? 20230120 1928    4.5057 GAU  6.64e-03 -1.00e+00 -1.00e+00 -1.00e+00    1.0000 >    1.3651    0.0019    1.5898  738.4670 9820.4900   -1.3120    2.5359 357.34 357.3 114.3 10     0.0000    0.0273
M09          ?    BHZ  i P      c 20230120 1928    4.0497 GAU  4.61e-03 -1.00e+00  2.45e+01 -1.00e+00    1.0000 >    0.9094    0.0016    1.6962  737.8820 9820.9850   -1.2700    3.1086 346.93 346.9 110.8 10     0.0000    0.0182
M09          ?    BHN  e S      ? 20230120 1928    4.7472 GAU  6.64e-03 -1.00e+00  4.81e+02 -1.00e+00    1.0000 >    1.5937    0.0148    1.5180  737.8820 9820.9850   -1.2700    3.1086 346.93 346.9 107.4 10     0.0000    0.0319
M13          ?    BHZ  e P      c 20230120 1928    4.1920 GAU  4.15e-03 -1.00e+00 -1.00e+00 -1.00e+00    1.0000 >    1.0860   -0.0327    1.1432  737.1780 9821.5410   -1.2220    3.8504 338.57 338.6 105.4 10     0.0000    0.0217
M13          ?    BHE  e S      ? 20230120 1928    4.9495 GAU  9.57e-03 -1.00e+00 -1.00e+00 -1.00e+00    1.0000 >    1.9044   -0.0936    0.4443  737.1780 9821.5410   -1.2220    3.8504 338.57 338.6 100.6 10     0.0000    0.0381
M10          ?    BHZ  i P      c 20230120 1928    4.1672 GAU  1.72e-02 -1.00e+00 -1.00e+00 -1.00e+00    1.0000 >    1.1156   -0.0870    0.4046  736.5490 9821.3650   -1.2200    3.9699 329.15 329.1 104.8 10     0.0000    0.0223
M10          ?    BHN  e S      ? 20230120 1928    4.7771 GAU  1.44e-02 -1.00e+00 -1.00e+00 -1.00e+00    1.0000 >    1.9563   -0.3178    0.0043  736.5490 9821.3650   -1.2200    3.9699 329.15 329.1  99.8 10     0.0000    0.0391
M08          ?    BHZ  i P      c 20230120 1928    4.3345 GAU  5.98e-03 -1.00e+00  4.82e+01 -1.00e+00    1.0000 >    1.1699    0.0260    1.5013  738.2480 9822.1600   -1.1510    4.2166 355.42 355.4 103.0 10     0.0000    0.0234
M08          ?    BHN  e S      ? 20230120 1928    5.1887 GAU  2.76e-03 -1.00e+00  3.05e+02 -1.00e+00    1.0000 >    2.0527   -0.0027    1.4019  738.2480 9822.1600   -1.1510    4.2166 355.42 355.4  97.5  9     0.0000    0.0411
M05          ?    BHZ  i P      c 20230120 1928    4.5188 GAU  4.98e-03 -1.00e+00 -1.00e+00 -1.00e+00    1.0000 >    1.3003    0.0798    0.6219  736.2660 9822.0830   -1.1500    4.7331 330.66 330.7 101.1 10     0.0000    0.0260
M05          ?    BHN  e S      ? 20230120 1928    5.4390 GAU  4.66e-03 -1.00e+00  2.54e+02 -1.00e+00    1.0000 >    2.2807    0.0197    1.3339  736.2660 9822.0830   -1.1500    4.7331 330.66 330.7  95.5  9     0.0000    0.0456
M15          ?    BHZ  i P      c 20230120 1928    4.5469 GAU  5.98e-03 -1.00e+00 -1.00e+00 -1.00e+00    1.0000 >    1.4537   -0.0454    0.9555  739.3310 9823.3170   -0.9530    5.4118   7.93   7.9  98.0 10     0.0000    0.0291
M15          ?    BHE  e S      ? 20230120 1928    5.5315 GAU  4.01e-03 -1.00e+00 -1.00e+00 -1.00e+00    1.0000 >    2.5491   -0.1563    0.1558  739.3310 9823.3170   -0.9530    5.4118   7.93   7.9  93.3  9     0.0000    0.0510
M12          ?    BHZ  i P      c 20230120 1928    4.6834 GAU  5.98e-03 -1.00e+00 -1.00e+00 -1.00e+00    1.0000 >    1.5292    0.0155    1.5321  736.8520 9823.3800   -0.9890    5.6933 342.28 342.3  97.6 10     0.0000    0.0306
M12          ?    BHE  e S      ? 20230120 1928    5.8535 GAU  1.03e-02 -1.00e+00  1.00e+01 -1.00e+00    1.0000 >    2.6801    0.0347    1.1659  736.8520 9823.3800   -0.9890    5.6933 342.28 342.3  93.1  9     0.0000    0.0536
END_PHASE
END_NLLOC

