NLLOC "./loc/SEML.20230120.191548.grid0" "LOCATED" "Location completed."
PUBLIC_ID None
SIGNATURE "Arham Zakki Edelo - edelo.17034@mhs.its.ac.id   obs:./obs/2023_01.obs   NLLoc:v7.00.10(30Aug2020)   run:28Dec2023 19h50m31"
COMMENT "SEML"
GRID  2001 2001 1001  727 9811 -2  0.01 0.01 0.01 PROB_DENSITY
SEARCH OCTREE nInitial 4851 nEvaluated 20003 smallestNodeSide 0.007440/0.007440/0.007102 oct_tree_integral 3.943446e-03 scatter_volume 3.866910e-03
HYPOCENTER  x 738.198 y 9819.1 z 0.649148  OT 47.9133  ix -1 iy -1 iz -1 MAXIMUM_LIKELIHOOD
GEOGRAPHIC  OT 2023 01 20  19 15 47.913290  Lat 9819.102679 Long 738.197917 Depth 0.649148
QUALITY  Pmax 1.19076e+107 MFmin 108.36 MFmax 119.403 RMS 0.0175857 Nphs 28 Gap 195.316 Dist 0.112995 Mamp -9.90 0 Mdur -9.90 0
VPVSRATIO  VpVsRatio 1.76731  Npair 14  Diff 0.508808
STATISTICS  ExpectX 738.215048 Y 9819.091797 Z 0.646563  CovXX 0.00542561 XY -0.000603263 XZ -0.000679729 YY 0.00319935 YZ -0.00181443 ZZ 0.00546723 EllAz1  16.1054 Dip1  28.9792 Len1  0.0835863 Az2  290.889 Dip2  -8.56324 Len2  0.139923 Len3  1.522511e-01
STAT_GEOG  ExpectLat 9819.091797 Long 738.215048 Depth 0.646563
TRANSFORM  NONE
QML_OriginQuality  assocPhCt 28  usedPhCt 28  assocStaCt -1  usedStaCt 14  depthPhCt -1  stdErr 0.0175857  azGap 195.316  secAzGap 195.316  gtLevel -  minDist 0.112995 maxDist 4.48408 medDist 2.41742
QML_OriginUncertainty  horUnc -1  minHorUnc 0.0837061  maxHorUnc 0.113273  azMaxHorUnc 104.228
QML_ConfidenceEllipsoid  semiMajorAxisLength 0.152251  semiMinorAxisLength 0.0835863  semiIntermediateAxisLength 0.139923  majorAxisPlunge -59.5453  majorAxisAzimuth 35.7277  majorAxisRotation 261.502
FOCALMECH  Hyp  9819.102679 738.197917 0.649148 Mech  0 0 0 mf  0 nObs -1
PHASE ID Ins Cmp On Pha  FM Date     HrMn   Sec     Err  ErrMag    Coda      Amp       Per       PriorWt  >   TTpred    Res       Weight    StaLoc(X  Y         Z)        SDist    SAzim  RAz  RDip RQual    Tcorr       TTerr
M06          ?    BHZ  i P      c 20230120 1915   48.4662 GAU  2.31e-03 -1.00e+00  8.46e+02 -1.00e+00    1.0000 >    0.5429    0.0101    1.4257  738.3100 9819.1170   -1.3960    0.1130  82.72  82.7 176.5  9     0.0000    0.0109
M06          ?    BHN  e S      ? 20230120 1915   48.8792 GAU  2.42e-03 -1.00e+00 -1.00e+00 -1.00e+00    1.0000 >    0.9411    0.0249    1.0193  738.3100 9819.1170   -1.3960    0.1130  82.72  82.7 176.2  9     0.0000    0.0188
M04          ?    BHZ  e P      c 20230120 1915   48.5651 GAU  6.73e-03 -1.00e+00 -1.00e+00 -1.00e+00    1.0000 >    0.6550   -0.0032    1.4824  737.1400 9819.2520   -1.5710    1.0684 278.03 278.0 153.3 10     0.0000    0.0131
M04          ?    BHN  e S      ? 20230120 1915   49.0430 GAU  8.24e-03 -1.00e+00  8.02e+02 -1.00e+00    1.0000 >    1.1350   -0.0053    1.2471  737.1400 9819.2520   -1.5710    1.0684 278.03 278.0 150.9 10     0.0000    0.0227
M14          ?    BHZ  i P      c 20230120 1915   48.5348 GAU  3.32e-03 -1.00e+00  5.49e+02 -1.00e+00    1.0000 >    0.6179    0.0036    1.5130  737.5530 9820.0110   -1.3980    1.1140 324.62 324.6 150.4 10     0.0000    0.0124
M14          ?    BHN  e S      ? 20230120 1915   48.9921 GAU  4.81e-03 -1.00e+00 -1.00e+00 -1.00e+00    1.0000 >    1.0710    0.0078    1.2828  737.5530 9820.0110   -1.3980    1.1140 324.62 324.6 147.8 10     0.0000    0.0214
M11          ?    BHZ  i P      c 20230120 1915   48.5323 GAU  2.93e-03 -1.00e+00  3.99e+02 -1.00e+00    1.0000 >    0.6397   -0.0206    1.1280  738.4670 9820.4900   -1.3120    1.4132  10.98  11.0 143.0 10     0.0000    0.0128
M11          ?    BHN  e S      ? 20230120 1915   48.9985 GAU  2.28e-03 -1.00e+00 -1.00e+00 -1.00e+00    1.0000 >    1.1089   -0.0237    0.9981  738.4670 9820.4900   -1.3120    1.4132  10.98  11.0 139.4 10     0.0000    0.0222
M02          ?    BHZ  i P      c 20230120 1915   48.6264 GAU  2.17e-03 -1.00e+00 -1.00e+00 -1.00e+00    1.0000 >    0.7150   -0.0020    1.4937  736.5970 9819.4060   -1.4960    1.6294 280.73 280.7 141.3 10     0.0000    0.0143
M02          ?    BHN  e S      ? 20230120 1915   49.1340 GAU  2.95e-03 -1.00e+00 -1.00e+00 -1.00e+00    1.0000 >    1.2390   -0.0183    1.0767  736.5970 9819.4060   -1.4960    1.6294 280.73 280.7 137.5 10     0.0000    0.0248
M09          ?    BHZ  i P      c 20230120 1915   48.6249 GAU  2.87e-03 -1.00e+00  3.08e+02 -1.00e+00    1.0000 >    0.7152   -0.0036    1.4828  737.8820 9820.9850   -1.2700    1.9086 350.47 350.5 133.3 10     0.0000    0.0143
M09          ?    BHN  e S      ? 20230120 1915   49.1712 GAU  2.82e-03 -1.00e+00 -1.00e+00 -1.00e+00    1.0000 >    1.2397    0.0182    1.1104  737.8820 9820.9850   -1.2700    1.9086 350.47 350.5 128.4 10     0.0000    0.0248
M03          ?    BHZ  e P      d 20230120 1915   48.6911 GAU  2.30e-03 -1.00e+00  4.91e+02 -1.00e+00    1.0000 >    0.7822   -0.0044    1.4493  736.8800 9820.8540   -1.3350    2.1918 323.04 323.0 129.9 10     0.0000    0.0156
M03          ?    BHE  e S      ? 20230120 1915   49.2694 GAU  2.53e-03 -1.00e+00 -1.00e+00 -1.00e+00    1.0000 >    1.3554    0.0007    1.1974  736.8800 9820.8540   -1.3350    2.1918 323.04 323.0 124.2 10     0.0000    0.0271
M13          ?    BHZ  i P      c 20230120 1915   48.7525 GAU  3.99e-03 -1.00e+00  5.71e+00 -1.00e+00    1.0000 >    0.8549   -0.0156    1.2347  737.1780 9821.5410   -1.2220    2.6430 337.30 337.3 122.7 10     0.0000    0.0171
M13          ?    BHE  e S      ? 20230120 1915   49.3982 GAU  1.99e-03 -1.00e+00 -1.00e+00 -1.00e+00    1.0000 >    1.4809    0.0040    1.1445  737.1780 9821.5410   -1.2220    2.6430 337.30 337.3 115.1 10     0.0000    0.0296
M10          ?    BHZ  i P      c 20230120 1915   48.8640 GAU  2.21e-03 -1.00e+00 -1.00e+00 -1.00e+00    1.0000 >    0.8885    0.0622    0.3150  736.5490 9821.3650   -1.2200    2.7995 323.91 323.9 121.0 10     0.0000    0.0178
M10          ?    BHN  e S      ? 20230120 1915   49.5896 GAU  2.89e-03 -1.00e+00 -1.00e+00 -1.00e+00    1.0000 >    1.5389    0.1374    0.0462  736.5490 9821.3650   -1.2200    2.7995 323.91 323.9 112.9 10     0.0000    0.0308
M08          ?    BHZ  i P      d 20230120 1915   48.8448 GAU  2.44e-03 -1.00e+00 -1.00e+00 -1.00e+00    1.0000 >    0.9352   -0.0037    1.3806  738.2480 9822.1600   -1.1510    3.0577   0.94   0.9 117.6 10     0.0000    0.0187
M08          ?    BHN  e S      ? 20230120 1915   49.5620 GAU  2.21e-03 -1.00e+00  4.89e+02 -1.00e+00    1.0000 >    1.6190    0.0297    0.8899  738.2480 9822.1600   -1.1510    3.0577   0.94   0.9 108.2 10     0.0000    0.0324
M05          ?    BHZ  i P      d 20230120 1915   48.9971 GAU  3.84e-03 -1.00e+00  3.50e+02 -1.00e+00    1.0000 >    1.0490    0.0348    0.8059  736.2660 9822.0830   -1.1500    3.5517 327.05 327.0 113.6 10     0.0000    0.0210
M05          ?    BHN  e S      ? 20230120 1915   49.8187 GAU  3.34e-03 -1.00e+00  4.01e+02 -1.00e+00    1.0000 >    1.8140    0.0914    0.2267  736.2660 9822.0830   -1.1500    3.5517 327.05 327.0 102.6 10     0.0000    0.0363
M01          ?    BHZ  e P      c 20230120 1915   49.0333 GAU  2.35e-03 -1.00e+00 -1.00e+00 -1.00e+00    1.0000 >    1.1159    0.0041    1.2963  736.4090 9822.5140   -1.1200    3.8519 332.33 332.3 111.3 10     0.0000    0.0223
M01          ?    BHE  e S      ? 20230120 1915   49.8774 GAU  2.67e-03 -1.00e+00  4.27e+02 -1.00e+00    1.0000 >    1.9274    0.0368    0.7770  736.4090 9822.5140   -1.1200    3.8519 332.33 332.3  99.6  9     0.0000    0.0385
M15          ?    BHZ  i P      d 20230120 1915   48.9902 GAU  2.07e-03 -1.00e+00  5.92e+01 -1.00e+00    1.0000 >    1.2185   -0.1416    0.0152  739.3310 9823.3170   -0.9530    4.3640  15.05  15.0 106.7 10     0.0000    0.0244
M15          ?    BHE  e S      ? 20230120 1915   49.7945 GAU  3.15e-03 -1.00e+00 -1.00e+00 -1.00e+00    1.0000 >    2.0953   -0.2140    0.0141  739.3310 9823.3170   -0.9530    4.3640  15.05  15.0  95.7  9     0.0000    0.0419
M12          ?    BHZ  i P      d 20230120 1915   49.1448 GAU  2.94e-03 -1.00e+00 -1.00e+00 -1.00e+00    1.0000 >    1.2524   -0.0209    1.0271  736.8520 9823.3800   -0.9890    4.4841 342.53 342.5 106.4 10     0.0000    0.0250
M12          ?    BHE  e S      ? 20230120 1915   50.0665 GAU  2.33e-03 -1.00e+00  6.27e+01 -1.00e+00    1.0000 >    2.1530    0.0003    0.9201  736.8520 9823.3800   -0.9890    4.4841 342.53 342.5  95.5  9     0.0000    0.0431
END_PHASE
END_NLLOC

