NLLOC "./loc/SEML.20230120.192938.grid0" "LOCATED" "Location completed."
PUBLIC_ID None
SIGNATURE "Arham Zakki Edelo - edelo.17034@mhs.its.ac.id   obs:./obs/2023_01.obs   NLLoc:v7.00.10(30Aug2020)   run:28Dec2023 19h50m49"
COMMENT "SEML"
GRID  2001 2001 1001  727 9811 -2  0.01 0.01 0.01 PROB_DENSITY
SEARCH OCTREE nInitial 4851 nEvaluated 20011 smallestNodeSide 0.014881/0.014881/0.014205 oct_tree_integral 4.708361e-02 scatter_volume 4.639844e-02
HYPOCENTER  x 738.205 y 9818.04 z 0.428977  OT 38.1701  ix -1 iy -1 iz -1 MAXIMUM_LIKELIHOOD
GEOGRAPHIC  OT 2023 01 20  19 29 38.170102  Lat 9818.038690 Long 738.205357 Depth 0.428977
QUALITY  Pmax 7.41239e+56 MFmin 62.007 MFmax 73.5662 RMS 0.0271618 Nphs 18 Gap 322.343 Dist 1.08338 Mamp -9.90 0 Mdur -9.90 0
VPVSRATIO  VpVsRatio 1.77437  Npair 9  Diff 0.640099
STATISTICS  ExpectX 738.218270 Y 9818.023801 Z 0.388040  CovXX 0.0304712 XY 0.00743982 XZ 0.000170199 YY 0.0220133 YZ 0.0051712 ZZ 0.0316989 EllAz1  152.323 Dip1  16.3863 Len1  0.240564 Az2  83.5984 Dip2  -50.978 Len2  0.331306 Len3  3.599062e-01
STAT_GEOG  ExpectLat 9818.023801 Long 738.218270 Depth 0.388040
TRANSFORM  NONE
QML_OriginQuality  assocPhCt 18  usedPhCt 18  assocStaCt -1  usedStaCt 9  depthPhCt -1  stdErr 0.0271618  azGap 322.343  secAzGap 322.343  gtLevel -  minDist 1.08338 maxDist 5.5101 medDist 3.64988
QML_OriginUncertainty  horUnc -1  minHorUnc 0.201679  maxHorUnc 0.282913  azMaxHorUnc 59.8075
QML_ConfidenceEllipsoid  semiMajorAxisLength 0.359906  semiMinorAxisLength 0.240564  semiIntermediateAxisLength 0.331306  majorAxisPlunge -34.2551  majorAxisAzimuth 230.772  majorAxisRotation 135.252
FOCALMECH  Hyp  9818.038690 738.205357 0.428977 Mech  0 0 0 mf  0 nObs -1
PHASE ID Ins Cmp On Pha  FM Date     HrMn   Sec     Err  ErrMag    Coda      Amp       Per       PriorWt  >   TTpred    Res       Weight    StaLoc(X  Y         Z)        SDist    SAzim  RAz  RDip RQual    Tcorr       TTerr
M06          ?    BHZ  i P      c 20230120 1929   38.8632 GAU  2.00e-03 -1.00e+00 -1.00e+00 -1.00e+00    1.0000 >    0.5648    0.1284    0.1253  738.3100 9819.1170   -1.3960    1.0834   5.54   5.5 148.4 10     0.0000    0.0113
M06          ?    BHE  e S      ? 20230120 1929   39.4423 GAU  3.15e-03 -1.00e+00 -1.00e+00 -1.00e+00    1.0000 >    0.9852    0.2870    0.0017  738.3100 9819.1170   -1.3960    1.0834   5.54   5.5 147.9 10     0.0000    0.0197
M14          ?    BHZ  e P      c 20230120 1929   38.9022 GAU  5.98e-03 -1.00e+00 -1.00e+00 -1.00e+00    1.0000 >    0.7356   -0.0035    1.7697  737.5530 9820.0110   -1.3980    2.0774 341.70 341.7 129.4 10     0.0000    0.0147
M14          ?    BHE  e S      ? 20230120 1929   39.4645 GAU  8.04e-03 -1.00e+00  4.73e+02 -1.00e+00    1.0000 >    1.2833    0.0111    1.5175  737.5530 9820.0110   -1.3980    2.0774 341.70 341.7 128.4 10     0.0000    0.0257
M11          ?    BHZ  i P      c 20230120 1929   38.9752 GAU  3.46e-03 -1.00e+00 -1.00e+00 -1.00e+00    1.0000 >    0.8012    0.0039    1.7575  738.4670 9820.4900   -1.3120    2.4652   6.09   6.1 123.0 10     0.0000    0.0160
M11          ?    BHN  e S      ? 20230120 1929   39.6084 GAU  4.01e-03 -1.00e+00 -1.00e+00 -1.00e+00    1.0000 >    1.3985    0.0398    0.9826  738.4670 9820.4900   -1.3120    2.4652   6.09   6.1 121.7 10     0.0000    0.0280
M09          ?    BHZ  i P      c 20230120 1929   39.0626 GAU  5.77e-03 -1.00e+00  1.03e+02 -1.00e+00    1.0000 >    0.9060   -0.0135    1.6072  737.8820 9820.9850   -1.2700    2.9640 353.74 353.7 117.3 10     0.0000    0.0181
M09          ?    BHE  e S      ? 20230120 1929   39.6971 GAU  2.40e-03 -1.00e+00  3.48e+02 -1.00e+00    1.0000 >    1.5819   -0.0549    0.7321  737.8820 9820.9850   -1.2700    2.9640 353.74 353.7 115.6 10     0.0000    0.0316
M13          ?    BHZ  i P      c 20230120 1929   39.1886 GAU  6.64e-03 -1.00e+00 -1.00e+00 -1.00e+00    1.0000 >    1.0608   -0.0422    0.9143  737.1780 9821.5410   -1.2220    3.6499 343.65 343.7 111.6 10     0.0000    0.0212
M13          ?    BHN  e S      ? 20230120 1929   40.0144 GAU  1.92e-03 -1.00e+00 -1.00e+00 -1.00e+00    1.0000 >    1.8526   -0.0084    1.3705  737.1780 9821.5410   -1.2220    3.6499 343.65 343.7 109.3 10     0.0000    0.0371
M08          ?    BHZ  i P      c 20230120 1929   39.3408 GAU  4.61e-03 -1.00e+00 -1.00e+00 -1.00e+00    1.0000 >    1.1665    0.0042    1.6303  738.2480 9822.1600   -1.1510    4.1215   0.59   0.6 108.2 10     0.0000    0.0233
M08          ?    BHE  e S      ? 20230120 1929   40.1841 GAU  1.93e-03 -1.00e+00 -1.00e+00 -1.00e+00    1.0000 >    2.0379   -0.0239    1.2011  738.2480 9822.1600   -1.1510    4.1215   0.59   0.6 105.5 10     0.0000    0.0408
M05          ?    BHZ  e P      c 20230120 1929   39.4406 GAU  5.54e-03 -1.00e+00  7.27e+01 -1.00e+00    1.0000 >    1.2561    0.0144    1.4946  736.2660 9822.0830   -1.1500    4.4853 334.38 334.4 106.5 10     0.0000    0.0251
M05          ?    BHN  e S      ? 20230120 1929   40.3864 GAU  6.64e-03 -1.00e+00  2.85e+02 -1.00e+00    1.0000 >    2.1943    0.0220    1.1707  736.2660 9822.0830   -1.1500    4.4853 334.38 334.4 103.6 10     0.0000    0.0439
M15          ?    BHZ  i P      c 20230120 1929   39.3369 GAU  8.61e-03 -1.00e+00 -1.00e+00 -1.00e+00    1.0000 >    1.4630   -0.2961    0.0003  739.3310 9823.3170   -0.9530    5.3970  12.04  12.0 101.9 10     0.0000    0.0293
M15          ?    BHN  e S      ? 20230120 1929   40.1957 GAU  6.73e-03 -1.00e+00 -1.00e+00 -1.00e+00    1.0000 >    2.5274   -0.5018    0.0003  739.3310 9823.3170   -0.9530    5.3970  12.04  12.0  67.2 10     0.0000    0.0505
M12          ?    BHZ  e P      c 20230120 1929   39.6769 GAU  5.98e-03 -1.00e+00 -1.00e+00 -1.00e+00    1.0000 >    1.4954    0.0114    1.4542  736.8520 9823.3800   -0.9890    5.5101 345.78 345.8 101.9 10     0.0000    0.0299
M12          ?    BHE  e S      ? 20230120 1929   40.8792 GAU  4.40e-03 -1.00e+00  3.32e+01 -1.00e+00    1.0000 >    2.5824    0.1267    0.2703  736.8520 9823.3800   -0.9890    5.5101 345.78 345.8  67.2 10     0.0000    0.0516
END_PHASE
END_NLLOC

