NLLOC "./loc/SEML.20230120.192307.grid0" "LOCATED" "Location completed."
PUBLIC_ID None
SIGNATURE "Arham Zakki Edelo - edelo.17034@mhs.its.ac.id   obs:./obs/2023_01.obs   NLLoc:v7.00.10(30Aug2020)   run:28Dec2023 19h50m42"
COMMENT "SEML"
GRID  2001 2001 1001  727 9811 -2  0.01 0.01 0.01 PROB_DENSITY
SEARCH OCTREE nInitial 4851 nEvaluated 20019 smallestNodeSide 0.014881/0.014881/0.014205 oct_tree_integral 7.323771e-02 scatter_volume 7.323771e-02
HYPOCENTER  x 738.808 y 9818.09 z 0.365057  OT 6.85011  ix -1 iy -1 iz -1 MAXIMUM_LIKELIHOOD
GEOGRAPHIC  OT 2023 01 20  19 23 6.850113  Lat 9818.090774 Long 738.808036 Depth 0.365057
QUALITY  Pmax 1.67553e+50 MFmin 56.7373 MFmax 66.7113 RMS 0.0322925 Nphs 16 Gap 333.233 Dist 1.14069 Mamp -9.90 0 Mdur -9.90 0
VPVSRATIO  VpVsRatio 1.80765  Npair 8  Diff 0.519817
STATISTICS  ExpectX 738.932526 Y 9818.064262 Z 0.338087  CovXX 0.0917045 XY 0.0149536 XZ -0.00885184 YY 0.0220655 YZ 0.00513983 ZZ 0.0690616 EllAz1  347.605 Dip1  -7.72762 Len1  0.252527 Az2  232.173 Dip2  -72.4645 Len2  0.489392 Len3  5.849111e-01
STAT_GEOG  ExpectLat 9818.064262 Long 738.932526 Depth 0.338087
TRANSFORM  NONE
QML_OriginQuality  assocPhCt 16  usedPhCt 16  assocStaCt -1  usedStaCt 8  depthPhCt -1  stdErr 0.0322925  azGap 333.233  secAzGap 333.233  gtLevel -  minDist 1.14069 maxDist 4.73284 medDist 3.42733
QML_OriginUncertainty  horUnc -1  minHorUnc 0.208992  maxHorUnc 0.466897  azMaxHorUnc 78.3792
QML_ConfidenceEllipsoid  semiMajorAxisLength 0.584911  semiMinorAxisLength 0.252527  semiIntermediateAxisLength 0.489392  majorAxisPlunge -15.6421  majorAxisAzimuth 79.7828  majorAxisRotation 189.37
FOCALMECH  Hyp  9818.090774 738.808036 0.365057 Mech  0 0 0 mf  0 nObs -1
PHASE ID Ins Cmp On Pha  FM Date     HrMn   Sec     Err  ErrMag    Coda      Amp       Per       PriorWt  >   TTpred    Res       Weight    StaLoc(X  Y         Z)        SDist    SAzim  RAz  RDip RQual    Tcorr       TTerr
M06          ?    BHZ  i P      d 20230120 1923    7.4439 GAU  5.67e-03 -1.00e+00 -1.00e+00 -1.00e+00    1.0000 >    0.5589    0.0350    1.1298  738.3100 9819.1170   -1.3960    1.1407 334.11 334.1 146.1 10     0.0000    0.0112
M06          ?    BHE  e S      ? 20230120 1923    7.9642 GAU  7.97e-03 -1.00e+00 -1.00e+00 -1.00e+00    1.0000 >    0.9754    0.1387    0.1752  738.3100 9819.1170   -1.3960    1.1407 334.11 334.1 145.5 10     0.0000    0.0195
M14          ?    BHZ  e P      c 20230120 1923    7.6059 GAU  2.77e-03 -1.00e+00 -1.00e+00 -1.00e+00    1.0000 >    0.7701   -0.0143    1.2733  737.5530 9820.0110   -1.3980    2.2940 326.83 326.8 125.3 10     0.0000    0.0154
M14          ?    BHE  e S      ? 20230120 1923    8.1915 GAU  2.45e-03 -1.00e+00  3.89e+02 -1.00e+00    1.0000 >    1.3442   -0.0027    1.3478  737.5530 9820.0110   -1.3980    2.2940 326.83 326.8 124.1 10     0.0000    0.0269
M11          ?    BHZ  e P      c 20230120 1923    7.6304 GAU  5.98e-03 -1.00e+00 -1.00e+00 -1.00e+00    1.0000 >    0.7831   -0.0029    1.4512  738.4670 9820.4900   -1.3120    2.4233 351.91 351.9 122.4 10     0.0000    0.0157
M11          ?    BHN  e S      ? 20230120 1923    8.2170 GAU  3.46e-03 -1.00e+00 -1.00e+00 -1.00e+00    1.0000 >    1.3678   -0.0009    1.3534  738.4670 9820.4900   -1.3120    2.4233 351.91 351.9 120.9 10     0.0000    0.0274
M09          ?    BHZ  i P      c 20230120 1923    7.7883 GAU  2.77e-03 -1.00e+00  1.18e+02 -1.00e+00    1.0000 >    0.9160    0.0223    1.3916  737.8820 9820.9850   -1.2700    3.0388 342.26 342.3 115.6 10     0.0000    0.0183
M09          ?    BHN  e S      ? 20230120 1923    8.4692 GAU  4.01e-03 -1.00e+00  4.67e+02 -1.00e+00    1.0000 >    1.6003    0.0188    1.2849  737.8820 9820.9850   -1.2700    3.0388 342.26 342.3 113.6 10     0.0000    0.0320
M13          ?    BHZ  i P      c 20230120 1923    7.9083 GAU  5.29e-03 -1.00e+00 -1.00e+00 -1.00e+00    1.0000 >    1.0951   -0.0370    0.7347  737.1780 9821.5410   -1.2220    3.8159 334.71 334.7 109.5 10     0.0000    0.0219
M13          ?    BHN  e S      ? 20230120 1923    8.7611 GAU  3.37e-03 -1.00e+00 -1.00e+00 -1.00e+00    1.0000 >    1.9140   -0.0030    1.1823  737.1780 9821.5410   -1.2220    3.8159 334.71 334.7 106.9 10     0.0000    0.0383
M10          ?    BHZ  i P      d 20230120 1923    8.0827 GAU  6.87e-03 -1.00e+00  2.52e+02 -1.00e+00    1.0000 >    1.1345    0.0981    0.3150  736.5490 9821.3650   -1.2200    3.9779 325.40 325.4 108.6 10     0.0000    0.0227
M10          ?    BHE  e S      ? 20230120 1923    9.0494 GAU  5.98e-03 -1.00e+00 -1.00e+00 -1.00e+00    1.0000 >    1.9827    0.2166    0.0406  736.5490 9821.3650   -1.2200    3.9779 325.40 325.4 105.8 10     0.0000    0.0397
M08          ?    BHZ  e P      d 20230120 1923    8.0084 GAU  9.97e-03 -1.00e+00  1.81e+02 -1.00e+00    1.0000 >    1.1580    0.0003    1.3943  738.2480 9822.1600   -1.1510    4.1076 352.16 352.2 107.3 10     0.0000    0.0232
M08          ?    BHN  e S      ? 20230120 1923    8.9206 GAU  3.13e-03 -1.00e+00  2.94e+02 -1.00e+00    1.0000 >    2.0246    0.0459    0.9789  738.2480 9822.1600   -1.1510    4.1076 352.16 352.2 104.2 10     0.0000    0.0405
M05          ?    BHZ  e P      d 20230120 1923    8.1874 GAU  4.15e-03 -1.00e+00  2.59e+02 -1.00e+00    1.0000 >    1.3133    0.0239    1.3105  736.2660 9822.0830   -1.1500    4.7328 327.51 327.5 104.6 10     0.0000    0.0263
M05          ?    BHN  e S      ? 20230120 1923    9.2275 GAU  4.92e-03 -1.00e+00  2.60e+02 -1.00e+00    1.0000 >    2.2956    0.0818    0.6366  736.2660 9822.0830   -1.1500    4.7328 327.51 327.5 101.3 10     0.0000    0.0459
END_PHASE
END_NLLOC

