NLLOC "./loc/SEML.20230120.191202.grid0" "LOCATED" "Location completed."
PUBLIC_ID None
SIGNATURE "Arham Zakki Edelo - edelo.17034@mhs.its.ac.id   obs:./obs/2023_01.obs   NLLoc:v7.00.10(30Aug2020)   run:28Dec2023 19h50m24"
COMMENT "SEML"
GRID  2001 2001 1001  727 9811 -2  0.01 0.01 0.01 PROB_DENSITY
SEARCH OCTREE nInitial 4851 nEvaluated 20011 smallestNodeSide 0.014881/0.014881/0.014205 oct_tree_integral 1.522283e-02 scatter_volume 1.513429e-02
HYPOCENTER  x 737.9 y 9819 z 0.663352  OT 2.08185  ix -1 iy -1 iz -1 MAXIMUM_LIKELIHOOD
GEOGRAPHIC  OT 2023 01 20  19 12 2.081854  Lat 9818.998512 Long 737.900298 Depth 0.663352
QUALITY  Pmax 4.76775e+98 MFmin 108.058 MFmax 130.208 RMS 0.0380309 Nphs 28 Gap 213.492 Dist 0.426492 Mamp -9.90 0 Mdur -9.90 0
VPVSRATIO  VpVsRatio 1.69765  Npair 14  Diff 0.603842
STATISTICS  ExpectX 737.789014 Y 9818.940639 Z 0.662069  CovXX 0.0298992 XY 0.010084 XZ 0.00278493 YY 0.0122192 YZ -0.00104244 ZZ 0.0154089 EllAz1  334.482 Dip1  14.4588 Len1  0.158398 Az2  178.975 Dip2  74.18 Len2  0.235554 Len3  3.499938e-01
STAT_GEOG  ExpectLat 9818.940639 Long 737.789014 Depth 0.662069
TRANSFORM  NONE
QML_OriginQuality  assocPhCt 28  usedPhCt 28  assocStaCt -1  usedStaCt 14  depthPhCt -1  stdErr 0.0380309  azGap 213.492  secAzGap 213.492  gtLevel -  minDist 0.426492 maxDist 4.54931 medDist 2.3803
QML_OriginUncertainty  horUnc -1  minHorUnc 0.132637  maxHorUnc 0.281566  azMaxHorUnc 65.6195
QML_ConfidenceEllipsoid  semiMajorAxisLength 0.349994  semiMinorAxisLength 0.158398  semiIntermediateAxisLength 0.235554  majorAxisPlunge 6.28303  majorAxisAzimuth 66.109  majorAxisRotation 165.111
FOCALMECH  Hyp  9818.998512 737.900298 0.663352 Mech  0 0 0 mf  0 nObs -1
PHASE ID Ins Cmp On Pha  FM Date     HrMn   Sec     Err  ErrMag    Coda      Amp       Per       PriorWt  >   TTpred    Res       Weight    StaLoc(X  Y         Z)        SDist    SAzim  RAz  RDip RQual    Tcorr       TTerr
M06          ?    BHZ  i P      c 20230120 1912    2.6540 GAU  2.11e-03 -1.00e+00 -1.00e+00 -1.00e+00    1.0000 >    0.5575    0.0146    1.6217  738.3100 9819.1170   -1.3960    0.4265  73.87  73.9 167.8 10     0.0000    0.0111
M06          ?    BHE  e S      ? 20230120 1912    3.0319 GAU  2.47e-03 -1.00e+00 -1.00e+00 -1.00e+00    1.0000 >    0.9659   -0.0158    1.5231  738.3100 9819.1170   -1.3960    0.4265  73.87  73.9 166.7 10     0.0000    0.0193
M04          ?    BHZ  e P      c 20230120 1912    2.6304 GAU  2.14e-03 -1.00e+00  4.61e+01 -1.00e+00    1.0000 >    0.6310   -0.0825    0.4351  737.1400 9819.2520   -1.5710    0.8014 288.44 288.4 159.5 10     0.0000    0.0126
M04          ?    BHN  e S      ? 20230120 1912    3.0035 GAU  2.82e-03 -1.00e+00  8.04e+02 -1.00e+00    1.0000 >    1.0928   -0.1712    0.0552  737.1400 9819.2520   -1.5710    0.8014 288.44 288.4 157.8 10     0.0000    0.0219
M14          ?    BHZ  e P      c 20230120 1912    2.7022 GAU  5.98e-03 -1.00e+00 -1.00e+00 -1.00e+00    1.0000 >    0.6157    0.0047    1.8542  737.5530 9820.0110   -1.3980    1.0704 341.07 341.1 151.6 10     0.0000    0.0123
M14          ?    BHE  e S      ? 20230120 1912    3.1448 GAU  1.63e-02 -1.00e+00  3.88e+02 -1.00e+00    1.0000 >    1.0666   -0.0037    1.5381  737.5530 9820.0110   -1.3980    1.0704 341.07 341.1 149.1 10     0.0000    0.0213
M02          ?    BHZ  e P      c 20230120 1912    2.8246 GAU  2.42e-03 -1.00e+00 -1.00e+00 -1.00e+00    1.0000 >    0.6782    0.0646    0.4170  736.5970 9819.4060   -1.4960    1.3655 287.36 287.4 146.5 10     0.0000    0.0136
M02          ?    BHE  e S      ? 20230120 1912    3.3983 GAU  2.26e-03 -1.00e+00 -1.00e+00 -1.00e+00    1.0000 >    1.1746    0.1419    0.2838  736.5970 9819.4060   -1.4960    1.3655 287.36 287.4 143.4 10     0.0000    0.0235
M11          ?    BHZ  i P      c 20230120 1912    2.7514 GAU  2.18e-03 -1.00e+00 -1.00e+00 -1.00e+00    1.0000 >    0.6716   -0.0021    1.8757  738.4670 9820.4900   -1.3120    1.5955  20.80  20.8 139.7 10     0.0000    0.0134
M11          ?    BHN  e S      ? 20230120 1912    3.2454 GAU  3.34e-03 -1.00e+00  5.81e+01 -1.00e+00    1.0000 >    1.1636    0.0000    1.6249  738.4670 9820.4900   -1.3120    1.5955  20.80  20.8 135.8 10     0.0000    0.0233
M09          ?    BHZ  i P      c 20230120 1912    2.8080 GAU  2.72e-03 -1.00e+00 -1.00e+00 -1.00e+00    1.0000 >    0.7323   -0.0061    1.8019  737.8820 9820.9850   -1.2700    1.9866 359.47 359.5 132.3 10     0.0000    0.0146
M09          ?    BHE  e S      ? 20230120 1912    3.3625 GAU  2.54e-03 -1.00e+00  3.01e+02 -1.00e+00    1.0000 >    1.2685    0.0121    1.5035  737.8820 9820.9850   -1.2700    1.9866 359.47 359.5 127.2 10     0.0000    0.0254
M03          ?    BHZ  e P      c 20230120 1912    2.8459 GAU  2.50e-03 -1.00e+00 -1.00e+00 -1.00e+00    1.0000 >    0.7701   -0.0061    1.7871  736.8800 9820.8540   -1.3350    2.1175 331.19 331.2 131.3 10     0.0000    0.0154
M03          ?    BHN  e S      ? 20230120 1912    3.4406 GAU  3.11e-03 -1.00e+00 -1.00e+00 -1.00e+00    1.0000 >    1.3338    0.0249    1.2846  736.8800 9820.8540   -1.3350    2.1175 331.19 331.2 125.9 10     0.0000    0.0267
M13          ?    BHZ  e P      c 20230120 1912    2.9284 GAU  2.91e-03 -1.00e+00 -1.00e+00 -1.00e+00    1.0000 >    0.8569   -0.0103    1.6770  737.1780 9821.5410   -1.2220    2.6431 344.14 344.1 122.9 10     0.0000    0.0171
M13          ?    BHE  e S      ? 20230120 1912    3.5728 GAU  2.62e-03 -1.00e+00 -1.00e+00 -1.00e+00    1.0000 >    1.4834    0.0075    1.4617  737.1780 9821.5410   -1.2220    2.6431 344.14 344.1 115.5 10     0.0000    0.0297
M10          ?    BHZ  e P      d 20230120 1912    2.9053 GAU  2.29e-03 -1.00e+00  1.64e+03 -1.00e+00    1.0000 >    0.8742   -0.0508    0.6361  736.5490 9821.3650   -1.2200    2.7251 330.27 330.3 122.0 10     0.0000    0.0175
M10          ?    BHN  e S      ? 20230120 1912    3.5188 GAU  2.59e-03 -1.00e+00  6.98e+03 -1.00e+00    1.0000 >    1.5133   -0.0763    0.5650  736.5490 9821.3650   -1.2200    2.7251 330.27 330.3 114.3 10     0.0000    0.0303
M08          ?    BHZ  e P      c 20230120 1912    3.0835 GAU  2.31e-03 -1.00e+00 -1.00e+00 -1.00e+00    1.0000 >    0.9648    0.0368    0.9658  738.2480 9822.1600   -1.1510    3.1806   6.28   6.3 116.8 10     0.0000    0.0193
M08          ?    BHE  e S      ? 20230120 1912    3.8313 GAU  2.13e-03 -1.00e+00 -1.00e+00 -1.00e+00    1.0000 >    1.6688    0.0807    0.5477  738.2480 9822.1600   -1.1510    3.1806   6.28   6.3 107.3 10     0.0000    0.0334
M05          ?    BHZ  e P      d 20230120 1912    3.0297 GAU  2.85e-03 -1.00e+00  2.66e+02 -1.00e+00    1.0000 >    1.0363   -0.0884    0.4322  736.2660 9822.0830   -1.1500    3.4907 332.08 332.1 114.3 10     0.0000    0.0207
M05          ?    BHE  e S      ? 20230120 1912    3.7504 GAU  2.27e-03 -1.00e+00 -1.00e+00 -1.00e+00    1.0000 >    1.7910   -0.1225    0.2724  736.2660 9822.0830   -1.1500    3.4907 332.08 332.1 103.9 10     0.0000    0.0358
M01          ?    BHZ  e P      c 20230120 1912    3.3001 GAU  2.10e-03 -1.00e+00 -1.00e+00 -1.00e+00    1.0000 >    1.1093    0.1089    0.3612  736.4090 9822.5140   -1.1200    3.8187 337.01 337.0 111.7 10     0.0000    0.0222
M01          ?    BHE  e S      ? 20230120 1912    4.1851 GAU  3.29e-03 -1.00e+00  4.47e+02 -1.00e+00    1.0000 >    1.9150    0.1882    0.1635  736.4090 9822.5140   -1.1200    3.8187 337.01 337.0 100.5 10     0.0000    0.0383
M12          ?    BHZ  e P      c 20230120 1912    3.4494 GAU  2.22e-03 -1.00e+00 -1.00e+00 -1.00e+00    1.0000 >    1.2586    0.1090    0.3755  736.8520 9823.3800   -0.9890    4.5051 346.54 346.5 106.6 10     0.0000    0.0252
M12          ?    BHN  e S      ? 20230120 1912    4.4264 GAU  3.56e-03 -1.00e+00 -1.00e+00 -1.00e+00    1.0000 >    2.1622    0.1824    0.1925  736.8520 9823.3800   -0.9890    4.5051 346.54 346.5  95.9  9     0.0000    0.0432
M15          ?    BHZ  e P      d 20230120 1912    3.3374 GAU  1.67e-03 -1.00e+00  6.49e+02 -1.00e+00    1.0000 >    1.2650   -0.0095    1.5294  739.3310 9823.3170   -0.9530    4.5493  18.33  18.3 106.0 10     0.0000    0.0253
M15          ?    BHN  e S      ? 20230120 1912    4.2371 GAU  2.11e-03 -1.00e+00 -1.00e+00 -1.00e+00    1.0000 >    2.1714   -0.0162    1.2141  739.3310 9823.3170   -0.9530    4.5493  18.33  18.3  95.6  9     0.0000    0.0434
END_PHASE
END_NLLOC

