#  2023   4  1 11 45   0.952045  -1.708469805  101.138595841   5.47159  0  0  0  0.03599930  2876
M06  2.39995500  1.000  P
M06  4.04405500  1.000  S
M04  2.45675500  1.000  P
M04  4.06585500  1.000  S
M02  2.50515500  1.000  P
M02  4.11115500  1.000  S
M14  2.52165500  1.000  P
M14  4.25395500  1.000  S
M11  2.59175500  1.000  P
M11  4.35675500  1.000  S
M09  2.71095500  1.000  P
M09  4.59665500  1.000  S
M10  2.83175500  1.000  P
M10  4.70475500  1.000  S
M13  2.82275500  1.000  P
M13  4.70895500  1.000  S
M08  3.01305500  1.000  P
M08  4.97145500  1.000  S
M05  2.97285500  1.000  P
M05  5.04715500  1.000  S
M01  2.99045500  1.000  P
M01  5.06905500  1.000  S
M12  3.20205500  1.000  P
M12  5.36375500  1.000  S
#  2023   4  4 21 16  12.366575  -1.641063413  101.141597655   1.84943  0  0  0  0.04072190  2877
M06  0.55532500  1.000  P
M06  1.09002500  1.000  S
M14  0.69562500  1.000  P
M14  1.18102500  1.000  S
M02  0.75072500  1.000  P
M02  1.32052500  1.000  S
M11  0.73182500  1.000  P
M11  1.29812500  1.000  S
M09  0.76132500  1.000  P
M09  1.45542500  1.000  S
M13  0.93302500  1.000  P
M13  1.65742500  1.000  S
M08  1.22822500  1.000  P
M08  2.05782500  1.000  S
M05  1.18062500  1.000  P
M05  2.17962500  1.000  S
M12  1.41702500  1.000  P
M12  2.61602500  1.000  S
#  2023   4  4 21 17  38.918352  -1.641606745  101.136785317   2.33239  0  0  0  0.01985560  2878
M06  0.69374800  1.000  P
M06  1.26834800  1.000  S
M14  0.77534800  1.000  P
M14  1.31934800  1.000  S
M11  0.83794800  1.000  P
M11  1.46074800  1.000  S
M09  0.92744800  1.000  P
M09  1.66424800  1.000  S
#  2023   4  4 21 19  37.684975  -1.642600832  101.150623476   2.24006  0  0  0  0.01901990  2879
M06  0.70582500  1.000  P
M06  1.23862500  1.000  S
M11  0.89132500  1.000  P
M11  1.47792500  1.000  S
M14  0.65322500  1.000  P
M14  1.12112500  1.000  S
M09  0.98192500  1.000  P
M09  1.62232500  1.000  S
M05  1.39132500  1.000  P
M05  2.37282500  1.000  S
#  2023   4  4 21 20   7.907937  -1.643482477  101.144006686   2.21875  0  0  0  0.01746650  2880
M06  0.66386300  1.000  P
M06  1.15006300  1.000  S
M14  0.82856300  1.000  P
M14  1.42056300  1.000  S
M11  0.85516300  1.000  P
M11  1.46006300  1.000  S
M09  0.89806300  1.000  P
M09  1.56936300  1.000  S
#  2023   4  4 21 21  24.196731  -1.641403712  101.137921485   1.61506  0  0  0  0.04501890  2881
M06  0.51606900  1.000  P
M06  1.04396900  1.000  S
M04  0.54606900  1.000  P
M04  0.95396900  1.000  S
M02  0.65106900  1.000  P
M02  1.13926900  1.000  S
M14  0.65496900  1.000  P
M14  1.09356900  1.000  S
M11  0.67516900  1.000  P
M11  1.25506900  1.000  S
M09  0.70656900  1.000  P
M09  1.40796900  1.000  S
M13  0.86826900  1.000  P
M13  1.56556900  1.000  S
M10  0.80426900  1.000  P
M10  1.32186900  1.000  S
M08  1.18036900  1.000  P
M08  2.16686900  1.000  S
M05  1.19756900  1.000  P
M05  2.18886900  1.000  S
M12  1.35366900  1.000  P
M12  2.39066900  1.000  S
#  2023   4  4 21 21  37.945518  -1.646437938  101.148020603   1.11079  0  0  0  0.00570581  2882
M06  0.64278200  1.000  P
M06  1.17098200  1.000  S
M14  0.77078200  1.000  P
M14  1.33498200  1.000  S
M11  0.77578200  1.000  P
M11  1.37018200  1.000  S
M09  0.92778200  1.000  P
M09  1.64608200  1.000  S
#  2023   4  4 21 21  52.757319  -1.643217731  101.139995647   2.78693  0  0  0  0.02293050  2883
M06  0.78708100  1.000  P
M06  1.35758100  1.000  S
M14  0.79998100  1.000  P
M14  1.21178100  1.000  S
M11  0.95448100  1.000  P
M11  1.59948100  1.000  S
M09  1.00788100  1.000  P
M09  1.70668100  1.000  S
M13  1.22898100  1.000  P
M13  2.16808100  1.000  S
M08  1.58018100  1.000  P
M08  2.56088100  1.000  S
#  2023   4  4 21 21  54.950048  -1.646156265  101.128534607   1.47656  0  0  0  0.03812020  2884
M04  0.60235200  1.000  P
M04  1.19755200  1.000  S
M06  0.66915200  1.000  P
M06  1.17915200  1.000  S
M14  0.73605200  1.000  P
M14  1.28245200  1.000  S
M11  0.72385200  1.000  P
M11  1.43665200  1.000  S
M09  0.95145200  1.000  P
M09  1.65885200  1.000  S
M13  1.04435200  1.000  P
M13  1.96935200  1.000  S
M08  1.36935200  1.000  P
M08  2.43365200  1.000  S
#  2023   4  4 21 22   3.630297  -1.642401845  101.148016287   2.84375  0  0  0  0.01167630  2885
M06  0.81370300  1.000  P
M06  1.39330300  1.000  S
M11  0.94560300  1.000  P
M11  1.60760300  1.000  S
M09  1.03620300  1.000  P
M09  1.73680300  1.000  S
M05  1.36870300  1.000  P
M05  2.35800300  1.000  S
#  2023   4  7  6 28  12.294873  -1.642820883  101.133711676   1.66477  0  0  0  0.04837900  2886
M06  0.58672700  1.000  P
M06  1.17332700  1.000  S
M14  0.66382700  1.000  P
M14  1.13772700  1.000  S
M11  0.75572700  1.000  P
M11  1.38642700  1.000  S
M09  0.85112700  1.000  P
M09  1.66532700  1.000  S
M13  0.97472700  1.000  P
M13  1.69892700  1.000  S
M05  1.30922700  1.000  P
M05  2.36322700  1.000  S
M08  1.11562700  1.000  P
M08  2.10322700  1.000  S
#  2023   4 13  0 27  12.004878  -1.572864628  101.130430484   6.49432  0  0  0  0.03309380  2887
M05  1.81532200  1.000  P
M05  3.03452200  1.000  S
M08  1.79842200  1.000  P
M08  3.00572200  1.000  S
M13  1.88882200  1.000  P
M13  3.12922200  1.000  S
M10  1.86582200  1.000  P
M10  3.08022200  1.000  S
M09  1.99532200  1.000  P
M09  3.33542200  1.000  S
M11  2.06092200  1.000  P
M11  3.43992200  1.000  S
M02  2.07582200  1.000  P
M02  3.40692200  1.000  S
M06  2.30972200  1.000  P
M06  3.92682200  1.000  S
#  2023   4 14  3 58   7.158064  -1.686409866  101.134828117   1.89204  0  0  0  0.10495000  2888
M06  1.58683600  1.000  P
M06  2.84093600  1.000  S
M04  1.64103600  1.000  P
M04  2.64173600  1.000  S
M02  1.70273600  1.000  P
M02  2.88593600  1.000  S
M11  2.07713600  1.000  P
M11  3.30553600  1.000  S
M09  2.04873600  1.000  P
M09  3.41443600  1.000  S
M10  2.58043600  1.000  P
M10  4.65323600  1.000  S
M13  2.53993600  1.000  P
M13  3.86283600  1.000  S
M12  3.18323600  1.000  P
M12  5.53573600  1.000  S
#  2023   4 14  5 51  20.805683  -1.602398289  101.127987454   1.37358  0  0  0  0.01983810  2889
M05  0.40491700  1.000  P
M05  0.74461700  1.000  S
M13  0.47451700  1.000  P
M13  0.84561700  1.000  S
M10  0.48041700  1.000  P
M10  0.91341700  1.000  S
M09  0.68231700  1.000  P
M09  1.17181700  1.000  S
M11  0.86941700  1.000  P
M11  1.54581700  1.000  S
M06  1.13041700  1.000  P
M06  1.98251700  1.000  S
#  2023   4 14  5 51  25.799562  -1.608048469  101.128394373   1.84233  0  0  0  0.00736878  2890
M05  0.48363800  1.000  P
M05  0.83533800  1.000  S
M13  0.51543800  1.000  P
M13  0.89593800  1.000  S
M10  0.52133800  1.000  P
M10  0.91893800  1.000  S
M09  0.71703800  1.000  P
M09  1.24793800  1.000  S
#  2023   4 18  3 36   9.806259  -1.571252371  101.128289836   1.55114  0  0  0  0.03691700  2891
M09  1.47664100  1.000  P
M09  2.58464100  1.000  S
M11  1.73634100  1.000  P
M11  3.05964100  1.000  S
M02  1.87414100  1.000  P
M02  3.27494100  1.000  S
M06  1.95374100  1.000  P
M06  3.40434100  1.000  S
