NLLOC "./loc/SEML.20230407.062812.grid0" "LOCATED" "Location completed."
PUBLIC_ID None
SIGNATURE "Arham Zakki Edelo - edelo.17034@mhs.its.ac.id   obs:./obs/2023_04.obs   NLLoc:v7.00.10(30Aug2020)   run:28Dec2023 19h58m42"
COMMENT "SEML"
GRID  2001 2001 1001  727 9811 -2  0.01 0.01 0.01 PROB_DENSITY
SEARCH OCTREE nInitial 4851 nEvaluated 20011 smallestNodeSide 0.029762/0.029762/0.028409 oct_tree_integral 6.314159e-02 scatter_volume 6.314159e-02
HYPOCENTER  x 737.387 y 9818.29 z 0.414773  OT 12.2949  ix -1 iy -1 iz -1 MAXIMUM_LIKELIHOOD
GEOGRAPHIC  OT 2023 04 07  06 28 12.294873  Lat 9818.291667 Long 737.386905 Depth 0.414773
QUALITY  Pmax 7.55838e+40 MFmin 52.5159 MFmax 62.4334 RMS 0.048379 Nphs 14 Gap 295.329 Dist 1.23826 Mamp -9.90 0 Mdur -9.90 0
VPVSRATIO  VpVsRatio 1.8926  Npair 7  Diff 0.580079
STATISTICS  ExpectX 737.578985 Y 9817.786941 Z 0.624401  CovXX 0.600313 XY -0.0482034 XZ -0.0755733 YY 0.154638 YZ -0.0421239 ZZ 0.315028 EllAz1  8.63296 Dip1  16.3838 Len1  0.689797 Az2  327.698 Dip2  -68.7351 Len2  1.05142 Len3  1.481798e+00
STAT_GEOG  ExpectLat 9817.786941 Long 737.578985 Depth 0.624401
TRANSFORM  NONE
QML_OriginQuality  assocPhCt 14  usedPhCt 14  assocStaCt -1  usedStaCt 7  depthPhCt -1  stdErr 0.048379  azGap 295.329  secAzGap 295.329  gtLevel -  minDist 1.23826 maxDist 3.96301 medDist 2.73846
QML_OriginUncertainty  horUnc -1  minHorUnc 0.586357  maxHorUnc 1.18007  azMaxHorUnc 96.103
QML_ConfidenceEllipsoid  semiMajorAxisLength 1.4818  semiMinorAxisLength 0.689797  semiIntermediateAxisLength 1.05142  majorAxisPlunge -13.178  majorAxisAzimuth 94.6856  majorAxisRotation 161.336
FOCALMECH  Hyp  9818.291667 737.386905 0.414773 Mech  0 0 0 mf  0 nObs -1
PHASE ID Ins Cmp On Pha  FM Date     HrMn   Sec     Err  ErrMag    Coda      Amp       Per       PriorWt  >   TTpred    Res       Weight    StaLoc(X  Y         Z)        SDist    SAzim  RAz  RDip RQual    Tcorr       TTerr
M06          ?    BHZ  i P      c 20230407 0628   12.8816 GAU  5.37e-04 -1.00e+00  8.83e+01 -1.00e+00    1.0000 >    0.5838    0.0029    1.7199  738.3100 9819.1170   -1.3960    1.2383  48.20  48.2 144.6 10     0.0000    0.0117
M06          ?    BHE  i S      ? 20230407 0628   13.4682 GAU  8.05e-04 -1.00e+00  8.35e+01 -1.00e+00    1.0000 >    1.0185    0.1548    0.4151  738.3100 9819.1170   -1.3960    1.2383  48.20  48.2 144.0 10     0.0000    0.0204
M14          ?    BHZ  i P      c 20230407 0628   12.9587 GAU  2.32e-03 -1.00e+00 -1.00e+00 -1.00e+00    1.0000 >    0.6660   -0.0022    1.7388  737.5530 9820.0110   -1.3980    1.7273   5.52   5.5 134.9 10     0.0000    0.0133
M14          ?    BHE  e S      ? 20230407 0628   13.4326 GAU  5.97e-04 -1.00e+00  3.73e+02 -1.00e+00    1.0000 >    1.1619   -0.0242    1.2417  737.5530 9820.0110   -1.3980    1.7273   5.52   5.5 134.1 10     0.0000    0.0232
M11          ?    BHZ  i P      c 20230407 0628   13.0506 GAU  1.39e-03 -1.00e+00 -1.00e+00 -1.00e+00    1.0000 >    0.7957   -0.0400    0.7038  738.4670 9820.4900   -1.3120    2.4493  26.17  26.2 123.0 10     0.0000    0.0159
M11          ?    BHN  i S      ? 20230407 0628   13.6813 GAU  1.11e-03 -1.00e+00 -1.00e+00 -1.00e+00    1.0000 >    1.3891   -0.0027    1.3767  738.4670 9820.4900   -1.3120    2.4493  26.17  26.2 121.6 10     0.0000    0.0278
M09          ?    BHZ  i P      c 20230407 0628   13.1460 GAU  1.56e-03 -1.00e+00  1.92e+02 -1.00e+00    1.0000 >    0.8529   -0.0018    1.6539  737.8820 9820.9850   -1.2700    2.7385  10.42  10.4 119.2 10     0.0000    0.0171
M09          ?    BHN  e S      ? 20230407 0628   13.9602 GAU  2.55e-03 -1.00e+00  5.52e+02 -1.00e+00    1.0000 >    1.4894    0.1759    0.4141  737.8820 9820.9850   -1.2700    2.7385  10.42  10.4 117.6 10     0.0000    0.0298
M13          ?    BHZ  i P      c 20230407 0628   13.2696 GAU  1.55e-03 -1.00e+00 -1.00e+00 -1.00e+00    1.0000 >    0.9655    0.0092    1.4321  737.1780 9821.5410   -1.2220    3.2560 356.32 356.3 114.1 10     0.0000    0.0193
M13          ?    BHN  e S      ? 20230407 0628   13.9938 GAU  6.74e-04 -1.00e+00  1.21e+01 -1.00e+00    1.0000 >    1.6866    0.0124    1.1253  737.1780 9821.5410   -1.2220    3.2560 356.32 356.3 112.0 10     0.0000    0.0337
M05          ?    BHZ  i P      c 20230407 0628   13.6041 GAU  2.54e-03 -1.00e+00  3.62e+01 -1.00e+00    1.0000 >    1.1240    0.1852    0.3761  736.2660 9822.0830   -1.1500    3.9536 343.53 343.5 108.8 10     0.0000    0.0225
M05          ?    BHE  e S      ? 20230407 0628   14.6581 GAU  1.42e-03 -1.00e+00 -1.00e+00 -1.00e+00    1.0000 >    1.9642    0.3991    0.0000  736.2660 9822.0830   -1.1500    3.9536 343.53 343.5 106.2 10     0.0000    0.0393
M08          ?    BHZ  i P      c 20230407 0628   13.4105 GAU  1.78e-03 -1.00e+00  2.09e+02 -1.00e+00    1.0000 >    1.1264   -0.0108    1.4825  738.2480 9822.1600   -1.1510    3.9630  12.55  12.5 108.8 10     0.0000    0.0225
M08          ?    BHN  e S      ? 20230407 0628   14.3981 GAU  7.76e-04 -1.00e+00  3.54e+02 -1.00e+00    1.0000 >    1.9684    0.1348    0.3199  738.2480 9822.1600   -1.1510    3.9630  12.55  12.5 106.1 10     0.0000    0.0394
END_PHASE
END_NLLOC

