NLLOC "./loc/SEML.20230413.002713.grid0" "LOCATED" "Location completed."
PUBLIC_ID None
SIGNATURE "Arham Zakki Edelo - edelo.17034@mhs.its.ac.id   obs:./obs/2023_04.obs   NLLoc:v7.00.10(30Aug2020)   run:28Dec2023 19h58m42"
COMMENT "SEML"
GRID  2001 2001 1001  727 9811 -2  0.01 0.01 0.01 PROB_DENSITY
SEARCH OCTREE nInitial 4851 nEvaluated 20011 smallestNodeSide 0.059524/0.059524/0.056818 oct_tree_integral 1.438801e+00 scatter_volume 1.438801e+00
HYPOCENTER  x 737.03 y 9826.03 z 5.24432  OT 12.0049  ix -1 iy -1 iz -1 MAXIMUM_LIKELIHOOD
GEOGRAPHIC  OT 2023 04 13  00 27 12.004878  Lat 9826.029762 Long 737.029762 Depth 5.244318
QUALITY  Pmax 1.42435e+48 MFmin 40.0573 MFmax 43.9303 RMS 0.0330938 Nphs 16 Gap 331.573 Dist 4.01998 Mamp -9.90 0 Mdur -9.90 0
VPVSRATIO  VpVsRatio 1.79111  Npair 8  Diff 0.409822
STATISTICS  ExpectX 736.627405 Y 9825.538986 Z 5.375793  CovXX 0.769924 XY 0.76873 XZ -0.262308 YY 1.32488 YZ -0.501325 ZZ 0.316289 EllAz1  334.903 Dip1  57.4509 Len1  0.586744 Az2  295.155 Dip2  -26.1393 Len2  0.970299 Len3  2.688016e+00
STAT_GEOG  ExpectLat 9825.538986 Long 736.627405 Depth 5.375793
TRANSFORM  NONE
QML_OriginQuality  assocPhCt 16  usedPhCt 16  assocStaCt -1  usedStaCt 8  depthPhCt -1  stdErr 0.0330938  azGap 331.573  secAzGap 331.573  gtLevel -  minDist 4.01998 maxDist 7.03031 medDist 4.90286
QML_OriginUncertainty  horUnc -1  minHorUnc 0.727527  maxHorUnc 2.07093  azMaxHorUnc 35.0762
QML_ConfidenceEllipsoid  semiMajorAxisLength 2.68802  semiMinorAxisLength 0.586744  semiIntermediateAxisLength 0.970299  majorAxisPlunge -17.9891  majorAxisAzimuth 34.3243  majorAxisRotation 112.926
FOCALMECH  Hyp  9826.029762 737.029762 5.244318 Mech  0 0 0 mf  0 nObs -1
PHASE ID Ins Cmp On Pha  FM Date     HrMn   Sec     Err  ErrMag    Coda      Amp       Per       PriorWt  >   TTpred    Res       Weight    StaLoc(X  Y         Z)        SDist    SAzim  RAz  RDip RQual    Tcorr       TTerr
M05          ?    BHZ  i P      d 20230413 0027   13.8202 GAU  8.91e-04 -1.00e+00  2.42e+02 -1.00e+00    1.0000 >    1.8008    0.0145    1.3479  736.2660 9822.0830   -1.1500    4.0200 190.95 191.0 145.5 10     0.0000    0.0360
M05          ?    BHE  e S      ? 20230413 0027   15.0394 GAU  1.16e-03 -1.00e+00 -1.00e+00 -1.00e+00    1.0000 >    3.0036    0.0310    1.0633  736.2660 9822.0830   -1.1500    4.0200 190.95 191.0 145.1 10     0.0000    0.0601
M08          ?    BHZ  i P      d 20230413 0027   13.8033 GAU  1.90e-03 -1.00e+00  3.48e+02 -1.00e+00    1.0000 >    1.8057   -0.0073    1.3875  738.2480 9822.1600   -1.1510    4.0570 162.53 162.5 145.3 10     0.0000    0.0361
M08          ?    BHE  e S      ? 20230413 0027   15.0106 GAU  2.82e-03 -1.00e+00 -1.00e+00 -1.00e+00    1.0000 >    3.0117   -0.0060    1.1579  738.2480 9822.1600   -1.1510    4.0570 162.53 162.5 144.9 10     0.0000    0.0602
M13          ?    BHZ  e P      d 20230413 0027   13.8937 GAU  1.20e-03 -1.00e+00 -1.00e+00 -1.00e+00    1.0000 >    1.8796    0.0093    1.3594  737.1780 9821.5410   -1.2220    4.4912 178.11 178.1 142.6 10     0.0000    0.0376
M13          ?    BHN  e S      ? 20230413 0027   15.1341 GAU  1.67e-03 -1.00e+00 -1.00e+00 -1.00e+00    1.0000 >    3.1358   -0.0065    1.1357  737.1780 9821.5410   -1.2220    4.4912 178.11 178.1 142.1 10     0.0000    0.0627
M10          ?    BHZ  e P      c 20230413 0027   13.8707 GAU  6.01e-03 -1.00e+00  1.29e+02 -1.00e+00    1.0000 >    1.9062   -0.0404    1.1392  736.5490 9821.3650   -1.2200    4.6895 185.88 185.9 141.3 10     0.0000    0.0381
M10          ?    BHE  e S      ? 20230413 0027   15.0851 GAU  6.09e-03 -1.00e+00 -1.00e+00 -1.00e+00    1.0000 >    3.1800   -0.0998    0.6086  736.5490 9821.3650   -1.2200    4.6895 185.88 185.9 140.8 10     0.0000    0.0636
M09          ?    BHZ  i P      c 20230413 0027   14.0002 GAU  3.28e-03 -1.00e+00  4.25e+01 -1.00e+00    1.0000 >    1.9787    0.0166    1.3059  737.8820 9820.9850   -1.2700    5.1162 170.41 170.4 138.9 10     0.0000    0.0396
M09          ?    BHN  e S      ? 20230413 0027   15.3403 GAU  1.58e-03 -1.00e+00  4.49e+02 -1.00e+00    1.0000 >    3.3014    0.0341    1.0077  737.8820 9820.9850   -1.2700    5.1162 170.41 170.4 138.4 10     0.0000    0.0660
M11          ?    BHZ  e P      d 20230413 0027   14.0658 GAU  2.93e-03 -1.00e+00  2.03e+01 -1.00e+00    1.0000 >    2.0799   -0.0190    1.2947  738.4670 9820.4900   -1.3120    5.7232 165.46 165.5 135.6 10     0.0000    0.0416
M11          ?    BHE  e S      ? 20230413 0027   15.4448 GAU  7.21e-03 -1.00e+00 -1.00e+00 -1.00e+00    1.0000 >    3.4702   -0.0302    1.0293  738.4670 9820.4900   -1.3120    5.7232 165.46 165.5 135.1 10     0.0000    0.0694
M02          ?    BHZ  i P      d 20230413 0027   14.0807 GAU  1.80e-03 -1.00e+00 -1.00e+00 -1.00e+00    1.0000 >    2.2682   -0.1924    0.0968  736.5970 9819.4060   -1.4960    6.6379 183.74 183.7 131.5 10     0.0000    0.0454
M02          ?    BHN  e S      ? 20230413 0027   15.4118 GAU  2.95e-03 -1.00e+00 -1.00e+00 -1.00e+00    1.0000 >    3.7866   -0.3796    0.0111  736.5970 9819.4060   -1.4960    6.6379 183.74 183.7 130.9 10     0.0000    0.0757
M06          ?    BHZ  i P      c 20230413 0027   14.3146 GAU  2.21e-03 -1.00e+00 -1.00e+00 -1.00e+00    1.0000 >    2.3130   -0.0033    1.2941  738.3100 9819.1170   -1.3960    7.0303 169.51 169.5 129.3 10     0.0000    0.0463
M06          ?    BHE  e S      ? 20230413 0027   15.9317 GAU  3.17e-03 -1.00e+00 -1.00e+00 -1.00e+00    1.0000 >    3.8585    0.0683    0.7606  738.3100 9819.1170   -1.3960    7.0303 169.51 169.5 128.6 10     0.0000    0.0772
END_PHASE
END_NLLOC

