NLLOC "./loc/SEML.20230404.212153.grid0" "LOCATED" "Location completed."
PUBLIC_ID None
SIGNATURE "Arham Zakki Edelo - edelo.17034@mhs.its.ac.id   obs:./obs/2023_04.obs   NLLoc:v7.00.10(30Aug2020)   run:28Dec2023 19h58m41"
COMMENT "SEML"
GRID  2001 2001 1001  727 9811 -2  0.01 0.01 0.01 PROB_DENSITY
SEARCH OCTREE nInitial 4851 nEvaluated 20011 smallestNodeSide 0.029762/0.029762/0.028409 oct_tree_integral 8.748890e-02 scatter_volume 8.748890e-02
HYPOCENTER  x 738.086 y 9818.25 z 1.53693  OT 52.7573  ix -1 iy -1 iz -1 MAXIMUM_LIKELIHOOD
GEOGRAPHIC  OT 2023 04 04  21 21 52.757319  Lat 9818.247024 Long 738.086310 Depth 1.536932
QUALITY  Pmax 1.09161e+31 MFmin 41.9311 MFmax 48.8209 RMS 0.0229305 Nphs 12 Gap 328.758 Dist 0.898274 Mamp -9.90 0 Mdur -9.90 0
VPVSRATIO  VpVsRatio 1.72097  Npair 6  Diff 0.568996
STATISTICS  ExpectX 739.230630 Y 9818.549583 Z 0.794677  CovXX 1.50041 XY 0.549363 XZ -1.1967 YY 0.252558 YZ -0.513939 ZZ 1.20014 EllAz1  354.226 Dip1  18.4033 Len1  0.297907 Az2  283.496 Dip2  -44.7663 Len2  0.722509 Len3  3.132686e+00
STAT_GEOG  ExpectLat 9818.549583 Long 739.230630 Depth 0.794677
TRANSFORM  NONE
QML_OriginQuality  assocPhCt 12  usedPhCt 12  assocStaCt -1  usedStaCt 6  depthPhCt -1  stdErr 0.0229305  azGap 328.758  secAzGap 328.758  gtLevel -  minDist 0.898274 maxDist 3.91632 medDist 2.51032
QML_OriginUncertainty  horUnc -1  minHorUnc 0.322322  maxHorUnc 1.9819  azMaxHorUnc 69.3182
QML_ConfidenceEllipsoid  semiMajorAxisLength 3.13269  semiMinorAxisLength 0.297907  semiIntermediateAxisLength 0.722509  majorAxisPlunge -39.4892  majorAxisAzimuth 68.3139  majorAxisRotation 113.096
FOCALMECH  Hyp  9818.247024 738.086310 1.536932 Mech  0 0 0 mf  0 nObs -1
PHASE ID Ins Cmp On Pha  FM Date     HrMn   Sec     Err  ErrMag    Coda      Amp       Per       PriorWt  >   TTpred    Res       Weight    StaLoc(X  Y         Z)        SDist    SAzim  RAz  RDip RQual    Tcorr       TTerr
M06          ?    BHZ  i P      d 20230404 2121   53.5444 GAU  1.43e-03 -1.00e+00 -1.00e+00 -1.00e+00    1.0000 >    0.7929   -0.0058    2.2012  738.3100 9819.1170   -1.3960    0.8983  14.42  14.4 160.8 10     0.0000    0.0159
M06          ?    BHE  i S      ? 20230404 2121   54.1149 GAU  1.64e-03 -1.00e+00 -1.00e+00 -1.00e+00    1.0000 >    1.3499    0.0078    1.9515  738.3100 9819.1170   -1.3960    0.8983  14.42  14.4 160.1 10     0.0000    0.0270
M14          ?    BHZ  i P      c 20230404 2121   53.5573 GAU  3.20e-03 -1.00e+00 -1.00e+00 -1.00e+00    1.0000 >    0.8954   -0.0954    0.0514  737.5530 9820.0110   -1.3980    1.8428 343.18 343.2 143.6 10     0.0000    0.0179
M14          ?    BHE  e S      ? 20230404 2121   53.9691 GAU  1.33e-03 -1.00e+00  3.84e+02 -1.00e+00    1.0000 >    1.5234   -0.3117    0.0000  737.5530 9820.0110   -1.3980    1.8428 343.18 343.2 142.2 10     0.0000    0.0305
M11          ?    BHZ  e P      c 20230404 2121   53.7118 GAU  1.66e-03 -1.00e+00 -1.00e+00 -1.00e+00    1.0000 >    0.9397    0.0148    1.9818  738.4670 9820.4900   -1.3120    2.2751   9.63   9.6 136.0 10     0.0000    0.0188
M11          ?    BHE  i S      ? 20230404 2121   54.3568 GAU  2.40e-03 -1.00e+00 -1.00e+00 -1.00e+00    1.0000 >    1.5975    0.0020    1.8378  738.4670 9820.4900   -1.3120    2.2751   9.63   9.6 134.4 10     0.0000    0.0319
M09          ?    BHZ  i P      c 20230404 2121   53.7652 GAU  1.93e-03 -1.00e+00 -1.00e+00 -1.00e+00    1.0000 >    1.0104   -0.0026    2.1676  737.8820 9820.9850   -1.2700    2.7456 355.73 355.7 129.0 10     0.0000    0.0202
M09          ?    BHE  e S      ? 20230404 2121   54.4640 GAU  3.20e-03 -1.00e+00  3.48e+02 -1.00e+00    1.0000 >    1.7164   -0.0097    1.7120  737.8820 9820.9850   -1.2700    2.7456 355.73 355.7 127.0 10     0.0000    0.0343
M13          ?    BHZ  i P      c 20230404 2121   53.9863 GAU  9.14e-04 -1.00e+00 -1.00e+00 -1.00e+00    1.0000 >    1.1280    0.1010    0.0472  737.1780 9821.5410   -1.2220    3.4169 344.58 344.6 120.3 10     0.0000    0.0226
M13          ?    BHN  e S      ? 20230404 2121   54.9254 GAU  2.32e-03 -1.00e+00 -1.00e+00 -1.00e+00    1.0000 >    1.9133    0.2548    0.0198  737.1780 9821.5410   -1.2220    3.4169 344.58 344.6 118.0 10     0.0000    0.0383
M08          ?    BHZ  i P      c 20230404 2121   54.3375 GAU  1.58e-03 -1.00e+00  4.13e+01 -1.00e+00    1.0000 >    1.2171    0.3631    0.0243  738.2480 9822.1600   -1.1510    3.9163   2.37   2.4 114.3 10     0.0000    0.0243
M08          ?    BHN  e S      ? 20230404 2121   55.3182 GAU  3.10e-03 -1.00e+00  3.08e+02 -1.00e+00    1.0000 >    2.0612    0.4997    0.0054  738.2480 9822.1600   -1.1510    3.9163   2.37   2.4 111.8 10     0.0000    0.0412
END_PHASE
END_NLLOC

