NLLOC "./loc/SEML.20230414.035808.grid0" "LOCATED" "Location completed."
PUBLIC_ID None
SIGNATURE "Arham Zakki Edelo - edelo.17034@mhs.its.ac.id   obs:./obs/2023_04.obs   NLLoc:v7.00.10(30Aug2020)   run:28Dec2023 19h58m43"
COMMENT "SEML"
GRID  2001 2001 1001  727 9811 -2  0.01 0.01 0.01 PROB_DENSITY
SEARCH OCTREE nInitial 4851 nEvaluated 20003 smallestNodeSide 0.059524/0.059524/0.056818 oct_tree_integral 7.061294e-01 scatter_volume 6.983542e-01
HYPOCENTER  x 737.506 y 9813.47 z 0.642045  OT 7.15806  ix -1 iy -1 iz -1 MAXIMUM_LIKELIHOOD
GEOGRAPHIC  OT 2023 04 14  03 58 7.158064  Lat 9813.470238 Long 737.505952 Depth 0.642045
QUALITY  Pmax 1.12244e+40 MFmin 40.1598 MFmax 43.8036 RMS 0.10495 Nphs 16 Gap 343.19 Dist 5.70372 Mamp -9.90 0 Mdur -9.90 0
VPVSRATIO  VpVsRatio 1.73802  Npair 8  Diff 1.35176
STATISTICS  ExpectX 737.489368 Y 9813.496052 Z 0.461897  CovXX 0.253971 XY 0.0316113 XZ -0.25859 YY 0.108692 YZ -0.179517 ZZ 1.12056 EllAz1  6.45405 Dip1  11.2365 Len1  0.519239 Az2  279.212 Dip2  -13.6159 Len2  0.808966 Len3  2.076474e+00
STAT_GEOG  ExpectLat 9813.496052 Long 737.489368 Depth 0.461897
TRANSFORM  NONE
QML_OriginQuality  assocPhCt 16  usedPhCt 16  assocStaCt -1  usedStaCt 8  depthPhCt -1  stdErr 0.10495  azGap 343.19  secAzGap 343.19  gtLevel -  minDist 5.70372 maxDist 9.93132 medDist 7.3047
QML_OriginUncertainty  horUnc -1  minHorUnc 0.484621  maxHorUnc 0.774123  azMaxHorUnc 78.2411
QML_ConfidenceEllipsoid  semiMajorAxisLength 2.07647  semiMinorAxisLength 0.519239  semiIntermediateAxisLength 0.808966  majorAxisPlunge -72.206  majorAxisAzimuth 58.2109  majorAxisRotation 225.507
FOCALMECH  Hyp  9813.470238 737.505952 0.642045 Mech  0 0 0 mf  0 nObs -1
PHASE ID Ins Cmp On Pha  FM Date     HrMn   Sec     Err  ErrMag    Coda      Amp       Per       PriorWt  >   TTpred    Res       Weight    StaLoc(X  Y         Z)        SDist    SAzim  RAz  RDip RQual    Tcorr       TTerr
M06          ?    BHZ  e P      c 20230414 0358    8.7449 GAU  1.11e-02 -1.00e+00  8.45e+01 -1.00e+00    1.0000 >    1.6012   -0.0144    2.0125  738.3100 9819.1170   -1.3960    5.7037   8.10   8.1 104.7 10     0.0000    0.0320
M06          ?    BHN  e S      ? 20230414 0358    9.9990 GAU  2.44e-03 -1.00e+00  5.30e+01 -1.00e+00    1.0000 >    2.7478    0.0931    1.1467  738.3100 9819.1170   -1.3960    5.7037   8.10   8.1  94.1  9     0.0000    0.0550
M04          ?    BHZ  e P      d 20230414 0358    8.7991 GAU  2.63e-03 -1.00e+00  7.10e+02 -1.00e+00    1.0000 >    1.6444   -0.0034    2.1085  737.1400 9819.2520   -1.5710    5.7933 356.38 356.4 105.7 10     0.0000    0.0329
M04          ?    BHN  e S      ? 20230414 0358    9.7998 GAU  1.55e-03 -1.00e+00  7.29e+02 -1.00e+00    1.0000 >    2.8263   -0.1846    0.1409  737.1400 9819.2520   -1.5710    5.7933 356.38 356.4  94.6  9     0.0000    0.0565
M02          ?    BHZ  e P      d 20230414 0358    8.8608 GAU  1.54e-03 -1.00e+00  6.65e+02 -1.00e+00    1.0000 >    1.6877    0.0150    2.0567  736.5970 9819.4060   -1.4960    6.0050 351.29 351.3 104.3 10     0.0000    0.0338
M02          ?    BHE  e S      ? 20230414 0358   10.0440 GAU  1.01e-03 -1.00e+00  3.74e+03 -1.00e+00    1.0000 >    2.8949   -0.0090    1.7752  736.5970 9819.4060   -1.4960    6.0050 351.29 351.3  93.9  9     0.0000    0.0579
M11          ?    BHZ  e P      c 20230414 0358    9.2352 GAU  8.07e-03 -1.00e+00 -1.00e+00 -1.00e+00    1.0000 >    1.9372    0.1400    0.6058  738.4670 9820.4900   -1.3120    7.0852   7.80   7.8  99.7 10     0.0000    0.0387
M11          ?    BHE  e S      ? 20230414 0358   10.4636 GAU  5.77e-03 -1.00e+00 -1.00e+00 -1.00e+00    1.0000 >    3.2932    0.0123    1.7214  738.4670 9820.4900   -1.3120    7.0852   7.80   7.8  92.5  9     0.0000    0.0659
M09          ?    BHZ  e P      d 20230414 0358    9.2068 GAU  9.57e-04 -1.00e+00  1.94e+02 -1.00e+00    1.0000 >    2.0436    0.0052    2.0237  737.8820 9820.9850   -1.2700    7.5242   2.86   2.9  98.4 10     0.0000    0.0409
M09          ?    BHN  e S      ? 20230414 0358   10.5725 GAU  2.42e-03 -1.00e+00  4.90e+02 -1.00e+00    1.0000 >    3.4630   -0.0485    1.3812  737.8820 9820.9850   -1.2700    7.5242   2.86   2.9  92.2  9     0.0000    0.0693
M10          ?    BHZ  e P      c 20230414 0358    9.7385 GAU  2.46e-03 -1.00e+00  6.89e+01 -1.00e+00    1.0000 >    2.1469    0.4336    0.1918  736.5490 9821.3650   -1.2200    7.9525 353.09 353.1  97.2 10     0.0000    0.0429
M10          ?    BHN  e S      ? 20230414 0358   11.8113 GAU  4.27e-03 -1.00e+00 -1.00e+00 -1.00e+00    1.0000 >    3.6251    1.0281    0.0492  736.5490 9821.3650   -1.2200    7.9525 353.09 353.1  73.5  9     0.0000    0.0725
M13          ?    BHZ  e P      c 20230414 0358    9.6980 GAU  1.86e-03 -1.00e+00 -1.00e+00 -1.00e+00    1.0000 >    2.1788    0.3611    0.1963  737.1780 9821.5410   -1.2220    8.0774 357.67 357.7  96.9 10     0.0000    0.0436
M13          ?    BHE  e S      ? 20230414 0358   11.0209 GAU  4.14e-03 -1.00e+00 -1.00e+00 -1.00e+00    1.0000 >    3.6739    0.1889    0.5150  737.1780 9821.5410   -1.2220    8.0774 357.67 357.7  70.4 10     0.0000    0.0735
M12          ?    BHZ  e P      c 20230414 0358   10.3413 GAU  2.35e-03 -1.00e+00 -1.00e+00 -1.00e+00    1.0000 >    2.5987    0.5845    0.0258  736.8520 9823.3800   -0.9890    9.9313 356.22 356.2  66.9 10     0.0000    0.0520
M12          ?    BHN  e S      ? 20230414 0358   12.6938 GAU  5.43e-03 -1.00e+00 -1.00e+00 -1.00e+00    1.0000 >    4.3262    1.2095    0.0492  736.8520 9823.3800   -0.9890    9.9313 356.22 356.2  70.4 10     0.0000    0.0865
END_PHASE
END_NLLOC

