NLLOC "./loc/SEML.20230414.055126.grid0" "LOCATED" "Location completed."
PUBLIC_ID None
SIGNATURE "Arham Zakki Edelo - edelo.17034@mhs.its.ac.id   obs:./obs/2023_04.obs   NLLoc:v7.00.10(30Aug2020)   run:28Dec2023 19h58m44"
COMMENT "SEML"
GRID  2001 2001 1001  727 9811 -2  0.01 0.01 0.01 PROB_DENSITY
SEARCH OCTREE nInitial 4851 nEvaluated 20003 smallestNodeSide 0.014881/0.014881/0.014205 oct_tree_integral 2.293043e-02 scatter_volume 2.293043e-02
HYPOCENTER  x 736.799 y 9822.14 z 0.59233  OT 25.7996  ix -1 iy -1 iz -1 MAXIMUM_LIKELIHOOD
GEOGRAPHIC  OT 2023 04 14  05 51 25.799562  Lat 9822.138393 Long 736.799107 Depth 0.592330
QUALITY  Pmax 7.14678e+22 MFmin 36.3719 MFmax 44.3245 RMS 0.00736878 Nphs 8 Gap 232.738 Dist 0.535977 Mamp -9.90 0 Mdur -9.90 0
VPVSRATIO  VpVsRatio 1.72027  Npair 4  Diff 0.179125
STATISTICS  ExpectX 736.571233 Y 9822.593166 Z -0.057475  CovXX 0.049943 XY 0.00874819 XZ 0.00644032 YY 0.312627 YZ -0.411526 ZZ 0.707656 EllAz1  125.478 Dip1  -20.1046 Len1  0.379566 Az2  224.859 Dip2  -24.0041 Len2  0.470834 Len3  1.847199e+00
STAT_GEOG  ExpectLat 9822.593166 Long 736.571233 Depth -0.057475
TRANSFORM  NONE
QML_OriginQuality  assocPhCt 8  usedPhCt 8  assocStaCt -1  usedStaCt 4  depthPhCt -1  stdErr 0.00736878  azGap 232.738  secAzGap 232.738  gtLevel -  minDist 0.535977 maxDist 1.58208 medDist 0.760122
QML_OriginUncertainty  horUnc -1  minHorUnc 0.337934  maxHorUnc 0.848359  azMaxHorUnc 1.90531
QML_ConfidenceEllipsoid  semiMajorAxisLength 1.8472  semiMinorAxisLength 0.379566  semiIntermediateAxisLength 0.470834  majorAxisPlunge 57.82  majorAxisAzimuth 179.907  majorAxisRotation 117.117
FOCALMECH  Hyp  9822.138393 736.799107 0.592330 Mech  0 0 0 mf  0 nObs -1
PHASE ID Ins Cmp On Pha  FM Date     HrMn   Sec     Err  ErrMag    Coda      Amp       Per       PriorWt  >   TTpred    Res       Weight    StaLoc(X  Y         Z)        SDist    SAzim  RAz  RDip RQual    Tcorr       TTerr
M05          ?    BHZ  i P      d 20230414 0551   26.2832 GAU  3.23e-04 -1.00e+00 -1.00e+00 -1.00e+00    1.0000 >    0.4817    0.0019    1.4972  736.2660 9822.0830   -1.1500    0.5360 264.07 264.1 162.2 10     0.0000    0.0096
M05          ?    BHN  e S      ? 20230414 0551   26.6349 GAU  3.34e-03 -1.00e+00  2.56e+02 -1.00e+00    1.0000 >    0.8376   -0.0022    1.2227  736.2660 9822.0830   -1.1500    0.5360 264.07 264.1 160.7 10     0.0000    0.0168
M13          ?    BHZ  e P      c 20230414 0551   26.3150 GAU  3.34e-03 -1.00e+00 -1.00e+00 -1.00e+00    1.0000 >    0.5153    0.0002    1.4734  737.1780 9821.5410   -1.2220    0.7074 147.62 147.6 158.0 10     0.0000    0.0103
M13          ?    BHN  e S      ? 20230414 0551   26.6955 GAU  1.93e-03 -1.00e+00  6.22e+00 -1.00e+00    1.0000 >    0.8957    0.0003    1.1954  737.1780 9821.5410   -1.2220    0.7074 147.62 147.6 156.0 10     0.0000    0.0179
M10          ?    BHZ  e P      c 20230414 0551   26.3209 GAU  3.84e-03 -1.00e+00 -1.00e+00 -1.00e+00    1.0000 >    0.5255   -0.0042    1.4112  736.5490 9821.3650   -1.2200    0.8128 197.92 197.9 155.0 10     0.0000    0.0105
M10          ?    BHN  e S      ? 20230414 0551   26.7185 GAU  2.46e-03 -1.00e+00 -1.00e+00 -1.00e+00    1.0000 >    0.9135    0.0055    1.1441  736.5490 9821.3650   -1.2200    0.8128 197.92 197.9 152.8 10     0.0000    0.0183
M09          ?    BHZ  e P      c 20230414 0551   26.5166 GAU  2.78e-03 -1.00e+00  9.00e+01 -1.00e+00    1.0000 >    0.6466    0.0705    0.0313  737.8820 9820.9850   -1.2700    1.5821 136.81 136.8 138.2 10     0.0000    0.0129
M09          ?    BHN  e S      ? 20230414 0551   27.0475 GAU  1.87e-03 -1.00e+00  5.18e+02 -1.00e+00    1.0000 >    1.1235    0.1245    0.0247  737.8820 9820.9850   -1.2700    1.5821 136.81 136.8 133.8 10     0.0000    0.0225
END_PHASE
END_NLLOC

