NLLOC "./loc/SEML.20230404.212124.grid0" "LOCATED" "Location completed."
PUBLIC_ID None
SIGNATURE "Arham Zakki Edelo - edelo.17034@mhs.its.ac.id   obs:./obs/2023_04.obs   NLLoc:v7.00.10(30Aug2020)   run:28Dec2023 19h58m40"
COMMENT "SEML"
GRID  2001 2001 1001  727 9811 -2  0.01 0.01 0.01 PROB_DENSITY
SEARCH OCTREE nInitial 4851 nEvaluated 20011 smallestNodeSide 0.014881/0.014881/0.014205 oct_tree_integral 1.614256e-02 scatter_volume 1.605694e-02
HYPOCENTER  x 737.856 y 9818.45 z 0.365057  OT 24.1967  ix -1 iy -1 iz -1 MAXIMUM_LIKELIHOOD
GEOGRAPHIC  OT 2023 04 04  21 21 24.196731  Lat 9818.447917 Long 737.855655 Depth 0.365057
QUALITY  Pmax 3.21058e+69 MFmin 84.7219 MFmax 96.6529 RMS 0.0450189 Nphs 22 Gap 273.1 Dist 0.808766 Mamp -9.90 0 Mdur -9.90 0
VPVSRATIO  VpVsRatio 1.87882  Npair 11  Diff 0.629087
STATISTICS  ExpectX 737.791808 Y 9818.423827 Z 0.503190  CovXX 0.0295149 XY -0.00402484 XZ -0.0252737 YY 0.01235 YZ 0.00357769 ZZ 0.0682255 EllAz1  19.1471 Dip1  4.92777 Len1  0.199537 Az2  291.576 Dip2  -26.1806 Len2  0.250277 Len3  5.349441e-01
STAT_GEOG  ExpectLat 9818.423827 Long 737.791808 Depth 0.503190
TRANSFORM  NONE
QML_OriginQuality  assocPhCt 22  usedPhCt 22  assocStaCt -1  usedStaCt 11  depthPhCt -1  stdErr 0.0450189  azGap 273.1  secAzGap 273.1  gtLevel -  minDist 0.808766 maxDist 5.03317 medDist 2.53722
QML_OriginUncertainty  horUnc -1  minHorUnc 0.162302  maxHorUnc 0.264475  azMaxHorUnc 102.562
QML_ConfidenceEllipsoid  semiMajorAxisLength 0.534944  semiMinorAxisLength 0.199537  semiIntermediateAxisLength 0.250277  majorAxisPlunge -63.2893  majorAxisAzimuth 99.2809  majorAxisRotation 198.093
FOCALMECH  Hyp  9818.447917 737.855655 0.365057 Mech  0 0 0 mf  0 nObs -1
PHASE ID Ins Cmp On Pha  FM Date     HrMn   Sec     Err  ErrMag    Coda      Amp       Per       PriorWt  >   TTpred    Res       Weight    StaLoc(X  Y         Z)        SDist    SAzim  RAz  RDip RQual    Tcorr       TTerr
M06          ?    BHZ  i P      d 20230404 2121   24.7128 GAU  4.38e-04 -1.00e+00 -1.00e+00 -1.00e+00    1.0000 >    0.5163   -0.0003    1.8384  738.3100 9819.1170   -1.3960    0.8088  34.18  34.2 154.6 10     0.0000    0.0103
M06          ?    BHN  i S      ? 20230404 2121   25.2407 GAU  3.22e-03 -1.00e+00 -1.00e+00 -1.00e+00    1.0000 >    0.9011    0.1429    0.1827  738.3100 9819.1170   -1.3960    0.8088  34.18  34.2 154.2 10     0.0000    0.0180
M04          ?    BHZ  e P      d 20230404 2121   24.7428 GAU  1.50e-03 -1.00e+00  7.43e+02 -1.00e+00    1.0000 >    0.5917   -0.0457    1.3154  737.1400 9819.2520   -1.5710    1.0764 318.33 318.3 150.0 10     0.0000    0.0118
M04          ?    BHE  e S      ? 20230404 2121   25.1507 GAU  9.86e-04 -1.00e+00  3.12e+02 -1.00e+00    1.0000 >    1.0316   -0.0776    1.0109  737.1400 9819.2520   -1.5710    1.0764 318.33 318.3 149.5 10     0.0000    0.0206
M02          ?    BHZ  e P      d 20230404 2121   24.8478 GAU  1.25e-03 -1.00e+00  8.80e+02 -1.00e+00    1.0000 >    0.6514   -0.0003    1.8307  736.5970 9819.4060   -1.4960    1.5818 307.28 307.3 138.3 10     0.0000    0.0130
M02          ?    BHN  e S      ? 20230404 2121   25.3360 GAU  1.65e-03 -1.00e+00 -1.00e+00 -1.00e+00    1.0000 >    1.1361    0.0032    1.6718  736.5970 9819.4060   -1.4960    1.5818 307.28 307.3 137.5 10     0.0000    0.0227
M14          ?    BHZ  i P      d 20230404 2121   24.8517 GAU  2.11e-03 -1.00e+00  1.64e+03 -1.00e+00    1.0000 >    0.6324    0.0225    1.2056  737.5530 9820.0110   -1.3980    1.5921 349.04 349.0 136.6 10     0.0000    0.0126
M14          ?    BHE  e S      ? 20230404 2121   25.2903 GAU  1.88e-03 -1.00e+00  5.29e+02 -1.00e+00    1.0000 >    1.1038   -0.0102    1.7285  737.5530 9820.0110   -1.3980    1.5921 349.04 349.0 135.8 10     0.0000    0.0221
M11          ?    BHZ  i P      d 20230404 2121   24.8719 GAU  2.03e-03 -1.00e+00 -1.00e+00 -1.00e+00    1.0000 >    0.7208   -0.0456    1.3591  738.4670 9820.4900   -1.3120    2.1316  16.67  16.7 126.1 10     0.0000    0.0144
M11          ?    BHE  i S      ? 20230404 2121   25.4518 GAU  2.11e-02 -1.00e+00 -1.00e+00 -1.00e+00    1.0000 >    1.2588   -0.0037    1.5870  738.4670 9820.4900   -1.3120    2.1316  16.67  16.7 124.9 10     0.0000    0.0252
M09          ?    BHZ  i P      c 20230404 2121   24.9033 GAU  4.61e-03 -1.00e+00  4.53e+01 -1.00e+00    1.0000 >    0.8014   -0.0948    0.6734  737.8820 9820.9850   -1.2700    2.5372   0.59   0.6 120.4 10     0.0000    0.0160
M09          ?    BHE  e S      ? 20230404 2121   25.6047 GAU  1.01e-03 -1.00e+00  3.59e+02 -1.00e+00    1.0000 >    1.4001    0.0078    1.5397  737.8820 9820.9850   -1.2700    2.5372   0.59   0.6 118.8 10     0.0000    0.0280
M13          ?    BHZ  i P      c 20230404 2121   25.0650 GAU  3.03e-03 -1.00e+00 -1.00e+00 -1.00e+00    1.0000 >    0.9391   -0.0709    1.1009  737.1780 9821.5410   -1.2220    3.1664 347.64 347.6 113.9 10     0.0000    0.0188
M13          ?    BHN  e S      ? 20230404 2121   25.7623 GAU  2.77e-03 -1.00e+00 -1.00e+00 -1.00e+00    1.0000 >    1.6414   -0.0758    1.0936  737.1780 9821.5410   -1.2220    3.1664 347.64 347.6 111.7 10     0.0000    0.0328
M10          ?    BHZ  e P      c 20230404 2121   25.0010 GAU  4.61e-03 -1.00e+00 -1.00e+00 -1.00e+00    1.0000 >    0.9459   -0.1416    0.1201  736.5490 9821.3650   -1.2200    3.1964 335.87 335.9 113.6 10     0.0000    0.0189
M10          ?    BHN  e S      ? 20230404 2121   25.5186 GAU  5.74e-03 -1.00e+00 -1.00e+00 -1.00e+00    1.0000 >    1.6533   -0.3314    0.0000  736.5490 9821.3650   -1.2200    3.1964 335.87 335.9 111.4 10     0.0000    0.0331
M08          ?    BHZ  i P      c 20230404 2121   25.3771 GAU  1.25e-03 -1.00e+00 -1.00e+00 -1.00e+00    1.0000 >    1.0660    0.1143    0.2542  738.2480 9822.1600   -1.1510    3.7328   6.03   6.0 109.2 10     0.0000    0.0213
M08          ?    BHN  e S      ? 20230404 2121   26.3636 GAU  9.31e-04 -1.00e+00  2.54e+02 -1.00e+00    1.0000 >    1.8639    0.3029    0.0433  738.2480 9822.1600   -1.1510    3.7328   6.03   6.0 106.5 10     0.0000    0.0373
M05          ?    BHZ  i P      c 20230404 2121   25.3943 GAU  1.31e-03 -1.00e+00  2.46e+02 -1.00e+00    1.0000 >    1.1234    0.0743    0.2760  736.2660 9822.0830   -1.1500    3.9675 336.38 336.4 107.9 10     0.0000    0.0225
M05          ?    BHE  e S      ? 20230404 2121   26.3856 GAU  7.14e-04 -1.00e+00 -1.00e+00 -1.00e+00    1.0000 >    1.9642    0.2247    0.0767  736.2660 9822.0830   -1.1500    3.9675 336.38 336.4 105.0 10     0.0000    0.0393
M12          ?    BHZ  i P      c 20230404 2121   25.5504 GAU  1.85e-03 -1.00e+00 -1.00e+00 -1.00e+00    1.0000 >    1.3714   -0.0178    1.6717  736.8520 9823.3800   -0.9890    5.0332 348.50 348.5 102.4 10     0.0000    0.0274
M12          ?    BHE  e S      ? 20230404 2121   26.5874 GAU  1.29e-03 -1.00e+00  4.39e+01 -1.00e+00    1.0000 >    2.3976   -0.0070    1.4204  736.8520 9823.3800   -0.9890    5.0332 348.50 348.5  78.8  9     0.0000    0.0480
END_PHASE
END_NLLOC

