NLLOC "./loc/SEML.20230404.212155.grid0" "LOCATED" "Location completed."
PUBLIC_ID None
SIGNATURE "Arham Zakki Edelo - edelo.17034@mhs.its.ac.id   obs:./obs/2023_04.obs   NLLoc:v7.00.10(30Aug2020)   run:28Dec2023 19h58m41"
COMMENT "SEML"
GRID  2001 2001 1001  727 9811 -2  0.01 0.01 0.01 PROB_DENSITY
SEARCH OCTREE nInitial 4851 nEvaluated 20027 smallestNodeSide 0.007440/0.007440/0.007102 oct_tree_integral 8.584872e-03 scatter_volume 8.526851e-03
HYPOCENTER  x 736.81 y 9817.92 z 0.226562  OT 54.95  ix -1 iy -1 iz -1 MAXIMUM_LIKELIHOOD
GEOGRAPHIC  OT 2023 04 04  21 21 54.950048  Lat 9817.923363 Long 736.810268 Depth 0.226562
QUALITY  Pmax 2.94075e+41 MFmin 52.2697 MFmax 63.9973 RMS 0.0381202 Nphs 14 Gap 314.32 Dist 1.36894 Mamp -9.90 0 Mdur -9.90 0
VPVSRATIO  VpVsRatio 1.7988  Npair 7  Diff 0.554176
STATISTICS  ExpectX 736.853675 Y 9817.900737 Z 0.263398  CovXX 0.0345868 XY -0.00176403 XZ 0.0148988 YY 0.0166824 YZ -0.00125478 ZZ 0.0346942 EllAz1  187.137 Dip1  1.90805 Len1  0.241366 Az2  279.046 Dip2  44.9979 Len2  0.264257 Len3  4.187616e-01
STAT_GEOG  ExpectLat 9817.900737 Long 736.853675 Depth 0.263398
TRANSFORM  NONE
QML_OriginQuality  assocPhCt 14  usedPhCt 14  assocStaCt -1  usedStaCt 7  depthPhCt -1  stdErr 0.0381202  azGap 314.32  secAzGap 314.32  gtLevel -  minDist 1.36894 maxDist 4.47394 medDist 3.0549
QML_OriginUncertainty  horUnc -1  minHorUnc 0.194868  maxHorUnc 0.282746  azMaxHorUnc 95.5737
QML_ConfidenceEllipsoid  semiMajorAxisLength 0.418762  semiMinorAxisLength 0.241366  semiIntermediateAxisLength 0.264257  majorAxisPlunge 44.9386  majorAxisAzimuth 95.232  majorAxisRotation 87.3952
FOCALMECH  Hyp  9817.923363 736.810268 0.226562 Mech  0 0 0 mf  0 nObs -1
PHASE ID Ins Cmp On Pha  FM Date     HrMn   Sec     Err  ErrMag    Coda      Amp       Per       PriorWt  >   TTpred    Res       Weight    StaLoc(X  Y         Z)        SDist    SAzim  RAz  RDip RQual    Tcorr       TTerr
M04          ?    BHZ  e P      c 20230404 2121   55.5524 GAU  2.14e-03 -1.00e+00 -1.00e+00 -1.00e+00    1.0000 >    0.6048   -0.0025    1.8654  737.1400 9819.2520   -1.5710    1.3689  13.94  13.9 141.3 10     0.0000    0.0121
M04          ?    BHN  e S      ? 20230404 2121   56.1476 GAU  1.30e-03 -1.00e+00  6.93e+02 -1.00e+00    1.0000 >    1.0556    0.1420    0.3459  737.1400 9819.2520   -1.5710    1.3689  13.94  13.9 140.6 10     0.0000    0.0211
M06          ?    BHZ  i P      d 20230404 2121   55.6192 GAU  4.69e-04 -1.00e+00  2.57e+02 -1.00e+00    1.0000 >    0.6701   -0.0010    1.8480  738.3100 9819.1170   -1.3960    1.9168  51.48  51.5 128.0 10     0.0000    0.0134
M06          ?    BHN  i S      ? 20230404 2121   56.1292 GAU  4.81e-03 -1.00e+00 -1.00e+00 -1.00e+00    1.0000 >    1.1711    0.0081    1.4301  738.3100 9819.1170   -1.3960    1.9168  51.48  51.5 126.8 10     0.0000    0.0234
M14          ?    BHZ  i P      c 20230404 2121   55.6861 GAU  2.58e-03 -1.00e+00 -1.00e+00 -1.00e+00    1.0000 >    0.7332    0.0029    1.7954  737.5530 9820.0110   -1.3980    2.2158  19.58  19.6 123.7 10     0.0000    0.0147
M14          ?    BHE  e S      ? 20230404 2121   56.2325 GAU  9.32e-04 -1.00e+00  2.72e+02 -1.00e+00    1.0000 >    1.2814    0.0010    1.4137  737.5530 9820.0110   -1.3980    2.2158  19.58  19.6 122.2 10     0.0000    0.0256
M11          ?    BHZ  i P      c 20230404 2121   55.6739 GAU  3.46e-03 -1.00e+00 -1.00e+00 -1.00e+00    1.0000 >    0.9108   -0.1870    0.1260  738.4670 9820.4900   -1.3120    3.0549  32.84  32.8 113.5 10     0.0000    0.0182
M11          ?    BHE  i S      ? 20230404 2121   56.3867 GAU  6.64e-03 -1.00e+00 -1.00e+00 -1.00e+00    1.0000 >    1.5934   -0.1567    0.1269  738.4670 9820.4900   -1.3120    3.0549  32.84  32.8 111.0 10     0.0000    0.0319
M09          ?    BHZ  i P      d 20230404 2121   55.9015 GAU  1.85e-03 -1.00e+00  4.39e+02 -1.00e+00    1.0000 >    0.9503    0.0012    1.6447  737.8820 9820.9850   -1.2700    3.2438  19.29  19.3 111.4 10     0.0000    0.0190
M09          ?    BHE  i S      ? 20230404 2121   56.6089 GAU  2.78e-03 -1.00e+00  3.22e+02 -1.00e+00    1.0000 >    1.6631   -0.0042    1.1809  737.8820 9820.9850   -1.2700    3.2438  19.29  19.3 108.7 10     0.0000    0.0333
M13          ?    BHZ  i P      c 20230404 2121   55.9944 GAU  1.93e-03 -1.00e+00 -1.00e+00 -1.00e+00    1.0000 >    1.0396    0.0047    1.5635  737.1780 9821.5410   -1.2220    3.6363   5.80   5.8 108.2 10     0.0000    0.0208
M13          ?    BHN  e S      ? 20230404 2121   56.9194 GAU  1.88e-03 -1.00e+00 -1.00e+00 -1.00e+00    1.0000 >    1.8203    0.1490    0.3069  737.1780 9821.5410   -1.2220    3.6363   5.80   5.8 104.8 10     0.0000    0.0364
M08          ?    BHZ  i P      c 20230404 2121   56.3194 GAU  1.58e-03 -1.00e+00 -1.00e+00 -1.00e+00    1.0000 >    1.2398    0.1295    0.3266  738.2480 9822.1600   -1.1510    4.4739  18.75  18.7 103.5 10     0.0000    0.0248
M08          ?    BHN  i S      ? 20230404 2121   57.3837 GAU  1.68e-03 -1.00e+00  3.09e+02 -1.00e+00    1.0000 >    2.1716    0.2620    0.0260  738.2480 9822.1600   -1.1510    4.4739  18.75  18.7  99.1 10     0.0000    0.0434
END_PHASE
END_NLLOC

