NLLOC "./loc/SEML.20230404.211612.grid0" "LOCATED" "Location completed."
PUBLIC_ID None
SIGNATURE "Arham Zakki Edelo - edelo.17034@mhs.its.ac.id   obs:./obs/2023_04.obs   NLLoc:v7.00.10(30Aug2020)   run:28Dec2023 19h58m38"
COMMENT "SEML"
GRID  2001 2001 1001  727 9811 -2  0.01 0.01 0.01 PROB_DENSITY
SEARCH OCTREE nInitial 4851 nEvaluated 20011 smallestNodeSide 0.014881/0.014881/0.014205 oct_tree_integral 1.051060e-02 scatter_volume 1.051060e-02
HYPOCENTER  x 738.265 y 9818.49 z 0.599432  OT 12.3666  ix -1 iy -1 iz -1 MAXIMUM_LIKELIHOOD
GEOGRAPHIC  OT 2023 04 04  21 16 12.366575  Lat 9818.485119 Long 738.264881 Depth 0.599432
QUALITY  Pmax 1.764e+57 MFmin 66.203 MFmax 76.8671 RMS 0.0407219 Nphs 18 Gap 293.148 Dist 0.63349 Mamp -9.90 0 Mdur -9.90 0
VPVSRATIO  VpVsRatio 1.81953  Npair 9  Diff 0.713716
STATISTICS  ExpectX 738.259659 Y 9818.476537 Z 0.662900  CovXX 0.00978237 XY -0.00265015 XZ -0.00318751 YY 0.0118796 YZ 0.000844408 ZZ 0.0273842 EllAz1  58.5761 Dip1  6.61637 Len1  0.165187 Az2  329.677 Dip2  -9.40476 Len2  0.216413 Len3  3.146610e-01
STAT_GEOG  ExpectLat 9818.476537 Long 738.259659 Depth 0.662900
TRANSFORM  NONE
QML_OriginQuality  assocPhCt 18  usedPhCt 18  assocStaCt -1  usedStaCt 9  depthPhCt -1  stdErr 0.0407219  azGap 293.148  secAzGap 293.148  gtLevel -  minDist 0.63349 maxDist 5.09471 medDist 2.52903
QML_OriginUncertainty  horUnc -1  minHorUnc 0.135485  maxHorUnc 0.177388  azMaxHorUnc 145.794
QML_ConfidenceEllipsoid  semiMajorAxisLength 0.314661  semiMinorAxisLength 0.165187  semiIntermediateAxisLength 0.216413  majorAxisPlunge -78.4663  majorAxisAzimuth 113.937  majorAxisRotation 217.466
FOCALMECH  Hyp  9818.485119 738.264881 0.599432 Mech  0 0 0 mf  0 nObs -1
PHASE ID Ins Cmp On Pha  FM Date     HrMn   Sec     Err  ErrMag    Coda      Amp       Per       PriorWt  >   TTpred    Res       Weight    StaLoc(X  Y         Z)        SDist    SAzim  RAz  RDip RQual    Tcorr       TTerr
M06          ?    BHZ  i P      d 20230404 2116   12.9219 GAU  7.34e-04 -1.00e+00 -1.00e+00 -1.00e+00    1.0000 >    0.5556   -0.0003    1.8372  738.3100 9819.1170   -1.3960    0.6335   4.08   4.1 161.7 10     0.0000    0.0111
M06          ?    BHN  e S      ? 20230404 2116   13.4566 GAU  5.53e-04 -1.00e+00 -1.00e+00 -1.00e+00    1.0000 >    0.9649    0.1251    0.2737  738.3100 9819.1170   -1.3960    0.6335   4.08   4.1 160.1 10     0.0000    0.0193
M14          ?    BHZ  i P      d 20230404 2116   13.0622 GAU  4.34e-03 -1.00e+00  6.46e+02 -1.00e+00    1.0000 >    0.6928    0.0029    1.7457  737.5530 9820.0110   -1.3980    1.6838 334.99 335.0 138.3 10     0.0000    0.0139
M14          ?    BHE  e S      ? 20230404 2116   13.5476 GAU  2.04e-03 -1.00e+00  3.37e+02 -1.00e+00    1.0000 >    1.2029   -0.0220    1.2811  737.5530 9820.0110   -1.3980    1.6838 334.99 335.0 133.9 10     0.0000    0.0241
M02          ?    BHZ  i P      d 20230404 2116   13.1173 GAU  5.54e-03 -1.00e+00  2.44e+02 -1.00e+00    1.0000 >    0.7522   -0.0015    1.7184  736.5970 9819.4060   -1.4960    1.9052 298.90 298.9 135.9 10     0.0000    0.0150
M02          ?    BHE  e S      ? 20230404 2116   13.6871 GAU  1.75e-03 -1.00e+00  3.76e+02 -1.00e+00    1.0000 >    1.3056    0.0149    1.3035  736.5970 9819.4060   -1.4960    1.9052 298.90 298.9 131.1 10     0.0000    0.0261
M11          ?    BHZ  i P      c 20230404 2116   13.0984 GAU  2.32e-03 -1.00e+00 -1.00e+00 -1.00e+00    1.0000 >    0.7352   -0.0033    1.7380  738.4670 9820.4900   -1.3120    2.0150   5.76   5.8 131.4 10     0.0000    0.0147
M11          ?    BHE  i S      ? 20230404 2116   13.6647 GAU  2.41e-02 -1.00e+00 -1.00e+00 -1.00e+00    1.0000 >    1.2766    0.0215    1.0905  738.4670 9820.4900   -1.3120    2.0150   5.76   5.8 125.8 10     0.0000    0.0255
M09          ?    BHZ  i P      c 20230404 2116   13.1279 GAU  3.20e-03 -1.00e+00  4.68e+01 -1.00e+00    1.0000 >    0.8318   -0.0704    0.3509  737.8820 9820.9850   -1.2700    2.5290 351.29 351.3 123.8 10     0.0000    0.0166
M09          ?    BHN  e S      ? 20230404 2116   13.8220 GAU  3.05e-03 -1.00e+00  4.53e+02 -1.00e+00    1.0000 >    1.4441    0.0113    1.3076  737.8820 9820.9850   -1.2700    2.5290 351.29 351.3 116.2 10     0.0000    0.0289
M13          ?    BHZ  i P      c 20230404 2116   13.2996 GAU  1.55e-03 -1.00e+00 -1.00e+00 -1.00e+00    1.0000 >    0.9826   -0.0496    0.6610  737.1780 9821.5410   -1.2220    3.2434 340.42 340.4 116.1 10     0.0000    0.0197
M13          ?    BHE  i S      ? 20230404 2116   14.0240 GAU  2.17e-03 -1.00e+00 -1.00e+00 -1.00e+00    1.0000 >    1.7048   -0.0473    0.8468  737.1780 9821.5410   -1.2220    3.2434 340.42 340.4 105.2 10     0.0000    0.0341
M08          ?    BHZ  i P      d 20230404 2116   13.5948 GAU  1.74e-03 -1.00e+00  2.20e+02 -1.00e+00    1.0000 >    1.0733    0.1549    0.3422  738.2480 9822.1600   -1.1510    3.6749 359.74 359.7 111.9 10     0.0000    0.0215
M08          ?    BHE  e S      ? 20230404 2116   14.4244 GAU  3.34e-03 -1.00e+00 -1.00e+00 -1.00e+00    1.0000 >    1.8600    0.1978    0.2416  738.2480 9822.1600   -1.1510    3.6749 359.74 359.7  99.0  9     0.0000    0.0372
M05          ?    BHZ  e P      c 20230404 2116   13.5472 GAU  8.31e-03 -1.00e+00  1.65e+02 -1.00e+00    1.0000 >    1.1788    0.0018    1.4766  736.2660 9822.0830   -1.1500    4.1159 330.94 330.9 109.2 10     0.0000    0.0236
M05          ?    BHE  e S      ? 20230404 2116   14.5462 GAU  6.64e-03 -1.00e+00 -1.00e+00 -1.00e+00    1.0000 >    2.0390    0.1406    0.3407  736.2660 9822.0830   -1.1500    4.1159 330.94 330.9  96.1  9     0.0000    0.0408
M12          ?    BHZ  i P      c 20230404 2116   13.7836 GAU  2.40e-03 -1.00e+00 -1.00e+00 -1.00e+00    1.0000 >    1.4002    0.0168    1.2436  736.8520 9823.3800   -0.9890    5.0947 343.90 343.9 103.1 10     0.0000    0.0280
M12          ?    BHE  e S      ? 20230404 2116   14.9826 GAU  2.25e-03 -1.00e+00  1.75e+01 -1.00e+00    1.0000 >    2.4012    0.2148    0.2008  736.8520 9823.3800   -0.9890    5.0947 343.90 343.9  93.0  9     0.0000    0.0480
END_PHASE
END_NLLOC

