NLLOC "./loc/SEML.20230404.212204.grid0" "LOCATED" "Location completed."
PUBLIC_ID None
SIGNATURE "Arham Zakki Edelo - edelo.17034@mhs.its.ac.id   obs:./obs/2023_04.obs   NLLoc:v7.00.10(30Aug2020)   run:28Dec2023 19h58m41"
COMMENT "SEML"
GRID  2001 2001 1001  727 9811 -2  0.01 0.01 0.01 PROB_DENSITY
SEARCH OCTREE nInitial 4851 nEvaluated 20027 smallestNodeSide 0.029762/0.029762/0.028409 oct_tree_integral 8.784823e-02 scatter_volume 8.702214e-02
HYPOCENTER  x 738.979 y 9818.34 z 1.59375  OT 3.6303  ix -1 iy -1 iz -1 MAXIMUM_LIKELIHOOD
GEOGRAPHIC  OT 2023 04 04  21 22 3.630297  Lat 9818.336310 Long 738.979167 Depth 1.593750
QUALITY  Pmax 2.1484e+22 MFmin 26.4821 MFmax 33.2992 RMS 0.0116763 Nphs 8 Gap 332.776 Dist 1.02823 Mamp -9.90 0 Mdur -9.90 0
VPVSRATIO  VpVsRatio 1.863  Npair 4  Diff 0.409669
STATISTICS  ExpectX 739.019495 Y 9818.450752 Z 1.519901  CovXX 0.267326 XY 0.266632 XZ -0.0348354 YY 0.432463 YZ -0.137286 ZZ 0.190123 EllAz1  312.377 Dip1  24.8505 Len1  0.402497 Az2  275.994 Dip2  -60.0895 Len2  0.793659 Len3  1.532805e+00
STAT_GEOG  ExpectLat 9818.450752 Long 739.019495 Depth 1.519901
TRANSFORM  NONE
QML_OriginQuality  assocPhCt 8  usedPhCt 8  assocStaCt -1  usedStaCt 4  depthPhCt -1  stdErr 0.0116763  azGap 332.776  secAzGap 332.776  gtLevel -  minDist 1.02823 maxDist 4.6259 medDist 2.54035
QML_OriginUncertainty  horUnc -1  minHorUnc 0.40345  maxHorUnc 1.20281  azMaxHorUnc 36.3969
QML_ConfidenceEllipsoid  semiMajorAxisLength 1.53281  semiMinorAxisLength 0.402497  semiIntermediateAxisLength 0.793659  majorAxisPlunge -15.5689  majorAxisAzimuth 34.9629  majorAxisRotation 150.471
FOCALMECH  Hyp  9818.336310 738.979167 1.593750 Mech  0 0 0 mf  0 nObs -1
PHASE ID Ins Cmp On Pha  FM Date     HrMn   Sec     Err  ErrMag    Coda      Amp       Per       PriorWt  >   TTpred    Res       Weight    StaLoc(X  Y         Z)        SDist    SAzim  RAz  RDip RQual    Tcorr       TTerr
M06          ?    BHZ  e P      c 20230404 2122    4.4440 GAU  7.45e-04 -1.00e+00 -1.00e+00 -1.00e+00    1.0000 >    0.8155   -0.0018    1.2439  738.3100 9819.1170   -1.3960    1.0282 319.40 319.4 158.7 10     0.0000    0.0163
M06          ?    BHE  i S      ? 20230404 2122    5.0236 GAU  1.27e-03 -1.00e+00 -1.00e+00 -1.00e+00    1.0000 >    1.3874    0.0059    1.0547  738.3100 9819.1170   -1.3960    1.0282 319.40 319.4 158.0 10     0.0000    0.0277
M11          ?    BHZ  e P      c 20230404 2122    4.5759 GAU  2.12e-03 -1.00e+00 -1.00e+00 -1.00e+00    1.0000 >    0.9396    0.0061    1.1898  738.4670 9820.4900   -1.3120    2.2138 346.62 346.6 137.7 10     0.0000    0.0188
M11          ?    BHE  i S      ? 20230404 2122    5.2379 GAU  1.59e-02 -1.00e+00 -1.00e+00 -1.00e+00    1.0000 >    1.5964    0.0112    0.9137  738.4670 9820.4900   -1.3120    2.2138 346.62 346.6 136.2 10     0.0000    0.0319
M09          ?    BHZ  i P      c 20230404 2122    4.6665 GAU  1.19e-03 -1.00e+00  2.45e+01 -1.00e+00    1.0000 >    1.0403   -0.0042    1.1701  737.8820 9820.9850   -1.2700    2.8669 337.50 337.5 128.4 10     0.0000    0.0208
M09          ?    BHE  i S      ? 20230404 2122    5.3671 GAU  8.53e-04 -1.00e+00  3.42e+02 -1.00e+00    1.0000 >    1.7659   -0.0291    0.7385  737.8820 9820.9850   -1.2700    2.8669 337.50 337.5 126.4 10     0.0000    0.0353
M05          ?    BHZ  e P      c 20230404 2122    4.9990 GAU  1.76e-03 -1.00e+00  4.38e+01 -1.00e+00    1.0000 >    1.3733   -0.0046    1.0600  736.2660 9822.0830   -1.1500    4.6259 324.09 324.1 109.3 10     0.0000    0.0275
M05          ?    BHN  e S      ? 20230404 2122    5.9883 GAU  4.25e-03 -1.00e+00  2.65e+02 -1.00e+00    1.0000 >    2.3208    0.0371    0.6292  736.2660 9822.0830   -1.1500    4.6259 324.09 324.1 106.9 10     0.0000    0.0464
END_PHASE
END_NLLOC

