NLLOC "./loc/SEML.20230404.211739.grid0" "LOCATED" "Location completed."
PUBLIC_ID None
SIGNATURE "Arham Zakki Edelo - edelo.17034@mhs.its.ac.id   obs:./obs/2023_04.obs   NLLoc:v7.00.10(30Aug2020)   run:28Dec2023 19h58m38"
COMMENT "SEML"
GRID  2001 2001 1001  727 9811 -2  0.01 0.01 0.01 PROB_DENSITY
SEARCH OCTREE nInitial 4851 nEvaluated 20003 smallestNodeSide 0.029762/0.029762/0.028409 oct_tree_integral 2.297979e-01 scatter_volume 2.294193e-01
HYPOCENTER  x 737.729 y 9818.43 z 1.08239  OT 38.9184  ix -1 iy -1 iz -1 MAXIMUM_LIKELIHOOD
GEOGRAPHIC  OT 2023 04 04  21 17 38.918352  Lat 9818.425595 Long 737.729167 Depth 1.082386
QUALITY  Pmax 1.81372e+21 MFmin 30.1325 MFmax 37.8916 RMS 0.0198556 Nphs 8 Gap 313.627 Dist 0.902999 Mamp -9.90 0 Mdur -9.90 0
VPVSRATIO  VpVsRatio 2.26838  Npair 4  Diff 0.192863
STATISTICS  ExpectX 737.927895 Y 9818.239444 Z 1.256393  CovXX 0.359687 XY 0.00457198 XZ 0.0412763 YY 0.0619668 YZ 0.0295242 ZZ 0.15921 EllAz1  181.375 Dip1  16.1045 Len1  0.434777 Az2  324.133 Dip2  70.0656 Len2  0.749454 Len3  1.140061e+00
STAT_GEOG  ExpectLat 9818.239444 Long 737.927895 Depth 1.256393
TRANSFORM  NONE
QML_OriginQuality  assocPhCt 8  usedPhCt 8  assocStaCt -1  usedStaCt 4  depthPhCt -1  stdErr 0.0198556  azGap 313.627  secAzGap 313.627  gtLevel -  minDist 0.902999 maxDist 2.56396 medDist 1.89373
QML_OriginUncertainty  horUnc -1  minHorUnc 0.377309  maxHorUnc 0.909639  azMaxHorUnc 89.1204
QML_ConfidenceEllipsoid  semiMajorAxisLength 1.14006  semiMinorAxisLength 0.434777  semiIntermediateAxisLength 0.749454  majorAxisPlunge 11.4339  majorAxisAzimuth 88.0275  majorAxisRotation 17.7571
FOCALMECH  Hyp  9818.425595 737.729167 1.082386 Mech  0 0 0 mf  0 nObs -1
PHASE ID Ins Cmp On Pha  FM Date     HrMn   Sec     Err  ErrMag    Coda      Amp       Per       PriorWt  >   TTpred    Res       Weight    StaLoc(X  Y         Z)        SDist    SAzim  RAz  RDip RQual    Tcorr       TTerr
M06          ?    BHZ  i P      d 20230404 2117   39.6121 GAU  1.23e-03 -1.00e+00 -1.00e+00 -1.00e+00    1.0000 >    0.6933    0.0005    1.4670  738.3100 9819.1170   -1.3960    0.9030  40.03  40.0 157.6 10     0.0000    0.0139
M06          ?    BHE  i S      ? 20230404 2117   40.1867 GAU  1.36e-03 -1.00e+00 -1.00e+00 -1.00e+00    1.0000 >    1.1873    0.0810    0.2401  738.3100 9819.1170   -1.3960    0.9030  40.03  40.0 156.6 10     0.0000    0.0237
M14          ?    BHZ  e P      c 20230404 2117   39.6937 GAU  2.32e-03 -1.00e+00 -1.00e+00 -1.00e+00    1.0000 >    0.7748    0.0006    1.4395  737.5530 9820.0110   -1.3980    1.5952 353.66 353.7 143.0 10     0.0000    0.0155
M14          ?    BHN  e S      ? 20230404 2117   40.2377 GAU  9.23e-04 -1.00e+00  3.34e+02 -1.00e+00    1.0000 >    1.3264   -0.0071    1.1587  737.5530 9820.0110   -1.3980    1.5952 353.66 353.7 141.3 10     0.0000    0.0265
M11          ?    BHZ  e P      c 20230404 2117   39.7563 GAU  1.85e-03 -1.00e+00 -1.00e+00 -1.00e+00    1.0000 >    0.8511   -0.0131    1.2088  738.4670 9820.4900   -1.3120    2.1923  19.67  19.7 131.5 10     0.0000    0.0170
M11          ?    BHN  i S      ? 20230404 2117   40.3791 GAU  2.88e-03 -1.00e+00 -1.00e+00 -1.00e+00    1.0000 >    1.4558    0.0050    1.1411  738.4670 9820.4900   -1.3120    2.1923  19.67  19.7 129.0 10     0.0000    0.0291
M09          ?    BHZ  e P      c 20230404 2117   39.8458 GAU  2.53e-03 -1.00e+00  2.09e+01 -1.00e+00    1.0000 >    0.9112    0.0163    1.1504  737.8820 9820.9850   -1.2700    2.5640   3.42   3.4 125.1 10     0.0000    0.0182
M09          ?    BHE  e S      ? 20230404 2117   40.5826 GAU  9.32e-04 -1.00e+00  3.49e+02 -1.00e+00    1.0000 >    1.5575    0.1067    0.1945  737.8820 9820.9850   -1.2700    2.5640   3.42   3.4 122.2 10     0.0000    0.0312
END_PHASE
END_NLLOC

