NLLOC "./loc/SEML.20230401.114503.grid0" "REJECTED" "WARNING: max prob location on grid boundary 20, rejecting location."
PUBLIC_ID None
SIGNATURE "Arham Zakki Edelo - edelo.17034@mhs.its.ac.id   obs:./obs/2023_04.obs   NLLoc:v7.00.10(30Aug2020)   run:28Dec2023 19h58m38"
COMMENT "SEML"
GRID  2001 2001 1001  727 9811 -2  0.01 0.01 0.01 PROB_DENSITY
SEARCH OCTREE nInitial 4851 nEvaluated 20003 smallestNodeSide 0.059524/0.059524/0.056818 oct_tree_integral 1.176728e+00 scatter_volume 1.174279e+00
HYPOCENTER  x 737.923 y 9811.03 z 4.22159  OT 0.952045  ix -1 iy -1 iz -1 MAXIMUM_LIKELIHOOD
GEOGRAPHIC  OT 2023 04 01  11 45 0.952045  Lat 9811.029762 Long 737.922619 Depth 4.221591
QUALITY  Pmax 6.27129e+80 MFmin 51.9171 MFmax 56.0114 RMS 0.0359993 Nphs 24 Gap 347.714 Dist 8.09651 Mamp -9.90 0 Mdur -9.90 0
VPVSRATIO  VpVsRatio 1.75424  Npair 12  Diff 0.555773
STATISTICS  ExpectX 738.093063 Y 9811.301443 Z 4.449216  CovXX 0.844611 XY 0.0362642 XZ 0.014572 YY 0.0598777 YZ 0.0756456 ZZ 0.385087 EllAz1  177.64 Dip1  12.3227 Len1  0.384332 Az2  346.868 Dip2  77.4631 Len2  1.18936 Len3  1.729135e+00
STAT_GEOG  ExpectLat 9811.301443 Long 738.093063 Depth 4.449216
TRANSFORM  NONE
QML_OriginQuality  assocPhCt 24  usedPhCt 24  assocStaCt -1  usedStaCt 12  depthPhCt -1  stdErr 0.0359993  azGap 347.714  secAzGap 347.714  gtLevel -  minDist 8.09651 maxDist 12.3966 medDist 10.1907
QML_OriginUncertainty  horUnc -1  minHorUnc 0.365886  maxHorUnc 1.39515  azMaxHorUnc 87.3597
QML_ConfidenceEllipsoid  semiMajorAxisLength 1.72913  semiMinorAxisLength 0.384332  semiIntermediateAxisLength 1.18936  majorAxisPlunge 2.27161  majorAxisAzimuth 87.1439  majorAxisRotation 12.3703
FOCALMECH  Hyp  9811.029762 737.922619 4.221591 Mech  0 0 0 mf  0 nObs -1
PHASE ID Ins Cmp On Pha  FM Date     HrMn   Sec     Err  ErrMag    Coda      Amp       Per       PriorWt  >   TTpred    Res       Weight    StaLoc(X  Y         Z)        SDist    SAzim  RAz  RDip RQual    Tcorr       TTerr
M06          ?    BHZ  i P      c 20230401 1145    3.3520 GAU  2.78e-03 -1.00e+00  1.51e+02 -1.00e+00    1.0000 >    2.3807    0.0193    1.2039  738.3100 9819.1170   -1.3960    8.0965   2.74   2.7 119.1 10     0.0000    0.0476
M06          ?    BHN  e S      ? 20230401 1145    4.9961 GAU  1.92e-03 -1.00e+00 -1.00e+00 -1.00e+00    1.0000 >    3.9758    0.0683    0.8536  738.3100 9819.1170   -1.3960    8.0965   2.74   2.7 118.3 10     0.0000    0.0795
M04          ?    BHZ  i P      c 20230401 1145    3.4088 GAU  3.25e-03 -1.00e+00 -1.00e+00 -1.00e+00    1.0000 >    2.4463    0.0105    1.2160  737.1400 9819.2520   -1.5710    8.2594 354.56 354.6 119.1 10     0.0000    0.0489
M04          ?    BHN  e S      ? 20230401 1145    5.0179 GAU  1.30e-03 -1.00e+00  5.45e+02 -1.00e+00    1.0000 >    4.0891   -0.0232    0.9861  737.1400 9819.2520   -1.5710    8.2594 354.56 354.6 118.3 10     0.0000    0.0818
M02          ?    BHZ  i P      d 20230401 1145    3.4572 GAU  2.44e-03 -1.00e+00 -1.00e+00 -1.00e+00    1.0000 >    2.4753    0.0299    1.1550  736.5970 9819.4060   -1.4960    8.4805 351.01 351.0 118.0 10     0.0000    0.0495
M02          ?    BHN  e S      ? 20230401 1145    5.0632 GAU  1.15e-03 -1.00e+00 -1.00e+00 -1.00e+00    1.0000 >    4.1351   -0.0240    0.9793  736.5970 9819.4060   -1.4960    8.4805 351.01 351.0 117.3 10     0.0000    0.0827
M14          ?    BHZ  i P      c 20230401 1145    3.4737 GAU  2.80e-03 -1.00e+00  1.69e+02 -1.00e+00    1.0000 >    2.5582   -0.0365    1.1083  737.5530 9820.0110   -1.3980    8.9888 357.64 357.6 115.9 10     0.0000    0.0512
M14          ?    BHE  e S      ? 20230401 1145    5.2060 GAU  2.06e-03 -1.00e+00  2.83e+02 -1.00e+00    1.0000 >    4.2694   -0.0155    0.9778  737.5530 9820.0110   -1.3980    8.9888 357.64 357.6 115.2 10     0.0000    0.0854
M11          ?    BHZ  i P      c 20230401 1145    3.5438 GAU  5.21e-03 -1.00e+00 -1.00e+00 -1.00e+00    1.0000 >    2.6410   -0.0493    1.0268  738.4670 9820.4900   -1.3120    9.4759   3.29   3.3 114.1 10     0.0000    0.0528
M11          ?    BHN  e S      ? 20230401 1145    5.3088 GAU  1.92e-03 -1.00e+00 -1.00e+00 -1.00e+00    1.0000 >    4.4038   -0.0470    0.8900  738.4670 9820.4900   -1.3120    9.4759   3.29   3.3 113.4 10     0.0000    0.0881
M09          ?    BHZ  i P      c 20230401 1145    3.6630 GAU  4.81e-03 -1.00e+00  1.48e+02 -1.00e+00    1.0000 >    2.7319   -0.0209    1.1533  737.8820 9820.9850   -1.2700    9.9553 359.77 359.8 112.6 10     0.0000    0.0546
M09          ?    BHE  e S      ? 20230401 1145    5.5487 GAU  1.48e-03 -1.00e+00  3.85e+02 -1.00e+00    1.0000 >    4.5526    0.0440    0.8983  737.8820 9820.9850   -1.2700    9.9553 359.77 359.8 111.9 10     0.0000    0.0911
M10          ?    BHZ  e P      c 20230401 1145    3.7838 GAU  5.12e-03 -1.00e+00  3.47e+02 -1.00e+00    1.0000 >    2.8207    0.0111    1.1671  736.5490 9821.3650   -1.2200   10.4261 352.43 352.4 111.1 10     0.0000    0.0564
M10          ?    BHE  e S      ? 20230401 1145    5.6568 GAU  4.14e-03 -1.00e+00 -1.00e+00 -1.00e+00    1.0000 >    4.6976    0.0072    0.9383  736.5490 9821.3650   -1.2200   10.4261 352.43 352.4 110.5 10     0.0000    0.0940
M13          ?    BHZ  i P      c 20230401 1145    3.7748 GAU  1.16e-03 -1.00e+00 -1.00e+00 -1.00e+00    1.0000 >    2.8443   -0.0215    1.1392  737.1780 9821.5410   -1.2220   10.5376 355.95 355.9 110.9 10     0.0000    0.0569
M13          ?    BHN  e S      ? 20230401 1145    5.6610 GAU  2.06e-03 -1.00e+00 -1.00e+00 -1.00e+00    1.0000 >    4.7366   -0.0276    0.9072  737.1780 9821.5410   -1.2220   10.5376 355.95 355.9 110.3 10     0.0000    0.0947
M08          ?    BHZ  e P      c 20230401 1145    3.9651 GAU  3.34e-03 -1.00e+00 -1.00e+00 -1.00e+00    1.0000 >    2.9573    0.0557    0.9802  738.2480 9822.1600   -1.1510   11.1350   1.67   1.7 109.3 10     0.0000    0.0591
M08          ?    BHN  e S      ? 20230401 1145    5.9235 GAU  1.61e-03 -1.00e+00  2.27e+02 -1.00e+00    1.0000 >    4.9208    0.0506    0.8488  738.2480 9822.1600   -1.1510   11.1350   1.67   1.7 108.7 10     0.0000    0.0984
M05          ?    BHZ  i P      d 20230401 1145    3.9249 GAU  3.26e-03 -1.00e+00  1.25e+02 -1.00e+00    1.0000 >    2.9660    0.0069    1.1537  736.2660 9822.0830   -1.1500   11.1767 351.48 351.5 109.1 10     0.0000    0.0593
M05          ?    BHE  e S      ? 20230401 1145    5.9992 GAU  1.11e-03 -1.00e+00 -1.00e+00 -1.00e+00    1.0000 >    4.9350    0.1122    0.6227  736.2660 9822.0830   -1.1500   11.1767 351.48 351.5 108.6 10     0.0000    0.0987
M01          ?    BHZ  e P      c 20230401 1145    3.9425 GAU  2.00e-03 -1.00e+00 -1.00e+00 -1.00e+00    1.0000 >    3.0470   -0.0565    0.9555  736.4090 9822.5140   -1.1200   11.5836 352.49 352.5 108.2 10     0.0000    0.0609
M01          ?    BHE  e S      ? 20230401 1145    6.0211 GAU  5.54e-03 -1.00e+00  3.62e+02 -1.00e+00    1.0000 >    5.0676    0.0015    0.8983  736.4090 9822.5140   -1.1200   11.5836 352.49 352.5 107.7 10     0.0000    0.1014
M12          ?    BHZ  e P      d 20230401 1145    4.1541 GAU  1.92e-03 -1.00e+00 -1.00e+00 -1.00e+00    1.0000 >    3.1983    0.0037    1.1252  736.8520 9823.3800   -0.9890   12.3966 355.05 355.0 106.2 10     0.0000    0.0640
M12          ?    BHE  e S      ? 20230401 1145    6.3158 GAU  3.54e-03 -1.00e+00  1.40e+02 -1.00e+00    1.0000 >    5.3124    0.0513    0.8153  736.8520 9823.3800   -0.9890   12.3966 355.05 355.0 105.8 10     0.0000    0.1062
END_PHASE
END_NLLOC

