NLLOC "./loc/SEML.20230404.212138.grid0" "LOCATED" "Location completed."
PUBLIC_ID None
SIGNATURE "Arham Zakki Edelo - edelo.17034@mhs.its.ac.id   obs:./obs/2023_04.obs   NLLoc:v7.00.10(30Aug2020)   run:28Dec2023 19h58m40"
COMMENT "SEML"
GRID  2001 2001 1001  727 9811 -2  0.01 0.01 0.01 PROB_DENSITY
SEARCH OCTREE nInitial 4851 nEvaluated 20003 smallestNodeSide 0.029762/0.029762/0.028409 oct_tree_integral 2.381688e-01 scatter_volume 2.381688e-01
HYPOCENTER  x 738.979 y 9817.89 z -0.139205  OT 37.9455  ix -1 iy -1 iz -1 MAXIMUM_LIKELIHOOD
GEOGRAPHIC  OT 2023 04 04  21 21 37.945518  Lat 9817.889881 Long 738.979167 Depth -0.139205
QUALITY  Pmax 1.55931e+21 MFmin 31.1537 MFmax 37.6722 RMS 0.00570581 Nphs 8 Gap 337.228 Dist 1.39771 Mamp -9.90 0 Mdur -9.90 0
VPVSRATIO  VpVsRatio 1.95148  Npair 4  Diff 0.19014
STATISTICS  ExpectX 738.881019 Y 9818.193842 Z 0.552227  CovXX 0.543577 XY 0.0711984 XZ -0.204592 YY 0.115522 YZ 0.152497 ZZ 0.576538 EllAz1  343.41 Dip1  -20.6689 Len1  0.347875 Az2  239.031 Dip2  -33.3549 Len2  1.23094 Len3  1.650927e+00
STAT_GEOG  ExpectLat 9818.193842 Long 738.881019 Depth 0.552227
TRANSFORM  NONE
QML_OriginQuality  assocPhCt 8  usedPhCt 8  assocStaCt -1  usedStaCt 4  depthPhCt -1  stdErr 0.00570581  azGap 337.228  secAzGap 337.228  gtLevel -  minDist 1.39771 maxDist 3.28383 medDist 2.60304
QML_OriginUncertainty  horUnc -1  minHorUnc 0.489059  maxHorUnc 1.12993  azMaxHorUnc 80.7999
QML_ConfidenceEllipsoid  semiMajorAxisLength 1.65093  semiMinorAxisLength 0.347875  semiIntermediateAxisLength 1.23094  majorAxisPlunge -49.2039  majorAxisAzimuth 99.3291  majorAxisRotation 102.831
FOCALMECH  Hyp  9817.889881 738.979167 -0.139205 Mech  0 0 0 mf  0 nObs -1
PHASE ID Ins Cmp On Pha  FM Date     HrMn   Sec     Err  ErrMag    Coda      Amp       Per       PriorWt  >   TTpred    Res       Weight    StaLoc(X  Y         Z)        SDist    SAzim  RAz  RDip RQual    Tcorr       TTerr
M06          ?    BHZ  i P      d 20230404 2121   38.5883 GAU  1.33e-03 -1.00e+00 -1.00e+00 -1.00e+00    1.0000 >    0.5061    0.1366    0.0004  738.3100 9819.1170   -1.3960    1.3977 331.40 331.4 129.4 10     0.0000    0.0101
M06          ?    BHN  i S      ? 20230404 2121   39.1165 GAU  3.54e-03 -1.00e+00 -1.00e+00 -1.00e+00    1.0000 >    0.8845    0.2865    0.0000  738.3100 9819.1170   -1.3960    1.3977 331.40 331.4 131.1 10     0.0000    0.0177
M14          ?    BHZ  e P      c 20230404 2121   38.7163 GAU  2.20e-03 -1.00e+00 -1.00e+00 -1.00e+00    1.0000 >    0.7668    0.0039    1.5186  737.5530 9820.0110   -1.3980    2.5560 326.08 326.1 111.8 10     0.0000    0.0153
M14          ?    BHE  e S      ? 20230404 2121   39.2805 GAU  2.67e-03 -1.00e+00  4.40e+02 -1.00e+00    1.0000 >    1.3412   -0.0063    1.2307  737.5530 9820.0110   -1.3980    2.5560 326.08 326.1 114.9 10     0.0000    0.0268
M11          ?    BHZ  e P      d 20230404 2121   38.7213 GAU  2.00e-03 -1.00e+00  7.48e+01 -1.00e+00    1.0000 >    0.7787   -0.0029    1.5200  738.4670 9820.4900   -1.3120    2.6501 348.86 348.9 109.3 10     0.0000    0.0156
M11          ?    BHE  i S      ? 20230404 2121   39.3157 GAU  7.55e-03 -1.00e+00 -1.00e+00 -1.00e+00    1.0000 >    1.3636    0.0066    1.2084  738.4670 9820.4900   -1.3120    2.6501 348.86 348.9 112.4 10     0.0000    0.0273
M09          ?    BHZ  i P      d 20230404 2121   38.8733 GAU  1.22e-03 -1.00e+00  1.42e+02 -1.00e+00    1.0000 >    0.9313   -0.0036    1.4507  737.8820 9820.9850   -1.2700    3.2838 340.48 340.5 103.8 10     0.0000    0.0186
M09          ?    BHE  e S      ? 20230404 2121   39.5916 GAU  3.09e-03 -1.00e+00  3.50e+02 -1.00e+00    1.0000 >    1.6336    0.0125    1.0712  737.8820 9820.9850   -1.2700    3.2838 340.48 340.5 107.3 10     0.0000    0.0327
END_PHASE
END_NLLOC

