#  2023   2 18 22 35  10.699623  -1.646736119  101.121014943   0.45739  0  0  0  0.03421320  2825
M06  0.74077700  1.000  P
M06  1.28337700  1.000  S
M14  0.75217700  1.000  P
M14  1.30607700  1.000  S
M11  0.91367700  1.000  P
M11  1.47057700  1.000  S
M09  0.96117700  1.000  P
M09  1.73847700  1.000  S
M13  1.07347700  1.000  P
M13  1.83417700  1.000  S
M05  1.06777700  1.000  P
M05  1.80437700  1.000  S
M08  1.37297700  1.000  P
M08  2.30647700  1.000  S
#  2023   2 18 22 38  25.918378  -1.645100101  101.141067185   2.75852  0  0  0  0.03323550  2826
M06  0.81602200  1.000  P
M06  1.35182200  1.000  S
M11  0.96482200  1.000  P
M11  1.51462200  1.000  S
M09  1.03392200  1.000  P
M09  1.80662200  1.000  S
M13  1.15522200  1.000  P
M13  2.01082200  1.000  S
M08  1.45802200  1.000  P
M08  2.38392200  1.000  S
#  2023   2 18 22 38  33.409144  -1.642749664  101.137388145   2.29688  0  0  0  0.01940890  2827
M06  0.68255600  1.000  P
M06  1.21975600  1.000  S
M14  0.73995600  1.000  P
M14  1.35395600  1.000  S
M11  0.86135600  1.000  P
M11  1.47885600  1.000  S
M09  0.95375600  1.000  P
M09  1.57735600  1.000  S
M13  1.07425600  1.000  P
M13  1.78715600  1.000  S
M08  1.33555600  1.000  P
M08  2.33575600  1.000  S
#  2023   2 18 22 39   5.479812  -1.646668058  101.121750195   0.00994  0  0  0  0.02415070  2828
M06  0.69968800  1.000  P
M06  1.23878800  1.000  S
M14  0.72698800  1.000  P
M14  1.23928800  1.000  S
M11  0.88048800  1.000  P
M11  1.49168800  1.000  S
M09  0.92038800  1.000  P
M09  1.68158800  1.000  S
M13  1.05198800  1.000  P
M13  1.83368800  1.000  S
M05  1.36978800  1.000  P
M05  2.44428800  1.000  S
M08  1.34818800  1.000  P
M08  2.27768800  1.000  S
#  2023   2 26 15 14  57.771167  -1.642962739  101.126893476   1.19602  0  0  0  0.01691590  2829
M06  0.61573300  1.000  P
M06  1.09463300  1.000  S
M14  0.64343300  1.000  P
M14  1.11553300  1.000  S
M11  0.75623300  1.000  P
M11  1.35363300  1.000  S
M09  0.86463300  1.000  P
M09  1.51393300  1.000  S
#  2023   2 27 22 34  11.942512  -1.646793986  101.129771950   1.45881  0  0  0  0.01510480  2830
M06  0.65978800  1.000  P
M06  1.15548800  1.000  S
M14  0.72838800  1.000  P
M14  1.28578800  1.000  S
M11  0.89568800  1.000  P
M11  1.55688800  1.000  S
M09  0.97898800  1.000  P
M09  1.71158800  1.000  S
#  2023   2 27 22 34  17.982019  -1.641670339  101.140194534   2.32528  0  0  0  0.00434743  2831
M06  0.67688100  1.000  P
M06  1.16068100  1.000  S
M14  0.78748100  1.000  P
M14  1.35048100  1.000  S
M11  0.82938100  1.000  P
M11  1.43978100  1.000  S
M09  0.91578100  1.000  P
M09  1.55488100  1.000  S
#  2023   2 27 22 34  39.326585  -1.645919419  101.129837864   1.84943  0  0  0  0.01098360  2832
M06  0.70571500  1.000  P
M06  1.24331500  1.000  S
M14  0.77951500  1.000  P
M14  1.34741500  1.000  S
M11  0.93741500  1.000  P
M11  1.60711500  1.000  S
M09  1.06541500  1.000  P
M09  1.86891500  1.000  S
#  2023   2 27 22 34  42.216194  -1.644638939  101.132042444   1.98438  0  0  0  0.00458569  2833
M06  0.68560600  1.000  P
M06  1.20390600  1.000  S
M14  0.76910600  1.000  P
M14  1.31790600  1.000  S
M11  0.89690600  1.000  P
M11  1.54990600  1.000  S
M09  0.94730600  1.000  P
M09  1.63540600  1.000  S
