NLLOC "./loc/SEML.20230226.151458.grid0" "LOCATED" "Location completed."
PUBLIC_ID None
SIGNATURE "Arham Zakki Edelo - edelo.17034@mhs.its.ac.id   obs:./obs/2023_02.obs   NLLoc:v7.00.10(30Aug2020)   run:28Dec2023 19h54m40"
COMMENT "SEML"
GRID  2001 2001 1001  727 9811 -2  0.01 0.01 0.01 PROB_DENSITY
SEARCH OCTREE nInitial 4851 nEvaluated 20011 smallestNodeSide 0.029762/0.029762/0.028409 oct_tree_integral 9.759962e-02 scatter_volume 9.697705e-02
HYPOCENTER  x 736.628 y 9818.28 z -0.0539773  OT 57.7712  ix -1 iy -1 iz -1 MAXIMUM_LIKELIHOOD
GEOGRAPHIC  OT 2023 02 26  15 14 57.771167  Lat 9818.276786 Long 736.627976 Depth -0.053977
QUALITY  Pmax 3.99741e+21 MFmin 31.1189 MFmax 39.326 RMS 0.0169159 Nphs 8 Gap 321.39 Dist 1.8802 Mamp -9.90 0 Mdur -9.90 0
VPVSRATIO  VpVsRatio 1.87133  Npair 4  Diff 0.177204
STATISTICS  ExpectX 737.644375 Y 9818.295419 Z 0.314417  CovXX 0.592813 XY -0.0139267 XZ 0.170428 YY 0.112212 YZ 0.173712 ZZ 0.454039 EllAz1  189.514 Dip1  25.0656 Len1  0.311561 Az2  305.037 Dip2  42.6526 Len2  1.20424 Len3  1.595061e+00
STAT_GEOG  ExpectLat 9818.295419 Long 737.644375 Depth 0.314417
TRANSFORM  NONE
QML_OriginQuality  assocPhCt 8  usedPhCt 8  assocStaCt -1  usedStaCt 4  depthPhCt -1  stdErr 0.0169159  azGap 321.39  secAzGap 321.39  gtLevel -  minDist 1.8802 maxDist 2.98446 medDist 2.42152
QML_OriginUncertainty  horUnc -1  minHorUnc 0.507109  maxHorUnc 1.16807  azMaxHorUnc 91.6584
QML_ConfidenceEllipsoid  semiMajorAxisLength 1.59506  semiMinorAxisLength 0.311561  semiIntermediateAxisLength 1.20424  majorAxisPlunge 36.9557  majorAxisAzimuth 78.9126  majorAxisRotation 66.097
FOCALMECH  Hyp  9818.276786 736.627976 -0.053977 Mech  0 0 0 mf  0 nObs -1
PHASE ID Ins Cmp On Pha  FM Date     HrMn   Sec     Err  ErrMag    Coda      Amp       Per       PriorWt  >   TTpred    Res       Weight    StaLoc(X  Y         Z)        SDist    SAzim  RAz  RDip RQual    Tcorr       TTerr
M06          ?    BHZ  i P      c 20230226 1514   58.3869 GAU  1.99e-03 -1.00e+00 -1.00e+00 -1.00e+00    1.0000 >    0.6205   -0.0048    1.4462  738.3100 9819.1170   -1.3960    1.8802  63.46  63.5 122.5 10     0.0000    0.0124
M06          ?    BHN  e S      ? 20230226 1514   58.8658 GAU  1.88e-03 -1.00e+00 -1.00e+00 -1.00e+00    1.0000 >    1.0864    0.0082    1.2057  738.3100 9819.1170   -1.3960    1.8802  63.46  63.5 124.5 10     0.0000    0.0217
M14          ?    BHZ  e P      c 20230226 1514   58.4146 GAU  3.34e-03 -1.00e+00 -1.00e+00 -1.00e+00    1.0000 >    0.6396    0.0038    1.4637  737.5530 9820.0110   -1.3980    1.9655  28.08  28.1 121.2 10     0.0000    0.0128
M14          ?    BHE  e S      ? 20230226 1514   58.8867 GAU  3.99e-03 -1.00e+00  4.23e+02 -1.00e+00    1.0000 >    1.1199   -0.0044    1.2154  737.5530 9820.0110   -1.3980    1.9655  28.08  28.1 123.4 10     0.0000    0.0224
M11          ?    BHZ  e P      d 20230226 1514   58.5274 GAU  2.81e-03 -1.00e+00 -1.00e+00 -1.00e+00    1.0000 >    0.8416   -0.0854    0.1357  738.4670 9820.4900   -1.3120    2.8776  39.72  39.7 109.4 10     0.0000    0.0168
M11          ?    BHN  e S      ? 20230226 1514   59.1248 GAU  1.07e-03 -1.00e+00 -1.00e+00 -1.00e+00    1.0000 >    1.4766   -0.1229    0.1233  738.4670 9820.4900   -1.3120    2.8776  39.72  39.7 112.2 10     0.0000    0.0295
M09          ?    BHZ  e P      d 20230226 1514   58.6358 GAU  5.79e-03 -1.00e+00  3.04e+02 -1.00e+00    1.0000 >    0.8627    0.0019    1.3571  737.8820 9820.9850   -1.2700    2.9845  24.85  24.8 107.9 10     0.0000    0.0173
M09          ?    BHN  e S      ? 20230226 1514   59.2851 GAU  1.34e-03 -1.00e+00  4.74e+02 -1.00e+00    1.0000 >    1.5148   -0.0009    1.0529  737.8820 9820.9850   -1.2700    2.9845  24.85  24.8 110.8 10     0.0000    0.0303
END_PHASE
END_NLLOC

