NLLOC "./loc/SEML.20230218.223826.grid0" "LOCATED" "Location completed."
PUBLIC_ID None
SIGNATURE "Arham Zakki Edelo - edelo.17034@mhs.its.ac.id   obs:./obs/2023_02.obs   NLLoc:v7.00.10(30Aug2020)   run:28Dec2023 19h54m38"
COMMENT "SEML"
GRID  2001 2001 1001  727 9811 -2  0.01 0.01 0.01 PROB_DENSITY
SEARCH OCTREE nInitial 4851 nEvaluated 20003 smallestNodeSide 0.029762/0.029762/0.028409 oct_tree_integral 2.718427e-01 scatter_volume 2.701084e-01
HYPOCENTER  x 738.205 y 9818.04 z 1.50852  OT 25.9184  ix -1 iy -1 iz -1 MAXIMUM_LIKELIHOOD
GEOGRAPHIC  OT 2023 02 18  22 38 25.918378  Lat 9818.038690 Long 738.205357 Depth 1.508523
QUALITY  Pmax 1.73252e+26 MFmin 33.6774 MFmax 41.9737 RMS 0.0332355 Nphs 10 Gap 337.559 Dist 1.08338 Mamp -9.90 0 Mdur -9.90 0
VPVSRATIO  VpVsRatio 1.43234  Npair 5  Diff 0.390078
STATISTICS  ExpectX 737.852717 Y 9817.988665 Z 0.850381  CovXX 1.00181 XY 0.322195 XZ 0.83354 YY 0.184868 YZ 0.234119 ZZ 1.16402 EllAz1  154.506 Dip1  -7.64864 Len1  0.482906 Az2  237.277 Dip2  43.1359 Len2  0.995092 Len3  2.659804e+00
STAT_GEOG  ExpectLat 9817.988665 Long 737.852717 Depth 0.850381
TRANSFORM  NONE
QML_OriginQuality  assocPhCt 10  usedPhCt 10  assocStaCt -1  usedStaCt 5  depthPhCt -1  stdErr 0.0332355  azGap 337.559  secAzGap 337.559  gtLevel -  minDist 1.08338 maxDist 4.12153 medDist 2.964
QML_OriginUncertainty  horUnc -1  minHorUnc 0.41001  maxHorUnc 1.60039  azMaxHorUnc 70.867
QML_ConfidenceEllipsoid  semiMajorAxisLength 2.6598  semiMinorAxisLength 0.482906  semiIntermediateAxisLength 0.995092  majorAxisPlunge 45.8479  majorAxisAzimuth 72.457  majorAxisRotation 81.3556
FOCALMECH  Hyp  9818.038690 738.205357 1.508523 Mech  0 0 0 mf  0 nObs -1
PHASE ID Ins Cmp On Pha  FM Date     HrMn   Sec     Err  ErrMag    Coda      Amp       Per       PriorWt  >   TTpred    Res       Weight    StaLoc(X  Y         Z)        SDist    SAzim  RAz  RDip RQual    Tcorr       TTerr
M06          ?    BHZ  i P      d 20230218 2238   26.7344 GAU  7.30e-04 -1.00e+00 -1.00e+00 -1.00e+00    1.0000 >    0.8022    0.0138    1.5019  738.3100 9819.1170   -1.3960    1.0834   5.54   5.5 157.0 10     0.0000    0.0160
M06          ?    BHN  i S      ? 20230218 2238   27.2702 GAU  3.39e-03 -1.00e+00 -1.00e+00 -1.00e+00    1.0000 >    1.3659   -0.0141    1.4169  738.3100 9819.1170   -1.3960    1.0834   5.54   5.5 156.2 10     0.0000    0.0273
M11          ?    BHZ  i P      c 20230218 2238   26.8832 GAU  5.61e-03 -1.00e+00 -1.00e+00 -1.00e+00    1.0000 >    0.9663   -0.0015    1.6610  738.4670 9820.4900   -1.3120    2.4652   6.09   6.1 132.9  9     0.0000    0.0193
M11          ?    BHE  i S      ? 20230218 2238   27.4330 GAU  2.93e-03 -1.00e+00 -1.00e+00 -1.00e+00    1.0000 >    1.6430   -0.1284    0.0214  738.4670 9820.4900   -1.3120    2.4652   6.09   6.1 131.1  9     0.0000    0.0329
M09          ?    BHZ  i P      c 20230218 2238   26.9523 GAU  1.34e-03 -1.00e+00  1.91e+01 -1.00e+00    1.0000 >    1.0464   -0.0124    1.5365  737.8820 9820.9850   -1.2700    2.9640 353.74 353.7 125.8  9     0.0000    0.0209
M09          ?    BHE  i S      ? 20230218 2238   27.7250 GAU  9.61e-04 -1.00e+00  3.46e+02 -1.00e+00    1.0000 >    1.7775    0.0292    1.0761  737.8820 9820.9850   -1.2700    2.9640 353.74 353.7 123.7  9     0.0000    0.0355
M13          ?    BHZ  i P      c 20230218 2238   27.0736 GAU  1.60e-03 -1.00e+00 -1.00e+00 -1.00e+00    1.0000 >    1.1718   -0.0167    1.4268  737.1780 9821.5410   -1.2220    3.6499 343.65 343.7 117.4  9     0.0000    0.0234
M13          ?    BHN  e S      ? 20230218 2238   27.9292 GAU  2.00e-03 -1.00e+00 -1.00e+00 -1.00e+00    1.0000 >    1.9874    0.0234    1.1241  737.1780 9821.5410   -1.2220    3.6499 343.65 343.7 114.9  9     0.0000    0.0397
M08          ?    BHZ  e P      d 20230218 2238   27.3764 GAU  2.31e-03 -1.00e+00  2.80e+02 -1.00e+00    1.0000 >    1.2580    0.2001    0.1178  738.2480 9822.1600   -1.1510    4.1215   0.59   0.6 112.0  9     0.0000    0.0252
M08          ?    BHN  e S      ? 20230218 2238   28.3023 GAU  1.67e-03 -1.00e+00  3.11e+02 -1.00e+00    1.0000 >    2.1301    0.2539    0.1176  738.2480 9822.1600   -1.1510    4.1215   0.59   0.6 109.3  9     0.0000    0.0426
END_PHASE
END_NLLOC

