NLLOC "./loc/SEML.20230218.223834.grid0" "LOCATED" "Location completed."
PUBLIC_ID None
SIGNATURE "Arham Zakki Edelo - edelo.17034@mhs.its.ac.id   obs:./obs/2023_02.obs   NLLoc:v7.00.10(30Aug2020)   run:28Dec2023 19h54m39"
COMMENT "SEML"
GRID  2001 2001 1001  727 9811 -2  0.01 0.01 0.01 PROB_DENSITY
SEARCH OCTREE nInitial 4851 nEvaluated 20003 smallestNodeSide 0.014881/0.014881/0.014205 oct_tree_integral 5.949438e-02 scatter_volume 5.917877e-02
HYPOCENTER  x 737.796 y 9818.3 z 1.04687  OT 33.4091  ix -1 iy -1 iz -1 MAXIMUM_LIKELIHOOD
GEOGRAPHIC  OT 2023 02 18  22 38 33.409144  Lat 9818.299107 Long 737.796131 Depth 1.046875
QUALITY  Pmax 1.54293e+35 MFmin 43.7481 MFmax 53.5181 RMS 0.0194089 Nphs 12 Gap 317.065 Dist 0.965924 Mamp -9.90 0 Mdur -9.90 0
VPVSRATIO  VpVsRatio 1.7852  Npair 6  Diff 0.462997
STATISTICS  ExpectX 737.745441 Y 9818.282998 Z 1.018970  CovXX 0.0681822 XY 0.017058 XZ 0.0191999 YY 0.0195085 YZ 0.00368983 ZZ 0.0390781 EllAz1  160.261 Dip1  -6.80888 Len1  0.221158 Az2  235.621 Dip2  64.7136 Len2  0.328704 Len3  5.390145e-01
STAT_GEOG  ExpectLat 9818.282998 Long 737.745441 Depth 1.018970
TRANSFORM  NONE
QML_OriginQuality  assocPhCt 12  usedPhCt 12  assocStaCt -1  usedStaCt 6  depthPhCt -1  stdErr 0.0194089  azGap 317.065  secAzGap 317.065  gtLevel -  minDist 0.965924 maxDist 3.88725 medDist 2.48928
QML_OriginUncertainty  horUnc -1  minHorUnc 0.180248  maxHorUnc 0.411339  azMaxHorUnc 72.4865
QML_ConfidenceEllipsoid  semiMajorAxisLength 0.539014  semiMinorAxisLength 0.221158  semiIntermediateAxisLength 0.328704  majorAxisPlunge 24.2274  majorAxisAzimuth 73.3408  majorAxisRotation 348.816
FOCALMECH  Hyp  9818.299107 737.796131 1.046875 Mech  0 0 0 mf  0 nObs -1
PHASE ID Ins Cmp On Pha  FM Date     HrMn   Sec     Err  ErrMag    Coda      Amp       Per       PriorWt  >   TTpred    Res       Weight    StaLoc(X  Y         Z)        SDist    SAzim  RAz  RDip RQual    Tcorr       TTerr
M06          ?    BHZ  i P      d 20230218 2238   34.0917 GAU  7.73e-04 -1.00e+00 -1.00e+00 -1.00e+00    1.0000 >    0.6915   -0.0090    1.3897  738.3100 9819.1170   -1.3960    0.9659  32.14  32.1 155.8 10     0.0000    0.0138
M06          ?    BHN  e S      ? 20230218 2238   34.6289 GAU  1.45e-03 -1.00e+00 -1.00e+00 -1.00e+00    1.0000 >    1.1848    0.0349    1.0105  738.3100 9819.1170   -1.3960    0.9659  32.14  32.1 154.7 10     0.0000    0.0237
M14          ?    BHZ  i P      c 20230218 2238   34.1491 GAU  2.23e-03 -1.00e+00 -1.00e+00 -1.00e+00    1.0000 >    0.7879   -0.0479    0.4478  737.5530 9820.0110   -1.3980    1.7291 351.92 351.9 140.0 10     0.0000    0.0158
M14          ?    BHN  e S      ? 20230218 2238   34.7631 GAU  1.06e-03 -1.00e+00  2.63e+02 -1.00e+00    1.0000 >    1.3494    0.0046    1.3813  737.5530 9820.0110   -1.3980    1.7291 351.92 351.9 138.1 10     0.0000    0.0270
M11          ?    BHZ  i P      c 20230218 2238   34.2705 GAU  1.61e-03 -1.00e+00 -1.00e+00 -1.00e+00    1.0000 >    0.8634   -0.0020    1.4854  738.4670 9820.4900   -1.3120    2.2913  17.03  17.0 129.2 10     0.0000    0.0173
M11          ?    BHN  e S      ? 20230218 2238   34.8880 GAU  4.26e-03 -1.00e+00 -1.00e+00 -1.00e+00    1.0000 >    1.4776    0.0013    1.3322  738.4670 9820.4900   -1.3120    2.2913  17.03  17.0 126.5 10     0.0000    0.0296
M09          ?    BHZ  i P      d 20230218 2238   34.3629 GAU  1.64e-03 -1.00e+00  2.55e+02 -1.00e+00    1.0000 >    0.9307    0.0231    1.2903  737.8820 9820.9850   -1.2700    2.6873   1.83   1.8 122.5 10     0.0000    0.0186
M09          ?    BHN  e S      ? 20230218 2238   34.9865 GAU  5.70e-04 -1.00e+00  4.46e+02 -1.00e+00    1.0000 >    1.5914   -0.0140    1.2041  737.8820 9820.9850   -1.2700    2.6873   1.83   1.8 119.2 10     0.0000    0.0318
M13          ?    BHZ  i P      d 20230218 2238   34.4834 GAU  3.19e-03 -1.00e+00  8.66e+01 -1.00e+00    1.0000 >    1.0493    0.0249    1.2417  737.1780 9821.5410   -1.2220    3.3003 349.20 349.2 113.8 10     0.0000    0.0210
M13          ?    BHN  e S      ? 20230218 2238   35.1963 GAU  1.07e-03 -1.00e+00 -1.00e+00 -1.00e+00    1.0000 >    1.7918   -0.0047    1.2167  737.1780 9821.5410   -1.2220    3.3003 349.20 349.2 109.5 10     0.0000    0.0358
M08          ?    BHZ  i P      d 20230218 2238   34.7447 GAU  1.11e-03 -1.00e+00  2.33e+02 -1.00e+00    1.0000 >    1.1678    0.1678    0.0002  738.2480 9822.1600   -1.1510    3.8872   6.68   6.7 105.7 10     0.0000    0.0234
M08          ?    BHN  e S      ? 20230218 2238   35.7449 GAU  8.98e-04 -1.00e+00  2.82e+02 -1.00e+00    1.0000 >    1.9901    0.3456    0.0001  738.2480 9822.1600   -1.1510    3.8872   6.68   6.7 100.3  9     0.0000    0.0398
END_PHASE
END_NLLOC

