NLLOC "./loc/SEML.20230218.223906.grid0" "LOCATED" "Location completed."
PUBLIC_ID None
SIGNATURE "Arham Zakki Edelo - edelo.17034@mhs.its.ac.id   obs:./obs/2023_02.obs   NLLoc:v7.00.10(30Aug2020)   run:28Dec2023 19h54m39"
COMMENT "SEML"
GRID  2001 2001 1001  727 9811 -2  0.01 0.01 0.01 PROB_DENSITY
SEARCH OCTREE nInitial 4851 nEvaluated 20003 smallestNodeSide 0.014881/0.014881/0.014205 oct_tree_integral 6.343982e-02 scatter_volume 6.343982e-02
HYPOCENTER  x 736.055 y 9817.87 z -1.24006  OT 5.47981  ix -1 iy -1 iz -1 MAXIMUM_LIKELIHOOD
GEOGRAPHIC  OT 2023 02 18  22 39 5.479812  Lat 9817.867560 Long 736.055060 Depth -1.240057
QUALITY  Pmax 1.01478e+41 MFmin 49.2998 MFmax 61.0753 RMS 0.0241507 Nphs 14 Gap 301.855 Dist 2.57796 Mamp -9.90 0 Mdur -9.90 0
VPVSRATIO  VpVsRatio 1.71196  Npair 7  Diff 0.562274
STATISTICS  ExpectX 736.340948 Y 9817.820534 Z -1.233237  CovXX 0.354985 XY -0.0671778 XZ 0.00648326 YY 0.0256499 YZ 0.0103778 ZZ 0.296278 EllAz1  191.125 Dip1  2.30331 Len1  0.205939 Az2  314.566 Dip2  85.8256 Len2  1.02301 Len3  1.140415e+00
STAT_GEOG  ExpectLat 9817.820534 Long 736.340948 Depth -1.233237
TRANSFORM  NONE
QML_OriginQuality  assocPhCt 14  usedPhCt 14  assocStaCt -1  usedStaCt 7  depthPhCt -1  stdErr 0.0241507  azGap 301.855  secAzGap 301.855  gtLevel -  minDist 2.57796 maxDist 4.82017 medDist 3.61333
QML_OriginUncertainty  horUnc -1  minHorUnc 0.169383  maxHorUnc 0.920201  azMaxHorUnc 101.097
QML_ConfidenceEllipsoid  semiMajorAxisLength 1.14041  semiMinorAxisLength 0.205939  semiIntermediateAxisLength 1.02301  majorAxisPlunge 3.47961  majorAxisAzimuth 100.985  majorAxisRotation 2.32468
FOCALMECH  Hyp  9817.867560 736.055060 -1.240057 Mech  0 0 0 mf  0 nObs -1
PHASE ID Ins Cmp On Pha  FM Date     HrMn   Sec     Err  ErrMag    Coda      Amp       Per       PriorWt  >   TTpred    Res       Weight    StaLoc(X  Y         Z)        SDist    SAzim  RAz  RDip RQual    Tcorr       TTerr
M06          ?    BHZ  i P      d 20230218 2239    6.1795 GAU  1.16e-03 -1.00e+00 -1.00e+00 -1.00e+00    1.0000 >    0.7097   -0.0100    1.6845  738.3100 9819.1170   -1.3960    2.5780  61.01  61.0  93.6  9     0.0000    0.0142
M06          ?    BHN  i S      ? 20230218 2239    6.7186 GAU  2.67e-03 -1.00e+00 -1.00e+00 -1.00e+00    1.0000 >    1.2243    0.0145    1.4956  738.3100 9819.1170   -1.3960    2.5780  61.01  61.0  93.6  9     0.0000    0.0245
M14          ?    BHZ  e P      c 20230218 2239    6.2068 GAU  3.13e-03 -1.00e+00 -1.00e+00 -1.00e+00    1.0000 >    0.7199    0.0071    1.7714  737.5530 9820.0110   -1.3980    2.6150  34.95  34.9  93.6  9     0.0000    0.0144
M14          ?    BHN  e S      ? 20230218 2239    6.7191 GAU  1.85e-03 -1.00e+00  3.28e+02 -1.00e+00    1.0000 >    1.2418   -0.0026    1.6132  737.5530 9820.0110   -1.3980    2.6150  34.95  34.9  93.6  9     0.0000    0.0248
M11          ?    BHZ  i P      c 20230218 2239    6.3603 GAU  1.07e-03 -1.00e+00 -1.00e+00 -1.00e+00    1.0000 >    0.9791   -0.0986    0.2735  738.4670 9820.4900   -1.3120    3.5630  42.61  42.6  91.3  9     0.0000    0.0196
M11          ?    BHN  i S      ? 20230218 2239    6.9715 GAU  2.40e-03 -1.00e+00 -1.00e+00 -1.00e+00    1.0000 >    1.6891   -0.1973    0.0106  738.4670 9820.4900   -1.3120    3.5630  42.61  42.6  91.3  9     0.0000    0.0338
M09          ?    BHZ  i P      c 20230218 2239    6.4002 GAU  2.97e-03 -1.00e+00  7.99e+01 -1.00e+00    1.0000 >    0.9927   -0.0724    0.4498  737.8820 9820.9850   -1.2700    3.6133  30.37  30.4  90.7  9     0.0000    0.0199
M09          ?    BHE  e S      ? 20230218 2239    7.1614 GAU  2.77e-03 -1.00e+00  3.80e+02 -1.00e+00    1.0000 >    1.7126   -0.0310    1.1832  737.8820 9820.9850   -1.2700    3.6133  30.37  30.4  90.7  9     0.0000    0.0343
M13          ?    BHZ  i P      c 20230218 2239    6.5318 GAU  1.85e-03 -1.00e+00 -1.00e+00 -1.00e+00    1.0000 >    1.0553   -0.0034    1.6893  737.1780 9821.5410   -1.2220    3.8412  17.00  17.0  89.5  9     0.0000    0.0211
M13          ?    BHN  e S      ? 20230218 2239    7.3135 GAU  2.78e-03 -1.00e+00 -1.00e+00 -1.00e+00    1.0000 >    1.8206    0.0132    1.3094  737.1780 9821.5410   -1.2220    3.8412  17.00  17.0  89.5  9     0.0000    0.0364
M05          ?    BHZ  i P      c 20230218 2239    6.8496 GAU  4.81e-03 -1.00e+00  1.10e+02 -1.00e+00    1.0000 >    1.1599    0.2099    0.0000  736.2660 9822.0830   -1.1500    4.2207   2.86   2.9  88.6  9     0.0000    0.0232
M05          ?    BHE  e S      ? 20230218 2239    7.9241 GAU  5.80e-03 -1.00e+00 -1.00e+00 -1.00e+00    1.0000 >    2.0009    0.4434    0.0000  736.2660 9822.0830   -1.1500    4.2207   2.86   2.9  88.6  9     0.0000    0.0400
M08          ?    BHZ  i P      d 20230218 2239    6.8280 GAU  1.55e-03 -1.00e+00  2.48e+02 -1.00e+00    1.0000 >    1.3245    0.0237    1.2850  738.2480 9822.1600   -1.1510    4.8202  27.06  27.1  88.8  9     0.0000    0.0265
M08          ?    BHN  e S      ? 20230218 2239    7.7575 GAU  3.34e-03 -1.00e+00  3.27e+02 -1.00e+00    1.0000 >    2.2850   -0.0073    1.2344  738.2480 9822.1600   -1.1510    4.8202  27.06  27.1  88.8  9     0.0000    0.0457
END_PHASE
END_NLLOC

