NLLOC "./loc/SEML.20230227.223440.grid0" "LOCATED" "Location completed."
PUBLIC_ID None
SIGNATURE "Arham Zakki Edelo - edelo.17034@mhs.its.ac.id   obs:./obs/2023_02.obs   NLLoc:v7.00.10(30Aug2020)   run:28Dec2023 19h54m41"
COMMENT "SEML"
GRID  2001 2001 1001  727 9811 -2  0.01 0.01 0.01 PROB_DENSITY
SEARCH OCTREE nInitial 4851 nEvaluated 20003 smallestNodeSide 0.029762/0.029762/0.028409 oct_tree_integral 1.222593e-01 scatter_volume 1.222593e-01
HYPOCENTER  x 736.955 y 9817.95 z 0.599432  OT 39.3266  ix -1 iy -1 iz -1 MAXIMUM_LIKELIHOOD
GEOGRAPHIC  OT 2023 02 27  22 34 39.326585  Lat 9817.949405 Long 736.955357 Depth 0.599432
QUALITY  Pmax 1.75907e+21 MFmin 29.1954 MFmax 38.3547 RMS 0.0109836 Nphs 8 Gap 326.925 Dist 1.78839 Mamp -9.90 0 Mdur -9.90 0
VPVSRATIO  VpVsRatio 1.82028  Npair 4  Diff 0.265942
STATISTICS  ExpectX 737.473218 Y 9817.614064 Z -0.144108  CovXX 1.46357 XY 0.0558504 XZ 0.672736 YY 0.0850564 YZ 0.204128 ZZ 1.01326 EllAz1  185.002 Dip1  14.9945 Len1  0.351801 Az2  293.611 Dip2  49.9906 Len2  1.41159 Len3  2.631941e+00
STAT_GEOG  ExpectLat 9817.614064 Long 737.473218 Depth -0.144108
TRANSFORM  NONE
QML_OriginQuality  assocPhCt 8  usedPhCt 8  assocStaCt -1  usedStaCt 4  depthPhCt -1  stdErr 0.0109836  azGap 326.925  secAzGap 326.925  gtLevel -  minDist 1.78839 maxDist 3.17388 medDist 2.55139
QML_OriginUncertainty  horUnc -1  minHorUnc 0.436387  maxHorUnc 1.83614  azMaxHorUnc 87.6837
QML_ConfidenceEllipsoid  semiMajorAxisLength 2.63194  semiMinorAxisLength 0.351801  semiIntermediateAxisLength 1.41159  majorAxisPlunge 36.0546  majorAxisAzimuth 83.7577  majorAxisRotation 47.715
FOCALMECH  Hyp  9817.949405 736.955357 0.599432 Mech  0 0 0 mf  0 nObs -1
PHASE ID Ins Cmp On Pha  FM Date     HrMn   Sec     Err  ErrMag    Coda      Amp       Per       PriorWt  >   TTpred    Res       Weight    StaLoc(X  Y         Z)        SDist    SAzim  RAz  RDip RQual    Tcorr       TTerr
M06          ?    BHZ  e P      c 20230227 2234   40.0323 GAU  2.67e-03 -1.00e+00 -1.00e+00 -1.00e+00    1.0000 >    0.7105   -0.0048    1.4910  738.3100 9819.1170   -1.3960    1.7884  49.24  49.2 136.4 10     0.0000    0.0142
M06          ?    BHN  e S      ? 20230227 2234   40.5699 GAU  2.88e-03 -1.00e+00 -1.00e+00 -1.00e+00    1.0000 >    1.2336    0.0097    1.2402  738.3100 9819.1170   -1.3960    1.7884  49.24  49.2 131.7 10     0.0000    0.0247
M14          ?    BHZ  e P      c 20230227 2234   40.1061 GAU  1.42e-03 -1.00e+00 -1.00e+00 -1.00e+00    1.0000 >    0.7773    0.0022    1.5108  737.5530 9820.0110   -1.3980    2.1465  16.17  16.2 130.7 10     0.0000    0.0155
M14          ?    BHN  e S      ? 20230227 2234   40.6740 GAU  1.50e-03 -1.00e+00  3.38e+02 -1.00e+00    1.0000 >    1.3495   -0.0021    1.2329  737.5530 9820.0110   -1.3980    2.1465  16.17  16.2 124.9 10     0.0000    0.0270
M11          ?    BHZ  e P      c 20230227 2234   40.2640 GAU  4.02e-03 -1.00e+00 -1.00e+00 -1.00e+00    1.0000 >    0.9317    0.0057    1.4095  738.4670 9820.4900   -1.3120    2.9563  30.75  30.8 119.8 10     0.0000    0.0186
M11          ?    BHN  e S      ? 20230227 2234   40.9337 GAU  8.08e-03 -1.00e+00 -1.00e+00 -1.00e+00    1.0000 >    1.6169   -0.0098    1.0543  738.4670 9820.4900   -1.3120    2.9563  30.75  30.8 110.8 10     0.0000    0.0323
M09          ?    BHZ  i P      d 20230227 2234   40.3920 GAU  2.55e-03 -1.00e+00  2.54e+02 -1.00e+00    1.0000 >    0.9740    0.0914    0.0432  737.8820 9820.9850   -1.2700    3.1739  16.98  17.0 117.3 10     0.0000    0.0195
M09          ?    BHN  e S      ? 20230227 2234   41.1955 GAU  9.72e-04 -1.00e+00  4.94e+02 -1.00e+00    1.0000 >    1.6900    0.1790    0.0181  737.8820 9820.9850   -1.2700    3.1739  16.98  17.0 107.0 10     0.0000    0.0338
END_PHASE
END_NLLOC

