NLLOC "./loc/SEML.20230218.223511.grid0" "LOCATED" "Location completed."
PUBLIC_ID None
SIGNATURE "Arham Zakki Edelo - edelo.17034@mhs.its.ac.id   obs:./obs/2023_02.obs   NLLoc:v7.00.10(30Aug2020)   run:28Dec2023 19h54m38"
COMMENT "SEML"
GRID  2001 2001 1001  727 9811 -2  0.01 0.01 0.01 PROB_DENSITY
SEARCH OCTREE nInitial 4851 nEvaluated 20019 smallestNodeSide 0.029762/0.029762/0.028409 oct_tree_integral 1.029915e-01 scatter_volume 1.029915e-01
HYPOCENTER  x 735.973 y 9817.86 z -0.792614  OT 10.6996  ix -1 iy -1 iz -1 MAXIMUM_LIKELIHOOD
GEOGRAPHIC  OT 2023 02 18  22 35 10.699623  Lat 9817.860119 Long 735.973214 Depth -0.792614
QUALITY  Pmax 2.41428e+41 MFmin 48.8307 MFmax 56.7353 RMS 0.0342132 Nphs 14 Gap 302.241 Dist 2.65336 Mamp -9.90 0 Mdur -9.90 0
VPVSRATIO  VpVsRatio 1.59702  Npair 7  Diff 0.390893
STATISTICS  ExpectX 735.903105 Y 9817.853926 Z -0.959010  CovXX 0.0430169 XY 0.00243086 XZ 0.0744954 YY 0.0126541 YZ -0.00102471 ZZ 0.355328 EllAz1  169.75 Dip1  -2.38022 Len1  0.207279 Az2  259.221 Dip2  12.5201 Len2  0.306658 Len3  1.146221e+00
STAT_GEOG  ExpectLat 9817.853926 Long 735.903105 Depth -0.959010
TRANSFORM  NONE
QML_OriginQuality  assocPhCt 14  usedPhCt 14  assocStaCt -1  usedStaCt 7  depthPhCt -1  stdErr 0.0342132  azGap 302.241  secAzGap 302.241  gtLevel -  minDist 2.65336 maxDist 4.86453 medDist 3.66174
QML_OriginUncertainty  horUnc -1  minHorUnc 0.169292  maxHorUnc 0.315252  azMaxHorUnc 85.4515
QML_ConfidenceEllipsoid  semiMajorAxisLength 1.14622  semiMinorAxisLength 0.207279  semiIntermediateAxisLength 0.306658  majorAxisPlunge 77.2484  majorAxisAzimuth 90.3342  majorAxisRotation 11.9838
FOCALMECH  Hyp  9817.860119 735.973214 -0.792614 Mech  0 0 0 mf  0 nObs -1
PHASE ID Ins Cmp On Pha  FM Date     HrMn   Sec     Err  ErrMag    Coda      Amp       Per       PriorWt  >   TTpred    Res       Weight    StaLoc(X  Y         Z)        SDist    SAzim  RAz  RDip RQual    Tcorr       TTerr
M06          ?    BHZ  i P      d 20230218 2235   11.4404 GAU  1.22e-03 -1.00e+00 -1.00e+00 -1.00e+00    1.0000 >    0.7458   -0.0050    1.6293  738.3100 9819.1170   -1.3960    2.6534  61.73  61.7 101.6 10     0.0000    0.0149
M06          ?    BHN  e S      ? 20230218 2235   11.9830 GAU  3.20e-03 -1.00e+00 -1.00e+00 -1.00e+00    1.0000 >    1.2882   -0.0048    1.4700  738.3100 9819.1170   -1.3960    2.6534  61.73  61.7 102.1 10     0.0000    0.0258
M14          ?    BHZ  e P      c 20230218 2235   11.4518 GAU  3.47e-03 -1.00e+00 -1.00e+00 -1.00e+00    1.0000 >    0.7500    0.0021    1.6530  737.5530 9820.0110   -1.3980    2.6687  36.30  36.3 101.6 10     0.0000    0.0150
M14          ?    BHE  e S      ? 20230218 2235   12.0057 GAU  9.66e-04 -1.00e+00  3.76e+02 -1.00e+00    1.0000 >    1.2955    0.0106    1.4126  737.5530 9820.0110   -1.3980    2.6687  36.30  36.3 102.1 10     0.0000    0.0259
M11          ?    BHZ  i P      c 20230218 2235   11.6133 GAU  1.61e-03 -1.00e+00 -1.00e+00 -1.00e+00    1.0000 >    1.0026   -0.0889    0.4190  738.4670 9820.4900   -1.3120    3.6243  43.48  43.5  96.6 10     0.0000    0.0201
M11          ?    BHN  i S      ? 20230218 2235   12.1702 GAU  2.77e-03 -1.00e+00 -1.00e+00 -1.00e+00    1.0000 >    1.7325   -0.2619    0.0725  738.4670 9820.4900   -1.3120    3.6243  43.48  43.5  97.2 10     0.0000    0.0346
M09          ?    BHZ  i P      c 20230218 2235   11.6608 GAU  1.66e-03 -1.00e+00  1.23e+02 -1.00e+00    1.0000 >    1.0109   -0.0498    0.7305  737.8820 9820.9850   -1.2700    3.6617  31.42  31.4  95.9 10     0.0000    0.0202
M09          ?    BHE  e S      ? 20230218 2235   12.4381 GAU  9.66e-04 -1.00e+00  3.42e+02 -1.00e+00    1.0000 >    1.7470   -0.0086    1.3201  737.8820 9820.9850   -1.2700    3.6617  31.42  31.4  96.5 10     0.0000    0.0349
M13          ?    BHZ  i P      c 20230218 2235   11.7731 GAU  2.78e-03 -1.00e+00 -1.00e+00 -1.00e+00    1.0000 >    1.0661    0.0073    1.5206  737.1780 9821.5410   -1.2220    3.8730  18.12  18.1  94.9 10     0.0000    0.0213
M13          ?    BHE  e S      ? 20230218 2235   12.5338 GAU  1.85e-03 -1.00e+00 -1.00e+00 -1.00e+00    1.0000 >    1.8430   -0.0088    1.2926  737.1780 9821.5410   -1.2220    3.8730  18.12  18.1  95.4 10     0.0000    0.0369
M05          ?    BHZ  i P      c 20230218 2235   11.7674 GAU  3.34e-03 -1.00e+00  1.09e+02 -1.00e+00    1.0000 >    1.1611   -0.0933    0.4058  736.2660 9822.0830   -1.1500    4.2330   3.97   4.0  93.9 10     0.0000    0.0232
M05          ?    BHN  e S      ? 20230218 2235   12.5040 GAU  1.07e-03 -1.00e+00  2.63e+02 -1.00e+00    1.0000 >    2.0080   -0.2036    0.0888  736.2660 9822.0830   -1.1500    4.2330   3.97   4.0  94.1 10     0.0000    0.0402
M08          ?    BHZ  i P      d 20230218 2235   12.0726 GAU  1.39e-03 -1.00e+00  2.37e+02 -1.00e+00    1.0000 >    1.3328    0.0401    0.8226  738.2480 9822.1600   -1.1510    4.8645  27.88  27.9  93.3  9     0.0000    0.0267
M08          ?    BHN  e S      ? 20230218 2235   13.0061 GAU  1.42e-03 -1.00e+00  3.12e+02 -1.00e+00    1.0000 >    2.3053    0.0012    1.1628  738.2480 9822.1600   -1.1510    4.8645  27.88  27.9  93.5 10     0.0000    0.0461
END_PHASE
END_NLLOC

