NLLOC "./loc/SEML.20230227.223418.grid0" "LOCATED" "Location completed."
PUBLIC_ID None
SIGNATURE "Arham Zakki Edelo - edelo.17034@mhs.its.ac.id   obs:./obs/2023_02.obs   NLLoc:v7.00.10(30Aug2020)   run:28Dec2023 19h54m40"
COMMENT "SEML"
GRID  2001 2001 1001  727 9811 -2  0.01 0.01 0.01 PROB_DENSITY
SEARCH OCTREE nInitial 4851 nEvaluated 20003 smallestNodeSide 0.014881/0.014881/0.014205 oct_tree_integral 2.990388e-02 scatter_volume 2.990388e-02
HYPOCENTER  x 738.109 y 9818.42 z 1.07528  OT 17.982  ix -1 iy -1 iz -1 MAXIMUM_LIKELIHOOD
GEOGRAPHIC  OT 2023 02 27  22 34 17.982019  Lat 9818.418155 Long 738.108631 Depth 1.075284
QUALITY  Pmax 3.83076e+23 MFmin 30.1105 MFmax 33.9192 RMS 0.00434743 Nphs 8 Gap 324.696 Dist 0.727279 Mamp -9.90 0 Mdur -9.90 0
VPVSRATIO  VpVsRatio 1.58688  Npair 4  Diff 0.155272
STATISTICS  ExpectX 738.116629 Y 9818.407697 Z 1.082017  CovXX 0.0404996 XY 0.00525934 XZ 0.00287713 YY 0.0131483 YZ -0.000692724 ZZ 0.014448 EllAz1  347.072 Dip1  24.9299 Len1  0.202449 Az2  181.632 Dip2  64.3477 Len2  0.228115 Len3  3.838707e-01
STAT_GEOG  ExpectLat 9818.407697 Long 738.116629 Depth 1.082017
TRANSFORM  NONE
QML_OriginQuality  assocPhCt 8  usedPhCt 8  assocStaCt -1  usedStaCt 4  depthPhCt -1  stdErr 0.00434743  azGap 324.696  secAzGap 324.696  gtLevel -  minDist 0.727279 maxDist 2.57683 medDist 1.89479
QML_OriginUncertainty  horUnc -1  minHorUnc 0.167318  maxHorUnc 0.308861  azMaxHorUnc 79.4822
QML_ConfidenceEllipsoid  semiMajorAxisLength 0.383871  semiMinorAxisLength 0.202449  semiIntermediateAxisLength 0.228115  majorAxisPlunge 5.66402  majorAxisAzimuth 79.714  majorAxisRotation 154.504
FOCALMECH  Hyp  9818.418155 738.108631 1.075284 Mech  0 0 0 mf  0 nObs -1
PHASE ID Ins Cmp On Pha  FM Date     HrMn   Sec     Err  ErrMag    Coda      Amp       Per       PriorWt  >   TTpred    Res       Weight    StaLoc(X  Y         Z)        SDist    SAzim  RAz  RDip RQual    Tcorr       TTerr
M06          ?    BHZ  e P      d 20230227 2234   18.6589 GAU  2.32e-03 -1.00e+00 -1.00e+00 -1.00e+00    1.0000 >    0.6773   -0.0005    1.1764  738.3100 9819.1170   -1.3960    0.7273  16.07  16.1 161.6 10     0.0000    0.0135
M06          ?    BHN  i S      ? 20230227 2234   19.1427 GAU  3.06e-03 -1.00e+00 -1.00e+00 -1.00e+00    1.0000 >    1.1601    0.0007    0.9792  738.3100 9819.1170   -1.3960    0.7273  16.07  16.1 160.8 10     0.0000    0.0232
M14          ?    BHZ  e P      c 20230227 2234   18.7695 GAU  2.74e-03 -1.00e+00 -1.00e+00 -1.00e+00    1.0000 >    0.7868    0.0007    1.1359  737.5530 9820.0110   -1.3980    1.6870 340.77 340.8 141.2 10     0.0000    0.0157
M14          ?    BHE  e S      ? 20230227 2234   19.3325 GAU  1.34e-03 -1.00e+00  3.80e+02 -1.00e+00    1.0000 >    1.3470    0.0035    0.9049  737.5530 9820.0110   -1.3980    1.6870 340.77 340.8 139.4 10     0.0000    0.0269
M11          ?    BHZ  e P      c 20230227 2234   18.8114 GAU  5.04e-03 -1.00e+00 -1.00e+00 -1.00e+00    1.0000 >    0.8343   -0.0049    1.0799  738.4670 9820.4900   -1.3120    2.1026   9.81   9.8 132.9 10     0.0000    0.0167
M11          ?    BHN  e S      ? 20230227 2234   19.4218 GAU  2.31e-03 -1.00e+00 -1.00e+00 -1.00e+00    1.0000 >    1.4274    0.0124    0.8264  738.4670 9820.4900   -1.3120    2.1026   9.81   9.8 130.5 10     0.0000    0.0285
M09          ?    BHZ  i P      c 20230227 2234   18.8978 GAU  2.67e-03 -1.00e+00 -1.00e+00 -1.00e+00    1.0000 >    0.9127    0.0031    1.0792  737.8820 9820.9850   -1.2700    2.5768 354.95 355.0 124.7 10     0.0000    0.0183
M09          ?    BHE  e S      ? 20230227 2234   19.5369 GAU  2.40e-03 -1.00e+00  3.51e+02 -1.00e+00    1.0000 >    1.5603   -0.0053    0.8182  737.8820 9820.9850   -1.2700    2.5768 354.95 355.0 121.8 10     0.0000    0.0312
END_PHASE
END_NLLOC

