#  2023   7 19  3  7  20.173221  -1.647857885  101.141270673   1.47301  0  0  0  0.04610570  3002
M06  0.76327900  1.000  P
M06  1.30407900  1.000  S
M04  0.68817900  1.000  P
M04  1.21157900  1.000  S
M02  0.90147900  1.000  P
M02  1.52837900  1.000  S
M14  0.59937900  1.000  P
M14  1.01557900  1.000  S
M11  0.84707900  1.000  P
M11  1.48987900  1.000  S
M09  0.95527900  1.000  P
M09  1.68127900  1.000  S
M13  1.08657900  1.000  P
M13  1.89627900  1.000  S
M10  1.13697900  1.000  P
M10  1.97567900  1.000  S
M08  1.12437900  1.000  P
M08  1.95767900  1.000  S
M05  1.34847900  1.000  P
M05  2.30817900  1.000  S
M01  1.47987900  1.000  P
M01  2.54847900  1.000  S
M12  1.55937900  1.000  P
M12  2.71347900  1.000  S
#  2023   7 19  3  8  37.713387  -1.633585185  101.152218150   2.43892  0  0  0  0.01662950  3003
M06  0.73901300  1.000  P
M06  1.27491300  1.000  S
M11  0.76571300  1.000  P
M11  1.28071300  1.000  S
M14  0.86281300  1.000  P
M14  1.47291300  1.000  S
M09  0.91431300  1.000  P
M09  1.53701300  1.000  S
M04  0.79361300  1.000  P
M04  1.33611300  1.000  S
M10  1.10251300  1.000  P
M10  1.89781300  1.000  S
#  2023   7 19  3 10  29.884404  -1.638710669  101.140057696   2.39631  0  0  0  0.00953377  3004
M06  0.67579600  1.000  P
M06  1.16659600  1.000  S
M14  0.75799600  1.000  P
M14  1.28329600  1.000  S
M11  0.77889600  1.000  P
M11  1.35879600  1.000  S
M09  0.87109600  1.000  P
M09  1.49119600  1.000  S
#  2023   7 19  3 11   7.885590  -1.637632366  101.141928233   1.92756  0  0  0  0.02819080  3005
M06  0.55661000  1.000  P
M06  1.00151000  1.000  S
M04  0.68841000  1.000  P
M04  1.16181000  1.000  S
M14  0.65571000  1.000  P
M14  1.15421000  1.000  S
M11  0.66701000  1.000  P
M11  1.19091000  1.000  S
M02  0.67851000  1.000  P
M02  1.22601000  1.000  S
M09  0.76281000  1.000  P
M09  1.34211000  1.000  S
M03  0.84031000  1.000  P
M03  1.42781000  1.000  S
M13  0.88571000  1.000  P
M13  1.50291000  1.000  S
M10  1.01191000  1.000  P
M10  1.78681000  1.000  S
M08  0.97581000  1.000  P
M08  1.68481000  1.000  S
M05  1.13021000  1.000  P
M05  2.00901000  1.000  S
M01  1.23751000  1.000  P
M01  2.15431000  1.000  S
M12  1.34001000  1.000  P
M12  2.34041000  1.000  S
#  2023   7 19  3 12  10.797689  -1.636429277  101.134707596   2.18324  0  0  0  0.00244220  3006
M06  0.65041100  1.000  P
M06  1.12071100  1.000  S
M14  0.67161100  1.000  P
M14  1.15641100  1.000  S
M11  0.75721100  1.000  P
M11  1.30051100  1.000  S
M09  0.78411100  1.000  P
M09  1.34981100  1.000  S
#  2023   7 19  3 14  29.637367  -1.640251865  101.145607547   2.70171  0  0  0  0.01773160  3007
M06  0.76283300  1.000  P
M06  1.29933300  1.000  S
M14  0.86033300  1.000  P
M14  1.49933300  1.000  S
M11  0.86683300  1.000  P
M11  1.46103300  1.000  S
M09  0.97723300  1.000  P
M09  1.69043300  1.000  S
M05  1.47653300  1.000  P
M05  2.48673300  1.000  S
#  2023   7 19  3 14  38.364192  -1.640956918  101.146778096   0.90838  0  0  0  0.01471410  3008
M06  0.54250800  1.000  P
M06  0.98810800  1.000  S
M04  0.60680800  1.000  P
M04  1.06050800  1.000  S
M14  0.60610800  1.000  P
M14  1.05000800  1.000  S
M11  0.61440800  1.000  P
M11  1.06290800  1.000  S
M09  0.73760800  1.000  P
M09  1.34790800  1.000  S
M10  1.01370800  1.000  P
M10  1.75800800  1.000  S
M05  1.23570800  1.000  P
M05  2.18000800  1.000  S
#  2023   7 19  3 17  13.872554  -1.639116581  101.137919057   1.71449  0  0  0  0.01443890  3009
M06  0.51524600  1.000  P
M06  0.90794600  1.000  S
M14  0.62054600  1.000  P
M14  1.06274600  1.000  S
M11  0.69294600  1.000  P
M11  1.21794600  1.000  S
M09  0.72594600  1.000  P
M09  1.28254600  1.000  S
#  2023   7 19  3 22   8.320467  -1.635200487  101.151417724   2.09801  0  0  0  0.01714120  3010
M06  0.66113300  1.000  P
M06  1.11903300  1.000  S
M11  0.71423300  1.000  P
M11  1.32083300  1.000  S
M14  0.72273300  1.000  P
M14  1.24933300  1.000  S
M04  0.61683300  1.000  P
M04  1.08513300  1.000  S
M09  0.83313300  1.000  P
M09  1.44163300  1.000  S
M13  0.99613300  1.000  P
M13  1.74153300  1.000  S
M10  1.07663300  1.000  P
M10  1.87723300  1.000  S
M05  1.24213300  1.000  P
M05  2.16833300  1.000  S
#  2023   7 19  3 23   0.503089  -1.637902735  101.140725300   2.04119  0  0  0  0.02977770  3011
M06  0.58371100  1.000  P
M06  1.01191100  1.000  S
M04  0.69721100  1.000  P
M04  1.16191100  1.000  S
M14  0.68941100  1.000  P
M14  1.12531100  1.000  S
M02  0.73951100  1.000  P
M02  1.32361100  1.000  S
M11  0.70031100  1.000  P
M11  1.23011100  1.000  S
M09  0.79051100  1.000  P
M09  1.38191100  1.000  S
M13  0.88441100  1.000  P
M13  1.48221100  1.000  S
M10  1.01981100  1.000  P
M10  1.72271100  1.000  S
M08  1.09221100  1.000  P
M08  1.90691100  1.000  S
M05  1.17671100  1.000  P
M05  2.04581100  1.000  S
M01  1.18141100  1.000  P
M01  2.03071100  1.000  S
M12  1.25701100  1.000  P
M12  2.21371100  1.000  S
#  2023   7 19  3 23  19.364235  -1.640185827  101.144471090   1.45881  0  0  0  0.02950360  3012
M06  0.53666500  1.000  P
M06  0.97736500  1.000  S
M04  0.65396500  1.000  P
M04  1.13686500  1.000  S
M14  0.63486500  1.000  P
M14  1.09316500  1.000  S
M11  0.66796500  1.000  P
M11  1.23116500  1.000  S
M02  0.69976500  1.000  P
M02  1.25306500  1.000  S
M09  0.75426500  1.000  P
M09  1.33836500  1.000  S
M13  0.89036500  1.000  P
M13  1.52586500  1.000  S
M10  0.98306500  1.000  P
M10  1.75346500  1.000  S
M08  0.98966500  1.000  P
M08  1.75766500  1.000  S
M05  1.16056500  1.000  P
M05  2.06716500  1.000  S
M01  1.27806500  1.000  P
M01  2.23986500  1.000  S
M12  1.40476500  1.000  P
M12  2.45226500  1.000  S
#  2023   7 19  3 23  22.772053  -1.642881176  101.140195823   1.52983  0  0  0  0.03087980  3013
M06  0.59284700  1.000  P
M06  1.09284700  1.000  S
M04  0.61464700  1.000  P
M04  1.05854700  1.000  S
M14  0.69444700  1.000  P
M14  1.15874700  1.000  S
M02  0.71284700  1.000  P
M02  1.21754700  1.000  S
M11  0.71994700  1.000  P
M11  1.32584700  1.000  S
M09  0.76944700  1.000  P
M09  1.44944700  1.000  S
M13  0.91554700  1.000  P
M13  1.61204700  1.000  S
M10  0.98714700  1.000  P
M10  1.77034700  1.000  S
M08  0.99214700  1.000  P
M08  1.72594700  1.000  S
M01  1.29584700  1.000  P
M01  2.21794700  1.000  S
M12  1.41944700  1.000  P
M12  2.49614700  1.000  S
#  2023   7 19  3 23  38.402960  -1.637906182  101.137516695   2.21165  0  0  0  0.01243980  3014
M06  0.64154000  1.000  P
M06  1.10914000  1.000  S
M04  0.67774000  1.000  P
M04  1.17964000  1.000  S
M02  0.74984000  1.000  P
M02  1.28524000  1.000  S
M11  0.75634000  1.000  P
M11  1.29224000  1.000  S
M09  0.81194000  1.000  P
M09  1.40874000  1.000  S
#  2023   7 19  3 24   8.747039  -1.639349257  101.140492872   1.62571  0  0  0  0.02525760  3015
M06  0.50306100  1.000  P
M06  0.96466100  1.000  S
M04  0.60696100  1.000  P
M04  1.03026100  1.000  S
M14  0.60796100  1.000  P
M14  1.03376100  1.000  S
M02  0.63116100  1.000  P
M02  1.20696100  1.000  S
M11  0.59996100  1.000  P
M11  1.15276100  1.000  S
M09  0.72506100  1.000  P
M09  1.33136100  1.000  S
M13  0.82096100  1.000  P
M13  1.49196100  1.000  S
M10  0.92806100  1.000  P
M10  1.62986100  1.000  S
M08  0.99466100  1.000  P
M08  1.78276100  1.000  S
M05  1.09926100  1.000  P
M05  1.92776100  1.000  S
M12  1.33156100  1.000  P
M12  2.35856100  1.000  S
#  2023   7 19  3 24  11.844562  -1.638609305  101.140492086   1.66832  0  0  0  0.03577070  3016
M06  0.49823800  1.000  P
M06  0.93713800  1.000  S
M04  0.60153800  1.000  P
M04  1.07183800  1.000  S
M14  0.60633800  1.000  P
M14  1.05923800  1.000  S
M02  0.60163800  1.000  P
M02  1.07163800  1.000  S
M11  0.62683800  1.000  P
M11  1.14643800  1.000  S
M09  0.65813800  1.000  P
M09  1.28423800  1.000  S
M13  0.79153800  1.000  P
M13  1.45553800  1.000  S
M10  0.71083800  1.000  P
M10  1.23253800  1.000  S
M08  0.99643800  1.000  P
M08  1.75413800  1.000  S
M05  1.07763800  1.000  P
M05  1.92703800  1.000  S
M12  1.35193800  1.000  P
M12  2.40033800  1.000  S
#  2023   7 19  3 24  18.099314  -1.643421344  101.138324709   2.21165  0  0  0  0.03051180  3017
M06  0.69448600  1.000  P
M06  1.20318600  1.000  S
M04  0.74508600  1.000  P
M04  1.29078600  1.000  S
M02  0.87178600  1.000  P
M02  1.55418600  1.000  S
M14  0.74288600  1.000  P
M14  1.26638600  1.000  S
M11  0.84038600  1.000  P
M11  1.47098600  1.000  S
M09  0.91528600  1.000  P
M09  1.55948600  1.000  S
M13  1.09788600  1.000  P
M13  1.87838600  1.000  S
M10  1.07078600  1.000  P
M10  1.82938600  1.000  S
M08  1.18828600  1.000  P
M08  2.06658600  1.000  S
#  2023   7 19  3 26  25.941019  -1.637201690  101.135811375   1.73935  0  0  0  0.02343220  3018
M04  0.57138100  1.000  P
M04  0.99488100  1.000  S
M06  0.57588100  1.000  P
M06  0.93278100  1.000  S
M14  0.58418100  1.000  P
M14  1.01598100  1.000  S
M02  0.60538100  1.000  P
M02  1.15878100  1.000  S
M11  0.62078100  1.000  P
M11  1.18348100  1.000  S
M09  0.71318100  1.000  P
M09  1.28528100  1.000  S
M13  0.85608100  1.000  P
M13  1.45558100  1.000  S
M10  0.93158100  1.000  P
M10  1.70288100  1.000  S
M08  0.95258100  1.000  P
M08  1.61408100  1.000  S
M05  1.16338100  1.000  P
M05  2.04818100  1.000  S
M12  1.26428100  1.000  P
M12  2.18258100  1.000  S
#  2023   7 19  3 26  54.457299  -1.641956780  101.124018008   1.48722  0  0  0  0.01351710  3019
M14  0.69380100  1.000  P
M14  1.22910100  1.000  S
M06  0.72710100  1.000  P
M06  1.23910100  1.000  S
M11  0.82090100  1.000  P
M11  1.43570100  1.000  S
M09  0.89720100  1.000  P
M09  1.58860100  1.000  S
M13  0.94670100  1.000  P
M13  1.67440100  1.000  S
M05  1.33140100  1.000  P
M05  2.28080100  1.000  S
#  2023   7 19  3 28   6.323373  -1.637761288  101.147142336   2.39631  0  0  0  0.02106640  3020
M06  0.69822700  1.000  P
M06  1.18792700  1.000  S
M11  0.77412700  1.000  P
M11  1.34942700  1.000  S
M14  0.79742700  1.000  P
M14  1.30582700  1.000  S
M04  0.65192700  1.000  P
M04  1.05232700  1.000  S
M09  0.86602700  1.000  P
M09  1.49632700  1.000  S
M13  1.05892700  1.000  P
M13  1.80892700  1.000  S
M10  1.07232700  1.000  P
M10  1.79312700  1.000  S
M05  1.25992700  1.000  P
M05  2.13892700  1.000  S
#  2023   7 19  3 28  11.300041  -1.634675998  101.138716495   2.38210  0  0  0  0.00445152  3021
M06  0.66585900  1.000  P
M06  1.14775900  1.000  S
M14  0.71015900  1.000  P
M14  1.20805900  1.000  S
M11  0.74055900  1.000  P
M11  1.26845900  1.000  S
M09  0.77855900  1.000  P
M09  1.33585900  1.000  S
#  2023   7 19  3 29   4.271108  -1.638356509  101.156568184   1.90625  0  0  0  0.03826930  3022
M06  0.70379200  1.000  P
M06  1.20789200  1.000  S
M11  0.77639200  1.000  P
M11  1.37789200  1.000  S
M14  0.83359200  1.000  P
M14  1.44679200  1.000  S
M09  0.87329200  1.000  P
M09  1.55229200  1.000  S
M13  1.16469200  1.000  P
M13  2.02139200  1.000  S
M05  1.36679200  1.000  P
M05  2.35869200  1.000  S
#  2023   7 19  3 37  19.664874  -1.645039388  101.134984114   1.89915  0  0  0  0.00680845  3024
M06  0.63962600  1.000  P
M06  1.12532600  1.000  S
M14  0.75972600  1.000  P
M14  1.30462600  1.000  S
M11  0.87162600  1.000  P
M11  1.50692600  1.000  S
M09  0.92652600  1.000  P
M09  1.60322600  1.000  S
#  2023   7 19  3 39  24.284635  -1.641806893  101.138322992   2.25426  0  0  0  0.00601072  3025
M06  0.66586500  1.000  P
M06  1.15426500  1.000  S
M14  0.77096500  1.000  P
M14  1.31126500  1.000  S
M11  0.83736500  1.000  P
M11  1.42166500  1.000  S
M09  0.89916500  1.000  P
M09  1.56466500  1.000  S
#  2023   7 19  3 48  22.112302  -1.638455495  101.127089258   1.97017  0  0  0  0.00402933  3026
M14  0.69299800  1.000  P
M14  1.19559800  1.000  S
M06  0.71629800  1.000  P
M06  1.24459800  1.000  S
M11  0.84829800  1.000  P
M11  1.47369800  1.000  S
M09  0.98179800  1.000  P
M09  1.70759800  1.000  S
#  2023   7 19 19  1  51.081684  -1.644762814  101.141935823   1.78551  0  0  0  0.03841330  3027
M06  0.72991600  1.000  P
M06  1.28821600  1.000  S
M04  0.71051600  1.000  P
M04  1.25331600  1.000  S
M14  0.81731600  1.000  P
M14  1.38171600  1.000  S
M02  0.78971600  1.000  P
M02  1.35111600  1.000  S
M11  0.80741600  1.000  P
M11  1.37991600  1.000  S
M09  0.90971600  1.000  P
M09  1.61791600  1.000  S
M13  0.94861600  1.000  P
M13  1.57221600  1.000  S
M05  1.11551600  1.000  P
M05  1.87221600  1.000  S
M07  1.35121600  1.000  P
M07  2.31701600  1.000  S
M01  1.35351600  1.000  P
M01  2.33351600  1.000  S
M12  1.42391600  1.000  P
M12  2.43601600  1.000  S
#  2023   7 20  1 15  46.231755  -1.643289973  101.135383333   1.44460  0  0  0  0.02130310  3028
M04  0.55894500  1.000  P
M04  0.96904500  1.000  S
M02  0.61114500  1.000  P
M02  1.07944500  1.000  S
M14  0.62604500  1.000  P
M14  1.11224500  1.000  S
M11  0.83444500  1.000  P
M11  1.45134500  1.000  S
M03  0.79964500  1.000  P
M03  1.38644500  1.000  S
M09  0.82844500  1.000  P
M09  1.50584500  1.000  S
M10  1.15224500  1.000  P
M10  2.06484500  1.000  S
M08  0.96344500  1.000  P
M08  1.74174500  1.000  S
M05  1.15374500  1.000  P
M05  1.97864500  1.000  S
M07  1.27144500  1.000  P
M07  2.22644500  1.000  S
M12  1.40414500  1.000  P
M12  2.45114500  1.000  S
#  2023   7 20  1 16  25.085450  -1.642148059  101.133844655   1.36648  0  0  0  0.02351970  3029
M04  0.51835000  1.000  P
M04  0.89455000  1.000  S
M02  0.55055000  1.000  P
M02  0.99435000  1.000  S
M14  0.53985000  1.000  P
M14  0.95645000  1.000  S
M11  0.74645000  1.000  P
M11  1.31425000  1.000  S
M09  0.76465000  1.000  P
M09  1.35495000  1.000  S
M07  1.23575000  1.000  P
M07  2.13635000  1.000  S
#  2023   7 20  1 18  27.236277  -1.631667501  101.121266466   2.58807  0  0  0  0.01264590  3030
M02  0.75982300  1.000  P
M02  1.29292300  1.000  S
M04  0.62442300  1.000  P
M04  1.05462300  1.000  S
M14  0.81452300  1.000  P
M14  1.34032300  1.000  S
M09  0.90852300  1.000  P
M09  1.57312300  1.000  S
M11  0.98242300  1.000  P
M11  1.65852300  1.000  S
M07  1.34512300  1.000  P
M07  2.30552300  1.000  S
#  2023   7 20 16 59  18.796322  -1.644359202  101.141935393   1.34517  0  0  0  0.03072590  3031
M04  0.62627800  1.000  P
M04  1.07467800  1.000  S
M14  0.68247800  1.000  P
M14  1.15187800  1.000  S
M02  0.68517800  1.000  P
M02  1.26187800  1.000  S
M11  0.74057800  1.000  P
M11  1.29787800  1.000  S
M09  0.83727800  1.000  P
M09  1.51557800  1.000  S
M03  0.84877800  1.000  P
M03  1.46707800  1.000  S
M13  0.92857800  1.000  P
M13  1.60087800  1.000  S
M10  1.03507800  1.000  P
M10  1.78597800  1.000  S
M08  1.07677800  1.000  P
M08  1.95367800  1.000  S
M05  1.24147800  1.000  P
M05  2.17467800  1.000  S
M07  1.25047800  1.000  P
M07  2.16597800  1.000  S
M01  1.36697800  1.000  P
M01  2.40607800  1.000  S
M12  1.47657800  1.000  P
M12  2.58577800  1.000  S
#  2023   7 21  6 50  53.010944  -1.642626325  101.126959972   1.04688  0  0  0  0.02489270  3032
M04  0.71125600  1.000  P
M04  1.26045600  1.000  S
M06  0.59435600  1.000  P
M06  1.05745600  1.000  S
M14  0.58315600  1.000  P
M14  1.05685600  1.000  S
M11  0.69575600  1.000  P
M11  1.26355600  1.000  S
M09  0.79895600  1.000  P
M09  1.38365600  1.000  S
M13  0.92915600  1.000  P
M13  1.62545600  1.000  S
M05  1.04995600  1.000  P
M05  1.83755600  1.000  S
M08  1.13665600  1.000  P
M08  2.00825600  1.000  S
M07  1.24095600  1.000  P
M07  2.17205600  1.000  S
#  2023   7 21 12 31  45.828832  -1.651765830  101.135392363   1.24574  0  0  0  0.05158060  3033
M06  0.64426800  1.000  P
M06  1.14036800  1.000  S
M04  0.79576800  1.000  P
M04  1.45356800  1.000  S
M02  0.76856800  1.000  P
M02  1.29426800  1.000  S
M14  0.81236800  1.000  P
M14  1.36876800  1.000  S
M11  0.99876800  1.000  P
M11  1.73696800  1.000  S
M09  1.03476800  1.000  P
M09  1.84306800  1.000  S
M10  1.25646800  1.000  P
M10  2.11246800  1.000  S
M13  1.08626800  1.000  P
M13  1.89676800  1.000  S
M08  1.60846800  1.000  P
M08  2.74556800  1.000  S
M05  1.33176800  1.000  P
M05  2.24056800  1.000  S
M07  1.47796800  1.000  P
M07  2.60956800  1.000  S
M12  1.69616800  1.000  P
M12  2.93616800  1.000  S
#  2023   7 23  3 56  19.480658  -1.644901104  101.138459977   1.44460  0  0  0  0.02906930  3034
M04  0.60884200  1.000  P
M04  1.04864200  1.000  S
M02  0.68594200  1.000  P
M02  1.17964200  1.000  S
M14  0.66314200  1.000  P
M14  1.18684200  1.000  S
M11  0.77624200  1.000  P
M11  1.44454200  1.000  S
M09  0.91584200  1.000  P
M09  1.62764200  1.000  S
M03  0.97534200  1.000  P
M03  1.77464200  1.000  S
M13  1.02544200  1.000  P
M13  1.80844200  1.000  S
M10  1.02654200  1.000  P
M10  1.85334200  1.000  S
M08  1.12614200  1.000  P
M08  1.98034200  1.000  S
M05  1.17074200  1.000  P
M05  2.10334200  1.000  S
M01  1.13544200  1.000  P
M01  1.99124200  1.000  S
M07  1.34014200  1.000  P
M07  2.42254200  1.000  S
M12  1.43044200  1.000  P
M12  2.53414200  1.000  S
#  2023   7 26  0 17  42.295181  -1.597509349  101.107059744   0.20171  0  0  0  0.03781840  3035
M01  0.58171900  1.000  P
M01  1.02851900  1.000  S
M05  0.71251900  1.000  P
M05  1.23351900  1.000  S
M12  0.66841900  1.000  P
M12  1.13901900  1.000  S
M10  1.26471900  1.000  P
M10  2.19031900  1.000  S
M13  1.05171900  1.000  P
M13  1.80241900  1.000  S
M09  1.01261900  1.000  P
M09  1.76091900  1.000  S
M02  1.23091900  1.000  P
M02  2.10701900  1.000  S
M11  1.37221900  1.000  P
M11  2.35041900  1.000  S
#  2023   7 26 23 34  33.978464  -1.594965866  101.094623760   8.48296  0  0  0  0.04440210  3036
M01  2.07483600  1.000  P
M01  3.43853600  1.000  S
M05  2.17603600  1.000  P
M05  3.64533600  1.000  S
M12  2.12743600  1.000  P
M12  3.55873600  1.000  S
M10  2.60043600  1.000  P
M10  4.37283600  1.000  S
M07  2.18953600  1.000  P
M07  3.65613600  1.000  S
M13  2.28643600  1.000  P
M13  3.80103600  1.000  S
M08  2.30693600  1.000  P
M08  3.83003600  1.000  S
M02  2.43433600  1.000  P
M02  4.07133600  1.000  S
M09  2.42123600  1.000  P
M09  4.02573600  1.000  S
M14  2.45343600  1.000  P
M14  4.07303600  1.000  S
M04  2.48203600  1.000  P
M04  4.12483600  1.000  S
M11  2.55733600  1.000  P
M11  4.26883600  1.000  S
M06  2.56053600  1.000  P
M06  4.29013600  1.000  S
#  2023   7 31 23 41  35.372419  -1.637208489  101.129460992   0.98651  0  0  0  0.01266490  3037
M04  0.37558100  1.000  P
M04  0.74778100  1.000  S
M02  0.34768100  1.000  P
M02  0.63808100  1.000  S
M11  0.44348100  1.000  P
M11  0.82168100  1.000  S
M09  0.66518100  1.000  P
M09  1.15778100  1.000  S
M10  0.71068100  1.000  P
M10  1.26518100  1.000  S
M05  1.07318100  1.000  P
M05  1.96308100  1.000  S
