#  2023   7  4 19 19  48.456594  -1.640362166  101.136884258   1.86719  0  0  0  0.00943130  2962
M06  0.57770600  1.000  P
M06  0.99970600  1.000  S
M04  0.62590600  1.000  P
M04  1.11520600  1.000  S
M14  0.65600600  1.000  P
M14  1.12790600  1.000  S
M11  0.74160600  1.000  P
M11  1.29540600  1.000  S
M09  0.82510600  1.000  P
M09  1.43050600  1.000  S
#  2023   7  4 21 56   7.506358  -1.604024700  101.180194457   1.89204  0  0  0  0.02830030  2963
M08  1.22464200  1.000  P
M08  2.12534200  1.000  S
M11  1.38744200  1.000  P
M11  2.29744200  1.000  S
M09  1.40854200  1.000  P
M09  2.43244200  1.000  S
M06  1.52434200  1.000  P
M06  2.59604200  1.000  S
M14  1.59864200  1.000  P
M14  2.75424200  1.000  S
M05  1.40464200  1.000  P
M05  2.37404200  1.000  S
#  2023   7  5  0 17  41.696790  -1.627640950  101.112171110   2.87216  0  0  0  0.03580090  2964
M02  0.66641000  1.000  P
M02  1.11081000  1.000  S
M05  0.63331000  1.000  P
M05  1.02991000  1.000  S
M14  1.02331000  1.000  P
M14  1.74591000  1.000  S
M09  1.07981000  1.000  P
M09  1.67091000  1.000  S
M06  1.15651000  1.000  P
M06  2.00241000  1.000  S
M11  1.24231000  1.000  P
M11  2.17511000  1.000  S
M12  1.19271000  1.000  P
M12  1.96911000  1.000  S
#  2023   7  8 12 21  33.525752  -1.694755037  101.131361139   3.45454  0  0  0  0.03799760  2966
M06  1.91534800  1.000  P
M06  3.17894800  1.000  S
M09  2.17604800  1.000  P
M09  3.51324800  1.000  S
M05  2.49444800  1.000  P
M05  4.20244800  1.000  S
M08  2.53464800  1.000  P
M08  4.23954800  1.000  S
#  2023   7 14 23 38  10.267111  -1.648129274  101.139131875   0.94744  0  0  0  0.04816990  2967
M06  1.20028900  1.000  P
M06  2.19648900  1.000  S
M04  0.76708900  1.000  P
M04  1.30158900  1.000  S
M02  0.68218900  1.000  P
M02  1.32998900  1.000  S
M14  0.69598900  1.000  P
M14  1.21768900  1.000  S
M11  0.81378900  1.000  P
M09  1.15088900  1.000  P
M09  2.05328900  1.000  S
M13  1.08848900  1.000  P
M13  1.92238900  1.000  S
M10  0.85948900  1.000  P
M10  1.67658900  1.000  S
M05  1.24548900  1.000  P
M05  2.24668900  1.000  S
M07  1.37958900  1.000  P
M07  2.43188900  1.000  S
#  2023   7 15  2  2  49.289997  -1.641204138  101.135849039   2.06250  0  0  0  0.02846620  2968
M04  0.68220300  1.000  P
M04  1.15950300  1.000  S
M06  0.57830300  1.000  P
M06  1.07380300  1.000  S
M14  0.72040300  1.000  P
M14  1.17060300  1.000  S
M11  0.77910300  1.000  P
M11  1.42810300  1.000  S
M09  0.87340300  1.000  P
M09  1.48120300  1.000  S
M13  0.97440300  1.000  P
M13  1.64830300  1.000  S
M05  1.08300300  1.000  P
M05  1.93830300  1.000  S
M07  1.20380300  1.000  P
M07  2.12670300  1.000  S
#  2023   7 15  2  5  39.863343  -1.642752684  101.134580604   1.84233  0  0  0  0.03059960  2969
M04  0.62895700  1.000  P
M04  1.11445700  1.000  S
M06  0.60795700  1.000  P
M06  1.09945700  1.000  S
M02  0.74565700  1.000  P
M02  1.26935700  1.000  S
M14  0.71345700  1.000  P
M14  1.18275700  1.000  S
M11  0.79995700  1.000  P
M11  1.41215700  1.000  S
M03  0.81085700  1.000  P
M03  1.42955700  1.000  S
M09  0.88025700  1.000  P
M09  1.51205700  1.000  S
M10  0.96715700  1.000  P
M10  1.59195700  1.000  S
M13  0.99685700  1.000  P
M13  1.73845700  1.000  S
M08  1.13635700  1.000  P
M08  1.96425700  1.000  S
M05  0.96495700  1.000  P
M05  1.75195700  1.000  S
M01  1.33025700  1.000  P
M01  2.21015700  1.000  S
M07  1.31415700  1.000  P
M07  2.24105700  1.000  S
M12  1.39675700  1.000  P
M12  2.40335700  1.000  S
#  2023   7 15  4 25  32.471515  -1.618095219  101.105877625   2.68750  0  0  0  0.02725920  2970
M05  0.86888500  1.000  P
M05  1.49678500  1.000  S
M10  0.97068500  1.000  P
M10  1.55718500  1.000  S
M13  1.05778500  1.000  P
M13  1.75428500  1.000  S
M06  1.36128500  1.000  P
M06  2.31668500  1.000  S
#  2023   7 15  4 36  18.917047  -1.606826527  101.138954645   0.10938  0  0  0  0.01117130  2971
M13  0.23055300  1.000  P
M13  0.51585300  1.000  S
M10  0.48345300  1.000  P
M10  0.79925300  1.000  S
M05  0.46375300  1.000  P
M05  0.83065300  1.000  S
M06  1.25135300  1.000  P
M06  2.26705300  1.000  S
#  2023   7 15  9 27   6.659251  -1.637372761  101.133104280   1.98438  0  0  0  0.01216200  2972
M06  0.62874900  1.000  P
M06  1.09084900  1.000  S
M14  0.63434900  1.000  P
M14  1.10544900  1.000  S
M11  0.73834900  1.000  P
M11  1.28274900  1.000  S
M09  0.79454900  1.000  P
M09  1.38314900  1.000  S
#  2023   7 15  9 29  55.143362  -1.640292304  101.139290651   2.04474  0  0  0  0.02218730  2973
M06  0.60093800  1.000  P
M06  1.05043800  1.000  S
M04  0.67743800  1.000  P
M04  1.16753800  1.000  S
M14  0.70683800  1.000  P
M14  1.24193800  1.000  S
M02  0.76883800  1.000  P
M02  1.29853800  1.000  S
M11  0.74483800  1.000  P
M11  1.35523800  1.000  S
M09  0.84763800  1.000  P
M09  1.43313800  1.000  S
M03  1.22803800  1.000  P
M03  2.06993800  1.000  S
M13  0.96193800  1.000  P
M13  1.61123800  1.000  S
M10  0.99553800  1.000  P
M10  1.67813800  1.000  S
M08  1.07353800  1.000  P
M08  1.84903800  1.000  S
M05  1.29883800  1.000  P
M05  2.15823800  1.000  S
M01  1.29523800  1.000  P
M01  2.22443800  1.000  S
M12  1.38573800  1.000  P
M12  2.36073800  1.000  S
#  2023   7 15  9 30   2.757411  -1.639650848  101.141529302   2.05540  0  0  0  0.03085860  2974
M06  0.58308900  1.000  P
M06  1.02878900  1.000  S
M04  0.64838900  1.000  P
M04  1.14778900  1.000  S
M14  0.72848900  1.000  P
M14  1.23098900  1.000  S
M02  0.79558900  1.000  P
M02  1.33808900  1.000  S
M11  0.74878900  1.000  P
M11  1.31198900  1.000  S
M09  0.82438900  1.000  P
M09  1.41898900  1.000  S
M13  0.95848900  1.000  P
M13  1.60228900  1.000  S
M10  0.82798900  1.000  P
M10  1.49878900  1.000  S
M05  1.32728900  1.000  P
M05  2.30148900  1.000  S
M12  1.45998900  1.000  P
M12  2.55278900  1.000  S
#  2023   7 15  9 30  27.429351  -1.643286086  101.138993020   2.01278  0  0  0  0.03017240  2975
M06  0.66614900  1.000  P
M06  1.07524900  1.000  S
M04  0.73124900  1.000  P
M04  1.21424900  1.000  S
M02  0.75324900  1.000  P
M02  1.34214900  1.000  S
M14  0.74674900  1.000  P
M14  1.32964900  1.000  S
M11  0.82144900  1.000  P
M11  1.41944900  1.000  S
M09  0.90444900  1.000  P
M09  1.49114900  1.000  S
M03  0.90924900  1.000  P
M03  1.51384900  1.000  S
M13  1.03194900  1.000  P
M13  1.66604900  1.000  S
M10  1.10774900  1.000  P
M10  1.80964900  1.000  S
M08  1.13504900  1.000  P
M08  2.02074900  1.000  S
M05  1.33694900  1.000  P
M05  2.22094900  1.000  S
M01  1.36894900  1.000  P
M01  2.38534900  1.000  S
M12  1.45074900  1.000  P
M12  2.50034900  1.000  S
#  2023   7 15  9 31  39.714963  -1.638376700  101.137851421   1.90625  0  0  0  0.01473010  2976
M06  0.56043700  1.000  P
M06  0.98963700  1.000  S
M11  0.71163700  1.000  P
M11  1.22343700  1.000  S
M09  0.81463700  1.000  P
M09  1.43163700  1.000  S
M13  0.90323700  1.000  P
M13  1.54183700  1.000  S
#  2023   7 17 15  4  33.403353  -1.637845430  101.131433631   1.22443  0  0  0  0.00669814  2977
M02  0.44664700  1.000  P
M02  0.78854700  1.000  S
M11  0.80184700  1.000  P
M11  1.41404700  1.000  S
M09  0.69274700  1.000  P
M09  1.22154700  1.000  S
M13  0.78544700  1.000  P
M13  1.38444700  1.000  S
M05  0.74094700  1.000  P
M05  1.31414700  1.000  S
M07  1.11584700  1.000  P
M07  1.93644700  1.000  S
#  2023   7 19  2  5  31.296704  -1.637799780  101.142630292   1.73935  0  0  0  0.02207150  2978
M06  0.54759600  1.000  P
M06  1.00609600  1.000  S
M04  0.65259600  1.000  P
M04  1.10569600  1.000  S
M14  0.63799600  1.000  P
M14  1.09579600  1.000  S
M11  0.63919600  1.000  P
M11  1.15709600  1.000  S
M02  0.58709600  1.000  P
M02  1.03639600  1.000  S
M09  0.73529600  1.000  P
M09  1.30389600  1.000  S
M13  0.88179600  1.000  P
M13  1.57809600  1.000  S
M10  0.95589600  1.000  P
M10  1.67209600  1.000  S
M08  0.94519600  1.000  P
M08  1.58159600  1.000  S
M05  1.10449600  1.000  P
M05  1.95159600  1.000  S
M07  1.15859600  1.000  P
M07  1.99249600  1.000  S
M12  1.33599600  1.000  P
M12  2.33039600  1.000  S
#  2023   7 19  2 18  47.735603  -1.639786249  101.140727301   2.56676  0  0  0  0.02744360  2979
M06  0.72329700  1.000  P
M06  1.23129700  1.000  S
M04  0.80659700  1.000  P
M04  1.32619700  1.000  S
M14  0.81909700  1.000  P
M14  1.44069700  1.000  S
M02  0.86889700  1.000  P
M02  1.47729700  1.000  S
M11  0.81949700  1.000  P
M11  1.40259700  1.000  S
M09  0.90139700  1.000  P
M09  1.56279700  1.000  S
M13  0.96719700  1.000  P
M13  1.67009700  1.000  S
M10  0.90809700  1.000  P
M10  1.55919700  1.000  S
M08  1.12569700  1.000  P
M08  1.95559700  1.000  S
M05  1.32059700  1.000  P
M05  2.27829700  1.000  S
#  2023   7 19  2 21   5.608402  -1.642685914  101.134112612   2.50284  0  0  0  0.01364560  2980
M06  0.75569800  1.000  P
M06  1.31709800  1.000  S
M14  0.82319800  1.000  P
M14  1.39359800  1.000  S
M11  0.91339800  1.000  P
M11  1.55139800  1.000  S
M09  0.97489800  1.000  P
M09  1.70939800  1.000  S
#  2023   7 19  2 21   8.781847  -1.634323039  101.154157441   2.33239  0  0  0  0.01698210  2981
M06  0.73545300  1.000  P
M06  1.25865300  1.000  S
M11  0.78375300  1.000  P
M11  1.33495300  1.000  S
M14  0.88985300  1.000  P
M14  1.52935300  1.000  S
M09  0.87415300  1.000  P
M09  1.48425300  1.000  S
#  2023   7 19  2 59  40.546038  -1.635617465  101.138984877   2.66619  0  0  0  0.04885120  2982
M06  0.73106200  1.000  P
M06  1.26366200  1.000  S
M04  0.81206200  1.000  P
M04  1.28056200  1.000  S
M14  0.82556200  1.000  P
M14  1.27956200  1.000  S
M11  0.83316200  1.000  P
M11  1.44106200  1.000  S
M09  0.91406200  1.000  P
M09  1.58416200  1.000  S
M13  0.93856200  1.000  P
M13  1.63336200  1.000  S
M10  1.01456200  1.000  P
M10  1.66346200  1.000  S
M08  1.02316200  1.000  P
M08  1.74936200  1.000  S
M05  1.34596200  1.000  P
M05  2.26826200  1.000  S
M12  1.55586200  1.000  P
M12  2.63496200  1.000  S
#  2023   7 19  3  0   3.874538  -1.636959392  101.142194903   2.04119  0  0  0  0.02760120  2983
M06  0.58816200  1.000  P
M06  1.09576200  1.000  S
M04  0.71176200  1.000  P
M04  1.14776200  1.000  S
M14  0.67016200  1.000  P
M14  1.14646200  1.000  S
M11  0.68486200  1.000  P
M11  1.20326200  1.000  S
M02  0.67106200  1.000  P
M02  1.22406200  1.000  S
M09  0.78276200  1.000  P
M09  1.42716200  1.000  S
M03  0.84016200  1.000  P
M03  1.49066200  1.000  S
M13  0.91626200  1.000  P
M13  1.55196200  1.000  S
M10  0.94266200  1.000  P
M10  1.67306200  1.000  S
M08  0.95576200  1.000  P
M08  1.70026200  1.000  S
M05  1.13496200  1.000  P
M05  2.02286200  1.000  S
M01  1.16396200  1.000  P
M01  2.06426200  1.000  S
M12  1.39636200  1.000  P
M12  2.48816200  1.000  S
#  2023   7 19  3  0  15.288855  -1.640735917  101.133375227   1.64347  0  0  0  0.01756620  2984
M04  0.55174500  1.000  P
M04  0.98284500  1.000  S
M06  0.56384500  1.000  P
M06  0.98404500  1.000  S
M14  0.64054500  1.000  P
M14  1.09404500  1.000  S
M11  0.63414500  1.000  P
M11  1.06964500  1.000  S
M09  0.75174500  1.000  P
M09  1.34154500  1.000  S
M13  0.91294500  1.000  P
M13  1.58434500  1.000  S
M05  1.21274500  1.000  P
M05  2.10454500  1.000  S
#  2023   7 19  3  0  25.793621  -1.639917906  101.143401277   1.40199  0  0  0  0.02871800  2985
M06  0.58197900  1.000  P
M06  1.02197900  1.000  S
M04  0.61627900  1.000  P
M04  1.04597900  1.000  S
M14  0.65907900  1.000  P
M14  1.11257900  1.000  S
M11  0.62917900  1.000  P
M11  1.09657900  1.000  S
M02  0.68337900  1.000  P
M02  1.22697900  1.000  S
M09  0.77237900  1.000  P
M09  1.36617900  1.000  S
M03  0.83847900  1.000  P
M03  1.44997900  1.000  S
M13  0.90097900  1.000  P
M13  1.53967900  1.000  S
M10  1.00297900  1.000  P
M10  1.73417900  1.000  S
M08  0.93377900  1.000  P
M08  1.61817900  1.000  S
M05  1.13357900  1.000  P
M05  1.97557900  1.000  S
M01  1.23887900  1.000  P
M01  2.13357900  1.000  S
M12  1.22627900  1.000  P
M12  2.09127900  1.000  S
#  2023   7 19  3  1   0.326054  -1.639992293  101.136783603   2.55966  0  0  0  0.01116200  2986
M06  0.73414600  1.000  P
M06  1.26634600  1.000  S
M14  0.79384600  1.000  P
M14  1.34694600  1.000  S
M11  0.85074600  1.000  P
M11  1.45814600  1.000  S
M09  0.92284600  1.000  P
M09  1.58474600  1.000  S
#  2023   7 19  3  1  12.773482  -1.642075536  101.138724347   2.16903  0  0  0  0.03456090  2987
M06  0.64781800  1.000  P
M06  1.13331800  1.000  S
M04  0.73031800  1.000  P
M04  1.23701800  1.000  S
M14  0.75601800  1.000  P
M14  1.29461800  1.000  S
M02  0.81251800  1.000  P
M02  1.42041800  1.000  S
M11  0.80271800  1.000  P
M11  1.40861800  1.000  S
M09  0.90871800  1.000  P
M09  1.61031800  1.000  S
M13  1.04731800  1.000  P
M13  1.84991800  1.000  S
M10  1.00051800  1.000  P
M10  1.74721800  1.000  S
M08  1.27141800  1.000  P
M08  2.18151800  1.000  S
M05  1.35181800  1.000  P
M05  2.32961800  1.000  S
#  2023   7 19  3  1  20.849911  -1.640859089  101.143937047   1.45881  0  0  0  0.02849760  2988
M06  0.59518900  1.000  P
M06  1.04018900  1.000  S
M04  0.62498900  1.000  P
M04  1.10718900  1.000  S
M14  0.65678900  1.000  P
M14  1.11638900  1.000  S
M11  0.71188900  1.000  P
M11  1.23058900  1.000  S
M02  0.72938900  1.000  P
M02  1.32588900  1.000  S
M09  0.78028900  1.000  P
M09  1.37778900  1.000  S
M03  0.88608900  1.000  P
M03  1.58188900  1.000  S
M13  0.93958900  1.000  P
M13  1.64428900  1.000  S
M10  0.97818900  1.000  P
M10  1.72018900  1.000  S
M08  1.03918900  1.000  P
M08  1.75148900  1.000  S
M05  1.20508900  1.000  P
M05  2.13358900  1.000  S
M01  1.27788900  1.000  P
M01  2.24018900  1.000  S
#  2023   7 19  3  1  31.055137  -1.636231266  101.131164540   2.36079  0  0  0  0.01671240  2989
M14  0.71776300  1.000  P
M14  1.22796300  1.000  S
M06  0.73136300  1.000  P
M06  1.26896300  1.000  S
M11  0.81916300  1.000  P
M11  1.40456300  1.000  S
M09  0.88006300  1.000  P
M09  1.51656300  1.000  S
#  2023   7 19  3  1  58.949004  -1.646173788  101.143474790   1.33807  0  0  0  0.01782300  2990
M06  0.73009600  1.000  P
M06  1.25129600  1.000  S
M14  0.72809600  1.000  P
M14  1.27239600  1.000  S
M11  0.78299600  1.000  P
M11  1.38449600  1.000  S
M09  0.86179600  1.000  P
M09  1.49889600  1.000  S
M13  1.07599600  1.000  P
M13  1.88319600  1.000  S
M05  1.30729600  1.000  P
M05  2.28749600  1.000  S
#  2023   7 19  3  2  24.236830  -1.639919779  101.141663280   2.70881  0  0  0  0.01716310  2991
M06  0.74897000  1.000  P
M06  1.25587000  1.000  S
M14  0.85157000  1.000  P
M14  1.45527000  1.000  S
M11  0.86447000  1.000  P
M11  1.48287000  1.000  S
M09  0.94257000  1.000  P
M09  1.59427000  1.000  S
M13  1.01877000  1.000  P
M13  1.72267000  1.000  S
#  2023   7 19  3  2  31.332077  -1.641681977  101.129365449   2.22585  0  0  0  0.02971320  2992
M04  0.71792300  1.000  P
M04  1.23992300  1.000  S
M02  0.70372300  1.000  P
M02  1.17732300  1.000  S
M06  0.74402300  1.000  P
M06  1.19002300  1.000  S
M11  0.81082300  1.000  P
M11  1.37692300  1.000  S
M09  0.95162300  1.000  P
M09  1.61622300  1.000  S
M08  1.17392300  1.000  P
M08  1.96372300  1.000  S
#  2023   7 19  3  3   5.169425  -1.648337067  101.133583847   2.01989  0  0  0  0.00768300  2994
M06  0.73197500  1.000  P
M06  1.25997500  1.000  S
M14  0.83547500  1.000  P
M14  1.47007500  1.000  S
M11  0.84247500  1.000  P
M11  1.38517500  1.000  S
M09  1.03837500  1.000  P
M09  1.77047500  1.000  S
#  2023   7 19  3  3  49.457222  -1.639183926  101.137852277   2.21875  0  0  0  0.01258330  2995
M06  0.64307800  1.000  P
M06  1.11727800  1.000  S
M14  0.72007800  1.000  P
M14  1.23437800  1.000  S
M11  0.78257800  1.000  P
M11  1.33607800  1.000  S
M09  0.89467800  1.000  P
M09  1.55767800  1.000  S
#  2023   7 19  3  4  25.741099  -1.637635097  101.139388093   1.97017  0  0  0  0.02931100  2996
M06  0.57840100  1.000  P
M06  1.07830100  1.000  S
M04  0.64990100  1.000  P
M04  1.13670100  1.000  S
M14  0.66010100  1.000  P
M14  1.13250100  1.000  S
M02  0.70710100  1.000  P
M02  1.31900100  1.000  S
M11  0.63870100  1.000  P
M11  1.19070100  1.000  S
M09  0.75970100  1.000  P
M09  1.35870100  1.000  S
M13  0.88800100  1.000  P
M13  1.53250100  1.000  S
M10  1.04430100  1.000  P
M10  1.86240100  1.000  S
M08  0.89830100  1.000  P
M08  1.55900100  1.000  S
M05  1.10680100  1.000  P
M05  2.00780100  1.000  S
M01  1.13680100  1.000  P
M01  1.99120100  1.000  S
M12  1.31820100  1.000  P
M12  2.32870100  1.000  S
#  2023   7 19  3  4  42.905768  -1.635284493  101.135842767   2.06250  0  0  0  0.00428118  2997
M06  0.61103200  1.000  P
M06  1.05313200  1.000  S
M14  0.63193200  1.000  P
M14  1.09083200  1.000  S
M11  0.70233200  1.000  P
M11  1.22263200  1.000  S
M09  0.73593200  1.000  P
M09  1.26523200  1.000  S
#  2023   7 19  3  4  47.332670  -1.636827010  101.140189389   2.41051  0  0  0  0.02322430  2998
M06  0.67173000  1.000  P
M06  1.17453000  1.000  S
M04  0.63243000  1.000  P
M04  1.13073000  1.000  S
M14  0.74293000  1.000  P
M14  1.24443000  1.000  S
M11  0.76683000  1.000  P
M11  1.35293000  1.000  S
M09  0.81753000  1.000  P
M09  1.40553000  1.000  S
M05  1.14073000  1.000  P
M05  1.98403000  1.000  S
#  2023   7 19  3  5  55.398274  -1.636726931  101.139420550   2.68395  0  0  0  0.03979970  2999
M06  0.73432600  1.000  P
M06  1.24012600  1.000  S
M04  0.70502600  1.000  P
M04  1.16752600  1.000  S
M14  0.79542600  1.000  P
M14  1.36262600  1.000  S
M02  0.85742600  1.000  P
M02  1.46152600  1.000  S
M11  0.83402600  1.000  P
M11  1.39712600  1.000  S
M09  0.93902600  1.000  P
M09  1.57882600  1.000  S
M13  0.96592600  1.000  P
M13  1.65642600  1.000  S
M10  0.81182600  1.000  P
M10  1.34452600  1.000  S
M05  1.01082600  1.000  P
M05  1.71842600  1.000  S
M12  1.31532600  1.000  P
M12  2.24352600  1.000  S
#  2023   7 19  3  6  34.214383  -1.640989864  101.147413161   1.38778  0  0  0  0.01952450  3000
M06  0.68331700  1.000  P
M06  1.15511700  1.000  S
M04  0.68871700  1.000  P
M04  1.21411700  1.000  S
M14  0.65051700  1.000  P
M14  1.19571700  1.000  S
M11  0.66961700  1.000  P
M11  1.16291700  1.000  S
M09  0.84261700  1.000  P
M09  1.46801700  1.000  S
M13  0.96871700  1.000  P
M13  1.71291700  1.000  S
M10  1.05721700  1.000  P
M10  1.84061700  1.000  S
M05  1.25181700  1.000  P
M05  2.16431700  1.000  S
#  2023   7 19  3  7  18.030754  -1.641230177  101.142901326   1.66122  0  0  0  0.02965970  3001
M06  0.62884600  1.000  P
M06  1.08294600  1.000  S
M04  0.69504600  1.000  P
M04  1.16514600  1.000  S
M14  0.65354600  1.000  P
M14  1.17064600  1.000  S
M11  0.70184600  1.000  P
M11  1.25594600  1.000  S
M02  0.73804600  1.000  P
M02  1.33404600  1.000  S
M09  0.83054600  1.000  P
M09  1.40854600  1.000  S
M03  0.85444600  1.000  P
M03  1.53584600  1.000  S
M13  0.79494600  1.000  P
M13  1.41414600  1.000  S
M10  1.10674600  1.000  P
M10  1.89224600  1.000  S
M08  1.07054600  1.000  P
M08  1.89314600  1.000  S
M05  1.19194600  1.000  P
M05  2.07014600  1.000  S
M12  1.42254600  1.000  P
M12  2.47124600  1.000  S
