NLLOC "./loc/SEML.20230715.020540.grid0" "LOCATED" "Location completed."
PUBLIC_ID None
SIGNATURE "Arham Zakki Edelo - edelo.17034@mhs.its.ac.id   obs:./obs/2023_07.obs   NLLoc:v7.00.10(30Aug2020)   run:28Dec2023 20h05m40"
COMMENT "SEML"
GRID  2001 2001 1001  727 9811 -2  0.01 0.01 0.01 PROB_DENSITY
SEARCH OCTREE nInitial 4851 nEvaluated 20011 smallestNodeSide 0.014881/0.014881/0.014205 oct_tree_integral 1.855858e-02 scatter_volume 1.855858e-02
HYPOCENTER  x 737.484 y 9818.3 z 0.59233  OT 39.8633  ix -1 iy -1 iz -1 MAXIMUM_LIKELIHOOD
GEOGRAPHIC  OT 2023 07 15  02 05 39.863343  Lat 9818.299107 Long 737.483631 Depth 0.592330
QUALITY  Pmax 8.97193e+101 MFmin 103.354 MFmax 121.7 RMS 0.0305996 Nphs 28 Gap 276.01 Dist 1.01296 Mamp -9.90 0 Mdur -9.90 0
VPVSRATIO  VpVsRatio 1.66386  Npair 14  Diff 0.537296
STATISTICS  ExpectX 737.518363 Y 9818.312542 Z 0.582786  CovXX 0.0280453 XY -0.00341647 XZ 0.00566588 YY 0.00987272 YZ -0.00627179 ZZ 0.0135138 EllAz1  177.517 Dip1  -37.8668 Len1  0.134696 Az2  218.538 Dip2  44.1372 Len2  0.229584 Len3  3.327199e-01
STAT_GEOG  ExpectLat 9818.312542 Long 737.518363 Depth 0.582786
TRANSFORM  NONE
QML_OriginQuality  assocPhCt 28  usedPhCt 28  assocStaCt -1  usedStaCt 14  depthPhCt -1  stdErr 0.0305996  azGap 276.01  secAzGap 276.01  gtLevel -  minDist 1.01296 maxDist 5.12 medDist 2.96023
QML_OriginUncertainty  horUnc -1  minHorUnc 0.145872  maxHorUnc 0.256774  azMaxHorUnc 100.303
QML_ConfidenceEllipsoid  semiMajorAxisLength 0.33272  semiMinorAxisLength 0.134696  semiIntermediateAxisLength 0.229584  majorAxisPlunge 21.8297  majorAxisAzimuth 105.665  majorAxisRotation 309.377
FOCALMECH  Hyp  9818.299107 737.483631 0.592330 Mech  0 0 0 mf  0 nObs -1
PHASE ID Ins Cmp On Pha  FM Date     HrMn   Sec     Err  ErrMag    Coda      Amp       Per       PriorWt  >   TTpred    Res       Weight    StaLoc(X  Y         Z)        SDist    SAzim  RAz  RDip RQual    Tcorr       TTerr
M04          ?    BHZ  e P      d 20230715 0205   40.4923 GAU  2.70e-03 -1.00e+00  1.74e+03 -1.00e+00    1.0000 >    0.6357   -0.0068    1.5926  737.1400 9819.2520   -1.5710    1.0130 340.17 340.2 153.9 10     0.0000    0.0127
M04          ?    BHN  e S      ? 20230715 0205   40.9778 GAU  8.63e-04 -1.00e+00  1.03e+03 -1.00e+00    1.0000 >    1.1036    0.0108    1.4696  737.1400 9819.2520   -1.5710    1.0130 340.17 340.2 151.5 10     0.0000    0.0221
M06          ?    BHZ  i P      d 20230715 0205   40.4713 GAU  8.94e-04 -1.00e+00 -1.00e+00 -1.00e+00    1.0000 >    0.6112   -0.0032    1.6550  738.3100 9819.1170   -1.3960    1.1627  45.30  45.3 148.6 10     0.0000    0.0122
M06          ?    BHN  i S      ? 20230715 0205   40.9628 GAU  3.03e-04 -1.00e+00  2.08e+02 -1.00e+00    1.0000 >    1.0617    0.0378    1.0242  738.3100 9819.1170   -1.3960    1.1627  45.30  45.3 145.6 10     0.0000    0.0212
M02          ?    BHZ  i P      d 20230715 0205   40.6090 GAU  1.88e-03 -1.00e+00 -1.00e+00 -1.00e+00    1.0000 >    0.6708    0.0748    0.4717  736.5970 9819.4060   -1.4960    1.4182 321.30 321.3 144.5 10     0.0000    0.0134
M02          ?    BHE  e S      ? 20230715 0205   41.1327 GAU  1.40e-03 -1.00e+00 -1.00e+00 -1.00e+00    1.0000 >    1.1648    0.1046    0.3091  736.5970 9819.4060   -1.4960    1.4182 321.30 321.3 141.0 10     0.0000    0.0233
M14          ?    BHZ  i P      c 20230715 0205   40.5768 GAU  1.83e-03 -1.00e+00  7.30e+02 -1.00e+00    1.0000 >    0.6965    0.0170    1.4706  737.5530 9820.0110   -1.3980    1.7133   2.32   2.3 137.7 10     0.0000    0.0139
M14          ?    BHN  e S      ? 20230715 0205   41.0461 GAU  8.24e-04 -1.00e+00 -1.00e+00 -1.00e+00    1.0000 >    1.2097   -0.0269    1.0853  737.5530 9820.0110   -1.3980    1.7133   2.32   2.3 133.2 10     0.0000    0.0242
M11          ?    BHZ  i P      c 20230715 0205   40.6633 GAU  4.01e-03 -1.00e+00  2.56e+02 -1.00e+00    1.0000 >    0.8114   -0.0114    1.4588  738.4670 9820.4900   -1.3120    2.4015  24.17  24.2 125.8 10     0.0000    0.0162
M11          ?    BHN  e S      ? 20230715 0205   41.2755 GAU  3.66e-03 -1.00e+00 -1.00e+00 -1.00e+00    1.0000 >    1.4091    0.0030    1.3810  738.4670 9820.4900   -1.3120    2.4015  24.17  24.2 118.8 10     0.0000    0.0282
M03          ?    BHZ  e P      c 20230715 0205   40.6742 GAU  1.17e-03 -1.00e+00 -1.00e+00 -1.00e+00    1.0000 >    0.8625   -0.0517    0.5047  736.8800 9820.8540   -1.3350    2.6252 346.71 346.7 123.5 10     0.0000    0.0172
M03          ?    BHN  e S      ? 20230715 0205   41.2929 GAU  3.79e-03 -1.00e+00 -1.00e+00 -1.00e+00    1.0000 >    1.4977   -0.0680    0.4292  736.8800 9820.8540   -1.3350    2.6252 346.71 346.7 115.7 10     0.0000    0.0300
M09          ?    BHZ  i P      c 20230715 0205   40.7436 GAU  1.00e-03 -1.00e+00  2.01e+02 -1.00e+00    1.0000 >    0.8709    0.0094    1.5613  737.8820 9820.9850   -1.2700    2.7153   8.44   8.4 121.6 10     0.0000    0.0174
M09          ?    BHE  e S      ? 20230715 0205   41.3754 GAU  6.29e-04 -1.00e+00  7.08e+02 -1.00e+00    1.0000 >    1.5123   -0.0003    1.3427  737.8820 9820.9850   -1.2700    2.7153   8.44   8.4 113.1 10     0.0000    0.0302
M10          ?    BHZ  i P      c 20230715 0205   40.8305 GAU  3.89e-03 -1.00e+00 -1.00e+00 -1.00e+00    1.0000 >    0.9727   -0.0056    1.5018  736.5490 9821.3650   -1.2200    3.2052 343.05 343.0 116.2 10     0.0000    0.0195
M10          ?    BHN  e S      ? 20230715 0205   41.4553 GAU  3.80e-03 -1.00e+00 -1.00e+00 -1.00e+00    1.0000 >    1.6884   -0.0964    0.2113  736.5490 9821.3650   -1.2200    3.2052 343.05 343.0 105.3 10     0.0000    0.0338
M13          ?    BHZ  i P      c 20230715 0205   40.8602 GAU  5.17e-04 -1.00e+00 -1.00e+00 -1.00e+00    1.0000 >    0.9848    0.0120    1.4971  737.1780 9821.5410   -1.2220    3.2563 354.61 354.6 115.8 10     0.0000    0.0197
M13          ?    BHN  e S      ? 20230715 0205   41.6018 GAU  1.44e-03 -1.00e+00 -1.00e+00 -1.00e+00    1.0000 >    1.7091    0.0293    1.1474  737.1780 9821.5410   -1.2220    3.2563 354.61 354.6 104.7 10     0.0000    0.0342
M08          ?    BHZ  i P      d 20230715 0205   40.9997 GAU  7.19e-04 -1.00e+00  2.92e+02 -1.00e+00    1.0000 >    1.1350    0.0013    1.4879  738.2480 9822.1600   -1.1510    3.9358  11.20  11.2 110.1 10     0.0000    0.0227
M08          ?    BHE  e S      ? 20230715 0205   41.8276 GAU  8.98e-04 -1.00e+00 -1.00e+00 -1.00e+00    1.0000 >    1.9656   -0.0014    1.1989  738.2480 9822.1600   -1.1510    3.9358  11.20  11.2  96.7  9     0.0000    0.0393
M05          ?    BHZ  e P      d 20230715 0205   40.8283 GAU  8.94e-04 -1.00e+00  6.19e+01 -1.00e+00    1.0000 >    1.1443   -0.1793    0.0479  736.2660 9822.0830   -1.1500    3.9750 342.16 342.2 109.9 10     0.0000    0.0229
M05          ?    BHN  e S      ? 20230715 0205   41.6153 GAU  1.61e-03 -1.00e+00  2.02e+02 -1.00e+00    1.0000 >    1.9813   -0.2294    0.0396  736.2660 9822.0830   -1.1500    3.9750 342.16 342.2  96.5  9     0.0000    0.0396
M01          ?    BHZ  i P      d 20230715 0205   41.1936 GAU  2.25e-03 -1.00e+00  1.23e+03 -1.00e+00    1.0000 >    1.2313    0.0990    0.3579  736.4090 9822.5140   -1.1200    4.3497 345.70 345.7 107.4 10     0.0000    0.0246
M01          ?    BHN  e S      ? 20230715 0205   42.0735 GAU  1.35e-03 -1.00e+00  1.61e+03 -1.00e+00    1.0000 >    2.1271    0.0831    0.5749  736.4090 9822.5140   -1.1200    4.3497 345.70 345.7  94.6  9     0.0000    0.0425
M07          ?    BHZ  i P      d 20230715 0205   41.1775 GAU  2.23e-03 -1.00e+00 -1.00e+00 -1.00e+00    1.0000 >    1.2680    0.0461    0.9152  737.4430 9822.8030   -1.1120    4.5041 359.48 359.5 106.6 10     0.0000    0.0254
M07          ?    BHN  e S      ? 20230715 0205   42.1044 GAU  2.29e-03 -1.00e+00  1.43e+02 -1.00e+00    1.0000 >    2.1883    0.0528    0.8761  737.4430 9822.8030   -1.1120    4.5041 359.48 359.5  94.2  9     0.0000    0.0438
M12          ?    BHZ  i P      d 20230715 0205   41.2601 GAU  1.28e-03 -1.00e+00 -1.00e+00 -1.00e+00    1.0000 >    1.4061   -0.0093    1.3231  736.8520 9823.3800   -0.9890    5.1200 352.91 352.9 102.8 10     0.0000    0.0281
M12          ?    BHE  e S      ? 20230715 0205   42.2667 GAU  6.78e-04 -1.00e+00  3.91e+01 -1.00e+00    1.0000 >    2.4114   -0.0080    1.0651  736.8520 9823.3800   -0.9890    5.1200 352.91 352.9  92.7  9     0.0000    0.0482
END_PHASE
END_NLLOC

