NLLOC "./loc/SEML.20230719.032412.grid0" "LOCATED" "Location completed."
PUBLIC_ID None
SIGNATURE "Arham Zakki Edelo - edelo.17034@mhs.its.ac.id   obs:./obs/2023_07.obs   NLLoc:v7.00.10(30Aug2020)   run:28Dec2023 20h06m05"
COMMENT "SEML"
GRID  2001 2001 1001  727 9811 -2  0.01 0.01 0.01 PROB_DENSITY
SEARCH OCTREE nInitial 4851 nEvaluated 20003 smallestNodeSide 0.007440/0.007440/0.007102 oct_tree_integral 7.323655e-03 scatter_volume 7.323655e-03
HYPOCENTER  x 738.142 y 9818.76 z 0.418324  OT 11.8446  ix -1 iy -1 iz -1 MAXIMUM_LIKELIHOOD
GEOGRAPHIC  OT 2023 07 19  03 24 11.844562  Lat 9818.756696 Long 738.142113 Depth 0.418324
QUALITY  Pmax 3.82632e+73 MFmin 87.1125 MFmax 110.774 RMS 0.0357707 Nphs 22 Gap 267.81 Dist 0.397498 Mamp -9.90 0 Mdur -9.90 0
VPVSRATIO  VpVsRatio 1.70517  Npair 11  Diff 0.609583
STATISTICS  ExpectX 738.043789 Y 9818.747654 Z 0.504464  CovXX 0.0251311 XY -0.00369828 XZ -0.0146214 YY 0.00778169 YZ 0.00172694 ZZ 0.0250802 EllAz1  19.278 Dip1  9.92498 Len1  0.155027 Az2  299.026 Dip2  -44.0587 Len2  0.197073 Len3  3.766219e-01
STAT_GEOG  ExpectLat 9818.747654 Long 738.043789 Depth 0.504464
TRANSFORM  NONE
QML_OriginQuality  assocPhCt 22  usedPhCt 22  assocStaCt -1  usedStaCt 11  depthPhCt -1  stdErr 0.0357707  azGap 267.81  secAzGap 267.81  gtLevel -  minDist 0.397498 maxDist 4.79993 medDist 2.24343
QML_OriginUncertainty  horUnc -1  minHorUnc 0.127123  maxHorUnc 0.244006  azMaxHorUnc 101.545
QML_ConfidenceEllipsoid  semiMajorAxisLength 0.376622  semiMinorAxisLength 0.155027  semiIntermediateAxisLength 0.197073  majorAxisPlunge -44.2389  majorAxisAzimuth 99.4675  majorAxisRotation 96.1174
FOCALMECH  Hyp  9818.756696 738.142113 0.418324 Mech  0 0 0 mf  0 nObs -1
PHASE ID Ins Cmp On Pha  FM Date     HrMn   Sec     Err  ErrMag    Coda      Amp       Per       PriorWt  >   TTpred    Res       Weight    StaLoc(X  Y         Z)        SDist    SAzim  RAz  RDip RQual    Tcorr       TTerr
M06          ?    BHZ  i P      c 20230719 0324   12.3428 GAU  5.62e-04 -1.00e+00 -1.00e+00 -1.00e+00    1.0000 >    0.4944    0.0038    1.8589  738.3100 9819.1170   -1.3960    0.3975  24.98  25.0 167.2 10     0.0000    0.0099
M06          ?    BHN  e S      ? 20230719 0324   12.7817 GAU  8.11e-04 -1.00e+00 -1.00e+00 -1.00e+00    1.0000 >    0.8625    0.0746    0.2622  738.3100 9819.1170   -1.3960    0.3975  24.98  25.0 167.0 10     0.0000    0.0173
M04          ?    BHZ  e P      c 20230719 0324   12.4461 GAU  2.82e-03 -1.00e+00 -1.00e+00 -1.00e+00    1.0000 >    0.6090   -0.0074    1.7923  737.1400 9819.2520   -1.5710    1.1178 296.30 296.3 149.7 10     0.0000    0.0122
M04          ?    BHN  e S      ? 20230719 0324   12.9164 GAU  7.36e-04 -1.00e+00  6.90e+02 -1.00e+00    1.0000 >    1.0614    0.0105    1.5082  737.1400 9819.2520   -1.5710    1.1178 296.30 296.3 149.3 10     0.0000    0.0212
M14          ?    BHZ  i P      c 20230719 0324   12.4509 GAU  5.20e-04 -1.00e+00  9.47e+01 -1.00e+00    1.0000 >    0.6078   -0.0015    1.8682  737.5530 9820.0110   -1.3980    1.3858 334.84 334.8 141.6 10     0.0000    0.0122
M14          ?    BHE  e S      ? 20230719 0324   12.9038 GAU  2.52e-03 -1.00e+00  3.59e+02 -1.00e+00    1.0000 >    1.0604   -0.0012    1.6114  737.5530 9820.0110   -1.3980    1.3858 334.84 334.8 140.9 10     0.0000    0.0212
M02          ?    BHZ  e P      c 20230719 0324   12.4462 GAU  4.33e-04 -1.00e+00 -1.00e+00 -1.00e+00    1.0000 >    0.6779   -0.0763    0.5215  736.5970 9819.4060   -1.4960    1.6760 292.79 292.8 137.4 10     0.0000    0.0136
M02          ?    BHN  e S      ? 20230719 0324   12.9162 GAU  1.40e-03 -1.00e+00 -1.00e+00 -1.00e+00    1.0000 >    1.1820   -0.1104    0.4597  736.5970 9819.4060   -1.4960    1.6760 292.79 292.8 136.7 10     0.0000    0.0236
M11          ?    BHZ  i P      c 20230719 0324   12.4714 GAU  8.32e-04 -1.00e+00 -1.00e+00 -1.00e+00    1.0000 >    0.6560   -0.0291    0.9714  738.4670 9820.4900   -1.3120    1.7635  10.62  10.6 132.9 10     0.0000    0.0131
M11          ?    BHN  e S      ? 20230719 0324   12.9910 GAU  8.84e-04 -1.00e+00 -1.00e+00 -1.00e+00    1.0000 >    1.1451    0.0013    1.5645  738.4670 9820.4900   -1.3120    1.7635  10.62  10.6 132.0 10     0.0000    0.0229
M09          ?    BHZ  i P      c 20230719 0324   12.5027 GAU  2.05e-03 -1.00e+00 -1.00e+00 -1.00e+00    1.0000 >    0.7449   -0.0868    0.6005  737.8820 9820.9850   -1.2700    2.2434 353.34 353.3 124.9 10     0.0000    0.0149
M09          ?    BHE  e S      ? 20230719 0324   13.1288 GAU  6.76e-04 -1.00e+00  3.05e+02 -1.00e+00    1.0000 >    1.3007   -0.0164    1.3674  737.8820 9820.9850   -1.2700    2.2434 353.34 353.3 123.6 10     0.0000    0.0260
M13          ?    BHZ  i P      c 20230719 0324   12.6361 GAU  8.09e-04 -1.00e+00 -1.00e+00 -1.00e+00    1.0000 >    0.8936   -0.1021    0.5387  737.1780 9821.5410   -1.2220    2.9465 340.90 340.9 116.7 10     0.0000    0.0179
M13          ?    BHN  e S      ? 20230719 0324   13.3001 GAU  9.03e-04 -1.00e+00 -1.00e+00 -1.00e+00    1.0000 >    1.5609   -0.1053    0.4908  737.1780 9821.5410   -1.2220    2.9465 340.90 340.9 114.8 10     0.0000    0.0312
M10          ?    BHZ  e P      c 20230719 0324   12.5554 GAU  3.22e-03 -1.00e+00 -1.00e+00 -1.00e+00    1.0000 >    0.9188   -0.2080    0.0032  736.5490 9821.3650   -1.2200    3.0563 328.58 328.6 115.7 10     0.0000    0.0184
M10          ?    BHE  e S      ? 20230719 0324   13.0771 GAU  1.71e-03 -1.00e+00 -1.00e+00 -1.00e+00    1.0000 >    1.6049   -0.3724    0.0000  736.5490 9821.3650   -1.2200    3.0563 328.58 328.6 113.8 10     0.0000    0.0321
M08          ?    BHZ  e P      c 20230719 0324   12.8410 GAU  1.76e-04 -1.00e+00 -1.00e+00 -1.00e+00    1.0000 >    0.9916    0.0049    1.6211  738.2480 9822.1600   -1.1510    3.4050   1.78   1.8 112.2 10     0.0000    0.0198
M08          ?    BHN  e S      ? 20230719 0324   13.5987 GAU  4.90e-04 -1.00e+00  2.68e+02 -1.00e+00    1.0000 >    1.7329    0.0213    1.1665  738.2480 9822.1600   -1.1510    3.4050   1.78   1.8 109.9 10     0.0000    0.0347
M05          ?    BHZ  e P      c 20230719 0324   12.9222 GAU  1.65e-03 -1.00e+00 -1.00e+00 -1.00e+00    1.0000 >    1.0914   -0.0138    1.4775  736.2660 9822.0830   -1.1500    3.8189 330.58 330.6 109.6 10     0.0000    0.0218
M05          ?    BHN  e S      ? 20230719 0324   13.7716 GAU  2.80e-03 -1.00e+00  2.58e+02 -1.00e+00    1.0000 >    1.9072    0.0198    1.1446  736.2660 9822.0830   -1.1500    3.8189 330.58 330.6 107.1 10     0.0000    0.0381
M12          ?    BHZ  e P      c 20230719 0324   13.1965 GAU  1.27e-03 -1.00e+00 -1.00e+00 -1.00e+00    1.0000 >    1.3158    0.0361    0.9336  736.8520 9823.3800   -0.9890    4.7999 344.41 344.4 103.8 10     0.0000    0.0263
M12          ?    BHN  e S      ? 20230719 0324   14.2449 GAU  6.24e-04 -1.00e+00 -1.00e+00 -1.00e+00    1.0000 >    2.2932    0.1072    0.2378  736.8520 9823.3800   -0.9890    4.7999 344.41 344.4  67.2 10     0.0000    0.0459
END_PHASE
END_NLLOC

