NLLOC "./loc/SEML.20230719.030232.grid0" "LOCATED" "Location completed."
PUBLIC_ID None
SIGNATURE "Arham Zakki Edelo - edelo.17034@mhs.its.ac.id   obs:./obs/2023_07.obs   NLLoc:v7.00.10(30Aug2020)   run:28Dec2023 20h05m52"
COMMENT "SEML"
GRID  2001 2001 1001  727 9811 -2  0.01 0.01 0.01 PROB_DENSITY
SEARCH OCTREE nInitial 4851 nEvaluated 20003 smallestNodeSide 0.014881/0.014881/0.014205 oct_tree_integral 4.696491e-02 scatter_volume 4.696491e-02
HYPOCENTER  x 736.903 y 9818.42 z 0.975852  OT 31.3321  ix -1 iy -1 iz -1 MAXIMUM_LIKELIHOOD
GEOGRAPHIC  OT 2023 07 19  03 02 31.332077  Lat 9818.418155 Long 736.903274 Depth 0.975852
QUALITY  Pmax 4.96918e+34 MFmin 44.9963 MFmax 56.0834 RMS 0.0297132 Nphs 12 Gap 279.192 Dist 0.866797 Mamp -9.90 0 Mdur -9.90 0
VPVSRATIO  VpVsRatio 1.76277  Npair 6  Diff 0.343822
STATISTICS  ExpectX 737.004105 Y 9818.461190 Z 0.888559  CovXX 0.0732904 XY -0.00809162 XZ -0.0261715 YY 0.0269922 YZ -0.0122106 ZZ 0.0370971 EllAz1  28.4732 Dip1  41.097 Len1  0.192405 Az2  339.05 Dip2  -36.7129 Len2  0.375016 Len3  5.543405e-01
STAT_GEOG  ExpectLat 9818.461190 Long 737.004105 Depth 0.888559
TRANSFORM  NONE
QML_OriginQuality  assocPhCt 12  usedPhCt 12  assocStaCt -1  usedStaCt 6  depthPhCt -1  stdErr 0.0297132  azGap 279.192  secAzGap 279.192  gtLevel -  minDist 0.866797 maxDist 3.97614 medDist 2.08324
QML_OriginUncertainty  horUnc -1  minHorUnc 0.242741  maxHorUnc 0.414399  azMaxHorUnc 99.6334
QML_ConfidenceEllipsoid  semiMajorAxisLength 0.554341  semiMinorAxisLength 0.192405  semiIntermediateAxisLength 0.375016  majorAxisPlunge -27.3127  majorAxisAzimuth 91.7005  majorAxisRotation 117.766
FOCALMECH  Hyp  9818.418155 736.903274 0.975852 Mech  0 0 0 mf  0 nObs -1
PHASE ID Ins Cmp On Pha  FM Date     HrMn   Sec     Err  ErrMag    Coda      Amp       Per       PriorWt  >   TTpred    Res       Weight    StaLoc(X  Y         Z)        SDist    SAzim  RAz  RDip RQual    Tcorr       TTerr
M04          ?    BHZ  e P      d 20230719 0302   32.0500 GAU  1.13e-03 -1.00e+00  3.59e+02 -1.00e+00    1.0000 >    0.7118    0.0061    1.5696  737.1400 9819.2520   -1.5710    0.8668  15.85  15.8 160.5 10     0.0000    0.0142
M04          ?    BHN  e S      ? 20230719 0302   32.5720 GAU  1.40e-03 -1.00e+00  8.01e+02 -1.00e+00    1.0000 >    1.2219    0.0180    1.1983  737.1400 9819.2520   -1.5710    0.8668  15.85  15.8 159.1 10     0.0000    0.0244
M02          ?    BHZ  e P      d 20230719 0302   32.0358 GAU  1.45e-03 -1.00e+00 -1.00e+00 -1.00e+00    1.0000 >    0.7082   -0.0045    1.5845  736.5970 9819.4060   -1.4960    1.0342 342.77 342.8 156.6 10     0.0000    0.0142
M02          ?    BHN  e S      ? 20230719 0302   32.5094 GAU  1.76e-03 -1.00e+00 -1.00e+00 -1.00e+00    1.0000 >    1.2153   -0.0380    0.8317  736.5970 9819.4060   -1.4960    1.0342 342.77 342.8 154.9 10     0.0000    0.0243
M06          ?    BHZ  i P      c 20230719 0302   32.0761 GAU  9.10e-04 -1.00e+00 -1.00e+00 -1.00e+00    1.0000 >    0.7504   -0.0064    1.5469  738.3100 9819.1170   -1.3960    1.5708  63.58  63.6 145.4 10     0.0000    0.0150
M06          ?    BHN  e S      ? 20230719 0302   32.5221 GAU  5.62e-04 -1.00e+00 -1.00e+00 -1.00e+00    1.0000 >    1.2871   -0.0971    0.3944  738.3100 9819.1170   -1.3960    1.5708  63.58  63.6 142.7 10     0.0000    0.0257
M11          ?    BHZ  i P      c 20230719 0302   32.1429 GAU  3.14e-03 -1.00e+00 -1.00e+00 -1.00e+00    1.0000 >    0.9107   -0.0998    0.3535  738.4670 9820.4900   -1.3120    2.5957  37.04  37.0 129.5 10     0.0000    0.0182
M11          ?    BHN  i S      ? 20230719 0302   32.7090 GAU  1.98e-03 -1.00e+00 -1.00e+00 -1.00e+00    1.0000 >    1.5601   -0.1831    0.0372  738.4670 9820.4900   -1.3120    2.5957  37.04  37.0 124.9 10     0.0000    0.0312
M09          ?    BHZ  i P      c 20230719 0302   32.2837 GAU  3.50e-03 -1.00e+00  1.26e+02 -1.00e+00    1.0000 >    0.9332    0.0184    1.2358  737.8820 9820.9850   -1.2700    2.7471  20.87  20.9 127.3 10     0.0000    0.0187
M09          ?    BHN  e S      ? 20230719 0302   32.9483 GAU  7.21e-04 -1.00e+00  4.53e+02 -1.00e+00    1.0000 >    1.5980    0.0183    1.0998  737.8820 9820.9850   -1.2700    2.7471  20.87  20.9 122.3 10     0.0000    0.0320
M08          ?    BHZ  e P      c 20230719 0302   32.5060 GAU  6.47e-04 -1.00e+00 -1.00e+00 -1.00e+00    1.0000 >    1.1827   -0.0089    1.3741  738.2480 9822.1600   -1.1510    3.9761  19.77  19.8 115.6 10     0.0000    0.0237
M08          ?    BHN  e S      ? 20230719 0302   33.2958 GAU  2.51e-04 -1.00e+00  3.19e+02 -1.00e+00    1.0000 >    2.0186   -0.0549    0.7741  738.2480 9822.1600   -1.1510    3.9761  19.77  19.8 108.8 10     0.0000    0.0404
END_PHASE
END_NLLOC

