NLLOC "./loc/SEML.20230726.233436.grid0" "LOCATED" "Location completed."
PUBLIC_ID None
SIGNATURE "Arham Zakki Edelo - edelo.17034@mhs.its.ac.id   obs:./obs/2023_07.obs   NLLoc:v7.00.10(30Aug2020)   run:28Dec2023 20h06m16"
COMMENT "SEML"
GRID  2001 2001 1001  727 9811 -2  0.01 0.01 0.01 PROB_DENSITY
SEARCH OCTREE nInitial 4851 nEvaluated 20011 smallestNodeSide 0.059524/0.059524/0.056818 oct_tree_integral 1.190508e+00 scatter_volume 1.179966e+00
HYPOCENTER  x 733.042 y 9823.59 z 7.23295  OT 33.9785  ix -1 iy -1 iz -1 MAXIMUM_LIKELIHOOD
GEOGRAPHIC  OT 2023 07 26  23 34 33.978464  Lat 9823.589286 Long 733.041667 Depth 7.232955
QUALITY  Pmax 4.7028e+87 MFmin 61.3202 MFmax 66.0879 RMS 0.0444021 Nphs 26 Gap 313.505 Dist 3.53485 Mamp -9.90 0 Mdur -9.90 0
VPVSRATIO  VpVsRatio 1.69874  Npair 13  Diff 0.408703
STATISTICS  ExpectX 732.946628 Y 9823.613561 Z 7.122719  CovXX 0.631134 XY 0.0439031 XZ 0.325827 YY 0.135743 YZ 0.00155906 ZZ 0.252807 EllAz1  118.441 Dip1  -55.9261 Len1  0.458382 Az2  5.08825 Dip2  -15.0085 Len2  0.701063 Len3  1.702316e+00
STAT_GEOG  ExpectLat 9823.613561 Long 732.946628 Depth 7.122719
TRANSFORM  NONE
QML_OriginQuality  assocPhCt 26  usedPhCt 26  assocStaCt -1  usedStaCt 13  depthPhCt -1  stdErr 0.0444021  azGap 313.505  secAzGap 313.505  gtLevel -  minDist 3.53485 maxDist 6.91062 medDist 5.39896
QML_OriginUncertainty  horUnc -1  minHorUnc 0.550752  maxHorUnc 1.20851  azMaxHorUnc 84.9745
QML_ConfidenceEllipsoid  semiMajorAxisLength 1.70232  semiMinorAxisLength 0.458382  semiIntermediateAxisLength 0.701063  majorAxisPlunge 29.7899  majorAxisAzimuth 86.2593  majorAxisRotation 278.995
FOCALMECH  Hyp  9823.589286 733.041667 7.232955 Mech  0 0 0 mf  0 nObs -1
PHASE ID Ins Cmp On Pha  FM Date     HrMn   Sec     Err  ErrMag    Coda      Amp       Per       PriorWt  >   TTpred    Res       Weight    StaLoc(X  Y         Z)        SDist    SAzim  RAz  RDip RQual    Tcorr       TTerr
M01          ?    BHZ  i P      c 20230726 2334   36.0533 GAU  5.17e-04 -1.00e+00 -1.00e+00 -1.00e+00    1.0000 >    2.1275   -0.0527    1.1090  736.4090 9822.5140   -1.1200    3.5349 107.71 107.7 155.9 10     0.0000    0.0425
M01          ?    BHE  e S      ? 20230726 2334   37.4170 GAU  1.44e-03 -1.00e+00  5.58e+02 -1.00e+00    1.0000 >    3.5366   -0.0981    0.7179  736.4090 9822.5140   -1.1200    3.5349 107.71 107.7 155.7 10     0.0000    0.0707
M05          ?    BHZ  i P      c 20230726 2334   36.1545 GAU  7.49e-04 -1.00e+00  3.39e+02 -1.00e+00    1.0000 >    2.1374    0.0387    1.2305  736.2660 9822.0830   -1.1500    3.5588 115.04 115.0 155.8 10     0.0000    0.0427
M05          ?    BHE  e S      ? 20230726 2334   37.6238 GAU  1.35e-03 -1.00e+00 -1.00e+00 -1.00e+00    1.0000 >    3.5536    0.0917    0.7892  736.2660 9822.0830   -1.1500    3.5588 115.04 115.0 155.5 10     0.0000    0.0711
M12          ?    BHZ  i P      d 20230726 2334   36.1059 GAU  8.24e-04 -1.00e+00 -1.00e+00 -1.00e+00    1.0000 >    2.1204    0.0070    1.3649  736.8520 9823.3800   -0.9890    3.8161  93.14  93.1 153.9 10     0.0000    0.0424
M12          ?    BHE  e S      ? 20230726 2334   37.5372 GAU  2.07e-03 -1.00e+00  6.55e+01 -1.00e+00    1.0000 >    3.5223    0.0365    1.0998  736.8520 9823.3800   -0.9890    3.8161  93.14  93.1 153.6 10     0.0000    0.0704
M10          ?    BHZ  i P      d 20230726 2334   36.5789 GAU  2.02e-03 -1.00e+00  5.79e+02 -1.00e+00    1.0000 >    2.2130    0.3875    0.0017  736.5490 9821.3650   -1.2200    4.1532 122.38 122.4 152.4 10     0.0000    0.0443
M10          ?    BHE  e S      ? 20230726 2334   38.3513 GAU  8.56e-04 -1.00e+00 -1.00e+00 -1.00e+00    1.0000 >    3.6802    0.6926    0.0001  736.5490 9821.3650   -1.2200    4.1532 122.38 122.4 152.2 10     0.0000    0.0736
M07          ?    BHZ  i P      d 20230726 2334   36.1680 GAU  1.85e-03 -1.00e+00 -1.00e+00 -1.00e+00    1.0000 >    2.2196   -0.0301    1.2667  737.4430 9822.8030   -1.1120    4.4710 100.13 100.1 150.4 10     0.0000    0.0444
M07          ?    BHE  e S      ? 20230726 2334   37.6346 GAU  1.88e-03 -1.00e+00 -1.00e+00 -1.00e+00    1.0000 >    3.6890   -0.0329    1.0822  737.4430 9822.8030   -1.1120    4.4710 100.13 100.1 150.1 10     0.0000    0.0738
M13          ?    BHZ  i P      d 20230726 2334   36.2649 GAU  1.34e-03 -1.00e+00 -1.00e+00 -1.00e+00    1.0000 >    2.2631    0.0233    1.3028  737.1780 9821.5410   -1.2220    4.6157 116.34 116.3 149.8 10     0.0000    0.0453
M13          ?    BHN  e S      ? 20230726 2334   37.7795 GAU  2.33e-03 -1.00e+00 -1.00e+00 -1.00e+00    1.0000 >    3.7634    0.0376    1.0681  737.1780 9821.5410   -1.2220    4.6157 116.34 116.3 149.5 10     0.0000    0.0753
M08          ?    BHZ  i P      d 20230726 2334   36.2854 GAU  8.98e-04 -1.00e+00 -1.00e+00 -1.00e+00    1.0000 >    2.3388   -0.0319    1.2445  738.2480 9822.1600   -1.1510    5.3990 105.35 105.4 145.5 10     0.0000    0.0468
M08          ?    BHN  e S      ? 20230726 2334   37.8085 GAU  1.61e-03 -1.00e+00  2.31e+02 -1.00e+00    1.0000 >    3.8873   -0.0572    0.9584  738.2480 9822.1600   -1.1510    5.3990 105.35 105.4 145.1 10     0.0000    0.0777
M02          ?    BHZ  i P      c 20230726 2334   36.4128 GAU  1.04e-03 -1.00e+00  5.64e+02 -1.00e+00    1.0000 >    2.4343    0.0000    1.3265  736.5970 9819.4060   -1.4960    5.4900 139.64 139.6 145.9 10     0.0000    0.0487
M02          ?    BHN  e S      ? 20230726 2334   38.0498 GAU  1.55e-03 -1.00e+00  5.75e+03 -1.00e+00    1.0000 >    4.0527    0.0187    1.0797  736.5970 9819.4060   -1.4960    5.4900 139.64 139.6 145.5 10     0.0000    0.0811
M09          ?    BHZ  i P      d 20230726 2334   36.3997 GAU  2.68e-03 -1.00e+00 -1.00e+00 -1.00e+00    1.0000 >    2.3800    0.0412    1.1945  737.8820 9820.9850   -1.2700    5.4965 118.28 118.3 145.3 10     0.0000    0.0476
M09          ?    BHE  e S      ? 20230726 2334   38.0042 GAU  1.94e-03 -1.00e+00  3.40e+02 -1.00e+00    1.0000 >    3.9580    0.0677    0.9183  737.8820 9820.9850   -1.2700    5.4965 118.28 118.3 145.0 10     0.0000    0.0792
M14          ?    BHZ  e P      d 20230726 2334   36.4319 GAU  3.25e-03 -1.00e+00  4.92e+01 -1.00e+00    1.0000 >    2.4446    0.0088    1.3187  737.5530 9820.0110   -1.3980    5.7581 128.42 128.4 144.3 10     0.0000    0.0489
M14          ?    BHN  e S      ? 20230726 2334   38.0515 GAU  3.89e-03 -1.00e+00  1.44e+01 -1.00e+00    1.0000 >    4.0676    0.0054    1.0897  737.5530 9820.0110   -1.3980    5.7581 128.42 128.4 143.9 10     0.0000    0.0814
M04          ?    BHZ  i P      d 20230726 2334   36.4605 GAU  2.58e-03 -1.00e+00  3.38e+02 -1.00e+00    1.0000 >    2.5136   -0.0316    1.2268  737.1400 9819.2520   -1.5710    5.9673 136.62 136.6 143.7 10     0.0000    0.0503
M04          ?    BHE  e S      ? 20230726 2334   38.1033 GAU  1.06e-03 -1.00e+00  4.13e+02 -1.00e+00    1.0000 >    4.1857   -0.0608    0.9179  737.1400 9819.2520   -1.5710    5.9673 136.62 136.6 143.3 10     0.0000    0.0837
M11          ?    BHZ  e P      c 20230726 2334   36.5358 GAU  2.33e-03 -1.00e+00 -1.00e+00 -1.00e+00    1.0000 >    2.4895    0.0678    0.9850  738.4670 9820.4900   -1.3120    6.2482 119.74 119.7 141.7 10     0.0000    0.0498
M11          ?    BHN  e S      ? 20230726 2334   38.2473 GAU  8.32e-04 -1.00e+00 -1.00e+00 -1.00e+00    1.0000 >    4.1401    0.1287    0.5665  738.4670 9820.4900   -1.3120    6.2482 119.74 119.7 141.4 10     0.0000    0.0828
M06          ?    BHZ  i P      d 20230726 2334   36.5390 GAU  6.93e-04 -1.00e+00  2.08e+02 -1.00e+00    1.0000 >    2.6032   -0.0426    1.1536  738.3100 9819.1170   -1.3960    6.9106 130.33 130.3 139.0 10     0.0000    0.0521
M06          ?    BHE  e S      ? 20230726 2334   38.2686 GAU  7.37e-04 -1.00e+00 -1.00e+00 -1.00e+00    1.0000 >    4.3301   -0.0400    0.9869  738.3100 9819.1170   -1.3960    6.9106 130.33 130.3 138.6 10     0.0000    0.0866
END_PHASE
END_NLLOC

