NLLOC "./loc/SEML.20230720.165919.grid0" "LOCATED" "Location completed."
PUBLIC_ID None
SIGNATURE "Arham Zakki Edelo - edelo.17034@mhs.its.ac.id   obs:./obs/2023_07.obs   NLLoc:v7.00.10(30Aug2020)   run:28Dec2023 20h06m12"
COMMENT "SEML"
GRID  2001 2001 1001  727 9811 -2  0.01 0.01 0.01 PROB_DENSITY
SEARCH OCTREE nInitial 4851 nEvaluated 20011 smallestNodeSide 0.014881/0.014881/0.014205 oct_tree_integral 1.392604e-02 scatter_volume 1.392604e-02
HYPOCENTER  x 738.302 y 9818.12 z 0.0951705  OT 18.7963  ix -1 iy -1 iz -1 MAXIMUM_LIKELIHOOD
GEOGRAPHIC  OT 2023 07 20  16 59 18.796322  Lat 9818.120536 Long 738.302083 Depth 0.095170
QUALITY  Pmax 2.83599e+93 MFmin 93.1363 MFmax 110.491 RMS 0.0307259 Nphs 26 Gap 303.031 Dist 1.62193 Mamp -9.90 0 Mdur -9.90 0
VPVSRATIO  VpVsRatio 1.71577  Npair 13  Diff 0.660862
STATISTICS  ExpectX 738.302382 Y 9818.119345 Z 0.108555  CovXX 0.0136844 XY -0.00509607 XZ -0.00814777 YY 0.0102382 YZ 0.00219326 ZZ 0.0165514 EllAz1  52.787 Dip1  24.4035 Len1  0.13513 Az2  342.026 Dip2  -35.9896 Len2  0.189909 Len3  2.975696e-01
STAT_GEOG  ExpectLat 9818.119345 Long 738.302382 Depth 0.108555
TRANSFORM  NONE
QML_OriginQuality  assocPhCt 26  usedPhCt 26  assocStaCt -1  usedStaCt 13  depthPhCt -1  stdErr 0.0307259  azGap 303.031  secAzGap 303.031  gtLevel -  minDist 1.62193 maxDist 5.4557 medDist 3.60044
QML_OriginUncertainty  horUnc -1  minHorUnc 0.123037  maxHorUnc 0.199709  azMaxHorUnc 125.659
QML_ConfidenceEllipsoid  semiMajorAxisLength 0.29757  semiMinorAxisLength 0.13513  semiIntermediateAxisLength 0.189909  majorAxisPlunge -44.082  majorAxisAzimuth 116.722  majorAxisRotation 92.6091
FOCALMECH  Hyp  9818.120536 738.302083 0.095170 Mech  0 0 0 mf  0 nObs -1
PHASE ID Ins Cmp On Pha  FM Date     HrMn   Sec     Err  ErrMag    Coda      Amp       Per       PriorWt  >   TTpred    Res       Weight    StaLoc(X  Y         Z)        SDist    SAzim  RAz  RDip RQual    Tcorr       TTerr
M04          ?    BHZ  e P      c 20230720 1659   19.4226 GAU  3.42e-03 -1.00e+00 -1.00e+00 -1.00e+00    1.0000 >    0.6240    0.0024    1.5435  737.1400 9819.2520   -1.5710    1.6219 314.24 314.2 133.7 10     0.0000    0.0125
M04          ?    BHN  e S      ? 20230720 1659   19.8710 GAU  8.24e-04 -1.00e+00  8.99e+02 -1.00e+00    1.0000 >    1.0903   -0.0156    1.4262  737.1400 9819.2520   -1.5710    1.6219 314.24 314.2 132.8 10     0.0000    0.0218
M14          ?    BHZ  i P      c 20230720 1659   19.4788 GAU  4.29e-03 -1.00e+00 -1.00e+00 -1.00e+00    1.0000 >    0.6751    0.0073    1.4610  737.5530 9820.0110   -1.3980    2.0335 338.38 338.4 123.5 10     0.0000    0.0135
M14          ?    BHN  e S      ? 20230720 1659   19.9482 GAU  3.54e-03 -1.00e+00  1.95e+02 -1.00e+00    1.0000 >    1.1817   -0.0298    1.2489  737.5530 9820.0110   -1.3980    2.0335 338.38 338.4 121.8 10     0.0000    0.0236
M02          ?    BHZ  e P      c 20230720 1659   19.4815 GAU  5.72e-04 -1.00e+00 -1.00e+00 -1.00e+00    1.0000 >    0.7137   -0.0286    1.2616  736.5970 9819.4060   -1.4960    2.1354 307.01 307.0 123.8 10     0.0000    0.0143
M02          ?    BHE  e S      ? 20230720 1659   20.0582 GAU  8.74e-04 -1.00e+00  1.46e+03 -1.00e+00    1.0000 >    1.2482    0.0137    1.2423  736.5970 9819.4060   -1.4960    2.1354 307.01 307.0 122.2 10     0.0000    0.0250
M11          ?    BHZ  i P      c 20230720 1659   19.5369 GAU  2.41e-03 -1.00e+00 -1.00e+00 -1.00e+00    1.0000 >    0.7375    0.0031    1.5150  738.4670 9820.4900   -1.3120    2.3752   3.98   4.0 117.5 10     0.0000    0.0148
M11          ?    BHE  e S      ? 20230720 1659   20.0942 GAU  1.16e-03 -1.00e+00 -1.00e+00 -1.00e+00    1.0000 >    1.2923    0.0056    1.3330  738.4670 9820.4900   -1.3120    2.3752   3.98   4.0 115.1 10     0.0000    0.0258
M09          ?    BHZ  i P      c 20230720 1659   19.6336 GAU  1.17e-03 -1.00e+00  2.62e+02 -1.00e+00    1.0000 >    0.8540   -0.0167    1.4600  737.8820 9820.9850   -1.2700    2.8951 351.66 351.7 111.6 10     0.0000    0.0171
M09          ?    BHN  e S      ? 20230720 1659   20.3119 GAU  1.25e-03 -1.00e+00  3.64e+02 -1.00e+00    1.0000 >    1.4975    0.0181    1.1318  737.8820 9820.9850   -1.2700    2.8951 351.66 351.7 108.2 10     0.0000    0.0299
M03          ?    BHZ  e P      c 20230720 1659   19.6451 GAU  4.33e-04 -1.00e+00 -1.00e+00 -1.00e+00    1.0000 >    0.9073   -0.0585    0.7354  736.8800 9820.8540   -1.3350    3.0813 332.51 332.5 111.0 10     0.0000    0.0181
M03          ?    BHN  e S      ? 20230720 1659   20.2634 GAU  9.36e-04 -1.00e+00 -1.00e+00 -1.00e+00    1.0000 >    1.5901   -0.1229    0.2328  736.8800 9820.8540   -1.3350    3.0813 332.51 332.5 107.6 10     0.0000    0.0318
M13          ?    BHZ  i P      c 20230720 1659   19.7249 GAU  1.19e-03 -1.00e+00 -1.00e+00 -1.00e+00    1.0000 >    1.0208   -0.0922    0.3532  737.1780 9821.5410   -1.2220    3.6004 341.81 341.8 105.9 10     0.0000    0.0204
M13          ?    BHE  e S      ? 20230720 1659   20.3972 GAU  8.11e-04 -1.00e+00 -1.00e+00 -1.00e+00    1.0000 >    1.7916   -0.1907    0.0572  737.1780 9821.5410   -1.2220    3.6004 341.81 341.8 100.8 10     0.0000    0.0358
M10          ?    BHZ  e P      d 20230720 1659   19.8314 GAU  3.80e-03 -1.00e+00  2.13e+03 -1.00e+00    1.0000 >    1.0423   -0.0072    1.4716  736.5490 9821.3650   -1.2200    3.6878 331.62 331.6 105.4 10     0.0000    0.0208
M10          ?    BHN  e S      ? 20230720 1659   20.5823 GAU  1.29e-03 -1.00e+00 -1.00e+00 -1.00e+00    1.0000 >    1.8295   -0.0435    1.0220  736.5490 9821.3650   -1.2200    3.6878 331.62 331.6 100.1 10     0.0000    0.0366
M08          ?    BHZ  e P      d 20230720 1659   19.8731 GAU  2.55e-04 -1.00e+00  9.63e+02 -1.00e+00    1.0000 >    1.1229   -0.0461    0.9833  738.2480 9822.1600   -1.1510    4.0398 359.23 359.2 102.9 10     0.0000    0.0225
M08          ?    BHN  e S      ? 20230720 1659   20.7500 GAU  5.64e-04 -1.00e+00  3.61e+02 -1.00e+00    1.0000 >    1.9724   -0.0187    1.1805  738.2480 9822.1600   -1.1510    4.0398 359.23 359.2  96.6  9     0.0000    0.0394
M05          ?    BHZ  i P      d 20230720 1659   20.0378 GAU  4.21e-04 -1.00e+00  2.45e+02 -1.00e+00    1.0000 >    1.2277    0.0138    1.2436  736.2660 9822.0830   -1.1500    4.4550 332.80 332.8 101.3 10     0.0000    0.0246
M05          ?    BHE  e S      ? 20230720 1659   20.9710 GAU  1.69e-03 -1.00e+00 -1.00e+00 -1.00e+00    1.0000 >    2.1558    0.0188    1.0113  736.2660 9822.0830   -1.1500    4.4550 332.80 332.8  94.9  9     0.0000    0.0431
M07          ?    BHZ  e P      d 20230720 1659   20.0468 GAU  8.98e-04 -1.00e+00  9.12e+01 -1.00e+00    1.0000 >    1.3014   -0.0509    0.9216  737.4430 9822.8030   -1.1120    4.7606 349.60 349.6  99.9 10     0.0000    0.0260
M07          ?    BHN  e S      ? 20230720 1659   20.9623 GAU  4.51e-04 -1.00e+00 -1.00e+00 -1.00e+00    1.0000 >    2.2851   -0.1191    0.3318  737.4430 9822.8030   -1.1120    4.7606 349.60 349.6  93.9  9     0.0000    0.0457
M01          ?    BHZ  e P      d 20230720 1659   20.1633 GAU  5.42e-04 -1.00e+00  2.62e+02 -1.00e+00    1.0000 >    1.3082    0.0588    0.4372  736.4090 9822.5140   -1.1200    4.7840 336.69 336.7  99.9 10     0.0000    0.0262
M01          ?    BHN  e S      ? 20230720 1659   21.2024 GAU  6.74e-04 -1.00e+00  1.67e+03 -1.00e+00    1.0000 >    2.2967    0.1094    0.1695  736.4090 9822.5140   -1.1200    4.7840 336.69 336.7  93.9  9     0.0000    0.0459
M12          ?    BHZ  e P      c 20230720 1659   20.2729 GAU  2.83e-04 -1.00e+00 -1.00e+00 -1.00e+00    1.0000 >    1.4669    0.0097    1.2435  736.8520 9823.3800   -0.9890    5.4557 344.59 344.6  97.5 10     0.0000    0.0293
M12          ?    BHE  e S      ? 20230720 1659   21.3821 GAU  1.61e-03 -1.00e+00  4.79e+01 -1.00e+00    1.0000 >    2.5737    0.0121    0.9821  736.8520 9823.3800   -0.9890    5.4557 344.59 344.6  92.5  9     0.0000    0.0515
END_PHASE
END_NLLOC

