NLLOC "./loc/SEML.20230719.030004.grid0" "LOCATED" "Location completed."
PUBLIC_ID None
SIGNATURE "Arham Zakki Edelo - edelo.17034@mhs.its.ac.id   obs:./obs/2023_07.obs   NLLoc:v7.00.10(30Aug2020)   run:28Dec2023 20h05m47"
COMMENT "SEML"
GRID  2001 2001 1001  727 9811 -2  0.01 0.01 0.01 PROB_DENSITY
SEARCH OCTREE nInitial 4851 nEvaluated 20027 smallestNodeSide 0.014881/0.014881/0.014205 oct_tree_integral 2.707266e-02 scatter_volume 2.707266e-02
HYPOCENTER  x 738.332 y 9818.94 z 0.791193  OT 3.87454  ix -1 iy -1 iz -1 MAXIMUM_LIKELIHOOD
GEOGRAPHIC  OT 2023 07 19  03 00 3.874538  Lat 9818.938988 Long 738.331845 Depth 0.791193
QUALITY  Pmax 6.02702e+93 MFmin 99.2011 MFmax 114.138 RMS 0.0276012 Nphs 26 Gap 279.735 Dist 0.179347 Mamp -9.90 0 Mdur -9.90 0
VPVSRATIO  VpVsRatio 1.8151  Npair 13  Diff 0.655838
STATISTICS  ExpectX 738.275851 Y 9818.840178 Z 0.765636  CovXX 0.022815 XY 0.00679624 XZ 0.0117992 YY 0.0224039 YZ 0.000476444 ZZ 0.0269836 EllAz1  118.898 Dip1  -31.8135 Len1  0.194374 Az2  8.33966 Dip2  -29.5124 Len2  0.285728 Len3  3.680397e-01
STAT_GEOG  ExpectLat 9818.840178 Long 738.275851 Depth 0.765636
TRANSFORM  NONE
QML_OriginQuality  assocPhCt 26  usedPhCt 26  assocStaCt -1  usedStaCt 13  depthPhCt -1  stdErr 0.0276012  azGap 279.735  secAzGap 279.735  gtLevel -  minDist 0.179347 maxDist 4.68108 medDist 2.40315
QML_OriginUncertainty  horUnc -1  minHorUnc 0.190691  maxHorUnc 0.260077  azMaxHorUnc 45.8663
QML_ConfidenceEllipsoid  semiMajorAxisLength 0.36804  semiMinorAxisLength 0.194374  semiIntermediateAxisLength 0.285728  majorAxisPlunge 43.8217  majorAxisAzimuth 65.435  majorAxisRotation 272.201
FOCALMECH  Hyp  9818.938988 738.331845 0.791193 Mech  0 0 0 mf  0 nObs -1
PHASE ID Ins Cmp On Pha  FM Date     HrMn   Sec     Err  ErrMag    Coda      Amp       Per       PriorWt  >   TTpred    Res       Weight    StaLoc(X  Y         Z)        SDist    SAzim  RAz  RDip RQual    Tcorr       TTerr
M06          ?    BHZ  i P      c 20230719 0300    4.4627 GAU  5.72e-04 -1.00e+00 -1.00e+00 -1.00e+00    1.0000 >    0.5803    0.0078    1.6418  738.3100 9819.1170   -1.3960    0.1793 353.00 353.0 174.9  9     0.0000    0.0116
M06          ?    BHE  i S      ? 20230719 0300    4.9703 GAU  2.24e-03 -1.00e+00  2.65e+01 -1.00e+00    1.0000 >    1.0013    0.0945    0.3349  738.3100 9819.1170   -1.3960    0.1793 353.00 353.0 174.6  9     0.0000    0.0200
M04          ?    BHZ  e P      c 20230719 0300    4.5863 GAU  2.61e-03 -1.00e+00 -1.00e+00 -1.00e+00    1.0000 >    0.7067    0.0051    1.6416  737.1400 9819.2520   -1.5710    1.2323 284.72 284.7 151.5 10     0.0000    0.0141
M04          ?    BHN  e S      ? 20230719 0300    5.0223 GAU  1.51e-03 -1.00e+00  6.74e+02 -1.00e+00    1.0000 >    1.2190   -0.0712    0.3575  737.1400 9819.2520   -1.5710    1.2323 284.72 284.7 149.1 10     0.0000    0.0244
M14          ?    BHZ  i P      c 20230719 0300    4.5447 GAU  1.40e-03 -1.00e+00  7.82e+02 -1.00e+00    1.0000 >    0.6768   -0.0066    1.6562  737.5530 9820.0110   -1.3980    1.3251 324.00 324.0 147.8 10     0.0000    0.0135
M14          ?    BHE  e S      ? 20230719 0300    5.0210 GAU  1.61e-03 -1.00e+00  6.38e+02 -1.00e+00    1.0000 >    1.1674   -0.0209    1.2238  737.5530 9820.0110   -1.3980    1.3251 324.00 324.0 145.1 10     0.0000    0.0233
M11          ?    BHZ  i P      c 20230719 0300    4.5594 GAU  1.30e-03 -1.00e+00  1.70e+02 -1.00e+00    1.0000 >    0.6908   -0.0060    1.6598  738.4670 9820.4900   -1.3120    1.5569   4.98   5.0 142.3 10     0.0000    0.0138
M11          ?    BHN  e S      ? 20230719 0300    5.0778 GAU  2.98e-03 -1.00e+00 -1.00e+00 -1.00e+00    1.0000 >    1.1914    0.0118    1.3454  738.4670 9820.4900   -1.3120    1.5569   4.98   5.0 139.0 10     0.0000    0.0238
M02          ?    BHZ  e P      c 20230719 0300    4.5456 GAU  2.59e-03 -1.00e+00 -1.00e+00 -1.00e+00    1.0000 >    0.7702   -0.0991    0.1891  736.5970 9819.4060   -1.4960    1.7966 285.07 285.1 140.4 10     0.0000    0.0154
M02          ?    BHN  e S      ? 20230719 0300    5.0986 GAU  1.35e-03 -1.00e+00 -1.00e+00 -1.00e+00    1.0000 >    1.3283   -0.1041    0.1987  736.5970 9819.4060   -1.4960    1.7966 285.07 285.1 136.9 10     0.0000    0.0266
M09          ?    BHZ  i P      c 20230719 0300    4.6573 GAU  1.03e-03 -1.00e+00  3.90e+02 -1.00e+00    1.0000 >    0.7748    0.0079    1.5712  737.8820 9820.9850   -1.2700    2.0949 347.60 347.6 132.8 10     0.0000    0.0155
M09          ?    BHE  e S      ? 20230719 0300    5.3017 GAU  1.69e-03 -1.00e+00  4.73e+02 -1.00e+00    1.0000 >    1.3357    0.0914    0.3615  737.8820 9820.9850   -1.2700    2.0949 347.60 347.6 128.2 10     0.0000    0.0267
M03          ?    BHZ  e P      d 20230719 0300    4.7147 GAU  1.68e-03 -1.00e+00  1.53e+03 -1.00e+00    1.0000 >    0.8470   -0.0069    1.5770  736.8800 9820.8540   -1.3350    2.4031 322.83 322.8 129.4 10     0.0000    0.0169
M03          ?    BHE  e S      ? 20230719 0300    5.3652 GAU  1.51e-03 -1.00e+00 -1.00e+00 -1.00e+00    1.0000 >    1.4598    0.0309    1.0021  736.8800 9820.8540   -1.3350    2.4031 322.83 322.8 124.2 10     0.0000    0.0292
M13          ?    BHZ  i P      c 20230719 0300    4.7908 GAU  9.70e-04 -1.00e+00 -1.00e+00 -1.00e+00    1.0000 >    0.9183   -0.0020    1.5760  737.1780 9821.5410   -1.2220    2.8464 336.09 336.1 122.9 10     0.0000    0.0184
M13          ?    BHE  e S      ? 20230719 0300    5.4265 GAU  1.07e-03 -1.00e+00 -1.00e+00 -1.00e+00    1.0000 >    1.5813   -0.0294    1.0202  737.1780 9821.5410   -1.2220    2.8464 336.09 336.1 116.3 10     0.0000    0.0316
M10          ?    BHZ  i P      c 20230719 0300    4.8172 GAU  5.15e-03 -1.00e+00 -1.00e+00 -1.00e+00    1.0000 >    0.9536   -0.0109    1.4608  736.5490 9821.3650   -1.2200    3.0107 323.69 323.7 121.2 10     0.0000    0.0191
M10          ?    BHE  e S      ? 20230719 0300    5.5476 GAU  3.13e-03 -1.00e+00  2.78e+01 -1.00e+00    1.0000 >    1.6416    0.0314    0.9911  736.5490 9821.3650   -1.2200    3.0107 323.69 323.7 114.3 10     0.0000    0.0328
M08          ?    BHZ  e P      d 20230719 0300    4.8303 GAU  3.80e-04 -1.00e+00  8.14e+02 -1.00e+00    1.0000 >    0.9894   -0.0336    0.9141  738.2480 9822.1600   -1.1510    3.2221 358.51 358.5 118.5 10     0.0000    0.0198
M08          ?    BHE  e S      ? 20230719 0300    5.5748 GAU  2.16e-03 -1.00e+00 -1.00e+00 -1.00e+00    1.0000 >    1.7021   -0.0018    1.2230  738.2480 9822.1600   -1.1510    3.2221 358.51 358.5 110.9 10     0.0000    0.0340
M05          ?    BHZ  i P      d 20230719 0300    5.0095 GAU  2.34e-03 -1.00e+00  3.17e+02 -1.00e+00    1.0000 >    1.1130    0.0220    1.1798  736.2660 9822.0830   -1.1500    3.7620 326.69 326.7 114.4 10     0.0000    0.0223
M05          ?    BHN  e S      ? 20230719 0300    5.8974 GAU  5.72e-04 -1.00e+00  2.84e+02 -1.00e+00    1.0000 >    1.9120    0.1109    0.2866  736.2660 9822.0830   -1.1500    3.7620 326.69 326.7 105.8 10     0.0000    0.0382
M01          ?    BHZ  e P      c 20230719 0300    5.0385 GAU  1.73e-03 -1.00e+00 -1.00e+00 -1.00e+00    1.0000 >    1.1786   -0.0147    1.3314  736.4090 9822.5140   -1.1200    4.0593 331.73 331.7 112.1 10     0.0000    0.0236
M01          ?    BHE  e S      ? 20230719 0300    5.9388 GAU  2.02e-03 -1.00e+00  5.43e+02 -1.00e+00    1.0000 >    2.0223    0.0419    0.8612  736.4090 9822.5140   -1.1200    4.0593 331.73 331.7 103.1 10     0.0000    0.0404
M12          ?    BHZ  e P      c 20230719 0300    5.2709 GAU  1.28e-03 -1.00e+00 -1.00e+00 -1.00e+00    1.0000 >    1.3112    0.0851    0.3897  736.8520 9823.3800   -0.9890    4.6811 341.57 341.6 107.7 10     0.0000    0.0262
M12          ?    BHN  e S      ? 20230719 0300    6.3627 GAU  4.02e-03 -1.00e+00 -1.00e+00 -1.00e+00    1.0000 >    2.2404    0.2477    0.0054  736.8520 9823.3800   -0.9890    4.6811 341.57 341.6  98.8 10     0.0000    0.0448
END_PHASE
END_NLLOC

