NLLOC "./loc/SEML.20230719.030301.grid0" "LOCATED" "Location completed."
PUBLIC_ID None
SIGNATURE "Arham Zakki Edelo - edelo.17034@mhs.its.ac.id   obs:./obs/2023_07.obs   NLLoc:v7.00.10(30Aug2020)   run:28Dec2023 20h05m52"
COMMENT "SEML"
GRID  2001 2001 1001  727 9811 -2  0.01 0.01 0.01 PROB_DENSITY
SEARCH OCTREE nInitial 4851 nEvaluated 20011 smallestNodeSide 0.029762/0.029762/0.028409 oct_tree_integral 2.196812e-01 scatter_volume 2.171197e-01
HYPOCENTER  x 741.122 y 9819.65 z -1.95739  OT 0.916818  ix -1 iy -1 iz -1 MAXIMUM_LIKELIHOOD
GEOGRAPHIC  OT 2023 07 19  03 03 0.916818  Lat 9819.645833 Long 741.122024 Depth -1.957386
QUALITY  Pmax 1.21004e+21 MFmin 28.6536 MFmax 38.1157 RMS 0.0173799 Nphs 8 Gap 326.893 Dist 2.786 Mamp -9.90 0 Mdur -9.90 0
VPVSRATIO  VpVsRatio 1.79508  Npair 4  Diff 0.167048
STATISTICS  ExpectX 740.625577 Y 9819.370540 Z -0.373821  CovXX 0.402143 XY 0.137611 XZ -0.58086 YY 0.154137 YZ -0.0846957 ZZ 1.24302 EllAz1  311.185 Dip1  -17.5561 Len1  0.364096 Az2  214.217 Dip2  -20.9778 Len2  0.857799 Len3  2.341608e+00
STAT_GEOG  ExpectLat 9819.370540 Long 740.625577 Depth -0.373821
TRANSFORM  NONE
QML_OriginQuality  assocPhCt 8  usedPhCt 8  assocStaCt -1  usedStaCt 4  depthPhCt -1  stdErr 0.0173799  azGap 326.893  secAzGap 326.893  gtLevel -  minDist 2.786 maxDist 3.58766 medDist 3.18359
QML_OriginUncertainty  horUnc -1  minHorUnc 0.462247  maxHorUnc 1.03236  azMaxHorUnc 66.0112
QML_ConfidenceEllipsoid  semiMajorAxisLength 2.34161  semiMinorAxisLength 0.364096  semiIntermediateAxisLength 0.857799  majorAxisPlunge -62.0864  majorAxisAzimuth 77.8534  majorAxisRotation 123.69
FOCALMECH  Hyp  9819.645833 741.122024 -1.957386 Mech  0 0 0 mf  0 nObs -1
PHASE ID Ins Cmp On Pha  FM Date     HrMn   Sec     Err  ErrMag    Coda      Amp       Per       PriorWt  >   TTpred    Res       Weight    StaLoc(X  Y         Z)        SDist    SAzim  RAz  RDip RQual    Tcorr       TTerr
M11          ?    BHZ  e P      c 20230719 0303    1.6946 GAU  1.81e-03 -1.00e+00 -1.00e+00 -1.00e+00    1.0000 >    0.7861   -0.0084    1.3938  738.4670 9820.4900   -1.3120    2.7860 287.64 287.6  76.9 10     0.0000    0.0157
M11          ?    BHN  e S      ? 20230719 0303    2.2565 GAU  6.93e-04 -1.00e+00 -1.00e+00 -1.00e+00    1.0000 >    1.3562   -0.0165    1.1903  738.4670 9820.4900   -1.3120    2.7860 287.64 287.6  76.9 10     0.0000    0.0271
M06          ?    BHZ  i P      c 20230719 0303    1.7231 GAU  3.01e-04 -1.00e+00 -1.00e+00 -1.00e+00    1.0000 >    0.8015    0.0048    1.4020  738.3100 9819.1170   -1.3960    2.8613 259.35 259.3  78.8 10     0.0000    0.0160
M06          ?    BHE  e S      ? 20230719 0303    2.2999 GAU  4.33e-04 -1.00e+00 -1.00e+00 -1.00e+00    1.0000 >    1.3826    0.0005    1.2622  738.3100 9819.1170   -1.3960    2.8613 259.35 259.3  78.8 10     0.0000    0.0277
M09          ?    BHZ  e P      c 20230719 0303    1.9109 GAU  3.91e-04 -1.00e+00  5.86e+01 -1.00e+00    1.0000 >    0.9820    0.0120    1.2558  737.8820 9820.9850   -1.2700    3.5059 292.46 292.5  78.8 10     0.0000    0.0196
M09          ?    BHE  e S      ? 20230719 0303    2.6399 GAU  3.01e-04 -1.00e+00  3.79e+02 -1.00e+00    1.0000 >    1.6941    0.0290    0.8558  737.8820 9820.9850   -1.2700    3.5059 292.46 292.5  78.8 10     0.0000    0.0339
M14          ?    BHZ  e P      c 20230719 0303    1.8726 GAU  1.35e-03 -1.00e+00 -1.00e+00 -1.00e+00    1.0000 >    0.9979   -0.0422    0.6204  737.5530 9820.0110   -1.3980    3.5877 275.84 275.8  81.0 10     0.0000    0.0200
M14          ?    BHE  e S      ? 20230719 0303    2.5006 GAU  5.78e-04 -1.00e+00  4.35e+02 -1.00e+00    1.0000 >    1.7215   -0.1377    0.0197  737.5530 9820.0110   -1.3980    3.5877 275.84 275.8  81.0 10     0.0000    0.0344
END_PHASE
END_NLLOC

