NLLOC "./loc/SEML.20230719.033051.grid0" "LOCATED" "Location completed."
PUBLIC_ID None
SIGNATURE "Arham Zakki Edelo - edelo.17034@mhs.its.ac.id   obs:./obs/2023_07.obs   NLLoc:v7.00.10(30Aug2020)   run:28Dec2023 20h06m08"
COMMENT "SEML"
GRID  2001 2001 1001  727 9811 -2  0.01 0.01 0.01 PROB_DENSITY
SEARCH OCTREE nInitial 4851 nEvaluated 20003 smallestNodeSide 0.029762/0.029762/0.028409 oct_tree_integral 1.710805e-01 scatter_volume 1.710805e-01
HYPOCENTER  x 735.586 y 9821.79 z -1.81534  OT 50.9716  ix -1 iy -1 iz -1 MAXIMUM_LIKELIHOOD
GEOGRAPHIC  OT 2023 07 19  03 31 50.971615  Lat 9821.788690 Long 735.586310 Depth -1.815341
QUALITY  Pmax 2.46872e+17 MFmin 29.5452 MFmax 38.1183 RMS 0.0122108 Nphs 8 Gap 334.847 Dist 2.43231 Mamp -9.90 0 Mdur -9.90 0
VPVSRATIO  VpVsRatio 1.00249  Npair 4  Diff 0.230129
STATISTICS  ExpectX 735.624514 Y 9821.532416 Z -0.789759  CovXX 0.0219165 XY -0.0253902 XZ 0.0593296 YY 0.111072 YZ -0.189529 ZZ 0.524165 EllAz1  82.714 Dip1  -3.90831 Len1  0.226895 Az2  354.279 Dip2  21.7841 Len2  0.363791 Len3  1.461481e+00
STAT_GEOG  ExpectLat 9821.532416 Long 735.624514 Depth -0.789759
TRANSFORM  NONE
QML_OriginQuality  assocPhCt 8  usedPhCt 8  assocStaCt -1  usedStaCt 4  depthPhCt -1  stdErr 0.0122108  azGap 334.847  secAzGap 334.847  gtLevel -  minDist 2.43231 maxDist 3.81529 medDist 2.90547
QML_OriginUncertainty  horUnc -1  minHorUnc 0.186932  maxHorUnc 0.520508  azMaxHorUnc 165.168
QML_ConfidenceEllipsoid  semiMajorAxisLength 1.46148  semiMinorAxisLength 0.226895  semiIntermediateAxisLength 0.363791  majorAxisPlunge 67.8324  majorAxisAzimuth 163.061  majorAxisRotation 165.599
FOCALMECH  Hyp  9821.788690 735.586310 -1.815341 Mech  0 0 0 mf  0 nObs -1
PHASE ID Ins Cmp On Pha  FM Date     HrMn   Sec     Err  ErrMag    Coda      Amp       Per       PriorWt  >   TTpred    Res       Weight    StaLoc(X  Y         Z)        SDist    SAzim  RAz  RDip RQual    Tcorr       TTerr
M09          ?    BHZ  e P      c 20230719 0330   51.8747 GAU  1.57e-03 -1.00e+00  1.25e+02 -1.00e+00    1.0000 >    0.6853  -59.7822    0.0000  737.8820 9820.9850   -1.2700    2.4323 109.29 109.3  77.3 10     0.0000    0.0137
M09          ?    BHN  e S      ? 20230719 0330   52.5623 GAU  4.18e-04 -1.00e+00  4.96e+02 -1.00e+00    1.0000 >    1.1822  -59.5915    0.0000  737.8820 9820.9850   -1.2700    2.4323 109.29 109.3  77.3 10     0.0000    0.0236
M14          ?    BHZ  e P      c 20230719 0331   51.7006 GAU  4.61e-03 -1.00e+00 -1.00e+00 -1.00e+00    1.0000 >    0.7376   -0.0087    2.1374  737.5530 9820.0110   -1.3980    2.6510 132.11 132.1  80.9 10     0.0000    0.0148
M14          ?    BHN  e S      ? 20230719 0331   52.2581 GAU  8.98e-04 -1.00e+00  3.51e+02 -1.00e+00    1.0000 >    1.2725    0.0140    1.9810  737.5530 9820.0110   -1.3980    2.6510 132.11 132.1  80.9 10     0.0000    0.0254
M11          ?    BHZ  e P      c 20230719 0331   51.8634 GAU  8.62e-04 -1.00e+00 -1.00e+00 -1.00e+00    1.0000 >    0.8795    0.0123    2.1113  738.4670 9820.4900   -1.3120    3.1599 114.27 114.3  80.8 10     0.0000    0.0176
M11          ?    BHE  e S      ? 20230719 0331   52.4728 GAU  2.51e-04 -1.00e+00 -1.00e+00 -1.00e+00    1.0000 >    1.5172   -0.0160    1.7704  738.4670 9820.4900   -1.3120    3.1599 114.27 114.3  80.8 10     0.0000    0.0303
M06          ?    BHZ  i P      c 20230719 0330   51.6492 GAU  2.95e-03 -1.00e+00 -1.00e+00 -1.00e+00    1.0000 >    1.0548  -60.3772    0.0000  738.3100 9819.1170   -1.3960    3.8153 134.45 134.4  83.6 10     0.0000    0.0211
M06          ?    BHN  e S      ? 20230719 0330   52.1066 GAU  2.20e-04 -1.00e+00 -1.00e+00 -1.00e+00    1.0000 >    1.8196  -60.6846    0.0000  738.3100 9819.1170   -1.3960    3.8153 134.45 134.4  83.6 10     0.0000    0.0364
END_PHASE
END_NLLOC

