NLLOC "./loc/SEML.20230720.011625.grid0" "LOCATED" "Location completed."
PUBLIC_ID None
SIGNATURE "Arham Zakki Edelo - edelo.17034@mhs.its.ac.id   obs:./obs/2023_07.obs   NLLoc:v7.00.10(30Aug2020)   run:28Dec2023 20h06m11"
COMMENT "SEML"
GRID  2001 2001 1001  727 9811 -2  0.01 0.01 0.01 PROB_DENSITY
SEARCH OCTREE nInitial 4851 nEvaluated 20011 smallestNodeSide 0.014881/0.014881/0.014205 oct_tree_integral 1.971450e-02 scatter_volume 1.971450e-02
HYPOCENTER  x 737.402 y 9818.37 z 0.116477  OT 25.0854  ix -1 iy -1 iz -1 MAXIMUM_LIKELIHOOD
GEOGRAPHIC  OT 2023 07 20  01 16 25.085450  Lat 9818.366071 Long 737.401786 Depth 0.116477
QUALITY  Pmax 1.666e+36 MFmin 48.897 MFmax 66.1915 RMS 0.0235197 Nphs 12 Gap 295.629 Dist 0.923797 Mamp -9.90 0 Mdur -9.90 0
VPVSRATIO  VpVsRatio 1.6686  Npair 6  Diff 0.524374
STATISTICS  ExpectX 737.500825 Y 9818.394320 Z 0.061306  CovXX 0.0495735 XY -0.0096554 XZ -0.0306168 YY 0.0166427 YZ 0.00389058 ZZ 0.0329044 EllAz1  57.9233 Dip1  44.2158 Len1  0.171839 Az2  173.315 Dip2  23.7829 Len2  0.238013 Len3  5.135340e-01
STAT_GEOG  ExpectLat 9818.394320 Long 737.500825 Depth 0.061306
TRANSFORM  NONE
QML_OriginQuality  assocPhCt 12  usedPhCt 12  assocStaCt -1  usedStaCt 6  depthPhCt -1  stdErr 0.0235197  azGap 295.629  secAzGap 295.629  gtLevel -  minDist 0.923797 maxDist 4.43712 medDist 2.01397
QML_OriginUncertainty  horUnc -1  minHorUnc 0.179575  maxHorUnc 0.346482  azMaxHorUnc 105.194
QML_ConfidenceEllipsoid  semiMajorAxisLength 0.513534  semiMinorAxisLength 0.171839  semiIntermediateAxisLength 0.238013  majorAxisPlunge -36.3346  majorAxisAzimuth 102.228  majorAxisRotation 99.7741
FOCALMECH  Hyp  9818.366071 737.401786 0.116477 Mech  0 0 0 mf  0 nObs -1
PHASE ID Ins Cmp On Pha  FM Date     HrMn   Sec     Err  ErrMag    Coda      Amp       Per       PriorWt  >   TTpred    Res       Weight    StaLoc(X  Y         Z)        SDist    SAzim  RAz  RDip RQual    Tcorr       TTerr
M04          ?    BHZ  i P      c 20230720 0116   25.6038 GAU  1.40e-03 -1.00e+00 -1.00e+00 -1.00e+00    1.0000 >    0.5163    0.0020    1.4969  737.1400 9819.2520   -1.5710    0.9238 343.54 343.5 150.2 10     0.0000    0.0103
M04          ?    BHN  e S      ? 20230720 0116   25.9800 GAU  6.27e-04 -1.00e+00  6.96e+02 -1.00e+00    1.0000 >    0.9019   -0.0074    1.3396  737.1400 9819.2520   -1.5710    0.9238 343.54 343.5 149.7 10     0.0000    0.0180
M02          ?    BHZ  e P      c 20230720 0116   25.6360 GAU  9.28e-04 -1.00e+00 -1.00e+00 -1.00e+00    1.0000 >    0.5576   -0.0071    1.4088  736.5970 9819.4060   -1.4960    1.3150 322.26 322.3 139.2 10     0.0000    0.0112
M02          ?    BHE  e S      ? 20230720 0116   26.0798 GAU  7.12e-04 -1.00e+00  1.38e+03 -1.00e+00    1.0000 >    0.9747    0.0197    1.0490  736.5970 9819.4060   -1.4960    1.3150 322.26 322.3 138.4 10     0.0000    0.0195
M14          ?    BHZ  e P      c 20230720 0116   25.6253 GAU  3.39e-03 -1.00e+00 -1.00e+00 -1.00e+00    1.0000 >    0.5994   -0.0596    0.4642  737.5530 9820.0110   -1.3980    1.6519   5.25   5.3 130.3 10     0.0000    0.0120
M14          ?    BHN  e S      ? 20230720 0116   26.0419 GAU  1.24e-03 -1.00e+00  3.16e+02 -1.00e+00    1.0000 >    1.0488   -0.0923    0.2017  737.5530 9820.0110   -1.3980    1.6519   5.25   5.3 129.0 10     0.0000    0.0210
M11          ?    BHZ  i P      c 20230720 0116   25.8319 GAU  1.89e-03 -1.00e+00 -1.00e+00 -1.00e+00    1.0000 >    0.7403    0.0062    1.3935  738.4670 9820.4900   -1.3120    2.3761  26.64  26.6 117.9 10     0.0000    0.0148
M11          ?    BHN  e S      ? 20230720 0116   26.3997 GAU  3.16e-03 -1.00e+00 -1.00e+00 -1.00e+00    1.0000 >    1.2967    0.0175    1.0435  738.4670 9820.4900   -1.3120    2.3761  26.64  26.6 115.7 10     0.0000    0.0259
M09          ?    BHZ  i P      c 20230720 0116   25.8501 GAU  1.27e-03 -1.00e+00  1.31e+02 -1.00e+00    1.0000 >    0.8007   -0.0361    0.7603  737.8820 9820.9850   -1.2700    2.6626  10.39  10.4 114.1 10     0.0000    0.0160
M09          ?    BHN  e S      ? 20230720 0116   26.4404 GAU  6.06e-04 -1.00e+00  4.68e+02 -1.00e+00    1.0000 >    1.4034   -0.0484    0.7573  737.8820 9820.9850   -1.2700    2.6626  10.39  10.4 111.4 10     0.0000    0.0281
M07          ?    BHZ  e P      c 20230720 0116   26.3212 GAU  1.19e-03 -1.00e+00  6.50e+02 -1.00e+00    1.0000 >    1.2203    0.0155    1.0971  737.4430 9822.8030   -1.1120    4.4371   0.53   0.5 101.4 10     0.0000    0.0244
M07          ?    BHN  e S      ? 20230720 0116   27.2218 GAU  1.18e-04 -1.00e+00 -1.00e+00 -1.00e+00    1.0000 >    2.1425   -0.0062    0.9882  737.4430 9822.8030   -1.1120    4.4371   0.53   0.5  95.4  9     0.0000    0.0428
END_PHASE
END_NLLOC

