NLLOC "./loc/SEML.20230719.030556.grid0" "LOCATED" "Location completed."
PUBLIC_ID None
SIGNATURE "Arham Zakki Edelo - edelo.17034@mhs.its.ac.id   obs:./obs/2023_07.obs   NLLoc:v7.00.10(30Aug2020)   run:28Dec2023 20h05m55"
COMMENT "SEML"
GRID  2001 2001 1001  727 9811 -2  0.01 0.01 0.01 PROB_DENSITY
SEARCH OCTREE nInitial 4851 nEvaluated 20011 smallestNodeSide 0.007440/0.007440/0.007102 oct_tree_integral 8.050728e-03 scatter_volume 8.038501e-03
HYPOCENTER  x 738.023 y 9818.97 z 1.43395  OT 55.3983  ix -1 iy -1 iz -1 MAXIMUM_LIKELIHOOD
GEOGRAPHIC  OT 2023 07 19  03 05 55.398274  Lat 9818.965030 Long 738.023065 Depth 1.433949
QUALITY  Pmax 6.50217e+64 MFmin 73.7998 MFmax 93.8907 RMS 0.0397997 Nphs 20 Gap 225.09 Dist 0.324694 Mamp -9.90 0 Mdur -9.90 0
VPVSRATIO  VpVsRatio 1.80921  Npair 10  Diff 0.465805
STATISTICS  ExpectX 737.696627 Y 9818.916586 Z 1.328763  CovXX 0.564157 XY 0.0340202 XZ 0.228435 YY 0.0112685 YZ 0.00798699 ZZ 0.105155 EllAz1  158.906 Dip1  -36.6042 Len1  0.126093 Az2  200.994 Dip2  44.9745 Len2  0.235989 Len3  1.526715e+00
STAT_GEOG  ExpectLat 9818.916586 Long 737.696627 Depth 1.328763
TRANSFORM  NONE
QML_OriginQuality  assocPhCt 20  usedPhCt 20  assocStaCt -1  usedStaCt 10  depthPhCt -1  stdErr 0.0397997  azGap 225.09  secAzGap 225.09  gtLevel -  minDist 0.324694 maxDist 4.56764 medDist 1.80658
QML_OriginUncertainty  horUnc -1  minHorUnc 0.145331  maxHorUnc 1.14121  azMaxHorUnc 86.4921
QML_ConfidenceEllipsoid  semiMajorAxisLength 1.52672  semiMinorAxisLength 0.126093  semiIntermediateAxisLength 0.235989  majorAxisPlunge 22.3737  majorAxisAzimuth 86.7096  majorAxisRotation 310.092
FOCALMECH  Hyp  9818.965030 738.023065 1.433949 Mech  0 0 0 mf  0 nObs -1
PHASE ID Ins Cmp On Pha  FM Date     HrMn   Sec     Err  ErrMag    Coda      Amp       Per       PriorWt  >   TTpred    Res       Weight    StaLoc(X  Y         Z)        SDist    SAzim  RAz  RDip RQual    Tcorr       TTerr
M06          ?    BHZ  i P      c 20230719 0305   56.1326 GAU  5.20e-04 -1.00e+00 -1.00e+00 -1.00e+00    1.0000 >    0.7388   -0.0045    1.8321  738.3100 9819.1170   -1.3960    0.3247  62.09  62.1 172.6 10     0.0000    0.0148
M06          ?    BHE  i S      ? 20230719 0305   56.6384 GAU  1.34e-03 -1.00e+00 -1.00e+00 -1.00e+00    1.0000 >    1.2594   -0.0193    1.3429  738.3100 9819.1170   -1.3960    0.3247  62.09  62.1 172.4 10     0.0000    0.0252
M04          ?    BHZ  e P      c 20230719 0305   56.1033 GAU  9.23e-04 -1.00e+00 -1.00e+00 -1.00e+00    1.0000 >    0.8186   -0.1136    0.1897  737.1400 9819.2520   -1.5710    0.9285 288.00 288.0 161.0 10     0.0000    0.0164
M04          ?    BHE  e S      ? 20230719 0305   56.5658 GAU  5.57e-04 -1.00e+00  3.05e+02 -1.00e+00    1.0000 >    1.3963   -0.2288    0.1730  737.1400 9819.2520   -1.5710    0.9285 288.00 288.0 160.3 10     0.0000    0.0279
M14          ?    BHZ  e P      c 20230719 0305   56.1937 GAU  2.81e-03 -1.00e+00 -1.00e+00 -1.00e+00    1.0000 >    0.7926    0.0029    1.8143  737.5530 9820.0110   -1.3980    1.1467 335.80 335.8 155.7 10     0.0000    0.0159
M14          ?    BHN  e S      ? 20230719 0305   56.7609 GAU  5.18e-04 -1.00e+00  2.79e+02 -1.00e+00    1.0000 >    1.3507    0.0119    1.4636  737.5530 9820.0110   -1.3980    1.1467 335.80 335.8 154.8 10     0.0000    0.0270
M02          ?    BHZ  e P      c 20230719 0305   56.2557 GAU  2.02e-03 -1.00e+00 -1.00e+00 -1.00e+00    1.0000 >    0.8545    0.0029    1.7865  736.5970 9819.4060   -1.4960    1.4927 287.18 287.2 150.1 10     0.0000    0.0171
M02          ?    BHN  e S      ? 20230719 0305   56.8598 GAU  3.67e-03 -1.00e+00  1.38e+03 -1.00e+00    1.0000 >    1.4566    0.0049    1.4660  736.5970 9819.4060   -1.4960    1.4927 287.18 287.2 148.9 10     0.0000    0.0291
M11          ?    BHZ  i P      c 20230719 0305   56.2323 GAU  2.25e-03 -1.00e+00 -1.00e+00 -1.00e+00    1.0000 >    0.8212    0.0129    1.6264  738.4670 9820.4900   -1.3120    1.5883  16.23  16.2 146.8 10     0.0000    0.0164
M11          ?    BHN  i S      ? 20230719 0305   56.7954 GAU  5.03e-04 -1.00e+00 -1.00e+00 -1.00e+00    1.0000 >    1.3985   -0.0013    1.5044  738.4670 9820.4900   -1.3120    1.5883  16.23  16.2 145.6 10     0.0000    0.0280
M09          ?    BHZ  i P      c 20230719 0305   56.3373 GAU  4.10e-03 -1.00e+00  9.87e+01 -1.00e+00    1.0000 >    0.8732    0.0659    0.3293  737.8820 9820.9850   -1.2700    2.0249 356.01 356.0 139.2 10     0.0000    0.0175
M09          ?    BHE  e S      ? 20230719 0305   56.9771 GAU  1.52e-04 -1.00e+00  3.91e+02 -1.00e+00    1.0000 >    1.4862    0.0926    0.2173  737.8820 9820.9850   -1.2700    2.0249 356.01 356.0 137.6 10     0.0000    0.0297
M13          ?    BHZ  e P      c 20230719 0305   56.3642 GAU  2.62e-04 -1.00e+00 -1.00e+00 -1.00e+00    1.0000 >    0.9791   -0.0131    1.5727  737.1780 9821.5410   -1.2220    2.7110 341.84 341.8 128.9 10     0.0000    0.0196
M13          ?    BHN  e S      ? 20230719 0305   57.0547 GAU  2.57e-04 -1.00e+00 -1.00e+00 -1.00e+00    1.0000 >    1.6646   -0.0082    1.3486  737.1780 9821.5410   -1.2220    2.7110 341.84 341.8 126.9 10     0.0000    0.0333
M10          ?    BHZ  i P      c 20230719 0305   56.2101 GAU  1.92e-03 -1.00e+00 -1.00e+00 -1.00e+00    1.0000 >    0.9982   -0.1863    0.2000  736.5490 9821.3650   -1.2200    2.8165 328.44 328.4 127.5 10     0.0000    0.0200
M10          ?    BHN  e S      ? 20230719 0305   56.7428 GAU  9.32e-04 -1.00e+00 -1.00e+00 -1.00e+00    1.0000 >    1.6968   -0.3522    0.0043  736.5490 9821.3650   -1.2200    2.8165 328.44 328.4 125.4 10     0.0000    0.0339
M05          ?    BHZ  e P      d 20230719 0305   56.4091 GAU  4.25e-03 -1.00e+00  4.70e+02 -1.00e+00    1.0000 >    1.1358   -0.1250    0.2202  736.2660 9822.0830   -1.1500    3.5790 330.60 330.6 118.3 10     0.0000    0.0227
M05          ?    BHN  e S      ? 20230719 0305   57.1167 GAU  2.15e-04 -1.00e+00  2.65e+02 -1.00e+00    1.0000 >    1.9269   -0.2084    0.2344  736.2660 9822.0830   -1.1500    3.5790 330.60 330.6 115.8 10     0.0000    0.0385
M12          ?    BHZ  e P      c 20230719 0305   56.7136 GAU  6.13e-04 -1.00e+00 -1.00e+00 -1.00e+00    1.0000 >    1.3225   -0.0072    1.5087  736.8520 9823.3800   -0.9890    4.5676 345.14 345.1 108.5 10     0.0000    0.0265
M12          ?    BHN  e S      ? 20230719 0305   57.6418 GAU  2.23e-03 -1.00e+00 -1.00e+00 -1.00e+00    1.0000 >    2.2346    0.0090    1.1657  736.8520 9823.3800   -0.9890    4.5676 345.14 345.1 106.2 10     0.0000    0.0447
END_PHASE
END_NLLOC

