NLLOC "./loc/SEML.20230705.001742.grid0" "LOCATED" "Location completed."
PUBLIC_ID None
SIGNATURE "Arham Zakki Edelo - edelo.17034@mhs.its.ac.id   obs:./obs/2023_07.obs   NLLoc:v7.00.10(30Aug2020)   run:28Dec2023 20h05m37"
COMMENT "SEML"
GRID  2001 2001 1001  727 9811 -2  0.01 0.01 0.01 PROB_DENSITY
SEARCH OCTREE nInitial 4851 nEvaluated 20019 smallestNodeSide 0.029762/0.029762/0.028409 oct_tree_integral 6.483957e-02 scatter_volume 6.483957e-02
HYPOCENTER  x 734.991 y 9819.97 z 1.62216  OT 41.6968  ix -1 iy -1 iz -1 MAXIMUM_LIKELIHOOD
GEOGRAPHIC  OT 2023 07 05  00 17 41.696790  Lat 9819.973214 Long 734.991071 Depth 1.622159
QUALITY  Pmax 1.08144e+37 MFmin 47.4777 MFmax 58.1592 RMS 0.0358009 Nphs 14 Gap 279.192 Dist 1.70316 Mamp -9.90 0 Mdur -9.90 0
VPVSRATIO  VpVsRatio 2.05109  Npair 7  Diff 0.536221
STATISTICS  ExpectX 734.557221 Y 9819.938102 Z 0.447809  CovXX 0.347352 XY 0.0521013 XZ 0.71469 YY 0.0318564 YZ 0.0467391 ZZ 2.01587 EllAz1  155.453 Dip1  -7.24438 Len1  0.226961 Az2  242.953 Dip2  18.9366 Len2  0.590085 Len3  2.838120e+00
STAT_GEOG  ExpectLat 9819.938102 Long 734.557221 Depth 0.447809
TRANSFORM  NONE
QML_OriginQuality  assocPhCt 14  usedPhCt 14  assocStaCt -1  usedStaCt 7  depthPhCt -1  stdErr 0.0358009  azGap 279.192  secAzGap 279.192  gtLevel -  minDist 1.70316 maxDist 3.88191 medDist 3.06287
QML_OriginUncertainty  horUnc -1  minHorUnc 0.232363  maxHorUnc 0.904536  azMaxHorUnc 80.8613
QML_ConfidenceEllipsoid  semiMajorAxisLength 2.83812  semiMinorAxisLength 0.226961  semiIntermediateAxisLength 0.590085  majorAxisPlunge 69.6252  majorAxisAzimuth 85.468  majorAxisRotation 27.1545
FOCALMECH  Hyp  9819.973214 734.991071 1.622159 Mech  0 0 0 mf  0 nObs -1
PHASE ID Ins Cmp On Pha  FM Date     HrMn   Sec     Err  ErrMag    Coda      Amp       Per       PriorWt  >   TTpred    Res       Weight    StaLoc(X  Y         Z)        SDist    SAzim  RAz  RDip RQual    Tcorr       TTerr
M02          ?    BHZ  e P      d 20230705 0017   42.3632 GAU  6.39e-04 -1.00e+00  7.14e+02 -1.00e+00    1.0000 >    0.9171   -0.2506    0.0608  736.5970 9819.4060   -1.4960    1.7032 109.45 109.5 147.7 10     0.0000    0.0183
M02          ?    BHN  e S      ? 20230705 0017   42.8076 GAU  1.42e-03 -1.00e+00 -1.00e+00 -1.00e+00    1.0000 >    1.5600   -0.4492    0.0051  736.5970 9819.4060   -1.4960    1.7032 109.45 109.5 146.6 10     0.0000    0.0312
M05          ?    BHZ  e P      d 20230705 0017   42.3301 GAU  4.51e-03 -1.00e+00  7.40e+02 -1.00e+00    1.0000 >    0.9490   -0.3157    0.0289  736.2660 9822.0830   -1.1500    2.4651  31.14  31.1 132.8 10     0.0000    0.0190
M05          ?    BHN  e S      ? 20230705 0017   42.7267 GAU  8.16e-04 -1.00e+00  3.02e+02 -1.00e+00    1.0000 >    1.6098   -0.5799    0.0046  736.2660 9822.0830   -1.1500    2.4651  31.14  31.1 131.2 10     0.0000    0.0322
M14          ?    BHZ  e P      c 20230705 0017   42.7201 GAU  1.00e-03 -1.00e+00  3.66e+01 -1.00e+00    1.0000 >    1.0192    0.0040    2.2055  737.5530 9820.0110   -1.3980    2.5622  89.16  89.2 134.1 10     0.0000    0.0204
M14          ?    BHN  e S      ? 20230705 0017   43.4427 GAU  1.57e-03 -1.00e+00  3.20e+02 -1.00e+00    1.0000 >    1.7315    0.0144    1.8386  737.5530 9820.0110   -1.3980    2.5622  89.16  89.2 132.3 10     0.0000    0.0346
M09          ?    BHZ  e P      d 20230705 0017   42.7766 GAU  9.70e-04 -1.00e+00  4.13e+02 -1.00e+00    1.0000 >    1.0801   -0.0003    2.1990  737.8820 9820.9850   -1.2700    3.0629  70.71  70.7 126.3 10     0.0000    0.0216
M09          ?    BHN  e S      ? 20230705 0017   43.3677 GAU  1.09e-03 -1.00e+00  5.10e+02 -1.00e+00    1.0000 >    1.8324   -0.1615    0.0600  737.8820 9820.9850   -1.2700    3.0629  70.71  70.7 124.4 10     0.0000    0.0366
M06          ?    BHZ  e P      c 20230705 0017   42.8533 GAU  4.29e-03 -1.00e+00 -1.00e+00 -1.00e+00    1.0000 >    1.1741   -0.0175    1.8984  738.3100 9819.1170   -1.3960    3.4276 104.47 104.5 123.5 10     0.0000    0.0235
M06          ?    BHE  e S      ? 20230705 0017   43.6992 GAU  9.06e-04 -1.00e+00 -1.00e+00 -1.00e+00    1.0000 >    1.9923    0.0101    1.7735  738.3100 9819.1170   -1.3960    3.4276 104.47 104.5 121.5 10     0.0000    0.0398
M11          ?    BHZ  e P      d 20230705 0017   42.9391 GAU  1.15e-03 -1.00e+00  3.20e+02 -1.00e+00    1.0000 >    1.1745    0.0678    0.5139  738.4670 9820.4900   -1.3120    3.5141  81.54  81.5 121.7 10     0.0000    0.0235
M11          ?    BHN  e S      ? 20230705 0017   43.8719 GAU  9.31e-04 -1.00e+00 -1.00e+00 -1.00e+00    1.0000 >    1.9915    0.1836    0.0178  738.4670 9820.4900   -1.3120    3.5141  81.54  81.5 119.6 10     0.0000    0.0398
M12          ?    BHZ  e P      d 20230705 0017   42.8895 GAU  4.33e-04 -1.00e+00  2.66e+02 -1.00e+00    1.0000 >    1.1893    0.0034    2.1479  736.8520 9823.3800   -0.9890    3.8819  28.65  28.6 114.5 10     0.0000    0.0238
M12          ?    BHN  e S      ? 20230705 0017   43.6659 GAU  1.40e-03 -1.00e+00 -1.00e+00 -1.00e+00    1.0000 >    2.0096   -0.0405    1.2460  736.8520 9823.3800   -0.9890    3.8819  28.65  28.6 112.3 10     0.0000    0.0402
END_PHASE
END_NLLOC

