NLLOC "./loc/SEML.20230719.030447.grid0" "LOCATED" "Location completed."
PUBLIC_ID None
SIGNATURE "Arham Zakki Edelo - edelo.17034@mhs.its.ac.id   obs:./obs/2023_07.obs   NLLoc:v7.00.10(30Aug2020)   run:28Dec2023 20h05m54"
COMMENT "SEML"
GRID  2001 2001 1001  727 9811 -2  0.01 0.01 0.01 PROB_DENSITY
SEARCH OCTREE nInitial 4851 nEvaluated 20019 smallestNodeSide 0.014881/0.014881/0.014205 oct_tree_integral 4.154413e-02 scatter_volume 4.146507e-02
HYPOCENTER  x 738.109 y 9818.95 z 1.16051  OT 47.3327  ix -1 iy -1 iz -1 MAXIMUM_LIKELIHOOD
GEOGRAPHIC  OT 2023 07 19  03 04 47.332670  Lat 9818.953869 Long 738.108631 Depth 1.160511
QUALITY  Pmax 2.83257e+35 MFmin 46.3756 MFmax 56.5874 RMS 0.0232243 Nphs 12 Gap 236.119 Dist 0.259155 Mamp -9.90 0 Mdur -9.90 0
VPVSRATIO  VpVsRatio 1.74081  Npair 6  Diff 0.344925
STATISTICS  ExpectX 738.033014 Y 9818.877221 Z 1.156465  CovXX 0.123581 XY 0.0297566 XZ 0.0329765 YY 0.0317577 YZ 0.0104599 ZZ 0.0289189 EllAz1  227.716 Dip1  71.3823 Len1  0.254367 Az2  341.101 Dip2  7.61593 Len2  0.285241 Len3  7.101864e-01
STAT_GEOG  ExpectLat 9818.877221 Long 738.033014 Depth 1.156465
TRANSFORM  NONE
QML_OriginQuality  assocPhCt 12  usedPhCt 12  assocStaCt -1  usedStaCt 6  depthPhCt -1  stdErr 0.0232243  azGap 236.119  secAzGap 236.119  gtLevel -  minDist 0.259155 maxDist 3.63136 medDist 1.38582
QML_OriginUncertainty  horUnc -1  minHorUnc 0.22979  maxHorUnc 0.551793  azMaxHorUnc 73.5258
QML_ConfidenceEllipsoid  semiMajorAxisLength 0.710186  semiMinorAxisLength 0.254367  semiIntermediateAxisLength 0.285241  majorAxisPlunge 16.8845  majorAxisAzimuth 73.4274  majorAxisRotation 83.3688
FOCALMECH  Hyp  9818.953869 738.108631 1.160511 Mech  0 0 0 mf  0 nObs -1
PHASE ID Ins Cmp On Pha  FM Date     HrMn   Sec     Err  ErrMag    Coda      Amp       Per       PriorWt  >   TTpred    Res       Weight    StaLoc(X  Y         Z)        SDist    SAzim  RAz  RDip RQual    Tcorr       TTerr
M06          ?    BHZ  i P      c 20230719 0304   48.0044 GAU  6.07e-04 -1.00e+00 -1.00e+00 -1.00e+00    1.0000 >    0.6731   -0.0013    1.6087  738.3100 9819.1170   -1.3960    0.2592  50.99  51.0 173.4 10     0.0000    0.0135
M06          ?    BHN  e S      ? 20230719 0304   48.5072 GAU  2.89e-04 -1.00e+00 -1.00e+00 -1.00e+00    1.0000 >    1.1514    0.0231    1.1751  738.3100 9819.1170   -1.3960    0.2592  50.99  51.0 173.1 10     0.0000    0.0230
M04          ?    BHZ  e P      c 20230719 0304   47.9651 GAU  1.42e-03 -1.00e+00 -1.00e+00 -1.00e+00    1.0000 >    0.7656   -0.1332    0.0636  737.1400 9819.2520   -1.5710    1.0135 287.11 287.1 157.2 10     0.0000    0.0153
M04          ?    BHN  e S      ? 20230719 0304   48.4634 GAU  1.46e-03 -1.00e+00  7.33e+02 -1.00e+00    1.0000 >    1.3103   -0.1795    0.0633  737.1400 9819.2520   -1.5710    1.0135 287.11 287.1 156.2 10     0.0000    0.0262
M14          ?    BHZ  i P      c 20230719 0304   48.0756 GAU  1.62e-03 -1.00e+00 -1.00e+00 -1.00e+00    1.0000 >    0.7397    0.0032    1.5910  737.5530 9820.0110   -1.3980    1.1943 332.27 332.3 152.0 10     0.0000    0.0148
M14          ?    BHN  e S      ? 20230719 0304   48.5771 GAU  2.02e-03 -1.00e+00  3.73e+02 -1.00e+00    1.0000 >    1.2651   -0.0207    1.0445  737.5530 9820.0110   -1.3980    1.1943 332.27 332.3 150.8 10     0.0000    0.0253
M11          ?    BHZ  e P      c 20230719 0304   48.0995 GAU  3.45e-03 -1.00e+00 -1.00e+00 -1.00e+00    1.0000 >    0.7668   -0.0000    1.5745  738.4670 9820.4900   -1.3120    1.5774  13.13  13.1 143.6 10     0.0000    0.0153
M11          ?    BHE  e S      ? 20230719 0304   48.6856 GAU  1.64e-04 -1.00e+00 -1.00e+00 -1.00e+00    1.0000 >    1.3108    0.0422    0.7751  738.4670 9820.4900   -1.3120    1.5774  13.13  13.1 142.0 10     0.0000    0.0262
M09          ?    BHZ  i P      c 20230719 0304   48.1502 GAU  1.42e-03 -1.00e+00  5.37e+01 -1.00e+00    1.0000 >    0.8291   -0.0117    1.3594  737.8820 9820.9850   -1.2700    2.0437 353.63 353.6 134.7 10     0.0000    0.0166
M09          ?    BHE  e S      ? 20230719 0304   48.7382 GAU  3.83e-04 -1.00e+00  3.58e+02 -1.00e+00    1.0000 >    1.4164   -0.0109    1.1880  737.8820 9820.9850   -1.2700    2.0437 353.63 353.6 132.6 10     0.0000    0.0283
M05          ?    BHZ  e P      c 20230719 0304   48.4734 GAU  4.51e-04 -1.00e+00 -1.00e+00 -1.00e+00    1.0000 >    1.1194    0.0213    1.2146  736.2660 9822.0830   -1.1500    3.6314 329.51 329.5 112.0 10     0.0000    0.0224
M05          ?    BHE  e S      ? 20230719 0304   49.3167 GAU  7.28e-04 -1.00e+00 -1.00e+00 -1.00e+00    1.0000 >    1.9054    0.0786    0.3421  736.2660 9822.0830   -1.1500    3.6314 329.51 329.5 108.4 10     0.0000    0.0381
END_PHASE
END_NLLOC

