NLLOC "./loc/SEML.20230715.093028.grid0" "LOCATED" "Location completed."
PUBLIC_ID None
SIGNATURE "Arham Zakki Edelo - edelo.17034@mhs.its.ac.id   obs:./obs/2023_07.obs   NLLoc:v7.00.10(30Aug2020)   run:28Dec2023 20h05m43"
COMMENT "SEML"
GRID  2001 2001 1001  727 9811 -2  0.01 0.01 0.01 PROB_DENSITY
SEARCH OCTREE nInitial 4851 nEvaluated 20011 smallestNodeSide 0.014881/0.014881/0.014205 oct_tree_integral 2.201196e-02 scatter_volume 2.179810e-02
HYPOCENTER  x 737.975 y 9818.24 z 0.762784  OT 27.4294  ix -1 iy -1 iz -1 MAXIMUM_LIKELIHOOD
GEOGRAPHIC  OT 2023 07 15  09 30 27.429351  Lat 9818.239583 Long 737.974702 Depth 0.762784
QUALITY  Pmax 1.715e+93 MFmin 94.5759 MFmax 114.093 RMS 0.0301724 Nphs 26 Gap 289.339 Dist 0.9393 Mamp -9.90 0 Mdur -9.90 0
VPVSRATIO  VpVsRatio 1.76798  Npair 13  Diff 0.640528
STATISTICS  ExpectX 737.938913 Y 9818.330033 Z 0.714414  CovXX 0.0160929 XY -0.0125512 XZ 0.00122341 YY 0.0317945 YZ -0.00825595 ZZ 0.0110714 EllAz1  227.617 Dip1  -43.9474 Len1  0.14836 Az2  256.367 Dip2  42.288 Len2  0.204988 Len3  3.795966e-01
STAT_GEOG  ExpectLat 9818.330033 Long 737.938913 Depth 0.714414
TRANSFORM  NONE
QML_OriginQuality  assocPhCt 26  usedPhCt 26  assocStaCt -1  usedStaCt 13  depthPhCt -1  stdErr 0.0301724  azGap 289.339  secAzGap 289.339  gtLevel -  minDist 0.9393 maxDist 5.26159 medDist 2.83435
QML_OriginUncertainty  horUnc -1  minHorUnc 0.144985  maxHorUnc 0.29853  azMaxHorUnc 151.013
QML_ConfidenceEllipsoid  semiMajorAxisLength 0.379597  semiMinorAxisLength 0.14836  semiIntermediateAxisLength 0.204988  majorAxisPlunge 14.8437  majorAxisAzimuth 152.418  majorAxisRotation 310.107
FOCALMECH  Hyp  9818.239583 737.974702 0.762784 Mech  0 0 0 mf  0 nObs -1
PHASE ID Ins Cmp On Pha  FM Date     HrMn   Sec     Err  ErrMag    Coda      Amp       Per       PriorWt  >   TTpred    Res       Weight    StaLoc(X  Y         Z)        SDist    SAzim  RAz  RDip RQual    Tcorr       TTerr
M06          ?    BHZ  i P      c 20230715 0930   28.0955 GAU  2.75e-04 -1.00e+00  8.78e+01 -1.00e+00    1.0000 >    0.6231    0.0431    0.8817  738.3100 9819.1170   -1.3960    0.9393  20.91  20.9 155.7 10     0.0000    0.0125
M06          ?    BHN  e S      ? 20230715 0930   28.5046 GAU  1.55e-03 -1.00e+00 -1.00e+00 -1.00e+00    1.0000 >    1.0758   -0.0006    1.4799  738.3100 9819.1170   -1.3960    0.9393  20.91  20.9 153.7 10     0.0000    0.0215
M04          ?    BHZ  e P      c 20230715 0930   28.1606 GAU  2.05e-03 -1.00e+00 -1.00e+00 -1.00e+00    1.0000 >    0.7104    0.0208    1.3723  737.1400 9819.2520   -1.5710    1.3121 320.50 320.5 149.6 10     0.0000    0.0142
M04          ?    BHN  i S      ? 20230715 0930   28.6436 GAU  2.96e-03 -1.00e+00  6.22e+02 -1.00e+00    1.0000 >    1.2265   -0.0122    1.3135  737.1400 9819.2520   -1.5710    1.3121 320.50 320.5 147.0 10     0.0000    0.0245
M02          ?    BHZ  e P      c 20230715 0930   28.1826 GAU  5.10e-03 -1.00e+00 -1.00e+00 -1.00e+00    1.0000 >    0.7660   -0.0128    1.4129  736.5970 9819.4060   -1.4960    1.8052 310.25 310.3 139.9 10     0.0000    0.0153
M02          ?    BHN  e S      ? 20230715 0930   28.7715 GAU  2.24e-03 -1.00e+00  4.88e+03 -1.00e+00    1.0000 >    1.3222    0.0200    1.3262  736.5970 9819.4060   -1.4960    1.8052 310.25 310.3 136.2 10     0.0000    0.0264
M14          ?    BHZ  i P      c 20230715 0930   28.1761 GAU  2.59e-03 -1.00e+00 -1.00e+00 -1.00e+00    1.0000 >    0.7473   -0.0006    1.5868  737.5530 9820.0110   -1.3980    1.8209 346.61 346.6 138.4 10     0.0000    0.0149
M14          ?    BHE  i S      ? 20230715 0930   28.7590 GAU  5.24e-04 -1.00e+00  5.28e+02 -1.00e+00    1.0000 >    1.2899    0.0397    1.0534  737.5530 9820.0110   -1.3980    1.8209 346.61 346.6 134.5 10     0.0000    0.0258
M11          ?    BHZ  i P      c 20230715 0930   28.2508 GAU  7.76e-04 -1.00e+00  5.62e+01 -1.00e+00    1.0000 >    0.8184    0.0030    1.5746  738.4670 9820.4900   -1.3120    2.3036  12.34  12.3 129.9 10     0.0000    0.0164
M11          ?    BHN  i S      ? 20230715 0930   28.8488 GAU  1.33e-03 -1.00e+00  9.69e+00 -1.00e+00    1.0000 >    1.4119    0.0075    1.3732  738.4670 9820.4900   -1.3120    2.3036  12.34  12.3 124.7 10     0.0000    0.0282
M09          ?    BHZ  i P      c 20230715 0930   28.3338 GAU  8.80e-04 -1.00e+00  2.76e+02 -1.00e+00    1.0000 >    0.9013    0.0031    1.5493  737.8820 9820.9850   -1.2700    2.7470 358.07 358.1 124.1 10     0.0000    0.0180
M09          ?    BHE  e S      ? 20230715 0930   28.9205 GAU  1.20e-03 -1.00e+00  2.72e+02 -1.00e+00    1.0000 >    1.5542   -0.0630    0.4541  737.8820 9820.9850   -1.2700    2.7470 358.07 358.1 117.6 10     0.0000    0.0311
M03          ?    BHZ  i P      c 20230715 0930   28.3386 GAU  2.32e-03 -1.00e+00 -1.00e+00 -1.00e+00    1.0000 >    0.9312   -0.0219    1.1749  736.8800 9820.8540   -1.3350    2.8344 337.28 337.3 124.0 10     0.0000    0.0186
M03          ?    BHN  e S      ? 20230715 0930   28.9432 GAU  2.58e-03 -1.00e+00  1.20e+02 -1.00e+00    1.0000 >    1.6056   -0.0918    0.2173  736.8800 9820.8540   -1.3350    2.8344 337.28 337.3 117.5 10     0.0000    0.0321
M13          ?    BHZ  i P      c 20230715 0930   28.4613 GAU  1.24e-03 -1.00e+00 -1.00e+00 -1.00e+00    1.0000 >    1.0363   -0.0044    1.4693  737.1780 9821.5410   -1.2220    3.3962 346.43 346.4 117.5 10     0.0000    0.0207
M13          ?    BHE  e S      ? 20230715 0930   29.0954 GAU  2.58e-03 -1.00e+00 -1.00e+00 -1.00e+00    1.0000 >    1.7846   -0.1185    0.1230  737.1780 9821.5410   -1.2220    3.3962 346.43 346.4 109.3 10     0.0000    0.0357
M10          ?    BHZ  e P      c 20230715 0930   28.5371 GAU  1.68e-03 -1.00e+00 -1.00e+00 -1.00e+00    1.0000 >    1.0449    0.0628    0.6403  736.5490 9821.3650   -1.2200    3.4352 335.48 335.5 117.1 10     0.0000    0.0209
M10          ?    BHE  e S      ? 20230715 0930   29.2390 GAU  1.40e-03 -1.00e+00  1.53e+01 -1.00e+00    1.0000 >    1.7992    0.0104    1.2468  736.5490 9821.3650   -1.2200    3.4352 335.48 335.5 108.9 10     0.0000    0.0360
M08          ?    BHZ  e P      d 20230715 0930   28.5644 GAU  2.60e-04 -1.00e+00  4.18e+02 -1.00e+00    1.0000 >    1.1496   -0.0145    1.2999  738.2480 9822.1600   -1.1510    3.9299   3.99   4.0 112.9 10     0.0000    0.0230
M08          ?    BHN  e S      ? 20230715 0930   29.4501 GAU  1.86e-03 -1.00e+00  4.00e+02 -1.00e+00    1.0000 >    1.9759    0.0449    0.9668  738.2480 9822.1600   -1.1510    3.9299   3.99   4.0 103.6 10     0.0000    0.0395
M05          ?    BHZ  i P      d 20230715 0930   28.7663 GAU  1.86e-03 -1.00e+00  1.18e+02 -1.00e+00    1.0000 >    1.2149    0.1220    0.2078  736.2660 9822.0830   -1.1500    4.2061 336.03 336.0 111.2 10     0.0000    0.0243
M05          ?    BHN  e S      ? 20230715 0930   29.6503 GAU  3.22e-03 -1.00e+00  3.10e+02 -1.00e+00    1.0000 >    2.0862    0.1348    0.2323  736.2660 9822.0830   -1.1500    4.2061 336.03 336.0 101.7 10     0.0000    0.0417
M01          ?    BHZ  e P      c 20230715 0930   28.7983 GAU  1.34e-03 -1.00e+00 -1.00e+00 -1.00e+00    1.0000 >    1.2941    0.0748    0.5337  736.4090 9822.5140   -1.1200    4.5521 339.88 339.9 109.0 10     0.0000    0.0259
M01          ?    BHN  e S      ? 20230715 0930   29.8147 GAU  1.86e-03 -1.00e+00  1.75e+03 -1.00e+00    1.0000 >    2.2182    0.1672    0.1296  736.4090 9822.5140   -1.1200    4.5521 339.88 339.9  99.5 10     0.0000    0.0444
M12          ?    BHZ  i P      d 20230715 0930   28.8801 GAU  1.68e-03 -1.00e+00 -1.00e+00 -1.00e+00    1.0000 >    1.4517   -0.0009    1.3457  736.8520 9823.3800   -0.9890    5.2616 347.68 347.7 104.9 10     0.0000    0.0290
M12          ?    BHE  e S      ? 20230715 0930   29.9297 GAU  2.94e-03 -1.00e+00  2.71e+02 -1.00e+00    1.0000 >    2.4748    0.0255    1.0348  736.8520 9823.3800   -0.9890    5.2616 347.68 347.7  96.4 10     0.0000    0.0495
END_PHASE
END_NLLOC

