NLLOC "./loc/SEML.20230719.032208.grid0" "LOCATED" "Location completed."
PUBLIC_ID None
SIGNATURE "Arham Zakki Edelo - edelo.17034@mhs.its.ac.id   obs:./obs/2023_07.obs   NLLoc:v7.00.10(30Aug2020)   run:28Dec2023 20h06m01"
COMMENT "SEML"
GRID  2001 2001 1001  727 9811 -2  0.01 0.01 0.01 PROB_DENSITY
SEARCH OCTREE nInitial 4851 nEvaluated 20019 smallestNodeSide 0.014881/0.014881/0.014205 oct_tree_integral 4.952280e-02 scatter_volume 4.939145e-02
HYPOCENTER  x 739.359 y 9819.13 z 0.848011  OT 8.32047  ix -1 iy -1 iz -1 MAXIMUM_LIKELIHOOD
GEOGRAPHIC  OT 2023 07 19  03 22 8.320467  Lat 9819.132440 Long 739.358631 Depth 0.848011
QUALITY  Pmax 2.84053e+50 MFmin 59.5677 MFmax 78.027 RMS 0.0171412 Nphs 16 Gap 302.453 Dist 1.04874 Mamp -9.90 0 Mdur -9.90 0
VPVSRATIO  VpVsRatio 1.71871  Npair 8  Diff 0.468195
STATISTICS  ExpectX 739.034052 Y 9818.751788 Z 0.641696  CovXX 0.130782 XY 0.121081 XZ 0.0952502 YY 0.137083 YZ 0.095198 ZZ 0.126753 EllAz1  132.802 Dip1  -2.61139 Len1  0.211974 Az2  218.68 Dip2  57.6044 Len2  0.384254 Len3  1.095637e+00
STAT_GEOG  ExpectLat 9818.751788 Long 739.034052 Depth 0.641696
TRANSFORM  NONE
QML_OriginQuality  assocPhCt 16  usedPhCt 16  assocStaCt -1  usedStaCt 8  depthPhCt -1  stdErr 0.0171412  azGap 302.453  secAzGap 302.453  gtLevel -  minDist 1.04874 maxDist 4.27436 medDist 2.29545
QML_OriginUncertainty  horUnc -1  minHorUnc 0.171651  maxHorUnc 0.765915  azMaxHorUnc 44.2548
QML_ConfidenceEllipsoid  semiMajorAxisLength 1.09564  semiMinorAxisLength 0.211974  semiIntermediateAxisLength 0.384254  majorAxisPlunge 32.264  majorAxisAzimuth 44.4524  majorAxisRotation 352.849
FOCALMECH  Hyp  9819.132440 739.358631 0.848011 Mech  0 0 0 mf  0 nObs -1
PHASE ID Ins Cmp On Pha  FM Date     HrMn   Sec     Err  ErrMag    Coda      Amp       Per       PriorWt  >   TTpred    Res       Weight    StaLoc(X  Y         Z)        SDist    SAzim  RAz  RDip RQual    Tcorr       TTerr
M06          ?    BHZ  i P      c 20230719 0322    8.9816 GAU  1.20e-03 -1.00e+00 -1.00e+00 -1.00e+00    1.0000 >    0.6547    0.0064    1.7034  738.3100 9819.1170   -1.3960    1.0487 269.16 269.2 154.1 10     0.0000    0.0131
M06          ?    BHN  e S      ? 20230719 0322    9.4395 GAU  3.61e-04 -1.00e+00 -1.00e+00 -1.00e+00    1.0000 >    1.1274   -0.0083    1.5226  738.3100 9819.1170   -1.3960    1.0487 269.16 269.2 152.1 10     0.0000    0.0225
M11          ?    BHZ  e P      c 20230719 0322    9.0347 GAU  1.19e-03 -1.00e+00 -1.00e+00 -1.00e+00    1.0000 >    0.7129    0.0014    1.7597  738.4670 9820.4900   -1.3120    1.6242 326.70 326.7 141.9 10     0.0000    0.0143
M11          ?    BHN  e S      ? 20230719 0322    9.6413 GAU  3.01e-04 -1.00e+00 -1.00e+00 -1.00e+00    1.0000 >    1.2271    0.0937    0.1207  738.4670 9820.4900   -1.3120    1.6242 326.70 326.7 138.7 10     0.0000    0.0245
M14          ?    BHZ  e P      c 20230719 0322    9.0432 GAU  1.86e-03 -1.00e+00 -1.00e+00 -1.00e+00    1.0000 >    0.7957   -0.0730    0.1787  737.5530 9820.0110   -1.3980    2.0080 295.95 295.9 136.7 10     0.0000    0.0159
M14          ?    BHE  e S      ? 20230719 0322    9.5698 GAU  5.63e-04 -1.00e+00  4.42e+02 -1.00e+00    1.0000 >    1.3695   -0.1201    0.0700  737.5530 9820.0110   -1.3980    2.0080 295.95 295.9 132.8 10     0.0000    0.0274
M04          ?    BHZ  e P      c 20230719 0322    8.9373 GAU  6.80e-04 -1.00e+00 -1.00e+00 -1.00e+00    1.0000 >    0.8699   -0.2530    0.0000  737.1400 9819.2520   -1.5710    2.2219 273.08 273.1 135.7 10     0.0000    0.0174
M04          ?    BHN  e S      ? 20230719 0322    9.4056 GAU  3.44e-04 -1.00e+00  7.29e+02 -1.00e+00    1.0000 >    1.4974   -0.4122    0.0000  737.1400 9819.2520   -1.5710    2.2219 273.08 273.1 131.6 10     0.0000    0.0299
M09          ?    BHZ  i P      c 20230719 0322    9.1536 GAU  3.11e-03 -1.00e+00  1.43e+02 -1.00e+00    1.0000 >    0.8371   -0.0040    1.6963  737.8820 9820.9850   -1.2700    2.3691 321.44 321.4 129.9 10     0.0000    0.0167
M09          ?    BHE  e S      ? 20230719 0322    9.7621 GAU  3.51e-04 -1.00e+00  3.58e+02 -1.00e+00    1.0000 >    1.4399    0.0018    1.3907  737.8820 9820.9850   -1.2700    2.3691 321.44 321.4 125.0 10     0.0000    0.0288
M13          ?    BHZ  e P      c 20230719 0322    9.3166 GAU  9.73e-04 -1.00e+00 -1.00e+00 -1.00e+00    1.0000 >    1.0138   -0.0176    1.4063  737.1780 9821.5410   -1.2220    3.2490 317.84 317.8 120.0 10     0.0000    0.0203
M13          ?    BHN  e S      ? 20230719 0322   10.0620 GAU  2.96e-04 -1.00e+00 -1.00e+00 -1.00e+00    1.0000 >    1.7411    0.0005    1.2688  737.1780 9821.5410   -1.2220    3.2490 317.84 317.8 113.1 10     0.0000    0.0348
M10          ?    BHZ  e P      d 20230719 0322    9.3971 GAU  4.42e-03 -1.00e+00  1.22e+03 -1.00e+00    1.0000 >    1.0898   -0.0131    1.4674  736.5490 9821.3650   -1.2200    3.5886 308.47 308.5 117.2 10     0.0000    0.0218
M10          ?    BHN  e S      ? 20230719 0322   10.1977 GAU  6.86e-04 -1.00e+00 -1.00e+00 -1.00e+00    1.0000 >    1.8701    0.0071    1.1986  736.5490 9821.3650   -1.2200    3.5886 308.47 308.5 109.8 10     0.0000    0.0374
M05          ?    BHZ  e P      d 20230719 0322    9.5626 GAU  1.82e-03 -1.00e+00  3.62e+02 -1.00e+00    1.0000 >    1.2392    0.0029    1.4786  736.2660 9822.0830   -1.1500    4.2744 313.65 313.7 112.0 10     0.0000    0.0248
M05          ?    BHE  e S      ? 20230719 0322   10.4888 GAU  1.67e-04 -1.00e+00 -1.00e+00 -1.00e+00    1.0000 >    2.1211    0.0472    0.7382  736.2660 9822.0830   -1.1500    4.2744 313.65 313.7 103.7 10     0.0000    0.0424
END_PHASE
END_NLLOC

