NLLOC "./loc/SEML.20230719.032301.grid0" "LOCATED" "Location completed."
PUBLIC_ID None
SIGNATURE "Arham Zakki Edelo - edelo.17034@mhs.its.ac.id   obs:./obs/2023_07.obs   NLLoc:v7.00.10(30Aug2020)   run:28Dec2023 20h06m02"
COMMENT "SEML"
GRID  2001 2001 1001  727 9811 -2  0.01 0.01 0.01 PROB_DENSITY
SEARCH OCTREE nInitial 4851 nEvaluated 20019 smallestNodeSide 0.014881/0.014881/0.014205 oct_tree_integral 1.564121e-02 scatter_volume 1.564121e-02
HYPOCENTER  x 738.168 y 9818.83 z 0.791193  OT 0.503089  ix -1 iy -1 iz -1 MAXIMUM_LIKELIHOOD
GEOGRAPHIC  OT 2023 07 19  03 23 0.503089  Lat 9818.834821 Long 738.168155 Depth 0.791193
QUALITY  Pmax 1.17509e+84 MFmin 91.0308 MFmax 117.066 RMS 0.0297777 Nphs 24 Gap 263.291 Dist 0.315824 Mamp -9.90 0 Mdur -9.90 0
VPVSRATIO  VpVsRatio 1.82045  Npair 12  Diff 0.52856
STATISTICS  ExpectX 738.193203 Y 9818.811938 Z 0.757878  CovXX 0.0128483 XY -0.00438419 XZ 0.00314335 YY 0.0116955 YZ -0.00235897 ZZ 0.0183019 EllAz1  222.124 Dip1  1.96397 Len1  0.166356 Az2  313.723 Dip2  39.1209 Len2  0.218332 Len3  2.755038e-01
STAT_GEOG  ExpectLat 9818.811938 Long 738.193203 Depth 0.757878
TRANSFORM  NONE
QML_OriginQuality  assocPhCt 24  usedPhCt 24  assocStaCt -1  usedStaCt 12  depthPhCt -1  stdErr 0.0297777  azGap 263.291  secAzGap 263.291  gtLevel -  minDist 0.315824 maxDist 4.7319 medDist 2.52538
QML_OriginUncertainty  horUnc -1  minHorUnc 0.134369  maxHorUnc 0.195948  azMaxHorUnc 131.255
QML_ConfidenceEllipsoid  semiMajorAxisLength 0.275504  semiMinorAxisLength 0.166356  semiIntermediateAxisLength 0.218332  majorAxisPlunge 50.8104  majorAxisAzimuth 129.714  majorAxisRotation 344.909
FOCALMECH  Hyp  9818.834821 738.168155 0.791193 Mech  0 0 0 mf  0 nObs -1
PHASE ID Ins Cmp On Pha  FM Date     HrMn   Sec     Err  ErrMag    Coda      Amp       Per       PriorWt  >   TTpred    Res       Weight    StaLoc(X  Y         Z)        SDist    SAzim  RAz  RDip RQual    Tcorr       TTerr
M06          ?    BHZ  i P      c 20230719 0323    1.0868 GAU  9.88e-04 -1.00e+00  1.32e+02 -1.00e+00    1.0000 >    0.5845   -0.0008    1.7122  738.3100 9819.1170   -1.3960    0.3158  26.69  26.7 171.3 10     0.0000    0.0117
M06          ?    BHN  e S      ? 20230719 0323    1.5150 GAU  7.19e-04 -1.00e+00  4.18e+00 -1.00e+00    1.0000 >    1.0085    0.0035    1.5172  738.3100 9819.1170   -1.3960    0.3158  26.69  26.7 170.7 10     0.0000    0.0202
M04          ?    BHZ  i P      d 20230719 0323    1.2003 GAU  1.30e-03 -1.00e+00  2.72e+02 -1.00e+00    1.0000 >    0.6923    0.0049    1.6303  737.1400 9819.2520   -1.5710    1.1096 292.09 292.1 153.9 10     0.0000    0.0138
M04          ?    BHE  i S      ? 20230719 0323    1.6650 GAU  1.04e-03 -1.00e+00  2.56e+02 -1.00e+00    1.0000 >    1.1942   -0.0323    1.0649  737.1400 9819.2520   -1.5710    1.1096 292.09 292.1 151.8 10     0.0000    0.0239
M14          ?    BHZ  i P      c 20230719 0323    1.1925 GAU  1.12e-03 -1.00e+00 -1.00e+00 -1.00e+00    1.0000 >    0.6771    0.0123    1.4755  737.5530 9820.0110   -1.3980    1.3273 332.39 332.4 147.8 10     0.0000    0.0135
M14          ?    BHE  e S      ? 20230719 0323    1.6284 GAU  2.30e-03 -1.00e+00  3.01e+02 -1.00e+00    1.0000 >    1.1679   -0.0427    0.8533  737.5530 9820.0110   -1.3980    1.3273 332.39 332.4 145.0 10     0.0000    0.0234
M02          ?    BHZ  i P      c 20230719 0323    1.2426 GAU  2.61e-03 -1.00e+00 -1.00e+00 -1.00e+00    1.0000 >    0.7503   -0.0108    1.5494  736.5970 9819.4060   -1.4960    1.6718 289.98 290.0 142.5 10     0.0000    0.0150
M02          ?    BHN  i S      ? 20230719 0323    1.8267 GAU  6.07e-04 -1.00e+00  4.46e+03 -1.00e+00    1.0000 >    1.2940    0.0296    1.0801  736.5970 9819.4060   -1.4960    1.6718 289.98 290.0 139.2 10     0.0000    0.0259
M11          ?    BHZ  i P      c 20230719 0323    1.2034 GAU  1.19e-03 -1.00e+00 -1.00e+00 -1.00e+00    1.0000 >    0.7109   -0.0106    1.5645  738.4670 9820.4900   -1.3120    1.6819  10.23  10.2 140.1 10     0.0000    0.0142
M11          ?    BHN  e S      ? 20230719 0323    1.7332 GAU  1.93e-03 -1.00e+00 -1.00e+00 -1.00e+00    1.0000 >    1.2259    0.0042    1.4254  738.4670 9820.4900   -1.3120    1.6819  10.23  10.2 136.5 10     0.0000    0.0245
M09          ?    BHZ  i P      c 20230719 0323    1.2936 GAU  2.68e-03 -1.00e+00  2.28e+02 -1.00e+00    1.0000 >    0.7889    0.0016    1.6192  737.8820 9820.9850   -1.2700    2.1691 352.42 352.4 131.7 10     0.0000    0.0158
M09          ?    BHE  e S      ? 20230719 0323    1.8850 GAU  1.94e-03 -1.00e+00  2.92e+02 -1.00e+00    1.0000 >    1.3599    0.0220    1.1982  737.8820 9820.9850   -1.2700    2.1691 352.42 352.4 127.0 10     0.0000    0.0272
M13          ?    BHZ  i P      c 20230719 0323    1.3875 GAU  4.83e-03 -1.00e+00 -1.00e+00 -1.00e+00    1.0000 >    0.9259   -0.0415    0.8280  737.1780 9821.5410   -1.2220    2.8816 339.90 339.9 122.5 10     0.0000    0.0185
M13          ?    BHN  e S      ? 20230719 0323    1.9853 GAU  6.06e-04 -1.00e+00 -1.00e+00 -1.00e+00    1.0000 >    1.5943   -0.1121    0.1428  737.1780 9821.5410   -1.2220    2.8816 339.90 339.9 115.9 10     0.0000    0.0319
M10          ?    BHZ  e P      c 20230719 0323    1.5229 GAU  6.49e-03 -1.00e+00 -1.00e+00 -1.00e+00    1.0000 >    0.9521    0.0677    0.5384  736.5490 9821.3650   -1.2200    3.0039 327.38 327.4 121.3 10     0.0000    0.0190
M10          ?    BHN  e S      ? 20230719 0323    2.2258 GAU  3.42e-03 -1.00e+00  1.75e+01 -1.00e+00    1.0000 >    1.6391    0.0836    0.4863  736.5490 9821.3650   -1.2200    3.0039 327.38 327.4 114.4 10     0.0000    0.0328
M08          ?    BHZ  i P      c 20230719 0323    1.5953 GAU  2.99e-04 -1.00e+00 -1.00e+00 -1.00e+00    1.0000 >    1.0129    0.0793    0.4594  738.2480 9822.1600   -1.1510    3.3261   1.38   1.4 117.6 10     0.0000    0.0203
M08          ?    BHN  e S      ? 20230719 0323    2.4100 GAU  9.69e-04 -1.00e+00  3.69e+02 -1.00e+00    1.0000 >    1.7421    0.1648    0.0952  738.2480 9822.1600   -1.1510    3.3261   1.38   1.4 109.8 10     0.0000    0.0348
M05          ?    BHZ  i P      d 20230719 0323    1.6798 GAU  2.37e-03 -1.00e+00  3.00e+02 -1.00e+00    1.0000 >    1.1135    0.0632    0.5899  736.2660 9822.0830   -1.1500    3.7642 329.65 329.6 114.4 10     0.0000    0.0223
M05          ?    BHN  e S      ? 20230719 0323    2.5489 GAU  1.34e-03 -1.00e+00  3.04e+02 -1.00e+00    1.0000 >    1.9128    0.1330    0.2108  736.2660 9822.0830   -1.1500    3.7642 329.65 329.6 105.8 10     0.0000    0.0383
M01          ?    BHZ  e P      c 20230719 0323    1.6845 GAU  1.26e-03 -1.00e+00 -1.00e+00 -1.00e+00    1.0000 >    1.1831   -0.0017    1.4593  736.4090 9822.5140   -1.1200    4.0781 334.45 334.4 112.0 10     0.0000    0.0237
M01          ?    BHN  e S      ? 20230719 0323    2.5338 GAU  1.19e-03 -1.00e+00  1.75e+03 -1.00e+00    1.0000 >    2.0298    0.0009    1.1823  736.4090 9822.5140   -1.1200    4.0781 334.45 334.4 103.1 10     0.0000    0.0406
M12          ?    BHZ  e P      d 20230719 0323    1.7601 GAU  5.42e-04 -1.00e+00  4.67e+02 -1.00e+00    1.0000 >    1.3236   -0.0666    0.4907  736.8520 9823.3800   -0.9890    4.7319 343.85 343.9 107.4 10     0.0000    0.0265
M12          ?    BHE  e S      ? 20230719 0323    2.7168 GAU  1.43e-03 -1.00e+00  6.45e+01 -1.00e+00    1.0000 >    2.2610   -0.0473    0.8268  736.8520 9823.3800   -0.9890    4.7319 343.85 343.9  98.6 10     0.0000    0.0452
END_PHASE
END_NLLOC

