NLLOC "./loc/SEML.20230719.030113.grid0" "LOCATED" "Location completed."
PUBLIC_ID None
SIGNATURE "Arham Zakki Edelo - edelo.17034@mhs.its.ac.id   obs:./obs/2023_07.obs   NLLoc:v7.00.10(30Aug2020)   run:28Dec2023 20h05m49"
COMMENT "SEML"
GRID  2001 2001 1001  727 9811 -2  0.01 0.01 0.01 PROB_DENSITY
SEARCH OCTREE nInitial 4851 nEvaluated 20019 smallestNodeSide 0.014881/0.014881/0.014205 oct_tree_integral 3.676135e-02 scatter_volume 3.676135e-02
HYPOCENTER  x 737.945 y 9818.37 z 0.919034  OT 12.7735  ix -1 iy -1 iz -1 MAXIMUM_LIKELIHOOD
GEOGRAPHIC  OT 2023 07 19  03 01 12.773482  Lat 9818.373512 Long 737.944940 Depth 0.919034
QUALITY  Pmax 1.09231e+66 MFmin 74.8645 MFmax 91.2002 RMS 0.0345609 Nphs 20 Gap 281.3 Dist 0.828277 Mamp -9.90 0 Mdur -9.90 0
VPVSRATIO  VpVsRatio 1.68131  Npair 10  Diff 0.492203
STATISTICS  ExpectX 738.107027 Y 9818.249925 Z 0.852532  CovXX 0.0440513 XY -0.0188077 XZ -0.0299673 YY 0.0223909 YZ 0.0140137 ZZ 0.0637737 EllAz1  34.4946 Dip1  5.89006 Len1  0.199027 Az2  309.558 Dip2  -40.5469 Len2  0.304896 Len3  5.719167e-01
STAT_GEOG  ExpectLat 9818.249925 Long 738.107027 Depth 0.852532
TRANSFORM  NONE
QML_OriginQuality  assocPhCt 20  usedPhCt 20  assocStaCt -1  usedStaCt 10  depthPhCt -1  stdErr 0.0345609  azGap 281.3  secAzGap 281.3  gtLevel -  minDist 0.828277 maxDist 4.07175 medDist 2.39609
QML_OriginUncertainty  horUnc -1  minHorUnc 0.162762  maxHorUnc 0.355423  azMaxHorUnc 120.032
QML_ConfidenceEllipsoid  semiMajorAxisLength 0.571917  semiMinorAxisLength 0.199027  semiIntermediateAxisLength 0.304896  majorAxisPlunge -48.8433  majorAxisAzimuth 117.716  majorAxisRotation 229.725
FOCALMECH  Hyp  9818.373512 737.944940 0.919034 Mech  0 0 0 mf  0 nObs -1
PHASE ID Ins Cmp On Pha  FM Date     HrMn   Sec     Err  ErrMag    Coda      Amp       Per       PriorWt  >   TTpred    Res       Weight    StaLoc(X  Y         Z)        SDist    SAzim  RAz  RDip RQual    Tcorr       TTerr
M06          ?    BHZ  i P      c 20230719 0301   13.4213 GAU  2.96e-03 -1.00e+00 -1.00e+00 -1.00e+00    1.0000 >    0.6493   -0.0015    1.7243  738.3100 9819.1170   -1.3960    0.8283  26.15  26.2 159.7 10     0.0000    0.0130
M06          ?    BHE  i S      ? 20230719 0301   13.9068 GAU  1.06e-03 -1.00e+00 -1.00e+00 -1.00e+00    1.0000 >    1.1158    0.0175    1.4160  738.3100 9819.1170   -1.3960    0.8283  26.15  26.2 158.1 10     0.0000    0.0223
M04          ?    BHZ  e P      c 20230719 0301   13.5038 GAU  1.75e-03 -1.00e+00 -1.00e+00 -1.00e+00    1.0000 >    0.7309   -0.0005    1.7082  737.1400 9819.2520   -1.5710    1.1915 317.50 317.5 153.6 10     0.0000    0.0146
M04          ?    BHN  e S      ? 20230719 0301   14.0105 GAU  1.29e-03 -1.00e+00  7.58e+02 -1.00e+00    1.0000 >    1.2563   -0.0193    1.2661  737.1400 9819.2520   -1.5710    1.1915 317.50 317.5 151.6 10     0.0000    0.0251
M14          ?    BHZ  i P      c 20230719 0301   13.5295 GAU  3.54e-03 -1.00e+00 -1.00e+00 -1.00e+00    1.0000 >    0.7560   -0.0000    1.6961  737.5530 9820.0110   -1.3980    1.6837 346.54 346.5 142.8 10     0.0000    0.0151
M14          ?    BHE  e S      ? 20230719 0301   14.0681 GAU  4.05e-04 -1.00e+00  4.88e+02 -1.00e+00    1.0000 >    1.2987   -0.0041    1.4594  737.5530 9820.0110   -1.3980    1.6837 346.54 346.5 139.8 10     0.0000    0.0260
M02          ?    BHZ  e P      c 20230719 0301   13.5860 GAU  1.17e-03 -1.00e+00 -1.00e+00 -1.00e+00    1.0000 >    0.7805    0.0320    1.0451  736.5970 9819.4060   -1.4960    1.6979 307.45 307.5 143.7 10     0.0000    0.0156
M02          ?    BHN  e S      ? 20230719 0301   14.1939 GAU  4.02e-03 -1.00e+00  5.67e+02 -1.00e+00    1.0000 >    1.3411    0.0794    0.4329  736.5970 9819.4060   -1.4960    1.6979 307.45 307.5 140.7 10     0.0000    0.0268
M11          ?    BHZ  i P      c 20230719 0301   13.5762 GAU  1.87e-03 -1.00e+00 -1.00e+00 -1.00e+00    1.0000 >    0.8216   -0.0189    1.3404  738.4670 9820.4900   -1.3120    2.1799  13.86  13.9 134.1 10     0.0000    0.0164
M11          ?    BHN  e S      ? 20230719 0301   14.1821 GAU  7.27e-04 -1.00e+00 -1.00e+00 -1.00e+00    1.0000 >    1.4106   -0.0020    1.4231  738.4670 9820.4900   -1.3120    2.1799  13.86  13.9 130.1 10     0.0000    0.0282
M09          ?    BHZ  i P      c 20230719 0301   13.6822 GAU  1.26e-03 -1.00e+00  2.68e+02 -1.00e+00    1.0000 >    0.8970    0.0117    1.5657  737.8820 9820.9850   -1.2700    2.6122 358.62 358.6 128.0 10     0.0000    0.0179
M09          ?    BHE  e S      ? 20230719 0301   14.3838 GAU  3.14e-03 -1.00e+00  3.92e+02 -1.00e+00    1.0000 >    1.5389    0.0714    0.5492  737.8820 9820.9850   -1.2700    2.6122 358.62 358.6 123.0 10     0.0000    0.0308
M13          ?    BHZ  i P      c 20230719 0301   13.8208 GAU  1.62e-03 -1.00e+00 -1.00e+00 -1.00e+00    1.0000 >    1.0252    0.0221    1.3386  737.1780 9821.5410   -1.2220    3.2590 346.39 346.4 120.9 10     0.0000    0.0205
M13          ?    BHN  e S      ? 20230719 0301   14.6234 GAU  6.02e-04 -1.00e+00 -1.00e+00 -1.00e+00    1.0000 >    1.7566    0.0934    0.4326  737.1780 9821.5410   -1.2220    3.2590 346.39 346.4 114.7 10     0.0000    0.0351
M10          ?    BHZ  e P      c 20230719 0301   13.7740 GAU  5.55e-03 -1.00e+00 -1.00e+00 -1.00e+00    1.0000 >    1.0341   -0.0337    0.9119  736.5490 9821.3650   -1.2200    3.3012 334.98 335.0 120.6 10     0.0000    0.0207
M10          ?    BHN  e S      ? 20230719 0301   14.5207 GAU  9.47e-04 -1.00e+00 -1.00e+00 -1.00e+00    1.0000 >    1.7717   -0.0246    1.0690  736.5490 9821.3650   -1.2200    3.3012 334.98 335.0 114.2 10     0.0000    0.0354
M08          ?    BHZ  e P      d 20230719 0301   14.0449 GAU  3.03e-04 -1.00e+00  9.99e+02 -1.00e+00    1.0000 >    1.1355    0.1359    0.2591  738.2480 9822.1600   -1.1510    3.7986   4.58   4.6 116.0 10     0.0000    0.0227
M08          ?    BHN  e S      ? 20230719 0301   14.9550 GAU  6.10e-04 -1.00e+00  3.00e+02 -1.00e+00    1.0000 >    1.9422    0.2393    0.0881  738.2480 9822.1600   -1.1510    3.7986   4.58   4.6 108.8 10     0.0000    0.0388
M05          ?    BHZ  i P      c 20230719 0301   14.1253 GAU  2.20e-03 -1.00e+00 -1.00e+00 -1.00e+00    1.0000 >    1.1986    0.1532    0.2090  736.2660 9822.0830   -1.1500    4.0717 335.65 335.6 114.2 10     0.0000    0.0240
M05          ?    BHN  e S      ? 20230719 0301   15.1031 GAU  4.88e-04 -1.00e+00  2.67e+02 -1.00e+00    1.0000 >    2.0486    0.2810    0.0652  736.2660 9822.0830   -1.1500    4.0717 335.65 335.6 106.8 10     0.0000    0.0410
END_PHASE
END_NLLOC

