NLLOC "./loc/SEML.20230719.032418.grid0" "LOCATED" "Location completed."
PUBLIC_ID None
SIGNATURE "Arham Zakki Edelo - edelo.17034@mhs.its.ac.id   obs:./obs/2023_07.obs   NLLoc:v7.00.10(30Aug2020)   run:28Dec2023 20h06m05"
COMMENT "SEML"
GRID  2001 2001 1001  727 9811 -2  0.01 0.01 0.01 PROB_DENSITY
SEARCH OCTREE nInitial 4851 nEvaluated 20011 smallestNodeSide 0.014881/0.014881/0.014205 oct_tree_integral 4.813709e-02 scatter_volume 4.813709e-02
HYPOCENTER  x 737.9 y 9818.22 z 0.961648  OT 18.0993  ix -1 iy -1 iz -1 MAXIMUM_LIKELIHOOD
GEOGRAPHIC  OT 2023 07 19  03 24 18.099314  Lat 9818.224702 Long 737.900298 Depth 0.961648
QUALITY  Pmax 3.0962e+58 MFmin 67.2735 MFmax 83.9975 RMS 0.0305118 Nphs 18 Gap 287.526 Dist 0.981861 Mamp -9.90 0 Mdur -9.90 0
VPVSRATIO  VpVsRatio 1.74524  Npair 9  Diff 0.369602
STATISTICS  ExpectX 737.954456 Y 9818.221317 Z 0.895546  CovXX 0.0344246 XY 0.000905032 XZ 0.00325746 YY 0.0209676 YZ -0.00998758 ZZ 0.0408391 EllAz1  172.655 Dip1  -23.0393 Len1  0.241838 Az2  258.411 Dip2  9.87117 Len2  0.3466 Len3  4.013469e-01
STAT_GEOG  ExpectLat 9818.221317 Long 737.954456 Depth 0.895546
TRANSFORM  NONE
QML_OriginQuality  assocPhCt 18  usedPhCt 18  assocStaCt -1  usedStaCt 9  depthPhCt -1  stdErr 0.0305118  azGap 287.526  secAzGap 287.526  gtLevel -  minDist 0.981861 maxDist 3.95063 medDist 2.33511
QML_OriginUncertainty  horUnc -1  minHorUnc 0.219285  maxHorUnc 0.281631  azMaxHorUnc 86.1696
QML_ConfidenceEllipsoid  semiMajorAxisLength 0.401347  semiMinorAxisLength 0.241838  semiIntermediateAxisLength 0.3466  majorAxisPlunge 64.706  majorAxisAzimuth 146.805  majorAxisRotation 74.4583
FOCALMECH  Hyp  9818.224702 737.900298 0.961648 Mech  0 0 0 mf  0 nObs -1
PHASE ID Ins Cmp On Pha  FM Date     HrMn   Sec     Err  ErrMag    Coda      Amp       Per       PriorWt  >   TTpred    Res       Weight    StaLoc(X  Y         Z)        SDist    SAzim  RAz  RDip RQual    Tcorr       TTerr
M06          ?    BHZ  i P      c 20230719 0324   18.7938 GAU  3.61e-04 -1.00e+00 -1.00e+00 -1.00e+00    1.0000 >    0.6740    0.0205    1.3170  738.3100 9819.1170   -1.3960    0.9819  24.66  24.7 156.7 10     0.0000    0.0135
M06          ?    BHN  e S      ? 20230719 0324   19.3025 GAU  1.40e-03 -1.00e+00 -1.00e+00 -1.00e+00    1.0000 >    1.1569    0.0463    0.9638  738.3100 9819.1170   -1.3960    0.9819  24.66  24.7 155.0 10     0.0000    0.0231
M04          ?    BHZ  e P      d 20230719 0324   18.8444 GAU  3.14e-03 -1.00e+00  1.89e+03 -1.00e+00    1.0000 >    0.7507   -0.0056    1.4241  737.1400 9819.2520   -1.5710    1.2780 323.50 323.5 152.4 10     0.0000    0.0150
M04          ?    BHE  e S      ? 20230719 0324   19.3901 GAU  2.42e-03 -1.00e+00  4.50e+02 -1.00e+00    1.0000 >    1.2888    0.0020    1.3811  737.1400 9819.2520   -1.5710    1.2780 323.50 323.5 150.3 10     0.0000    0.0258
M02          ?    BHZ  e P      d 20230719 0324   18.9711 GAU  1.40e-03 -1.00e+00 -1.00e+00 -1.00e+00    1.0000 >    0.7985    0.0733    0.4819  736.5970 9819.4060   -1.4960    1.7590 312.19 312.2 143.2 10     0.0000    0.0160
M02          ?    BHE  e S      ? 20230719 0324   19.6535 GAU  6.55e-04 -1.00e+00 -1.00e+00 -1.00e+00    1.0000 >    1.3705    0.1838    0.0075  736.5970 9819.4060   -1.4960    1.7590 312.19 312.2 140.3 10     0.0000    0.0274
M14          ?    BHZ  e P      c 20230719 0324   18.8422 GAU  3.49e-03 -1.00e+00 -1.00e+00 -1.00e+00    1.0000 >    0.7860   -0.0431    0.7158  737.5530 9820.0110   -1.3980    1.8197 349.00 349.0 141.1 10     0.0000    0.0157
M14          ?    BHE  e S      ? 20230719 0324   19.3657 GAU  3.42e-03 -1.00e+00  4.05e+02 -1.00e+00    1.0000 >    1.3485   -0.0822    0.2374  737.5530 9820.0110   -1.3980    1.8197 349.00 349.0 138.0 10     0.0000    0.0270
M11          ?    BHZ  i P      c 20230719 0324   18.9397 GAU  9.95e-04 -1.00e+00 -1.00e+00 -1.00e+00    1.0000 >    0.8580   -0.0176    1.2742  738.4670 9820.4900   -1.3120    2.3351  14.05  14.0 132.6 10     0.0000    0.0172
M11          ?    BHN  e S      ? 20230719 0324   19.5703 GAU  1.05e-03 -1.00e+00 -1.00e+00 -1.00e+00    1.0000 >    1.4709   -0.0000    1.3356  738.4670 9820.4900   -1.3120    2.3351  14.05  14.0 128.5 10     0.0000    0.0294
M09          ?    BHZ  i P      c 20230719 0324   19.0146 GAU  1.24e-03 -1.00e+00  1.51e+02 -1.00e+00    1.0000 >    0.9337   -0.0184    1.2599  737.8820 9820.9850   -1.2700    2.7604 359.62 359.6 126.9 10     0.0000    0.0187
M09          ?    BHN  e S      ? 20230719 0324   19.6588 GAU  8.09e-04 -1.00e+00  4.54e+02 -1.00e+00    1.0000 >    1.5995   -0.0400    0.8822  737.8820 9820.9850   -1.2700    2.7604 359.62 359.6 121.9 10     0.0000    0.0320
M13          ?    BHZ  i P      d 20230719 0324   19.1972 GAU  8.36e-04 -1.00e+00  4.10e+02 -1.00e+00    1.0000 >    1.0605    0.0374    1.0946  737.1780 9821.5410   -1.2220    3.3940 347.71 347.7 120.4 10     0.0000    0.0212
M13          ?    BHN  e S      ? 20230719 0324   19.9777 GAU  6.08e-04 -1.00e+00 -1.00e+00 -1.00e+00    1.0000 >    1.8142    0.0642    0.7496  737.1780 9821.5410   -1.2220    3.3940 347.71 347.7 114.3 10     0.0000    0.0363
M10          ?    BHZ  e P      c 20230719 0324   19.1701 GAU  1.92e-03 -1.00e+00 -1.00e+00 -1.00e+00    1.0000 >    1.0656    0.0052    1.4269  736.5490 9821.3650   -1.2200    3.4187 336.72 336.7 120.1 10     0.0000    0.0213
M10          ?    BHE  e S      ? 20230719 0324   19.9287 GAU  1.33e-03 -1.00e+00 -1.00e+00 -1.00e+00    1.0000 >    1.8229    0.0065    1.2561  736.5490 9821.3650   -1.2200    3.4187 336.72 336.7 114.0 10     0.0000    0.0365
M08          ?    BHZ  e P      c 20230719 0324   19.2876 GAU  2.51e-04 -1.00e+00 -1.00e+00 -1.00e+00    1.0000 >    1.1753    0.0131    1.3808  738.2480 9822.1600   -1.1510    3.9506   5.05   5.0 115.5 10     0.0000    0.0235
M08          ?    BHN  e S      ? 20230719 0324   20.1659 GAU  3.98e-05 -1.00e+00  3.01e+02 -1.00e+00    1.0000 >    2.0069    0.0598    0.8114  738.2480 9822.1600   -1.1510    3.9506   5.05   5.0 108.6 10     0.0000    0.0401
END_PHASE
END_NLLOC

