NLLOC "./loc/SEML.20230723.035620.grid0" "LOCATED" "Location completed."
PUBLIC_ID None
SIGNATURE "Arham Zakki Edelo - edelo.17034@mhs.its.ac.id   obs:./obs/2023_07.obs   NLLoc:v7.00.10(30Aug2020)   run:28Dec2023 20h06m15"
COMMENT "SEML"
GRID  2001 2001 1001  727 9811 -2  0.01 0.01 0.01 PROB_DENSITY
SEARCH OCTREE nInitial 4851 nEvaluated 20003 smallestNodeSide 0.014881/0.014881/0.014205 oct_tree_integral 1.708111e-02 scatter_volume 1.708111e-02
HYPOCENTER  x 737.915 y 9818.06 z 0.194602  OT 19.4807  ix -1 iy -1 iz -1 MAXIMUM_LIKELIHOOD
GEOGRAPHIC  OT 2023 07 23  03 56 19.480658  Lat 9818.061012 Long 737.915179 Depth 0.194602
QUALITY  Pmax 2.39485e+92 MFmin 93.3143 MFmax 110.434 RMS 0.0290693 Nphs 26 Gap 302.777 Dist 1.42104 Mamp -9.90 0 Mdur -9.90 0
VPVSRATIO  VpVsRatio 1.77814  Npair 13  Diff 0.663925
STATISTICS  ExpectX 737.852230 Y 9817.986289 Z 0.234914  CovXX 0.0171311 XY 0.00430813 XZ -0.0075934 YY 0.0158753 YZ -0.00363777 ZZ 0.0138781 EllAz1  88.1849 Dip1  51.4416 Len1  0.165258 Az2  336.497 Dip2  16.4133 Len2  0.212842 Len3  3.047795e-01
STAT_GEOG  ExpectLat 9817.986289 Long 737.852230 Depth 0.234914
TRANSFORM  NONE
QML_OriginQuality  assocPhCt 26  usedPhCt 26  assocStaCt -1  usedStaCt 13  depthPhCt -1  stdErr 0.0290693  azGap 302.777  secAzGap 302.777  gtLevel -  minDist 1.42104 maxDist 5.4242 medDist 3.55721
QML_OriginUncertainty  horUnc -1  minHorUnc 0.167164  maxHorUnc 0.219022  azMaxHorUnc 49.1461
QML_ConfidenceEllipsoid  semiMajorAxisLength 0.30478  semiMinorAxisLength 0.165258  semiIntermediateAxisLength 0.212842  majorAxisPlunge -33.751  majorAxisAzimuth 55.1453  majorAxisRotation 82.1276
FOCALMECH  Hyp  9818.061012 737.915179 0.194602 Mech  0 0 0 mf  0 nObs -1
PHASE ID Ins Cmp On Pha  FM Date     HrMn   Sec     Err  ErrMag    Coda      Amp       Per       PriorWt  >   TTpred    Res       Weight    StaLoc(X  Y         Z)        SDist    SAzim  RAz  RDip RQual    Tcorr       TTerr
M04          ?    BHZ  i P      c 20230723 0356   20.0895 GAU  1.86e-03 -1.00e+00 -1.00e+00 -1.00e+00    1.0000 >    0.6070    0.0018    1.7365  737.1400 9819.2520   -1.5710    1.4210 326.94 326.9 139.7 10     0.0000    0.0121
M04          ?    BHN  e S      ? 20230723 0356   20.5293 GAU  6.50e-04 -1.00e+00  5.27e+02 -1.00e+00    1.0000 >    1.0598   -0.0111    1.5060  737.1400 9819.2520   -1.5710    1.4210 326.94 326.9 138.9 10     0.0000    0.0212
M02          ?    BHZ  i P      d 20230723 0356   20.1666 GAU  2.48e-03 -1.00e+00  8.34e+02 -1.00e+00    1.0000 >    0.6769    0.0091    1.6120  736.5970 9819.4060   -1.4960    1.8832 315.58 315.6 129.6 10     0.0000    0.0135
M02          ?    BHE  e S      ? 20230723 0356   20.6603 GAU  9.73e-04 -1.00e+00  1.08e+03 -1.00e+00    1.0000 >    1.1824   -0.0028    1.5159  736.5970 9819.4060   -1.4960    1.8832 315.58 315.6 128.5 10     0.0000    0.0236
M14          ?    BHZ  i P      c 20230723 0356   20.1438 GAU  3.35e-03 -1.00e+00 -1.00e+00 -1.00e+00    1.0000 >    0.6792   -0.0160    1.5064  737.5530 9820.0110   -1.3980    1.9833 349.48 349.5 126.4 10     0.0000    0.0136
M14          ?    BHN  e S      ? 20230723 0356   20.6675 GAU  8.32e-04 -1.00e+00  1.06e+03 -1.00e+00    1.0000 >    1.1874   -0.0005    1.5163  737.5530 9820.0110   -1.3980    1.9833 349.48 349.5 125.0 10     0.0000    0.0237
M11          ?    BHZ  i P      c 20230723 0356   20.2569 GAU  2.01e-03 -1.00e+00 -1.00e+00 -1.00e+00    1.0000 >    0.7760    0.0003    1.6874  738.4670 9820.4900   -1.3120    2.4909  12.80  12.8 118.3 10     0.0000    0.0155
M11          ?    BHE  e S      ? 20230723 0356   20.9252 GAU  1.06e-03 -1.00e+00  3.40e+01 -1.00e+00    1.0000 >    1.3578    0.0867    0.4719  738.4670 9820.4900   -1.3120    2.4909  12.80  12.8 116.3 10     0.0000    0.0272
M09          ?    BHZ  i P      c 20230723 0356   20.3965 GAU  9.32e-04 -1.00e+00  3.93e+02 -1.00e+00    1.0000 >    0.8707    0.0451    0.7614  737.8820 9820.9850   -1.2700    2.9242 359.35 359.3 113.4 10     0.0000    0.0174
M09          ?    BHN  i S      ? 20230723 0356   21.1083 GAU  4.53e-03 -1.00e+00  6.34e+02 -1.00e+00    1.0000 >    1.5245    0.1031    0.3692  737.8820 9820.9850   -1.2700    2.9242 359.35 359.3 110.8 10     0.0000    0.0305
M03          ?    BHZ  e P      c 20230723 0356   20.4560 GAU  1.36e-03 -1.00e+00 -1.00e+00 -1.00e+00    1.0000 >    0.8926    0.0827    0.4535  736.8800 9820.8540   -1.3350    2.9787 339.66 339.7 113.9 10     0.0000    0.0179
M03          ?    BHN  e S      ? 20230723 0356   21.2553 GAU  1.49e-03 -1.00e+00  8.07e+01 -1.00e+00    1.0000 >    1.5619    0.2127    0.0266  736.8800 9820.8540   -1.3350    2.9787 339.66 339.7 111.4 10     0.0000    0.0312
M13          ?    BHZ  i P      c 20230723 0356   20.5061 GAU  1.29e-03 -1.00e+00  3.89e+01 -1.00e+00    1.0000 >    1.0176    0.0078    1.5374  737.1780 9821.5410   -1.2220    3.5572 348.04 348.0 108.1 10     0.0000    0.0204
M13          ?    BHN  e S      ? 20230723 0356   21.2891 GAU  3.95e-03 -1.00e+00  7.47e+01 -1.00e+00    1.0000 >    1.7827    0.0258    1.1633  737.1780 9821.5410   -1.2220    3.5572 348.04 348.0 104.5 10     0.0000    0.0357
M10          ?    BHZ  e P      c 20230723 0356   20.5072 GAU  4.56e-03 -1.00e+00 -1.00e+00 -1.00e+00    1.0000 >    1.0218    0.0047    1.5561  736.5490 9821.3650   -1.2200    3.5753 337.54 337.5 108.0 10     0.0000    0.0204
M10          ?    BHE  e S      ? 20230723 0356   21.3340 GAU  4.22e-03 -1.00e+00 -1.00e+00 -1.00e+00    1.0000 >    1.7901    0.0633    0.7390  736.5490 9821.3650   -1.2200    3.5753 337.54 337.5 104.4 10     0.0000    0.0358
M08          ?    BHZ  i P      d 20230723 0356   20.6068 GAU  4.51e-04 -1.00e+00  7.30e+02 -1.00e+00    1.0000 >    1.1472   -0.0210    1.3137  738.2480 9822.1600   -1.1510    4.1125   4.64   4.6 104.4 10     0.0000    0.0229
M08          ?    BHN  e S      ? 20230723 0356   21.4610 GAU  2.16e-03 -1.00e+00  2.76e+02 -1.00e+00    1.0000 >    2.0108   -0.0305    1.0048  738.2480 9822.1600   -1.1510    4.1125   4.64   4.6  99.9 10     0.0000    0.0402
M05          ?    BHZ  i P      d 20230723 0356   20.6514 GAU  2.61e-03 -1.00e+00  8.13e+01 -1.00e+00    1.0000 >    1.2059   -0.0351    0.9908  736.2660 9822.0830   -1.1500    4.3470 337.70 337.7 103.4 10     0.0000    0.0241
M05          ?    BHN  e S      ? 20230723 0356   21.5840 GAU  1.66e-03 -1.00e+00  3.42e+02 -1.00e+00    1.0000 >    2.1135   -0.0101    1.1579  736.2660 9822.0830   -1.1500    4.3470 337.70 337.7  98.7 10     0.0000    0.0423
M01          ?    BHZ  e P      c 20230723 0356   20.6161 GAU  7.49e-04 -1.00e+00 -1.00e+00 -1.00e+00    1.0000 >    1.2919   -0.1565    0.0148  736.4090 9822.5140   -1.1200    4.7008 341.31 341.3 101.8 10     0.0000    0.0258
M01          ?    BHE  e S      ? 20230723 0356   21.4719 GAU  2.91e-03 -1.00e+00  4.82e+02 -1.00e+00    1.0000 >    2.2641   -0.2729    0.0057  736.4090 9822.5140   -1.1200    4.7008 341.31 341.3  97.0 10     0.0000    0.0453
M07          ?    BHZ  i P      d 20230723 0356   20.8208 GAU  1.42e-03 -1.00e+00 -1.00e+00 -1.00e+00    1.0000 >    1.3074    0.0327    1.0963  737.4430 9822.8030   -1.1120    4.7654 354.31 354.3 101.6 10     0.0000    0.0261
M07          ?    BHN  e S      ? 20230723 0356   21.9032 GAU  7.55e-04 -1.00e+00 -1.00e+00 -1.00e+00    1.0000 >    2.2913    0.1312    0.2679  737.4430 9822.8030   -1.1120    4.7654 354.31 354.3  96.7 10     0.0000    0.0458
M12          ?    BHZ  e P      d 20230723 0356   20.9111 GAU  1.86e-03 -1.00e+00 -1.00e+00 -1.00e+00    1.0000 >    1.4625   -0.0321    1.0490  736.8520 9823.3800   -0.9890    5.4242 348.70 348.7  99.0 10     0.0000    0.0293
M12          ?    BHN  e S      ? 20230723 0356   22.0148 GAU  1.12e-03 -1.00e+00 -1.00e+00 -1.00e+00    1.0000 >    2.5624   -0.0283    0.9403  736.8520 9823.3800   -0.9890    5.4242 348.70 348.7  94.6  9     0.0000    0.0512
END_PHASE
END_NLLOC

