NLLOC "./loc/SEML.20230719.025941.grid0" "LOCATED" "Location completed."
PUBLIC_ID None
SIGNATURE "Arham Zakki Edelo - edelo.17034@mhs.its.ac.id   obs:./obs/2023_07.obs   NLLoc:v7.00.10(30Aug2020)   run:28Dec2023 20h05m47"
COMMENT "SEML"
GRID  2001 2001 1001  727 9811 -2  0.01 0.01 0.01 PROB_DENSITY
SEARCH OCTREE nInitial 4851 nEvaluated 20011 smallestNodeSide 0.014881/0.014881/0.014205 oct_tree_integral 4.437312e-02 scatter_volume 4.437312e-02
HYPOCENTER  x 737.975 y 9819.09 z 1.41619  OT 40.546  ix -1 iy -1 iz -1 MAXIMUM_LIKELIHOOD
GEOGRAPHIC  OT 2023 07 19  02 59 40.546038  Lat 9819.087798 Long 737.974702 Depth 1.416193
QUALITY  Pmax 3.60377e+62 MFmin 73.881 MFmax 87.8903 RMS 0.0488512 Nphs 20 Gap 196.107 Dist 0.336567 Mamp -9.90 0 Mdur -9.90 0
VPVSRATIO  VpVsRatio 1.70343  Npair 10  Diff 0.625076
STATISTICS  ExpectX 737.859104 Y 9818.988590 Z 1.336559  CovXX 0.0377961 XY 0.0109095 XZ 0.0205822 YY 0.01943 YZ 0.00128489 ZZ 0.0375433 EllAz1  138.811 Dip1  -25.1093 Len1  0.194195 Az2  207.37 Dip2  37.9543 Len2  0.290758 Len3  4.607426e-01
STAT_GEOG  ExpectLat 9818.988590 Long 737.859104 Depth 1.336559
TRANSFORM  NONE
QML_OriginQuality  assocPhCt 20  usedPhCt 20  assocStaCt -1  usedStaCt 10  depthPhCt -1  stdErr 0.0488512  azGap 196.107  secAzGap 196.107  gtLevel -  minDist 0.336567 maxDist 4.4366 medDist 2.2394
QML_OriginUncertainty  horUnc -1  minHorUnc 0.181693  maxHorUnc 0.314019  azMaxHorUnc 65.0445
QML_ConfidenceEllipsoid  semiMajorAxisLength 0.460743  semiMinorAxisLength 0.194195  semiIntermediateAxisLength 0.290758  majorAxisPlunge 41.65  majorAxisAzimuth 73.4435  majorAxisRotation 279.598
FOCALMECH  Hyp  9819.087798 737.974702 1.416193 Mech  0 0 0 mf  0 nObs -1
PHASE ID Ins Cmp On Pha  FM Date     HrMn   Sec     Err  ErrMag    Coda      Amp       Per       PriorWt  >   TTpred    Res       Weight    StaLoc(X  Y         Z)        SDist    SAzim  RAz  RDip RQual    Tcorr       TTerr
M06          ?    BHZ  i P      c 20230719 0259   41.2771 GAU  1.75e-04 -1.00e+00 -1.00e+00 -1.00e+00    1.0000 >    0.7350   -0.0040    1.6770  738.3100 9819.1170   -1.3960    0.3366  85.02  85.0 172.3 10     0.0000    0.0147
M06          ?    BHN  e S      ? 20230719 0259   41.8097 GAU  5.22e-04 -1.00e+00 -1.00e+00 -1.00e+00    1.0000 >    1.2532    0.0104    1.6749  738.3100 9819.1170   -1.3960    0.3366  85.02  85.0 172.1 10     0.0000    0.0251
M04          ?    BHZ  e P      c 20230719 0259   41.3581 GAU  5.75e-04 -1.00e+00 -1.00e+00 -1.00e+00    1.0000 >    0.8089    0.0032    1.7288  737.1400 9819.2520   -1.5710    0.8507 281.13 281.1 162.3 10     0.0000    0.0162
M04          ?    BHN  e S      ? 20230719 0259   41.8266 GAU  1.77e-03 -1.00e+00  7.95e+02 -1.00e+00    1.0000 >    1.3800   -0.0994    0.1034  737.1400 9819.2520   -1.5710    0.8507 281.13 281.1 161.7 10     0.0000    0.0276
M14          ?    BHZ  i P      c 20230719 0259   41.3716 GAU  1.37e-03 -1.00e+00 -1.00e+00 -1.00e+00    1.0000 >    0.7765    0.0490    1.2538  737.5530 9820.0110   -1.3980    1.0150 335.45 335.4 158.1 10     0.0000    0.0155
M14          ?    BHN  e S      ? 20230719 0259   41.8256 GAU  9.11e-04 -1.00e+00  3.15e+02 -1.00e+00    1.0000 >    1.3238   -0.0442    0.7443  737.5530 9820.0110   -1.3980    1.0150 335.45 335.4 157.3 10     0.0000    0.0265
M11          ?    BHZ  i P      c 20230719 0259   41.3792 GAU  2.56e-03 -1.00e+00  4.25e+01 -1.00e+00    1.0000 >    0.8047    0.0285    1.5643  738.4670 9820.4900   -1.3120    1.4861  19.35  19.3 148.4 10     0.0000    0.0161
M11          ?    BHN  e S      ? 20230719 0259   41.9871 GAU  1.77e-03 -1.00e+00 -1.00e+00 -1.00e+00    1.0000 >    1.3709    0.0702    0.8598  738.4670 9820.4900   -1.3120    1.4861  19.35  19.3 147.2 10     0.0000    0.0274
M09          ?    BHZ  i P      c 20230719 0259   41.4601 GAU  1.71e-03 -1.00e+00  2.06e+02 -1.00e+00    1.0000 >    0.8510    0.0630    0.9404  737.8820 9820.9850   -1.2700    1.8995 357.20 357.2 140.9 10     0.0000    0.0170
M09          ?    BHN  e S      ? 20230719 0259   42.1302 GAU  2.76e-04 -1.00e+00  4.57e+02 -1.00e+00    1.0000 >    1.4490    0.1352    0.0845  737.8820 9820.9850   -1.2700    1.8995 357.20 357.2 139.4 10     0.0000    0.0290
M13          ?    BHZ  e P      d 20230719 0259   41.4846 GAU  7.19e-04 -1.00e+00  1.37e+01 -1.00e+00    1.0000 >    0.9525   -0.0139    1.4627  737.1780 9821.5410   -1.2220    2.5793 342.01 342.0 130.4 10     0.0000    0.0191
M13          ?    BHE  e S      ? 20230719 0259   42.1794 GAU  7.37e-04 -1.00e+00 -1.00e+00 -1.00e+00    1.0000 >    1.6201    0.0133    1.5787  737.1780 9821.5410   -1.2220    2.5793 342.01 342.0 128.3 10     0.0000    0.0324
M10          ?    BHZ  i P      c 20230719 0259   41.5606 GAU  1.27e-03 -1.00e+00 -1.00e+00 -1.00e+00    1.0000 >    0.9716    0.0430    1.3861  736.5490 9821.3650   -1.2200    2.6867 327.95 328.0 128.9 10     0.0000    0.0194
M10          ?    BHN  e S      ? 20230719 0259   42.2095 GAU  7.49e-04 -1.00e+00 -1.00e+00 -1.00e+00    1.0000 >    1.6522    0.0113    1.5674  736.5490 9821.3650   -1.2200    2.6867 327.95 328.0 126.9 10     0.0000    0.0330
M08          ?    BHZ  e P      d 20230719 0259   41.5692 GAU  1.05e-04 -1.00e+00  7.55e+02 -1.00e+00    1.0000 >    1.0337   -0.0105    1.5259  738.2480 9822.1600   -1.1510    3.0843   5.08   5.1 123.1 10     0.0000    0.0207
M08          ?    BHE  e S      ? 20230719 0259   42.2954 GAU  4.68e-04 -1.00e+00 -1.00e+00 -1.00e+00    1.0000 >    1.7557   -0.0063    1.4296  738.2480 9822.1600   -1.1510    3.0843   5.08   5.1 120.9 10     0.0000    0.0351
M05          ?    BHZ  e P      d 20230719 0259   41.8920 GAU  2.46e-03 -1.00e+00  1.44e+02 -1.00e+00    1.0000 >    1.1068    0.2392    0.1451  736.2660 9822.0830   -1.1500    3.4483 330.30 330.3 119.2 10     0.0000    0.0221
M05          ?    BHN  e S      ? 20230719 0259   42.8143 GAU  1.26e-03 -1.00e+00  2.90e+02 -1.00e+00    1.0000 >    1.8786    0.3897    0.0656  736.2660 9822.0830   -1.1500    3.4483 330.30 330.3 116.7 10     0.0000    0.0376
M12          ?    BHZ  i P      c 20230719 0259   42.1019 GAU  4.47e-04 -1.00e+00 -1.00e+00 -1.00e+00    1.0000 >    1.2920    0.2639    0.1455  736.8520 9823.3800   -0.9890    4.4366 345.34 345.3 109.0 10     0.0000    0.0258
M12          ?    BHE  e S      ? 20230719 0259   43.1810 GAU  4.27e-04 -1.00e+00  9.22e+01 -1.00e+00    1.0000 >    2.1841    0.4508    0.0623  736.8520 9823.3800   -0.9890    4.4366 345.34 345.3 106.6 10     0.0000    0.0437
END_PHASE
END_NLLOC

