NLLOC "./loc/SEML.20230717.150433.grid0" "LOCATED" "Location completed."
PUBLIC_ID None
SIGNATURE "Arham Zakki Edelo - edelo.17034@mhs.its.ac.id   obs:./obs/2023_07.obs   NLLoc:v7.00.10(30Aug2020)   run:28Dec2023 20h05m44"
COMMENT "SEML"
GRID  2001 2001 1001  727 9811 -2  0.01 0.01 0.01 PROB_DENSITY
SEARCH OCTREE nInitial 4851 nEvaluated 20027 smallestNodeSide 0.007440/0.007440/0.007102 oct_tree_integral 5.347936e-03 scatter_volume 5.325441e-03
HYPOCENTER  x 737.134 y 9818.84 z -0.0255682  OT 33.4034  ix -1 iy -1 iz -1 MAXIMUM_LIKELIHOOD
GEOGRAPHIC  OT 2023 07 17  15 04 33.403353  Lat 9818.842262 Long 737.133929 Depth -0.025568
QUALITY  Pmax 3.11214e+35 MFmin 47.4113 MFmax 54.5041 RMS 0.00669814 Nphs 12 Gap 277.421 Dist 0.77852 Mamp -9.90 0 Mdur -9.90 0
VPVSRATIO  VpVsRatio 1.68162  Npair 6  Diff 0.478645
STATISTICS  ExpectX 736.990402 Y 9818.866145 Z -0.012235  CovXX 0.132141 XY -0.0332198 XZ -0.0234333 YY 0.0130126 YZ 0.0047691 ZZ 0.00955351 EllAz1  201.293 Dip1  -33.9218 Len1  0.111275 Az2  0.312023 Dip2  -54.2355 Len2  0.148063 Len3  7.154092e-01
STAT_GEOG  ExpectLat 9818.866145 Long 736.990402 Depth -0.012235
TRANSFORM  NONE
QML_OriginQuality  assocPhCt 12  usedPhCt 12  assocStaCt -1  usedStaCt 6  depthPhCt -1  stdErr 0.00669814  azGap 277.421  secAzGap 277.421  gtLevel -  minDist 0.77852 maxDist 3.97278 medDist 2.48433
QML_OriginUncertainty  horUnc -1  minHorUnc 0.100314  maxHorUnc 0.569025  azMaxHorUnc 104.575
QML_ConfidenceEllipsoid  semiMajorAxisLength 0.715409  semiMinorAxisLength 0.111275  semiIntermediateAxisLength 0.148063  majorAxisPlunge -10.0002  majorAxisAzimuth 104.483  majorAxisRotation 323.8
FOCALMECH  Hyp  9818.842262 737.133929 -0.025568 Mech  0 0 0 mf  0 nObs -1
PHASE ID Ins Cmp On Pha  FM Date     HrMn   Sec     Err  ErrMag    Coda      Amp       Per       PriorWt  >   TTpred    Res       Weight    StaLoc(X  Y         Z)        SDist    SAzim  RAz  RDip RQual    Tcorr       TTerr
M02          ?    BHZ  e P      c 20230717 1504   33.8500 GAU  3.38e-03 -1.00e+00 -1.00e+00 -1.00e+00    1.0000 >    0.4476   -0.0010    1.8878  736.5970 9819.4060   -1.4960    0.7785 316.40 316.4 151.0 10     0.0000    0.0090
M02          ?    BHE  e S      ? 20230717 1504   34.1919 GAU  1.90e-03 -1.00e+00 -1.00e+00 -1.00e+00    1.0000 >    0.7830    0.0056    1.6949  736.5970 9819.4060   -1.4960    0.7785 316.40 316.4 151.8 10     0.0000    0.0157
M11          ?    BHZ  e P      c 20230717 1504   34.2052 GAU  4.81e-03 -1.00e+00 -1.00e+00 -1.00e+00    1.0000 >    0.6644    0.1374    0.0009  738.4670 9820.4900   -1.3120    2.1195  38.97  39.0 118.0 10     0.0000    0.0133
M11          ?    BHE  e S      ? 20230717 1504   34.8174 GAU  9.31e-04 -1.00e+00 -1.00e+00 -1.00e+00    1.0000 >    1.1654    0.2486    0.0001  738.4670 9820.4900   -1.3120    2.1195  38.97  39.0 120.2 10     0.0000    0.0233
M09          ?    BHZ  e P      d 20230717 1504   34.0961 GAU  1.38e-03 -1.00e+00  2.07e+02 -1.00e+00    1.0000 >    0.6930   -0.0002    1.7794  737.8820 9820.9850   -1.2700    2.2696  19.25  19.2 115.3 10     0.0000    0.0139
M09          ?    BHN  e S      ? 20230717 1504   34.6249 GAU  3.44e-04 -1.00e+00  4.96e+02 -1.00e+00    1.0000 >    1.2164    0.0052    1.4136  737.8820 9820.9850   -1.2700    2.2696  19.25  19.2 117.6 10     0.0000    0.0243
M13          ?    BHZ  i P      c 20230717 1504   34.1888 GAU  8.62e-04 -1.00e+00 -1.00e+00 -1.00e+00    1.0000 >    0.7893   -0.0038    1.6651  737.1780 9821.5410   -1.2220    2.6991   0.94   0.9 110.1 10     0.0000    0.0158
M13          ?    BHN  e S      ? 20230717 1504   34.7878 GAU  1.61e-03 -1.00e+00 -1.00e+00 -1.00e+00    1.0000 >    1.3871   -0.0026    1.2986  737.1780 9821.5410   -1.2220    2.6991   0.94   0.9 112.7 10     0.0000    0.0277
M05          ?    BHZ  e P      d 20230717 1504   34.1443 GAU  3.65e-03 -1.00e+00  3.93e+02 -1.00e+00    1.0000 >    0.9432   -0.2023    0.0001  736.2660 9822.0830   -1.1500    3.3549 345.01 345.0 104.4 10     0.0000    0.0189
M05          ?    BHN  e S      ? 20230717 1504   34.7175 GAU  2.56e-03 -1.00e+00  2.85e+02 -1.00e+00    1.0000 >    1.6613   -0.3471    0.0001  736.2660 9822.0830   -1.1500    3.3549 345.01 345.0 107.1 10     0.0000    0.0332
M07          ?    BHZ  e P      c 20230717 1504   34.5192 GAU  5.99e-04 -1.00e+00 -1.00e+00 -1.00e+00    1.0000 >    1.0954    0.0205    1.2058  737.4430 9822.8030   -1.1120    3.9728   4.46   4.5 101.2 10     0.0000    0.0219
M07          ?    BHE  e S      ? 20230717 1504   35.3398 GAU  1.29e-04 -1.00e+00 -1.00e+00 -1.00e+00    1.0000 >    1.9328    0.0036    1.0535  737.4430 9822.8030   -1.1120    3.9728   4.46   4.5 103.7 10     0.0000    0.0387
END_PHASE
END_NLLOC

