NLLOC "./loc/SEML.20230720.011546.grid0" "LOCATED" "Location completed."
PUBLIC_ID None
SIGNATURE "Arham Zakki Edelo - edelo.17034@mhs.its.ac.id   obs:./obs/2023_07.obs   NLLoc:v7.00.10(30Aug2020)   run:28Dec2023 20h06m10"
COMMENT "SEML"
GRID  2001 2001 1001  727 9811 -2  0.01 0.01 0.01 PROB_DENSITY
SEARCH OCTREE nInitial 4851 nEvaluated 20011 smallestNodeSide 0.014881/0.014881/0.014205 oct_tree_integral 1.638813e-02 scatter_volume 1.632936e-02
HYPOCENTER  x 737.573 y 9818.24 z 0.194602  OT 46.2318  ix -1 iy -1 iz -1 MAXIMUM_LIKELIHOOD
GEOGRAPHIC  OT 2023 07 20  01 15 46.231755  Lat 9818.239583 Long 737.572917 Depth 0.194602
QUALITY  Pmax 1.60894e+75 MFmin 82.1543 MFmax 95.3304 RMS 0.0213031 Nphs 22 Gap 298.414 Dist 1.10109 Mamp -9.90 0 Mdur -9.90 0
VPVSRATIO  VpVsRatio 1.72095  Npair 11  Diff 0.636982
STATISTICS  ExpectX 737.396279 Y 9818.242872 Z 0.203744  CovXX 0.0385934 XY -0.00314983 XZ -0.00210547 YY 0.0080539 YZ -0.0015044 ZZ 0.0065369 EllAz1  10.6175 Dip1  55.3653 Len1  0.136103 Az2  183.287 Dip2  34.4151 Len2  0.177302 Len3  3.711879e-01
STAT_GEOG  ExpectLat 9818.242872 Long 737.396279 Depth 0.203744
TRANSFORM  NONE
QML_OriginQuality  assocPhCt 22  usedPhCt 22  assocStaCt -1  usedStaCt 11  depthPhCt -1  stdErr 0.0213031  azGap 298.414  secAzGap 298.414  gtLevel -  minDist 1.10109 maxDist 5.19072 medDist 2.76276
QML_OriginUncertainty  horUnc -1  minHorUnc 0.133359  maxHorUnc 0.299173  azMaxHorUnc 95.8277
QML_ConfidenceEllipsoid  semiMajorAxisLength 0.371188  semiMinorAxisLength 0.136103  semiIntermediateAxisLength 0.177302  majorAxisPlunge -3.4297  majorAxisAzimuth 95.6401  majorAxisRotation 124.294
FOCALMECH  Hyp  9818.239583 737.572917 0.194602 Mech  0 0 0 mf  0 nObs -1
PHASE ID Ins Cmp On Pha  FM Date     HrMn   Sec     Err  ErrMag    Coda      Amp       Per       PriorWt  >   TTpred    Res       Weight    StaLoc(X  Y         Z)        SDist    SAzim  RAz  RDip RQual    Tcorr       TTerr
M04          ?    BHZ  e P      c 20230720 0115   46.7907 GAU  2.95e-03 -1.00e+00  9.76e+02 -1.00e+00    1.0000 >    0.5575    0.0015    1.8655  737.1400 9819.2520   -1.5710    1.1011 336.85 336.8 146.9 10     0.0000    0.0112
M04          ?    BHE  e S      ? 20230720 0115   47.2008 GAU  3.52e-03 -1.00e+00  2.95e+01 -1.00e+00    1.0000 >    0.9732   -0.0042    1.6412  737.1400 9819.2520   -1.5710    1.1011 336.85 336.8 146.3 10     0.0000    0.0195
M02          ?    BHZ  i P      d 20230720 0115   46.8429 GAU  1.55e-03 -1.00e+00 -1.00e+00 -1.00e+00    1.0000 >    0.6083    0.0028    1.8413  736.5970 9819.4060   -1.4960    1.5208 320.08 320.1 136.4 10     0.0000    0.0122
M02          ?    BHE  e S      ? 20230720 0115   47.3112 GAU  1.57e-03 -1.00e+00  6.20e+03 -1.00e+00    1.0000 >    1.0625    0.0169    1.4291  736.5970 9819.4060   -1.4960    1.5208 320.08 320.1 135.5 10     0.0000    0.0213
M14          ?    BHZ  i P      c 20230720 0115   46.8578 GAU  1.55e-03 -1.00e+00 -1.00e+00 -1.00e+00    1.0000 >    0.6361   -0.0101    1.6936  737.5530 9820.0110   -1.3980    1.7715 359.36 359.4 129.8 10     0.0000    0.0127
M14          ?    BHN  e S      ? 20230720 0115   47.3440 GAU  1.19e-03 -1.00e+00  6.71e+02 -1.00e+00    1.0000 >    1.1120    0.0003    1.5920  737.5530 9820.0110   -1.3980    1.7715 359.36 359.4 128.6 10     0.0000    0.0222
M11          ?    BHZ  i P      c 20230720 0115   47.0662 GAU  3.91e-03 -1.00e+00 -1.00e+00 -1.00e+00    1.0000 >    0.7602    0.0742    0.2879  738.4670 9820.4900   -1.3120    2.4215  21.67  21.7 119.1 10     0.0000    0.0152
M11          ?    BHE  i S      ? 20230720 0115   47.6831 GAU  7.28e-04 -1.00e+00 -1.00e+00 -1.00e+00    1.0000 >    1.3303    0.1211    0.0940  738.4670 9820.4900   -1.3120    2.4215  21.67  21.7 117.1 10     0.0000    0.0266
M03          ?    BHZ  e P      d 20230720 0115   47.0314 GAU  5.98e-04 -1.00e+00  2.21e+02 -1.00e+00    1.0000 >    0.8285   -0.0289    1.0252  736.8800 9820.8540   -1.3350    2.7047 345.16 345.2 116.4 10     0.0000    0.0166
M03          ?    BHN  e S      ? 20230720 0115   47.6182 GAU  2.52e-03 -1.00e+00 -1.00e+00 -1.00e+00    1.0000 >    1.4496   -0.0631    0.3951  736.8800 9820.8540   -1.3350    2.7047 345.16 345.2 114.2 10     0.0000    0.0290
M09          ?    BHZ  i P      c 20230720 0115   47.0602 GAU  1.40e-03 -1.00e+00  1.29e+02 -1.00e+00    1.0000 >    0.8326   -0.0042    1.7224  737.8820 9820.9850   -1.2700    2.7628   6.42   6.4 114.9 10     0.0000    0.0167
M09          ?    BHE  e S      ? 20230720 0115   47.7376 GAU  3.76e-03 -1.00e+00  3.26e+02 -1.00e+00    1.0000 >    1.4577    0.0481    0.7980  737.8820 9820.9850   -1.2700    2.7628   6.42   6.4 112.4 10     0.0000    0.0292
M10          ?    BHZ  e P      c 20230720 0115   47.3840 GAU  3.22e-03 -1.00e+00 -1.00e+00 -1.00e+00    1.0000 >    0.9518    0.2004    0.0069  736.5490 9821.3650   -1.2200    3.2889 341.86 341.9 109.8 10     0.0000    0.0190
M10          ?    BHE  e S      ? 20230720 0115   48.2966 GAU  4.22e-03 -1.00e+00 -1.00e+00 -1.00e+00    1.0000 >    1.6673    0.3975    0.0000  736.5490 9821.3650   -1.2200    3.2889 341.86 341.9 106.5 10     0.0000    0.0333
M08          ?    BHZ  e P      c 20230720 0115   47.1952 GAU  1.08e-03 -1.00e+00 -1.00e+00 -1.00e+00    1.0000 >    1.1136   -0.1501    0.0470  738.2480 9822.1600   -1.1510    3.9781   9.77   9.8 105.0 10     0.0000    0.0223
M08          ?    BHE  e S      ? 20230720 0115   47.9735 GAU  4.48e-04 -1.00e+00 -1.00e+00 -1.00e+00    1.0000 >    1.9520   -0.2103    0.0385  738.2480 9822.1600   -1.1510    3.9781   9.77   9.8 100.7 10     0.0000    0.0390
M05          ?    BHZ  e P      c 20230720 0115   47.3855 GAU  2.42e-03 -1.00e+00 -1.00e+00 -1.00e+00    1.0000 >    1.1338    0.0200    1.3501  736.2660 9822.0830   -1.1500    4.0595 341.22 341.2 104.6 10     0.0000    0.0227
M05          ?    BHN  e S      ? 20230720 0115   48.2104 GAU  8.74e-04 -1.00e+00  2.38e+02 -1.00e+00    1.0000 >    1.9874   -0.0087    1.1843  736.2660 9822.0830   -1.1500    4.0595 341.22 341.2 100.1 10     0.0000    0.0397
M07          ?    BHZ  e P      d 20230720 0115   47.5032 GAU  8.09e-04 -1.00e+00  6.61e+02 -1.00e+00    1.0000 >    1.2568    0.0146    1.4157  737.4430 9822.8030   -1.1120    4.5653 358.37 358.4 102.3 10     0.0000    0.0251
M07          ?    BHN  e S      ? 20230720 0115   48.4582 GAU  3.64e-04 -1.00e+00 -1.00e+00 -1.00e+00    1.0000 >    2.2030    0.0235    1.0750  737.4430 9822.8030   -1.1120    4.5653 358.37 358.4  97.4 10     0.0000    0.0441
M12          ?    BHZ  e P      c 20230720 0115   47.6359 GAU  3.33e-03 -1.00e+00 -1.00e+00 -1.00e+00    1.0000 >    1.4030    0.0011    1.4437  736.8520 9823.3800   -0.9890    5.1907 352.02 352.0  99.5 10     0.0000    0.0281
M12          ?    BHE  e S      ? 20230720 0115   48.6829 GAU  1.07e-03 -1.00e+00  3.67e+01 -1.00e+00    1.0000 >    2.4590   -0.0078    1.0535  736.8520 9823.3800   -0.9890    5.1907 352.02 352.0  95.0 10     0.0000    0.0492
END_PHASE
END_NLLOC

