NLLOC "./loc/SEML.20230719.031211.grid0" "LOCATED" "Location completed."
PUBLIC_ID None
SIGNATURE "Arham Zakki Edelo - edelo.17034@mhs.its.ac.id   obs:./obs/2023_07.obs   NLLoc:v7.00.10(30Aug2020)   run:28Dec2023 20h06m00"
COMMENT "SEML"
GRID  2001 2001 1001  727 9811 -2  0.01 0.01 0.01 PROB_DENSITY
SEARCH OCTREE nInitial 4851 nEvaluated 20019 smallestNodeSide 0.014881/0.014881/0.014205 oct_tree_integral 1.559120e-02 scatter_volume 1.544429e-02
HYPOCENTER  x 737.499 y 9819 z 0.933239  OT 10.7977  ix -1 iy -1 iz -1 MAXIMUM_LIKELIHOOD
GEOGRAPHIC  OT 2023 07 19  03 12 10.797689  Lat 9818.998512 Long 737.498512 Depth 0.933239
QUALITY  Pmax 1.11868e+24 MFmin 31.926 MFmax 38.9059 RMS 0.0024422 Nphs 8 Gap 281.388 Dist 0.820093 Mamp -9.90 0 Mdur -9.90 0
VPVSRATIO  VpVsRatio 1.70709  Npair 4  Diff 0.0953731
STATISTICS  ExpectX 737.485727 Y 9818.990572 Z 0.936134  CovXX 0.0219984 XY 0.00233062 XZ 0.00540001 YY 0.00738914 YZ -0.000429339 ZZ 0.0131721 EllAz1  166.03 Dip1  -14.8674 Len1  0.153696 Az2  227.747 Dip2  60.7391 Len2  0.197897 Len3  2.957192e-01
STAT_GEOG  ExpectLat 9818.990572 Long 737.485727 Depth 0.936134
TRANSFORM  NONE
QML_OriginQuality  assocPhCt 8  usedPhCt 8  assocStaCt -1  usedStaCt 4  depthPhCt -1  stdErr 0.0024422  azGap 281.388  secAzGap 281.388  gtLevel -  minDist 0.820093 maxDist 2.02317 medDist 1.39615
QML_OriginUncertainty  horUnc -1  minHorUnc 0.127124  maxHorUnc 0.226783  azMaxHorUnc 81.1521
QML_ConfidenceEllipsoid  semiMajorAxisLength 0.295719  semiMinorAxisLength 0.153696  semiIntermediateAxisLength 0.197897  majorAxisPlunge 24.584  majorAxisAzimuth 83.0058  majorAxisRotation 335.781
FOCALMECH  Hyp  9818.998512 737.498512 0.933239 Mech  0 0 0 mf  0 nObs -1
PHASE ID Ins Cmp On Pha  FM Date     HrMn   Sec     Err  ErrMag    Coda      Amp       Per       PriorWt  >   TTpred    Res       Weight    StaLoc(X  Y         Z)        SDist    SAzim  RAz  RDip RQual    Tcorr       TTerr
M06          ?    BHZ  i P      c 20230719 0312   11.4481 GAU  3.01e-04 -1.00e+00 -1.00e+00 -1.00e+00    1.0000 >    0.6520   -0.0015    1.1498  738.3100 9819.1170   -1.3960    0.8201  81.69  81.7 159.9 10     0.0000    0.0130
M06          ?    BHN  e S      ? 20230719 0312   11.9184 GAU  1.45e-04 -1.00e+00 -1.00e+00 -1.00e+00    1.0000 >    1.1200    0.0007    0.9356  738.3100 9819.1170   -1.3960    0.8201  81.69  81.7 158.5 10     0.0000    0.0224
M14          ?    BHZ  e P      d 20230719 0312   11.4693 GAU  1.94e-03 -1.00e+00  3.25e+02 -1.00e+00    1.0000 >    0.6712    0.0004    1.1432  737.5530 9820.0110   -1.3980    1.0140   3.08   3.1 155.8 10     0.0000    0.0134
M14          ?    BHN  e S      ? 20230719 0312   11.9541 GAU  3.24e-04 -1.00e+00  3.43e+02 -1.00e+00    1.0000 >    1.1529    0.0034    0.9156  737.5530 9820.0110   -1.3980    1.0140   3.08   3.1 154.0 10     0.0000    0.0231
M11          ?    BHZ  e P      c 20230719 0312   11.5549 GAU  2.98e-03 -1.00e+00 -1.00e+00 -1.00e+00    1.0000 >    0.7546    0.0026    1.0956  738.4670 9820.4900   -1.3120    1.7783  33.00  33.0 140.5 10     0.0000    0.0151
M11          ?    BHN  e S      ? 20230719 0312   12.0982 GAU  2.04e-03 -1.00e+00 -1.00e+00 -1.00e+00    1.0000 >    1.2954    0.0051    0.8494  738.4670 9820.4900   -1.3120    1.7783  33.00  33.0 137.2 10     0.0000    0.0259
M09          ?    BHZ  i P      c 20230719 0312   11.5818 GAU  2.40e-03 -1.00e+00  9.93e+01 -1.00e+00    1.0000 >    0.7872   -0.0031    1.0765  737.8820 9820.9850   -1.2700    2.0232  10.93  10.9 136.1 10     0.0000    0.0157
M09          ?    BHN  e S      ? 20230719 0312   12.1475 GAU  2.97e-03 -1.00e+00  5.04e+02 -1.00e+00    1.0000 >    1.3510   -0.0012    0.8342  737.8820 9820.9850   -1.2700    2.0232  10.93  10.9 132.3 10     0.0000    0.0270
END_PHASE
END_NLLOC

