NLLOC "./loc/SEML.20230719.031438.grid0" "LOCATED" "Location completed."
PUBLIC_ID None
SIGNATURE "Arham Zakki Edelo - edelo.17034@mhs.its.ac.id   obs:./obs/2023_07.obs   NLLoc:v7.00.10(30Aug2020)   run:28Dec2023 20h06m00"
COMMENT "SEML"
GRID  2001 2001 1001  727 9811 -2  0.01 0.01 0.01 PROB_DENSITY
SEARCH OCTREE nInitial 4851 nEvaluated 20019 smallestNodeSide 0.007440/0.007440/0.007102 oct_tree_integral 8.727406e-03 scatter_volume 8.727406e-03
HYPOCENTER  x 738.842 y 9818.5 z -0.341619  OT 38.3642  ix -1 iy -1 iz -1 MAXIMUM_LIKELIHOOD
GEOGRAPHIC  OT 2023 07 19  03 14 38.364192  Lat 9818.496280 Long 738.841518 Depth -0.341619
QUALITY  Pmax 5.24678e+44 MFmin 57.7829 MFmax 72.2635 RMS 0.0147141 Nphs 14 Gap 304.587 Dist 0.817193 Mamp -9.90 0 Mdur -9.90 0
VPVSRATIO  VpVsRatio 1.75345  Npair 7  Diff 0.50053
STATISTICS  ExpectX 738.874870 Y 9818.479444 Z -0.392189  CovXX 0.012326 XY -0.00384225 XZ -0.0122291 YY 0.00633541 YZ 0.00571647 ZZ 0.0267145 EllAz1  31.0811 Dip1  3.64187 Len1  0.125252 Az2  303.388 Dip2  -32.3111 Len2  0.140541 Len3  3.531816e-01
STAT_GEOG  ExpectLat 9818.479444 Long 738.874870 Depth -0.392189
TRANSFORM  NONE
QML_OriginQuality  assocPhCt 14  usedPhCt 14  assocStaCt -1  usedStaCt 7  depthPhCt -1  stdErr 0.0147141  azGap 304.587  secAzGap 304.587  gtLevel -  minDist 0.817193 maxDist 4.41564 medDist 2.02859
QML_OriginUncertainty  horUnc -1  minHorUnc 0.101269  maxHorUnc 0.180737  azMaxHorUnc 116.031
QML_ConfidenceEllipsoid  semiMajorAxisLength 0.353182  semiMinorAxisLength 0.125252  semiIntermediateAxisLength 0.140541  majorAxisPlunge -57.4336  majorAxisAzimuth 115.362  majorAxisRotation 195.78
FOCALMECH  Hyp  9818.496280 738.841518 -0.341619 Mech  0 0 0 mf  0 nObs -1
PHASE ID Ins Cmp On Pha  FM Date     HrMn   Sec     Err  ErrMag    Coda      Amp       Per       PriorWt  >   TTpred    Res       Weight    StaLoc(X  Y         Z)        SDist    SAzim  RAz  RDip RQual    Tcorr       TTerr
M06          ?    BHZ  i P      c 20230719 0314   38.9067 GAU  4.33e-04 -1.00e+00 -1.00e+00 -1.00e+00    1.0000 >    0.3620    0.1805    0.0030  738.3100 9819.1170   -1.3960    0.8172 319.43 319.4 140.3 10     0.0000    0.0072
M06          ?    BHN  e S      ? 20230719 0314   39.3523 GAU  1.42e-03 -1.00e+00 -1.00e+00 -1.00e+00    1.0000 >    0.6292    0.3588    0.0000  738.3100 9819.1170   -1.3960    0.8172 319.43 319.4 141.8 10     0.0000    0.0126
M04          ?    BHZ  e P      d 20230719 0314   38.9710 GAU  1.36e-03 -1.00e+00  7.02e+02 -1.00e+00    1.0000 >    0.6063    0.0004    1.5791  737.1400 9819.2520   -1.5710    1.8618 293.95 293.9 119.0 10     0.0000    0.0121
M04          ?    BHN  e S      ? 20230719 0314   39.4247 GAU  3.01e-04 -1.00e+00  7.81e+02 -1.00e+00    1.0000 >    1.0531    0.0073    1.3201  737.1400 9819.2520   -1.5710    1.8618 293.95 293.9 122.0 10     0.0000    0.0211
M14          ?    BHZ  i P      c 20230719 0314   38.9703 GAU  3.42e-03 -1.00e+00 -1.00e+00 -1.00e+00    1.0000 >    0.6109   -0.0047    1.5434  737.5530 9820.0110   -1.3980    1.9886 319.61 319.6 112.7 10     0.0000    0.0122
M14          ?    BHE  e S      ? 20230719 0314   39.4142 GAU  5.72e-04 -1.00e+00  4.25e+02 -1.00e+00    1.0000 >    1.0624   -0.0125    1.2488  737.5530 9820.0110   -1.3980    1.9886 319.61 319.6 116.4 10     0.0000    0.0212
M11          ?    BHZ  i P      c 20230719 0314   38.9786 GAU  2.85e-03 -1.00e+00 -1.00e+00 -1.00e+00    1.0000 >    0.6093    0.0051    1.5273  738.4670 9820.4900   -1.3120    2.0286 349.36 349.4 109.9 10     0.0000    0.0122
M11          ?    BHE  e S      ? 20230719 0314   39.4271 GAU  3.97e-04 -1.00e+00 -1.00e+00 -1.00e+00    1.0000 >    1.0607    0.0022    1.3551  738.4670 9820.4900   -1.3120    2.0286 349.36 349.4 113.9 10     0.0000    0.0212
M09          ?    BHZ  i P      c 20230719 0314   39.1018 GAU  9.88e-04 -1.00e+00  7.06e+01 -1.00e+00    1.0000 >    0.7639   -0.0262    0.8861  737.8820 9820.9850   -1.2700    2.6673 338.92 338.9 101.9 10     0.0000    0.0153
M09          ?    BHN  e S      ? 20230719 0314   39.7121 GAU  4.21e-04 -1.00e+00  5.24e+02 -1.00e+00    1.0000 >    1.3317    0.0162    1.1021  737.8820 9820.9850   -1.2700    2.6673 338.92 338.9 107.0 10     0.0000    0.0266
M10          ?    BHZ  e P      c 20230719 0314   39.3779 GAU  2.48e-03 -1.00e+00 -1.00e+00 -1.00e+00    1.0000 >    1.0166   -0.0029    1.3730  736.5490 9821.3650   -1.2200    3.6722 321.37 321.4  95.8  9     0.0000    0.0203
M10          ?    BHN  e S      ? 20230719 0314   40.1222 GAU  1.46e-03 -1.00e+00 -1.00e+00 -1.00e+00    1.0000 >    1.7792   -0.0212    0.9090  736.5490 9821.3650   -1.2200    3.6722 321.37 321.4 100.4 10     0.0000    0.0356
M05          ?    BHZ  e P      c 20230719 0314   39.5999 GAU  1.53e-03 -1.00e+00  8.73e+00 -1.00e+00    1.0000 >    1.2021    0.0336    0.7666  736.2660 9822.0830   -1.1500    4.4156 324.32 324.3  93.9  9     0.0000    0.0240
M05          ?    BHN  e S      ? 20230719 0314   40.5442 GAU  8.14e-04 -1.00e+00  2.88e+02 -1.00e+00    1.0000 >    2.1133    0.0667    0.3863  736.2660 9822.0830   -1.1500    4.4156 324.32 324.3  96.8 10     0.0000    0.0423
END_PHASE
END_NLLOC

