NLLOC "./loc/SEML.20230719.032409.grid0" "LOCATED" "Location completed."
PUBLIC_ID None
SIGNATURE "Arham Zakki Edelo - edelo.17034@mhs.its.ac.id   obs:./obs/2023_07.obs   NLLoc:v7.00.10(30Aug2020)   run:28Dec2023 20h06m04"
COMMENT "SEML"
GRID  2001 2001 1001  727 9811 -2  0.01 0.01 0.01 PROB_DENSITY
SEARCH OCTREE nInitial 4851 nEvaluated 20003 smallestNodeSide 0.007440/0.007440/0.007102 oct_tree_integral 8.308369e-03 scatter_volume 8.308369e-03
HYPOCENTER  x 738.142 y 9818.67 z 0.37571  OT 8.74704  ix -1 iy -1 iz -1 MAXIMUM_LIKELIHOOD
GEOGRAPHIC  OT 2023 07 19  03 24 8.747039  Lat 9818.674851 Long 738.142113 Depth 0.375710
QUALITY  Pmax 9.75196e+77 MFmin 86.4636 MFmax 109.283 RMS 0.0252576 Nphs 22 Gap 274.531 Dist 0.47295 Mamp -9.90 0 Mdur -9.90 0
VPVSRATIO  VpVsRatio 1.68843  Npair 11  Diff 0.60373
STATISTICS  ExpectX 738.163499 Y 9818.652031 Z 0.372702  CovXX 0.0111496 XY -0.00239053 XZ -0.00170505 YY 0.00735336 YZ -0.00174578 ZZ 0.0093219 EllAz1  29.0342 Dip1  28.3047 Len1  0.132202 Az2  170.941 Dip2  55.6161 Len2  0.190846 Len3  2.105287e-01
STAT_GEOG  ExpectLat 9818.652031 Long 738.163499 Depth 0.372702
TRANSFORM  NONE
QML_OriginQuality  assocPhCt 22  usedPhCt 22  assocStaCt -1  usedStaCt 11  depthPhCt -1  stdErr 0.0252576  azGap 274.531  secAzGap 274.531  gtLevel -  minDist 0.47295 maxDist 4.87881 medDist 2.32475
QML_OriginUncertainty  horUnc -1  minHorUnc 0.119406  maxHorUnc 0.168223  azMaxHorUnc 115.775
QML_ConfidenceEllipsoid  semiMajorAxisLength 0.210529  semiMinorAxisLength 0.132202  semiIntermediateAxisLength 0.190846  majorAxisPlunge -17.8638  majorAxisAzimuth 109.039  majorAxisRotation 144.711
FOCALMECH  Hyp  9818.674851 738.142113 0.375710 Mech  0 0 0 mf  0 nObs -1
PHASE ID Ins Cmp On Pha  FM Date     HrMn   Sec     Err  ErrMag    Coda      Amp       Per       PriorWt  >   TTpred    Res       Weight    StaLoc(X  Y         Z)        SDist    SAzim  RAz  RDip RQual    Tcorr       TTerr
M06          ?    BHZ  i P      c 20230719 0324    9.2501 GAU  4.99e-04 -1.00e+00  4.50e+01 -1.00e+00    1.0000 >    0.4885    0.0145    1.2187  738.3100 9819.1170   -1.3960    0.4729  20.79  20.8 164.6 10     0.0000    0.0098
M06          ?    BHN  e S      ? 20230719 0324    9.7117 GAU  1.26e-03 -1.00e+00 -1.00e+00 -1.00e+00    1.0000 >    0.8525    0.1121    0.0243  738.3100 9819.1170   -1.3960    0.4729  20.79  20.8 164.3 10     0.0000    0.0171
M04          ?    BHZ  e P      d 20230719 0324    9.3540 GAU  2.68e-03 -1.00e+00  8.94e+02 -1.00e+00    1.0000 >    0.6047    0.0023    1.4578  737.1400 9819.2520   -1.5710    1.1564 299.94 299.9 148.3 10     0.0000    0.0121
M04          ?    BHN  e S      ? 20230719 0324    9.7773 GAU  7.72e-03 -1.00e+00  6.89e+02 -1.00e+00    1.0000 >    1.0542   -0.0239    1.2077  737.1400 9819.2520   -1.5710    1.1564 299.94 299.9 147.8 10     0.0000    0.0211
M14          ?    BHZ  i P      c 20230719 0324    9.3550 GAU  3.43e-03 -1.00e+00 -1.00e+00 -1.00e+00    1.0000 >    0.6116   -0.0036    1.4708  737.5530 9820.0110   -1.3980    1.4603 336.21 336.2 139.3 10     0.0000    0.0122
M14          ?    BHE  e S      ? 20230719 0324    9.7808 GAU  2.46e-03 -1.00e+00  3.44e+02 -1.00e+00    1.0000 >    1.0674   -0.0336    1.0649  737.5530 9820.0110   -1.3980    1.4603 336.21 336.2 138.6 10     0.0000    0.0213
M02          ?    BHZ  e P      c 20230719 0324    9.3782 GAU  3.26e-03 -1.00e+00 -1.00e+00 -1.00e+00    1.0000 >    0.6758   -0.0447    0.8112  736.5970 9819.4060   -1.4960    1.7094 295.32 295.3 136.1 10     0.0000    0.0135
M02          ?    BHN  e S      ? 20230719 0324    9.9540 GAU  1.04e-03 -1.00e+00 -1.00e+00 -1.00e+00    1.0000 >    1.1787    0.0283    0.8586  736.5970 9819.4060   -1.4960    1.7094 295.32 295.3 135.3 10     0.0000    0.0236
M11          ?    BHZ  i P      c 20230719 0324    9.3470 GAU  3.17e-03 -1.00e+00 -1.00e+00 -1.00e+00    1.0000 >    0.6642   -0.0642    0.4806  738.4670 9820.4900   -1.3120    1.8440  10.15  10.1 130.6 10     0.0000    0.0133
M11          ?    BHN  e S      ? 20230719 0324    9.8998 GAU  4.77e-04 -1.00e+00 -1.00e+00 -1.00e+00    1.0000 >    1.1598   -0.0071    1.3236  738.4670 9820.4900   -1.3120    1.8440  10.15  10.1 129.6 10     0.0000    0.0232
M09          ?    BHZ  i P      c 20230719 0324    9.4721 GAU  1.35e-03 -1.00e+00  2.22e+02 -1.00e+00    1.0000 >    0.7562   -0.0311    1.0828  737.8820 9820.9850   -1.2700    2.3247 353.58 353.6 123.1 10     0.0000    0.0151
M09          ?    BHE  e S      ? 20230719 0324   10.0784 GAU  6.74e-04 -1.00e+00  3.40e+02 -1.00e+00    1.0000 >    1.3209    0.0105    1.1588  737.8820 9820.9850   -1.2700    2.3247 353.58 353.6 121.7 10     0.0000    0.0264
M13          ?    BHZ  i P      c 20230719 0324    9.5680 GAU  9.70e-04 -1.00e+00 -1.00e+00 -1.00e+00    1.0000 >    0.9068   -0.0858    0.2639  737.1780 9821.5410   -1.2220    3.0240 341.41 341.4 115.2 10     0.0000    0.0181
M13          ?    BHE  e S      ? 20230719 0324   10.2390 GAU  5.41e-04 -1.00e+00 -1.00e+00 -1.00e+00    1.0000 >    1.5846   -0.0926    0.3034  737.1780 9821.5410   -1.2220    3.0240 341.41 341.4 113.2 10     0.0000    0.0317
M10          ?    BHZ  e P      d 20230719 0324    9.6751 GAU  2.26e-03 -1.00e+00  4.39e+02 -1.00e+00    1.0000 >    0.9305   -0.0025    1.3929  736.5490 9821.3650   -1.2200    3.1265 329.37 329.4 114.3 10     0.0000    0.0186
M10          ?    BHE  e S      ? 20230719 0324   10.3769 GAU  5.39e-04 -1.00e+00 -1.00e+00 -1.00e+00    1.0000 >    1.6262    0.0037    1.1351  736.5490 9821.3650   -1.2200    3.1265 329.37 329.4 112.2 10     0.0000    0.0325
M08          ?    BHZ  e P      d 20230719 0324    9.7417 GAU  2.79e-04 -1.00e+00  5.47e+02 -1.00e+00    1.0000 >    1.0072   -0.0126    1.3457  738.2480 9822.1600   -1.1510    3.4868   1.74   1.7 110.9 10     0.0000    0.0201
M08          ?    BHN  e S      ? 20230719 0324   10.5298 GAU  9.57e-04 -1.00e+00  2.96e+02 -1.00e+00    1.0000 >    1.7610    0.0218    0.9264  738.2480 9822.1600   -1.1510    3.4868   1.74   1.7 108.4 10     0.0000    0.0352
M05          ?    BHZ  e P      c 20230719 0324    9.8463 GAU  4.25e-03 -1.00e+00 -1.00e+00 -1.00e+00    1.0000 >    1.1053   -0.0060    1.3353  736.2660 9822.0830   -1.1500    3.8904 331.17 331.2 108.5 10     0.0000    0.0221
M05          ?    BHE  e S      ? 20230719 0324   10.6748 GAU  6.99e-04 -1.00e+00 -1.00e+00 -1.00e+00    1.0000 >    1.9324   -0.0046    1.0800  736.2660 9822.0830   -1.1500    3.8904 331.17 331.2 105.7 10     0.0000    0.0386
M12          ?    BHZ  e P      c 20230719 0324   10.0786 GAU  1.65e-03 -1.00e+00 -1.00e+00 -1.00e+00    1.0000 >    1.3331   -0.0015    1.2551  736.8520 9823.3800   -0.9890    4.8788 344.67 344.7 103.0 10     0.0000    0.0267
M12          ?    BHE  e S      ? 20230719 0324   11.1056 GAU  4.04e-03 -1.00e+00  1.13e+02 -1.00e+00    1.0000 >    2.3315    0.0271    0.8023  736.8520 9823.3800   -0.9890    4.8788 344.67 344.7  90.6  9     0.0000    0.0466
END_PHASE
END_NLLOC

