NLLOC "./loc/SEML.20230719.030026.grid0" "LOCATED" "Location completed."
PUBLIC_ID None
SIGNATURE "Arham Zakki Edelo - edelo.17034@mhs.its.ac.id   obs:./obs/2023_07.obs   NLLoc:v7.00.10(30Aug2020)   run:28Dec2023 20h05m48"
COMMENT "SEML"
GRID  2001 2001 1001  727 9811 -2  0.01 0.01 0.01 PROB_DENSITY
SEARCH OCTREE nInitial 4851 nEvaluated 20003 smallestNodeSide 0.014881/0.014881/0.014205 oct_tree_integral 1.255026e-02 scatter_volume 1.255026e-02
HYPOCENTER  x 738.466 y 9818.61 z 0.151989  OT 25.7936  ix -1 iy -1 iz -1 MAXIMUM_LIKELIHOOD
GEOGRAPHIC  OT 2023 07 19  03 00 25.793621  Lat 9818.611607 Long 738.465774 Depth 0.151989
QUALITY  Pmax 4.7464e+91 MFmin 100.58 MFmax 115.827 RMS 0.028718 Nphs 26 Gap 292.992 Dist 0.528855 Mamp -9.90 0 Mdur -9.90 0
VPVSRATIO  VpVsRatio 1.66997  Npair 13  Diff 0.465059
STATISTICS  ExpectX 738.467882 Y 9818.623483 Z 0.224280  CovXX 0.0171162 XY 0.00590827 XZ 0.00137473 YY 0.0202606 YZ 0.00767759 ZZ 0.0223302 EllAz1  140.311 Dip1  23.8427 Len1  0.196588 Az2  251.796 Dip2  39.6489 Len2  0.251089 Len3  3.302617e-01
STAT_GEOG  ExpectLat 9818.623483 Long 738.467882 Depth 0.224280
TRANSFORM  NONE
QML_OriginQuality  assocPhCt 26  usedPhCt 26  assocStaCt -1  usedStaCt 13  depthPhCt -1  stdErr 0.028718  azGap 292.992  secAzGap 292.992  gtLevel -  minDist 0.528855 maxDist 5.03407 medDist 2.74645
QML_OriginUncertainty  horUnc -1  minHorUnc 0.170063  maxHorUnc 0.238841  azMaxHorUnc 37.5495
QML_ConfidenceEllipsoid  semiMajorAxisLength 0.330262  semiMinorAxisLength 0.196588  semiIntermediateAxisLength 0.251089  majorAxisPlunge 40.9444  majorAxisAzimuth 27.7656  majorAxisRotation 77.4438
FOCALMECH  Hyp  9818.611607 738.465774 0.151989 Mech  0 0 0 mf  0 nObs -1
PHASE ID Ins Cmp On Pha  FM Date     HrMn   Sec     Err  ErrMag    Coda      Amp       Per       PriorWt  >   TTpred    Res       Weight    StaLoc(X  Y         Z)        SDist    SAzim  RAz  RDip RQual    Tcorr       TTerr
M06          ?    BHZ  i P      c 20230719 0300   26.3756 GAU  2.33e-03 -1.00e+00  8.62e+02 -1.00e+00    1.0000 >    0.4377    0.1443    0.0025  738.3100 9819.1170   -1.3960    0.5289 342.87 342.9 160.5 10     0.0000    0.0088
M06          ?    BHE  i S      ? 20230719 0300   26.8156 GAU  2.72e-03 -1.00e+00  5.23e+01 -1.00e+00    1.0000 >    0.7653    0.2566    0.0000  738.3100 9819.1170   -1.3960    0.5289 342.87 342.9 160.1 10     0.0000    0.0153
M04          ?    BHZ  e P      d 20230719 0300   26.4099 GAU  2.91e-03 -1.00e+00  3.41e+03 -1.00e+00    1.0000 >    0.6075    0.0088    1.6432  737.1400 9819.2520   -1.5710    1.4723 295.78 295.8 137.8 10     0.0000    0.0122
M04          ?    BHE  e S      ? 20230719 0300   26.8396 GAU  1.72e-03 -1.00e+00  1.37e+02 -1.00e+00    1.0000 >    1.0610   -0.0150    1.4376  737.1400 9819.2520   -1.5710    1.4723 295.78 295.8 137.0 10     0.0000    0.0212
M14          ?    BHZ  i P      c 20230719 0300   26.4527 GAU  1.94e-03 -1.00e+00 -1.00e+00 -1.00e+00    1.0000 >    0.6091    0.0500    0.8140  737.5530 9820.0110   -1.3980    1.6708 326.89 326.9 130.7 10     0.0000    0.0122
M14          ?    BHN  e S      ? 20230719 0300   26.9062 GAU  1.16e-03 -1.00e+00 -1.00e+00 -1.00e+00    1.0000 >    1.0653    0.0474    0.9372  737.5530 9820.0110   -1.3980    1.6708 326.89 326.9 129.5 10     0.0000    0.0213
M11          ?    BHZ  i P      c 20230719 0300   26.4228 GAU  3.54e-03 -1.00e+00 -1.00e+00 -1.00e+00    1.0000 >    0.6355   -0.0063    1.6561  738.4670 9820.4900   -1.3120    1.8784   0.04   0.0 125.5 10     0.0000    0.0127
M11          ?    BHE  e S      ? 20230719 0300   26.8902 GAU  2.17e-03 -1.00e+00 -1.00e+00 -1.00e+00    1.0000 >    1.1124   -0.0159    1.4113  738.4670 9820.4900   -1.3120    1.8784   0.04   0.0 124.0 10     0.0000    0.0222
M02          ?    BHZ  i P      c 20230719 0300   26.4770 GAU  2.64e-03 -1.00e+00 -1.00e+00 -1.00e+00    1.0000 >    0.7001   -0.0166    1.4566  736.5970 9819.4060   -1.4960    2.0306 293.03 293.0 126.5 10     0.0000    0.0140
M02          ?    BHN  e S      ? 20230719 0300   27.0206 GAU  6.24e-04 -1.00e+00 -1.00e+00 -1.00e+00    1.0000 >    1.2235    0.0035    1.5425  736.5970 9819.4060   -1.4960    2.0306 293.03 293.0 125.1 10     0.0000    0.0245
M09          ?    BHZ  i P      c 20230719 0300   26.5660 GAU  7.49e-04 -1.00e+00  8.34e+02 -1.00e+00    1.0000 >    0.7538    0.0187    1.4921  737.8820 9820.9850   -1.2700    2.4441 346.18 346.2 117.2 10     0.0000    0.0151
M09          ?    BHE  e S      ? 20230719 0300   27.1598 GAU  1.58e-03 -1.00e+00  1.34e+02 -1.00e+00    1.0000 >    1.3203    0.0459    0.9808  737.8820 9820.9850   -1.2700    2.4441 346.18 346.2 114.9 10     0.0000    0.0264
M03          ?    BHZ  e P      d 20230719 0300   26.6321 GAU  2.03e-03 -1.00e+00  4.12e+03 -1.00e+00    1.0000 >    0.8334    0.0051    1.6504  736.8800 9820.8540   -1.3350    2.7465 324.73 324.7 115.1 10     0.0000    0.0167
M03          ?    BHE  e S      ? 20230719 0300   27.2436 GAU  2.73e-03 -1.00e+00  8.39e+01 -1.00e+00    1.0000 >    1.4591   -0.0091    1.4042  736.8800 9820.8540   -1.3350    2.7465 324.73 324.7 112.7 10     0.0000    0.0292
M13          ?    BHZ  i P      c 20230719 0300   26.6946 GAU  1.73e-03 -1.00e+00 -1.00e+00 -1.00e+00    1.0000 >    0.9267   -0.0257    1.2189  737.1780 9821.5410   -1.2220    3.2000 336.27 336.3 109.6 10     0.0000    0.0185
M13          ?    BHE  e S      ? 20230719 0300   27.3333 GAU  4.01e-03 -1.00e+00 -1.00e+00 -1.00e+00    1.0000 >    1.6245   -0.0847    0.3849  737.1780 9821.5410   -1.2220    3.2000 336.27 336.3 106.2 10     0.0000    0.0325
M10          ?    BHZ  e P      c 20230719 0300   26.7966 GAU  4.03e-03 -1.00e+00 -1.00e+00 -1.00e+00    1.0000 >    0.9643    0.0387    1.1170  736.5490 9821.3650   -1.2200    3.3549 325.16 325.2 108.6 10     0.0000    0.0193
M10          ?    BHN  e S      ? 20230719 0300   27.5278 GAU  4.04e-03 -1.00e+00 -1.00e+00 -1.00e+00    1.0000 >    1.6904    0.0438    1.0108  736.5490 9821.3650   -1.2200    3.3549 325.16 325.2 104.8 10     0.0000    0.0338
M08          ?    BHZ  e P      d 20230719 0300   26.7274 GAU  4.96e-04 -1.00e+00  1.55e+03 -1.00e+00    1.0000 >    1.0054   -0.0716    0.3491  738.2480 9822.1600   -1.1510    3.5551 356.49 356.5 106.4 10     0.0000    0.0201
M08          ?    BHE  e S      ? 20230719 0300   27.4118 GAU  5.59e-04 -1.00e+00 -1.00e+00 -1.00e+00    1.0000 >    1.7638   -0.1457    0.1482  738.2480 9822.1600   -1.1510    3.5551 356.49 356.5 102.0 10     0.0000    0.0353
M05          ?    BHZ  i P      d 20230719 0300   26.9272 GAU  6.44e-03 -1.00e+00  3.95e+02 -1.00e+00    1.0000 >    1.1437   -0.0101    1.4760  736.2660 9822.0830   -1.1500    4.1097 327.64 327.6 103.6 10     0.0000    0.0229
M05          ?    BHN  e S      ? 20230719 0300   27.7692 GAU  1.74e-03 -1.00e+00  3.55e+02 -1.00e+00    1.0000 >    2.0063   -0.0307    1.0639  736.2660 9822.0830   -1.1500    4.1097 327.64 327.6  98.5 10     0.0000    0.0401
M01          ?    BHZ  i P      c 20230719 0300   27.0325 GAU  2.55e-03 -1.00e+00  1.52e+01 -1.00e+00    1.0000 >    1.2164    0.0224    1.4017  736.4090 9822.5140   -1.1200    4.4112 332.21 332.2 102.1 10     0.0000    0.0243
M01          ?    BHE  e S      ? 20230719 0300   27.9272 GAU  3.02e-03 -1.00e+00  3.84e+02 -1.00e+00    1.0000 >    2.1340   -0.0005    1.2423  736.4090 9822.5140   -1.1200    4.4112 332.21 332.2  96.8  9     0.0000    0.0427
M12          ?    BHZ  i P      d 20230719 0300   27.0199 GAU  7.28e-04 -1.00e+00  3.02e+02 -1.00e+00    1.0000 >    1.3613   -0.1349    0.1555  736.8520 9823.3800   -0.9890    5.0341 341.30 341.3  99.3 10     0.0000    0.0272
M12          ?    BHN  e S      ? 20230719 0300   27.8849 GAU  1.43e-03 -1.00e+00 -1.00e+00 -1.00e+00    1.0000 >    2.3880   -0.2968    0.0034  736.8520 9823.3800   -0.9890    5.0341 341.30 341.3  94.3  9     0.0000    0.0478
END_PHASE
END_NLLOC

