NLLOC "./loc/SEML.20230715.093003.grid0" "LOCATED" "Location completed."
PUBLIC_ID None
SIGNATURE "Arham Zakki Edelo - edelo.17034@mhs.its.ac.id   obs:./obs/2023_07.obs   NLLoc:v7.00.10(30Aug2020)   run:28Dec2023 20h05m42"
COMMENT "SEML"
GRID  2001 2001 1001  727 9811 -2  0.01 0.01 0.01 PROB_DENSITY
SEARCH OCTREE nInitial 4851 nEvaluated 20011 smallestNodeSide 0.014881/0.014881/0.014205 oct_tree_integral 1.463318e-02 scatter_volume 1.456980e-02
HYPOCENTER  x 738.257 y 9818.64 z 0.805398  OT 2.75741  ix -1 iy -1 iz -1 MAXIMUM_LIKELIHOOD
GEOGRAPHIC  OT 2023 07 15  09 30 2.757411  Lat 9818.641369 Long 738.257440 Depth 0.805398
QUALITY  Pmax 2.31431e+64 MFmin 75.8301 MFmax 90.075 RMS 0.0308586 Nphs 20 Gap 288.259 Dist 0.478526 Mamp -9.90 0 Mdur -9.90 0
VPVSRATIO  VpVsRatio 1.681  Npair 10  Diff 0.647113
STATISTICS  ExpectX 738.160704 Y 9818.601504 Z 0.767421  CovXX 0.0274499 XY 0.00103682 XZ -0.00204184 YY 0.0143162 YZ 0.00455958 ZZ 0.0164477 EllAz1  350.987 Dip1  -38.7739 Len1  0.192003 Az2  190.569 Dip2  -49.5497 Len2  0.265373 Len3  3.133794e-01
STAT_GEOG  ExpectLat 9818.601504 Long 738.160704 Depth 0.767421
TRANSFORM  NONE
QML_OriginQuality  assocPhCt 20  usedPhCt 20  assocStaCt -1  usedStaCt 10  depthPhCt -1  stdErr 0.0308586  azGap 288.259  secAzGap 288.259  gtLevel -  minDist 0.478526 maxDist 4.94266 medDist 2.11699
QML_OriginUncertainty  horUnc -1  minHorUnc 0.180942  maxHorUnc 0.251638  azMaxHorUnc 85.5139
QML_ConfidenceEllipsoid  semiMajorAxisLength 0.313379  semiMinorAxisLength 0.192003  semiIntermediateAxisLength 0.265373  majorAxisPlunge -9.76013  majorAxisAzimuth 88.9294  majorAxisRotation 221.126
FOCALMECH  Hyp  9818.641369 738.257440 0.805398 Mech  0 0 0 mf  0 nObs -1
PHASE ID Ins Cmp On Pha  FM Date     HrMn   Sec     Err  ErrMag    Coda      Amp       Per       PriorWt  >   TTpred    Res       Weight    StaLoc(X  Y         Z)        SDist    SAzim  RAz  RDip RQual    Tcorr       TTerr
M06          ?    BHZ  i P      c 20230715 0930    3.3405 GAU  8.10e-04 -1.00e+00 -1.00e+00 -1.00e+00    1.0000 >    0.5958   -0.0127    1.7064  738.3100 9819.1170   -1.3960    0.4785   6.31   6.3 167.2 10     0.0000    0.0119
M06          ?    BHE  e S      ? 20230715 0930    3.7862 GAU  1.12e-03 -1.00e+00  2.28e+01 -1.00e+00    1.0000 >    1.0275    0.0013    1.7969  738.3100 9819.1170   -1.3960    0.4785   6.31   6.3 166.2 10     0.0000    0.0205
M04          ?    BHZ  e P      c 20230715 0930    3.4058 GAU  1.79e-03 -1.00e+00  4.87e+02 -1.00e+00    1.0000 >    0.7149   -0.0665    0.4280  737.1400 9819.2520   -1.5710    1.2734 298.65 298.7 150.8 10     0.0000    0.0143
M04          ?    BHN  e S      ? 20230715 0930    3.9052 GAU  9.70e-04 -1.00e+00  7.37e+02 -1.00e+00    1.0000 >    1.2327   -0.0849    0.3731  737.1400 9819.2520   -1.5710    1.2734 298.65 298.7 148.4 10     0.0000    0.0247
M14          ?    BHZ  i P      d 20230715 0930    3.4859 GAU  1.53e-03 -1.00e+00  1.05e+03 -1.00e+00    1.0000 >    0.7107    0.0177    1.6246  737.5530 9820.0110   -1.3980    1.5402 332.78 332.8 143.9 10     0.0000    0.0142
M14          ?    BHE  i S      ? 20230715 0930    3.9884 GAU  4.76e-04 -1.00e+00  4.71e+02 -1.00e+00    1.0000 >    1.2253    0.0057    1.6733  737.5530 9820.0110   -1.3980    1.5402 332.78 332.8 140.8 10     0.0000    0.0245
M02          ?    BHZ  e P      c 20230715 0930    3.5530 GAU  1.17e-03 -1.00e+00 -1.00e+00 -1.00e+00    1.0000 >    0.7781    0.0175    1.6265  736.5970 9819.4060   -1.4960    1.8280 294.73 294.7 140.1 10     0.0000    0.0156
M02          ?    BHE  e S      ? 20230715 0930    4.0955 GAU  1.71e-03 -1.00e+00 -1.00e+00 -1.00e+00    1.0000 >    1.3413   -0.0033    1.6216  736.5970 9819.4060   -1.4960    1.8280 294.73 294.7 136.5 10     0.0000    0.0268
M11          ?    BHZ  i P      c 20230715 0930    3.5062 GAU  8.24e-04 -1.00e+00  1.79e+02 -1.00e+00    1.0000 >    0.7438    0.0051    1.9214  738.4670 9820.4900   -1.3120    1.8605   6.47   6.5 137.3 10     0.0000    0.0149
M11          ?    BHN  e S      ? 20230715 0930    4.0694 GAU  1.24e-03 -1.00e+00 -1.00e+00 -1.00e+00    1.0000 >    1.2818    0.0301    1.1829  738.4670 9820.4900   -1.3120    1.8605   6.47   6.5 133.3 10     0.0000    0.0256
M09          ?    BHZ  i P      c 20230715 0930    3.5818 GAU  1.03e-03 -1.00e+00 -1.00e+00 -1.00e+00    1.0000 >    0.8311   -0.0067    1.8274  737.8820 9820.9850   -1.2700    2.3735 350.90 350.9 129.1 10     0.0000    0.0166
M09          ?    BHE  e S      ? 20230715 0930    4.1764 GAU  6.51e-04 -1.00e+00  3.51e+02 -1.00e+00    1.0000 >    1.4315   -0.0125    1.5103  737.8820 9820.9850   -1.2700    2.3735 350.90 350.9 123.9 10     0.0000    0.0286
M13          ?    BHZ  e P      c 20230715 0930    3.7159 GAU  8.11e-04 -1.00e+00  1.54e+00 -1.00e+00    1.0000 >    0.9741   -0.0156    1.5828  737.1780 9821.5410   -1.2220    3.0940 339.58 339.6 120.7 10     0.0000    0.0195
M13          ?    BHE  e S      ? 20230715 0930    4.3597 GAU  1.34e-03 -1.00e+00 -1.00e+00 -1.00e+00    1.0000 >    1.6758   -0.0735    0.5700  737.1780 9821.5410   -1.2220    3.0940 339.58 339.6 113.7 10     0.0000    0.0335
M10          ?    BHZ  e P      c 20230715 0930    3.5854 GAU  2.78e-03 -1.00e+00  1.17e+03 -1.00e+00    1.0000 >    1.0005   -0.1726    0.0753  736.5490 9821.3650   -1.2200    3.2151 327.90 327.9 119.6 10     0.0000    0.0200
M10          ?    BHN  e S      ? 20230715 0930    4.2562 GAU  1.33e-03 -1.00e+00  1.07e+01 -1.00e+00    1.0000 >    1.7209   -0.2221    0.0671  736.5490 9821.3650   -1.2200    3.2151 327.90 327.9 112.4 10     0.0000    0.0344
M05          ?    BHZ  e P      d 20230715 0930    4.0847 GAU  3.09e-03 -1.00e+00  6.05e+02 -1.00e+00    1.0000 >    1.1646    0.1627    0.0932  736.2660 9822.0830   -1.1500    3.9763 329.94 329.9 113.2 10     0.0000    0.0233
M05          ?    BHE  e S      ? 20230715 0930    5.0589 GAU  4.89e-04 -1.00e+00 -1.00e+00 -1.00e+00    1.0000 >    1.9983    0.3032    0.0273  736.2660 9822.0830   -1.1500    3.9763 329.94 329.9 104.5 10     0.0000    0.0400
M12          ?    BHZ  e P      c 20230715 0930    4.2174 GAU  4.56e-03 -1.00e+00 -1.00e+00 -1.00e+00    1.0000 >    1.3762    0.0838    0.1793  736.8520 9823.3800   -0.9890    4.9427 343.48 343.5 106.7 10     0.0000    0.0275
M12          ?    BHE  e S      ? 20230715 0930    5.3102 GAU  3.54e-03 -1.00e+00  2.51e+02 -1.00e+00    1.0000 >    2.3474    0.2054    0.1127  736.8520 9823.3800   -0.9890    4.9427 343.48 343.5  98.2 10     0.0000    0.0469
END_PHASE
END_NLLOC

