NLLOC "./loc/SEML.20230715.092955.grid0" "LOCATED" "Location completed."
PUBLIC_ID None
SIGNATURE "Arham Zakki Edelo - edelo.17034@mhs.its.ac.id   obs:./obs/2023_07.obs   NLLoc:v7.00.10(30Aug2020)   run:28Dec2023 20h05m42"
COMMENT "SEML"
GRID  2001 2001 1001  727 9811 -2  0.01 0.01 0.01 PROB_DENSITY
SEARCH OCTREE nInitial 4851 nEvaluated 20003 smallestNodeSide 0.007440/0.007440/0.007102 oct_tree_integral 6.900710e-03 scatter_volume 6.900710e-03
HYPOCENTER  x 738.008 y 9818.57 z 0.794744  OT 55.1434  ix -1 iy -1 iz -1 MAXIMUM_LIKELIHOOD
GEOGRAPHIC  OT 2023 07 15  09 29 55.143362  Lat 9818.570685 Long 738.008185 Depth 0.794744
QUALITY  Pmax 5.08362e+94 MFmin 97.0587 MFmax 113.815 RMS 0.0221873 Nphs 26 Gap 271.704 Dist 0.624142 Mamp -9.90 0 Mdur -9.90 0
VPVSRATIO  VpVsRatio 1.61429  Npair 13  Diff 0.525509
STATISTICS  ExpectX 738.017717 Y 9818.573295 Z 0.777503  CovXX 0.00684195 XY -2.91937e-05 XZ -0.00056875 YY 0.00721662 YZ -0.00435012 ZZ 0.00834927 EllAz1  8.69706 Dip1  41.2658 Len1  0.108756 Az2  277.798 Dip2  1.02487 Len2  0.155571 Len3  2.075316e-01
STAT_GEOG  ExpectLat 9818.573295 Long 738.017717 Depth 0.777503
TRANSFORM  NONE
QML_OriginQuality  assocPhCt 26  usedPhCt 26  assocStaCt -1  usedStaCt 13  depthPhCt -1  stdErr 0.0221873  azGap 271.704  secAzGap 271.704  gtLevel -  minDist 0.624142 maxDist 4.94634 medDist 2.54683
QML_OriginUncertainty  horUnc -1  minHorUnc 0.125424  maxHorUnc 0.128854  azMaxHorUnc 175.571
QML_ConfidenceEllipsoid  semiMajorAxisLength 0.207532  semiMinorAxisLength 0.108756  semiIntermediateAxisLength 0.155571  majorAxisPlunge -48.7157  majorAxisAzimuth 6.6302  majorAxisRotation 270.201
FOCALMECH  Hyp  9818.570685 738.008185 0.794744 Mech  0 0 0 mf  0 nObs -1
PHASE ID Ins Cmp On Pha  FM Date     HrMn   Sec     Err  ErrMag    Coda      Amp       Per       PriorWt  >   TTpred    Res       Weight    StaLoc(X  Y         Z)        SDist    SAzim  RAz  RDip RQual    Tcorr       TTerr
M06          ?    BHZ  i P      c 20230715 0929   55.7443 GAU  3.03e-04 -1.00e+00  3.34e+02 -1.00e+00    1.0000 >    0.6026   -0.0017    1.6691  738.3100 9819.1170   -1.3960    0.6241  28.92  28.9 163.5 10     0.0000    0.0121
M06          ?    BHE  i S      ? 20230715 0929   56.1938 GAU  7.95e-04 -1.00e+00  1.03e+02 -1.00e+00    1.0000 >    1.0395    0.0109    1.4462  738.3100 9819.1170   -1.3960    0.6241  28.92  28.9 162.2 10     0.0000    0.0208
M04          ?    BHZ  e P      c 20230715 0929   55.8208 GAU  3.34e-03 -1.00e+00 -1.00e+00 -1.00e+00    1.0000 >    0.6924   -0.0150    1.3984  737.1400 9819.2520   -1.5710    1.1036 308.12 308.1 154.1 10     0.0000    0.0138
M04          ?    BHN  e S      ? 20230715 0929   56.3109 GAU  7.55e-04 -1.00e+00  5.22e+02 -1.00e+00    1.0000 >    1.1943   -0.0268    1.0374  737.1400 9819.2520   -1.5710    1.1036 308.12 308.1 152.0 10     0.0000    0.0239
M14          ?    BHZ  i P      c 20230715 0929   55.8502 GAU  7.76e-04 -1.00e+00  5.50e+01 -1.00e+00    1.0000 >    0.7041    0.0027    1.6410  737.5530 9820.0110   -1.3980    1.5105 342.46 342.5 144.3 10     0.0000    0.0141
M14          ?    BHE  e S      ? 20230715 0929   56.3853 GAU  9.06e-04 -1.00e+00  3.90e+02 -1.00e+00    1.0000 >    1.2142    0.0277    1.1200  737.5530 9820.0110   -1.3980    1.5105 342.46 342.5 141.2 10     0.0000    0.0243
M02          ?    BHZ  e P      c 20230715 0929   55.9122 GAU  1.51e-03 -1.00e+00 -1.00e+00 -1.00e+00    1.0000 >    0.7461    0.0227    1.2626  736.5970 9819.4060   -1.4960    1.6399 300.62 300.6 143.1 10     0.0000    0.0149
M02          ?    BHN  e S      ? 20230715 0929   56.4419 GAU  9.73e-04 -1.00e+00 -1.00e+00 -1.00e+00    1.0000 >    1.2867    0.0119    1.3431  736.5970 9819.4060   -1.4960    1.6399 300.62 300.6 139.9 10     0.0000    0.0257
M11          ?    BHZ  i P      c 20230715 0929   55.8882 GAU  1.34e-03 -1.00e+00 -1.00e+00 -1.00e+00    1.0000 >    0.7617   -0.0169    1.3385  738.4670 9820.4900   -1.3120    1.9734  13.44  13.4 135.4 10     0.0000    0.0152
M11          ?    BHN  e S      ? 20230715 0929   56.4986 GAU  1.40e-03 -1.00e+00  2.10e+01 -1.00e+00    1.0000 >    1.3132    0.0420    0.8286  738.4670 9820.4900   -1.3120    1.9734  13.44  13.4 131.1 10     0.0000    0.0263
M09          ?    BHZ  i P      c 20230715 0929   55.9910 GAU  1.93e-03 -1.00e+00  2.36e+02 -1.00e+00    1.0000 >    0.8382    0.0095    1.5344  737.8820 9820.9850   -1.2700    2.4176 357.01 357.0 128.4 10     0.0000    0.0168
M09          ?    BHE  e S      ? 20230715 0929   56.5765 GAU  2.17e-03 -1.00e+00  2.65e+02 -1.00e+00    1.0000 >    1.4442   -0.0110    1.2484  737.8820 9820.9850   -1.2700    2.4176 357.01 357.0 123.0 10     0.0000    0.0289
M03          ?    BHZ  e P      c 20230715 0929   56.3714 GAU  6.29e-04 -1.00e+00 -1.00e+00 -1.00e+00    1.0000 >    0.8763    0.3517    0.0000  736.8800 9820.8540   -1.3350    2.5468 333.71 333.7 127.7 10     0.0000    0.0175
M03          ?    BHE  e S      ? 20230715 0929   57.2133 GAU  7.28e-04 -1.00e+00  1.65e+02 -1.00e+00    1.0000 >    1.5099    0.5600    0.0000  736.8800 9820.8540   -1.3350    2.5468 333.71 333.7 122.1 10     0.0000    0.0302
M13          ?    BHZ  i P      c 20230715 0929   56.1053 GAU  5.12e-03 -1.00e+00 -1.00e+00 -1.00e+00    1.0000 >    0.9705   -0.0086    1.4467  737.1780 9821.5410   -1.2220    3.0841 344.38 344.4 120.6 10     0.0000    0.0194
M13          ?    BHE  e S      ? 20230715 0929   56.7546 GAU  2.84e-03 -1.00e+00 -1.00e+00 -1.00e+00    1.0000 >    1.6703   -0.0591    0.4576  737.1780 9821.5410   -1.2220    3.0841 344.38 344.4 113.6 10     0.0000    0.0334
M10          ?    BHZ  i P      d 20230715 0929   56.1389 GAU  9.24e-03 -1.00e+00  4.94e+03 -1.00e+00    1.0000 >    0.9852    0.0103    1.4343  736.5490 9821.3650   -1.2200    3.1524 332.43 332.4 120.0 10     0.0000    0.0197
M10          ?    BHN  e S      ? 20230715 0929   56.8215 GAU  1.17e-03 -1.00e+00 -1.00e+00 -1.00e+00    1.0000 >    1.6955   -0.0173    1.1022  736.5490 9821.3650   -1.2200    3.1524 332.43 332.4 112.8 10     0.0000    0.0339
M08          ?    BHZ  i P      d 20230715 0929   56.2169 GAU  5.39e-04 -1.00e+00  6.17e+02 -1.00e+00    1.0000 >    1.0753   -0.0018    1.4767  738.2480 9822.1600   -1.1510    3.5973   3.82   3.8 115.6 10     0.0000    0.0215
M08          ?    BHN  e S      ? 20230715 0929   56.9924 GAU  5.62e-04 -1.00e+00  3.64e+02 -1.00e+00    1.0000 >    1.8479    0.0011    1.1642  738.2480 9822.1600   -1.1510    3.5973   3.82   3.8 107.3 10     0.0000    0.0370
M05          ?    BHZ  i P      c 20230715 0929   56.4422 GAU  2.26e-03 -1.00e+00 -1.00e+00 -1.00e+00    1.0000 >    1.1505    0.1483    0.1085  736.2660 9822.0830   -1.1500    3.9207 333.62 333.6 113.4 10     0.0000    0.0230
M05          ?    BHN  e S      ? 20230715 0929   57.3016 GAU  1.32e-03 -1.00e+00  2.95e+02 -1.00e+00    1.0000 >    1.9752    0.1831    0.0822  736.2660 9822.0830   -1.1500    3.9207 333.62 333.6 104.6 10     0.0000    0.0395
M01          ?    BHZ  i P      d 20230715 0929   56.4386 GAU  2.05e-03 -1.00e+00  1.74e+03 -1.00e+00    1.0000 >    1.2256    0.0697    0.3490  736.4090 9822.5140   -1.1200    4.2552 337.93 337.9 111.1 10     0.0000    0.0245
M01          ?    BHN  e S      ? 20230715 0929   57.3678 GAU  2.86e-03 -1.00e+00  1.73e+03 -1.00e+00    1.0000 >    2.1011    0.1234    0.1870  736.4090 9822.5140   -1.1200    4.2552 337.93 337.9 102.0 10     0.0000    0.0420
M12          ?    BHZ  i P      d 20230715 0929   56.5291 GAU  1.30e-03 -1.00e+00 -1.00e+00 -1.00e+00    1.0000 >    1.3763    0.0094    1.3273  736.8520 9823.3800   -0.9890    4.9463 346.48 346.5 106.6 10     0.0000    0.0275
M12          ?    BHE  e S      ? 20230715 0929   57.5041 GAU  2.48e-03 -1.00e+00  2.60e+02 -1.00e+00    1.0000 >    2.3482    0.0125    0.9967  736.8520 9823.3800   -0.9890    4.9463 346.48 346.5  98.0 10     0.0000    0.0470
END_PHASE
END_NLLOC

