NLLOC "./loc/SEML.20230719.030015.grid0" "LOCATED" "Location completed."
PUBLIC_ID None
SIGNATURE "Arham Zakki Edelo - edelo.17034@mhs.its.ac.id   obs:./obs/2023_07.obs   NLLoc:v7.00.10(30Aug2020)   run:28Dec2023 20h05m48"
COMMENT "SEML"
GRID  2001 2001 1001  727 9811 -2  0.01 0.01 0.01 PROB_DENSITY
SEARCH OCTREE nInitial 4851 nEvaluated 20011 smallestNodeSide 0.014881/0.014881/0.014205 oct_tree_integral 1.712190e-02 scatter_volume 1.712190e-02
HYPOCENTER  x 737.35 y 9818.52 z 0.393466  OT 15.2889  ix -1 iy -1 iz -1 MAXIMUM_LIKELIHOOD
GEOGRAPHIC  OT 2023 07 19  03 00 15.288855  Lat 9818.522321 Long 737.349702 Depth 0.393466
QUALITY  Pmax 1.50894e+42 MFmin 56.5982 MFmax 73.2352 RMS 0.0175662 Nphs 14 Gap 284.841 Dist 0.759214 Mamp -9.90 0 Mdur -9.90 0
VPVSRATIO  VpVsRatio 1.73241  Npair 7  Diff 0.471611
STATISTICS  ExpectX 738.221437 Y 9818.673357 Z 0.223711  CovXX 0.555393 XY 0.112853 XZ -0.0976563 YY 0.100875 YZ 0.0646199 ZZ 0.134525 EllAz1  340.752 Dip1  -36.8507 Len1  0.18948 Az2  1.40623 Dip2  51.3068 Len2  0.806689 Len3  1.450810e+00
STAT_GEOG  ExpectLat 9818.673357 Long 738.221437 Depth 0.223711
TRANSFORM  NONE
QML_OriginQuality  assocPhCt 14  usedPhCt 14  assocStaCt -1  usedStaCt 7  depthPhCt -1  stdErr 0.0175662  azGap 284.841  secAzGap 284.841  gtLevel -  minDist 0.759214 maxDist 3.72194 medDist 2.26277
QML_OriginUncertainty  horUnc -1  minHorUnc 0.413657  maxHorUnc 1.15685  azMaxHorUnc 76.7959
QML_ConfidenceEllipsoid  semiMajorAxisLength 1.45081  semiMinorAxisLength 0.18948  semiIntermediateAxisLength 0.806689  majorAxisPlunge -10.163  majorAxisAzimuth 78.4733  majorAxisRotation 219.332
FOCALMECH  Hyp  9818.522321 737.349702 0.393466 Mech  0 0 0 mf  0 nObs -1
PHASE ID Ins Cmp On Pha  FM Date     HrMn   Sec     Err  ErrMag    Coda      Amp       Per       PriorWt  >   TTpred    Res       Weight    StaLoc(X  Y         Z)        SDist    SAzim  RAz  RDip RQual    Tcorr       TTerr
M04          ?    BHZ  e P      d 20230719 0300   15.8406 GAU  1.08e-03 -1.00e+00  1.07e+03 -1.00e+00    1.0000 >    0.5624   -0.0106    1.6340  737.1400 9819.2520   -1.5710    0.7592 343.97 344.0 158.2 10     0.0000    0.0112
M04          ?    BHN  e S      ? 20230719 0300   16.2717 GAU  1.51e-03 -1.00e+00  7.66e+02 -1.00e+00    1.0000 >    0.9803    0.0025    1.6846  737.1400 9819.2520   -1.5710    0.7592 343.97 344.0 157.9 10     0.0000    0.0196
M06          ?    BHZ  i P      c 20230719 0300   15.8527 GAU  4.37e-04 -1.00e+00 -1.00e+00 -1.00e+00    1.0000 >    0.5634    0.0004    1.8995  738.3100 9819.1170   -1.3960    1.1295  58.23  58.2 146.8 10     0.0000    0.0113
M06          ?    BHN  e S      ? 20230719 0300   16.2729 GAU  5.62e-04 -1.00e+00 -1.00e+00 -1.00e+00    1.0000 >    0.9831    0.0010    1.6888  738.3100 9819.1170   -1.3960    1.1295  58.23  58.2 146.3 10     0.0000    0.0197
M14          ?    BHZ  e P      c 20230719 0300   15.9294 GAU  1.27e-03 -1.00e+00 -1.00e+00 -1.00e+00    1.0000 >    0.6222    0.0183    1.3876  737.5530 9820.0110   -1.3980    1.5025   7.78   7.8 138.8 10     0.0000    0.0124
M14          ?    BHE  e S      ? 20230719 0300   16.3829 GAU  1.35e-03 -1.00e+00  4.58e+02 -1.00e+00    1.0000 >    1.0858    0.0083    1.5644  737.5530 9820.0110   -1.3980    1.5025   7.78   7.8 138.0 10     0.0000    0.0217
M11          ?    BHZ  e P      d 20230719 0300   15.9230 GAU  2.05e-03 -1.00e+00  1.57e+01 -1.00e+00    1.0000 >    0.7526   -0.1185    0.0365  738.4670 9820.4900   -1.3120    2.2628  29.59  29.6 124.8 10     0.0000    0.0151
M11          ?    BHE  e S      ? 20230719 0300   16.3585 GAU  5.32e-04 -1.00e+00 -1.00e+00 -1.00e+00    1.0000 >    1.3142   -0.2445    0.0000  738.4670 9820.4900   -1.3120    2.2628  29.59  29.6 123.6 10     0.0000    0.0263
M09          ?    BHZ  i P      c 20230719 0300   16.0406 GAU  1.55e-03 -1.00e+00  1.28e+02 -1.00e+00    1.0000 >    0.8012   -0.0495    0.4502  737.8820 9820.9850   -1.2700    2.5195  12.20  12.2 121.2 10     0.0000    0.0160
M09          ?    BHE  e S      ? 20230719 0300   16.6304 GAU  7.52e-04 -1.00e+00  3.52e+02 -1.00e+00    1.0000 >    1.3995   -0.0579    0.5502  737.8820 9820.9850   -1.2700    2.5195  12.20  12.2 119.7 10     0.0000    0.0280
M13          ?    BHZ  e P      d 20230719 0300   16.2018 GAU  1.35e-03 -1.00e+00  5.60e+01 -1.00e+00    1.0000 >    0.9086    0.0043    1.7162  737.1780 9821.5410   -1.2220    3.0236 356.74 356.7 115.5 10     0.0000    0.0182
M13          ?    BHE  e S      ? 20230719 0300   16.8732 GAU  6.02e-04 -1.00e+00 -1.00e+00 -1.00e+00    1.0000 >    1.5876   -0.0032    1.3613  737.1780 9821.5410   -1.2220    3.0236 356.74 356.7 113.6 10     0.0000    0.0318
M05          ?    BHZ  e P      c 20230719 0300   16.5016 GAU  9.73e-04 -1.00e+00 -1.00e+00 -1.00e+00    1.0000 >    1.0657    0.1471    0.0133  736.2660 9822.0830   -1.1500    3.7219 343.07 343.1 109.7 10     0.0000    0.0213
M05          ?    BHN  e S      ? 20230719 0300   17.3934 GAU  1.61e-04 -1.00e+00  2.63e+02 -1.00e+00    1.0000 >    1.8628    0.2418    0.0133  736.2660 9822.0830   -1.1500    3.7219 343.07 343.1 107.1 10     0.0000    0.0373
END_PHASE
END_NLLOC

