NLLOC "./loc/SEML.20230719.030426.grid0" "LOCATED" "Location completed."
PUBLIC_ID None
SIGNATURE "Arham Zakki Edelo - edelo.17034@mhs.its.ac.id   obs:./obs/2023_07.obs   NLLoc:v7.00.10(30Aug2020)   run:28Dec2023 20h05m54"
COMMENT "SEML"
GRID  2001 2001 1001  727 9811 -2  0.01 0.01 0.01 PROB_DENSITY
SEARCH OCTREE nInitial 4851 nEvaluated 20003 smallestNodeSide 0.014881/0.014881/0.014205 oct_tree_integral 1.488650e-02 scatter_volume 1.487384e-02
HYPOCENTER  x 738.019 y 9818.86 z 0.72017  OT 25.7411  ix -1 iy -1 iz -1 MAXIMUM_LIKELIHOOD
GEOGRAPHIC  OT 2023 07 19  03 04 25.741099  Lat 9818.864583 Long 738.019345 Depth 0.720170
QUALITY  Pmax 2.85327e+83 MFmin 92.3233 MFmax 105.562 RMS 0.029311 Nphs 24 Gap 241.812 Dist 0.38496 Mamp -9.90 0 Mdur -9.90 0
VPVSRATIO  VpVsRatio 1.81362  Npair 12  Diff 0.538036
STATISTICS  ExpectX 738.199544 Y 9818.802388 Z 0.762352  CovXX 0.0379686 XY -0.0116128 XZ 0.00120559 YY 0.0131649 YZ -0.000876894 ZZ 0.0116292 EllAz1  21.2608 Dip1  6.9932 Len1  0.173535 Az2  222.339 Dip2  82.5108 Len2  0.202423 Len3  3.878955e-01
STAT_GEOG  ExpectLat 9818.802388 Long 738.199544 Depth 0.762352
TRANSFORM  NONE
QML_OriginQuality  assocPhCt 24  usedPhCt 24  assocStaCt -1  usedStaCt 12  depthPhCt -1  stdErr 0.029311  azGap 241.812  secAzGap 241.812  gtLevel -  minDist 0.38496 maxDist 4.66387 medDist 2.4652
QML_OriginUncertainty  horUnc -1  minHorUnc 0.14045  maxHorUnc 0.312859  azMaxHorUnc 111.559
QML_ConfidenceEllipsoid  semiMajorAxisLength 0.387896  semiMinorAxisLength 0.173535  semiIntermediateAxisLength 0.202423  majorAxisPlunge 2.66676  majorAxisAzimuth 111.588  majorAxisRotation 172.969
FOCALMECH  Hyp  9818.864583 738.019345 0.720170 Mech  0 0 0 mf  0 nObs -1
PHASE ID Ins Cmp On Pha  FM Date     HrMn   Sec     Err  ErrMag    Coda      Amp       Per       PriorWt  >   TTpred    Res       Weight    StaLoc(X  Y         Z)        SDist    SAzim  RAz  RDip RQual    Tcorr       TTerr
M06          ?    BHZ  i P      c 20230719 0304   26.3195 GAU  1.67e-04 -1.00e+00 -1.00e+00 -1.00e+00    1.0000 >    0.5696    0.0089    1.7206  738.3100 9819.1170   -1.3960    0.3850  49.03  49.0 169.2 10     0.0000    0.0114
M06          ?    BHE  i S      ? 20230719 0304   26.8194 GAU  7.14e-04 -1.00e+00 -1.00e+00 -1.00e+00    1.0000 >    0.9850    0.0933    0.3634  738.3100 9819.1170   -1.3960    0.3850  49.03  49.0 168.4 10     0.0000    0.0197
M04          ?    BHZ  e P      c 20230719 0304   26.3910 GAU  2.56e-03 -1.00e+00 -1.00e+00 -1.00e+00    1.0000 >    0.6598   -0.0099    1.6896  737.1400 9819.2520   -1.5710    0.9609 293.78 293.8 156.4 10     0.0000    0.0132
M04          ?    BHN  e S      ? 20230719 0304   26.8778 GAU  1.06e-03 -1.00e+00  7.19e+02 -1.00e+00    1.0000 >    1.1407   -0.0040    1.5524  737.1400 9819.2520   -1.5710    0.9609 293.78 293.8 154.5 10     0.0000    0.0228
M14          ?    BHZ  i P      c 20230719 0304   26.4012 GAU  1.16e-03 -1.00e+00 -1.00e+00 -1.00e+00    1.0000 >    0.6496    0.0105    1.6577  737.5530 9820.0110   -1.3980    1.2376 337.86 337.9 148.6 10     0.0000    0.0130
M14          ?    BHE  i S      ? 20230719 0304   26.8736 GAU  7.80e-04 -1.00e+00  4.78e+02 -1.00e+00    1.0000 >    1.1231    0.0094    1.5024  737.5530 9820.0110   -1.3980    1.2376 337.86 337.9 145.9 10     0.0000    0.0225
M02          ?    BHZ  e P      c 20230719 0304   26.4482 GAU  4.90e-03 -1.00e+00 -1.00e+00 -1.00e+00    1.0000 >    0.7129   -0.0058    1.7350  736.5970 9819.4060   -1.4960    1.5219 290.84 290.8 144.3 10     0.0000    0.0143
M02          ?    BHN  i S      ? 20230719 0304   27.0601 GAU  3.23e-03 -1.00e+00  1.15e+03 -1.00e+00    1.0000 >    1.2323    0.0867    0.3943  736.5970 9819.4060   -1.4960    1.5219 290.84 290.8 141.0 10     0.0000    0.0246
M11          ?    BHZ  i P      c 20230719 0304   26.3798 GAU  4.28e-03 -1.00e+00 -1.00e+00 -1.00e+00    1.0000 >    0.6977   -0.0590    0.2943  738.4670 9820.4900   -1.3120    1.6859  15.40  15.4 139.0 10     0.0000    0.0140
M11          ?    BHN  e S      ? 20230719 0304   26.9318 GAU  9.88e-04 -1.00e+00 -1.00e+00 -1.00e+00    1.0000 >    1.2062   -0.0155    1.3925  738.4670 9820.4900   -1.3120    1.6859  15.40  15.4 135.0 10     0.0000    0.0241
M09          ?    BHZ  i P      c 20230719 0304   26.5008 GAU  1.62e-03 -1.00e+00  1.82e+02 -1.00e+00    1.0000 >    0.7684   -0.0087    1.6797  737.8820 9820.9850   -1.2700    2.1249 356.29 356.3 131.2 10     0.0000    0.0154
M09          ?    BHE  e S      ? 20230719 0304   27.0998 GAU  3.90e-04 -1.00e+00  3.41e+02 -1.00e+00    1.0000 >    1.3279    0.0308    1.0552  737.8820 9820.9850   -1.2700    2.1249 356.29 356.3 126.1 10     0.0000    0.0266
M13          ?    BHZ  i P      c 20230719 0304   26.6291 GAU  1.26e-03 -1.00e+00 -1.00e+00 -1.00e+00    1.0000 >    0.8997   -0.0117    1.5709  737.1780 9821.5410   -1.2220    2.8055 342.55 342.5 122.1 10     0.0000    0.0180
M13          ?    BHE  e S      ? 20230719 0304   27.2736 GAU  4.81e-04 -1.00e+00 -1.00e+00 -1.00e+00    1.0000 >    1.5536   -0.0211    1.2070  737.1780 9821.5410   -1.2220    2.8055 342.55 342.5 114.9 10     0.0000    0.0311
M10          ?    BHZ  e P      d 20230719 0304   26.7854 GAU  1.73e-03 -1.00e+00  1.68e+03 -1.00e+00    1.0000 >    0.9201    0.1242    0.2878  736.5490 9821.3650   -1.2200    2.9007 329.54 329.5 121.2 10     0.0000    0.0184
M10          ?    BHE  e S      ? 20230719 0304   27.6035 GAU  6.62e-04 -1.00e+00 -1.00e+00 -1.00e+00    1.0000 >    1.5886    0.2739    0.0025  736.5490 9821.3650   -1.2200    2.9007 329.54 329.5 113.7 10     0.0000    0.0318
M08          ?    BHZ  e P      c 20230719 0304   26.6394 GAU  6.86e-04 -1.00e+00 -1.00e+00 -1.00e+00    1.0000 >    0.9994   -0.1011    0.0861  738.2480 9822.1600   -1.1510    3.3033   3.97   4.0 116.7 10     0.0000    0.0200
M08          ?    BHN  e S      ? 20230719 0304   27.3001 GAU  2.80e-04 -1.00e+00  2.85e+02 -1.00e+00    1.0000 >    1.7238   -0.1648    0.0299  738.2480 9822.1600   -1.1510    3.3033   3.97   4.0 107.9 10     0.0000    0.0345
M05          ?    BHZ  e P      d 20230719 0304   26.8479 GAU  2.46e-03 -1.00e+00  3.19e+02 -1.00e+00    1.0000 >    1.0829    0.0239    1.2120  736.2660 9822.0830   -1.1500    3.6650 331.42 331.4 114.0 10     0.0000    0.0217
M05          ?    BHN  e S      ? 20230719 0304   27.7489 GAU  5.24e-04 -1.00e+00  2.91e+02 -1.00e+00    1.0000 >    1.8660    0.1418    0.2349  736.2660 9822.0830   -1.1500    3.6650 331.42 331.4 104.4 10     0.0000    0.0373
M01          ?    BHZ  e P      c 20230719 0304   26.8779 GAU  2.17e-03 -1.00e+00 -1.00e+00 -1.00e+00    1.0000 >    1.1552   -0.0183    1.3540  736.4090 9822.5140   -1.1200    3.9889 336.19 336.2 111.5 10     0.0000    0.0231
M01          ?    BHE  e S      ? 20230719 0304   27.7323 GAU  3.26e-03 -1.00e+00  4.68e+02 -1.00e+00    1.0000 >    1.9879    0.0033    1.1999  736.4090 9822.5140   -1.1200    3.9889 336.19 336.2 101.4 10     0.0000    0.0398
M12          ?    BHZ  e P      d 20230719 0304   27.0593 GAU  2.59e-03 -1.00e+00 -1.00e+00 -1.00e+00    1.0000 >    1.3016    0.0166    1.3287  736.8520 9823.3800   -0.9890    4.6639 345.51 345.5 106.7 10     0.0000    0.0260
M12          ?    BHE  e S      ? 20230719 0304   28.0698 GAU  4.77e-04 -1.00e+00  1.17e+02 -1.00e+00    1.0000 >    2.2294    0.0993    0.4493  736.8520 9823.3800   -0.9890    4.6639 345.51 345.5  97.0 10     0.0000    0.0446
END_PHASE
END_NLLOC

