NLLOC "./loc/SEML.20230719.033720.grid0" "LOCATED" "Location completed."
PUBLIC_ID None
SIGNATURE "Arham Zakki Edelo - edelo.17034@mhs.its.ac.id   obs:./obs/2023_07.obs   NLLoc:v7.00.10(30Aug2020)   run:28Dec2023 20h06m08"
COMMENT "SEML"
GRID  2001 2001 1001  727 9811 -2  0.01 0.01 0.01 PROB_DENSITY
SEARCH OCTREE nInitial 4851 nEvaluated 20011 smallestNodeSide 0.014881/0.014881/0.014205 oct_tree_integral 3.130935e-02 scatter_volume 3.130935e-02
HYPOCENTER  x 737.528 y 9818.05 z 0.649148  OT 19.6649  ix -1 iy -1 iz -1 MAXIMUM_LIKELIHOOD
GEOGRAPHIC  OT 2023 07 19  03 37 19.664874  Lat 9818.046131 Long 737.528274 Depth 0.649148
QUALITY  Pmax 2.76998e+23 MFmin 30.1802 MFmax 37.0809 RMS 0.00680845 Nphs 8 Gap 324.592 Dist 1.32584 Mamp -9.90 0 Mdur -9.90 0
VPVSRATIO  VpVsRatio 1.7844  Npair 4  Diff 0.191029
STATISTICS  ExpectX 737.535890 Y 9818.040800 Z 0.658320  CovXX 0.0403244 XY 0.00484037 XZ 0.0122888 YY 0.0177996 YZ -0.000667973 ZZ 0.0249161 EllAz1  152.119 Dip1  -31.9808 Len1  0.228314 Az2  203.485 Dip2  44.9969 Len2  0.269866 Len3  4.100938e-01
STAT_GEOG  ExpectLat 9818.040800 Long 737.535890 Depth 0.658320
TRANSFORM  NONE
QML_OriginQuality  assocPhCt 8  usedPhCt 8  assocStaCt -1  usedStaCt 4  depthPhCt -1  stdErr 0.00680845  azGap 324.592  secAzGap 324.592  gtLevel -  minDist 1.32584 maxDist 2.96008 medDist 2.29149
QML_OriginUncertainty  horUnc -1  minHorUnc 0.196591  maxHorUnc 0.308281  azMaxHorUnc 78.3714
QML_ConfidenceEllipsoid  semiMajorAxisLength 0.410094  semiMinorAxisLength 0.228314  semiIntermediateAxisLength 0.269866  majorAxisPlunge 27.9403  majorAxisAzimuth 81.4585  majorAxisRotation 306.827
FOCALMECH  Hyp  9818.046131 737.528274 0.649148 Mech  0 0 0 mf  0 nObs -1
PHASE ID Ins Cmp On Pha  FM Date     HrMn   Sec     Err  ErrMag    Coda      Amp       Per       PriorWt  >   TTpred    Res       Weight    StaLoc(X  Y         Z)        SDist    SAzim  RAz  RDip RQual    Tcorr       TTerr
M06          ?    BHZ  i P      c 20230719 0337   20.3045 GAU  7.28e-04 -1.00e+00 -1.00e+00 -1.00e+00    1.0000 >    0.6460   -0.0064    1.1355  738.3100 9819.1170   -1.3960    1.3258  36.13  36.1 145.9 10     0.0000    0.0129
M06          ?    BHN  e S      ? 20230719 0337   20.7902 GAU  8.39e-04 -1.00e+00 -1.00e+00 -1.00e+00    1.0000 >    1.1197    0.0056    1.0079  738.3100 9819.1170   -1.3960    1.3258  36.13  36.1 142.7 10     0.0000    0.0224
M14          ?    BHZ  e P      d 20230719 0337   20.4246 GAU  4.47e-03 -1.00e+00  5.72e+02 -1.00e+00    1.0000 >    0.7517    0.0081    1.1062  737.5530 9820.0110   -1.3980    1.9650   0.72   0.7 134.3 10     0.0000    0.0150
M14          ?    BHE  e S      ? 20230719 0337   20.9695 GAU  4.81e-04 -1.00e+00  4.00e+02 -1.00e+00    1.0000 >    1.3026    0.0021    0.9466  737.5530 9820.0110   -1.3980    1.9650   0.72   0.7 129.5 10     0.0000    0.0261
M11          ?    BHZ  e P      d 20230719 0337   20.5365 GAU  3.01e-03 -1.00e+00  2.09e+01 -1.00e+00    1.0000 >    0.8650    0.0066    1.0931  738.4670 9820.4900   -1.3120    2.6180  21.01  21.0 124.2 10     0.0000    0.0173
M11          ?    BHE  e S      ? 20230719 0337   21.1718 GAU  4.88e-04 -1.00e+00 -1.00e+00 -1.00e+00    1.0000 >    1.4985    0.0085    0.8555  738.4670 9820.4900   -1.3120    2.6180  21.01  21.0 117.1 10     0.0000    0.0300
M09          ?    BHZ  i P      c 20230719 0337   20.5914 GAU  1.04e-03 -1.00e+00  9.31e+01 -1.00e+00    1.0000 >    0.9321   -0.0056    1.0628  737.8820 9820.9850   -1.2700    2.9601   6.86   6.9 120.1 10     0.0000    0.0186
M09          ?    BHE  e S      ? 20230719 0337   21.2681 GAU  2.42e-04 -1.00e+00  3.77e+02 -1.00e+00    1.0000 >    1.6140   -0.0108    0.7924  737.8820 9820.9850   -1.2700    2.9601   6.86   6.9 111.7 10     0.0000    0.0323
END_PHASE
END_NLLOC

