NLLOC "./loc/SEML.20230719.190151.grid0" "LOCATED" "Location completed."
PUBLIC_ID None
SIGNATURE "Arham Zakki Edelo - edelo.17034@mhs.its.ac.id   obs:./obs/2023_07.obs   NLLoc:v7.00.10(30Aug2020)   run:28Dec2023 20h06m10"
COMMENT "SEML"
GRID  2001 2001 1001  727 9811 -2  0.01 0.01 0.01 PROB_DENSITY
SEARCH OCTREE nInitial 4851 nEvaluated 20027 smallestNodeSide 0.014881/0.014881/0.014205 oct_tree_integral 3.694108e-02 scatter_volume 3.694108e-02
HYPOCENTER  x 738.302 y 9818.08 z 0.535511  OT 51.0817  ix -1 iy -1 iz -1 MAXIMUM_LIKELIHOOD
GEOGRAPHIC  OT 2023 07 19  19 01 51.081684  Lat 9818.075893 Long 738.302083 Depth 0.535511
QUALITY  Pmax 2.86891e+71 MFmin 78.761 MFmax 95.6285 RMS 0.0384133 Nphs 22 Gap 304.049 Dist 1.04114 Mamp -9.90 0 Mdur -9.90 0
VPVSRATIO  VpVsRatio 1.73509  Npair 11  Diff 0.469257
STATISTICS  ExpectX 737.861510 Y 9818.079382 Z 0.904719  CovXX 0.186609 XY -0.019851 XZ -0.104977 YY 0.0273755 YZ 0.00471707 ZZ 0.086711 EllAz1  40.8135 Dip1  42.5939 Len1  0.237375 Az2  343.928 Dip2  -30.7206 Len2  0.326384 Len3  9.479355e-01
STAT_GEOG  ExpectLat 9818.079382 Long 737.861510 Depth 0.904719
TRANSFORM  NONE
QML_OriginQuality  assocPhCt 22  usedPhCt 22  assocStaCt -1  usedStaCt 11  depthPhCt -1  stdErr 0.0384133  azGap 304.049  secAzGap 304.049  gtLevel -  minDist 1.04114 maxDist 5.49875 medDist 2.93928
QML_OriginUncertainty  horUnc -1  minHorUnc 0.239494  maxHorUnc 0.659399  azMaxHorUnc 97.0001
QML_ConfidenceEllipsoid  semiMajorAxisLength 0.947936  semiMinorAxisLength 0.237375  semiIntermediateAxisLength 0.326384  majorAxisPlunge -32.0103  majorAxisAzimuth 95.7347  majorAxisRotation 108.296
FOCALMECH  Hyp  9818.075893 738.302083 0.535511 Mech  0 0 0 mf  0 nObs -1
PHASE ID Ins Cmp On Pha  FM Date     HrMn   Sec     Err  ErrMag    Coda      Amp       Per       PriorWt  >   TTpred    Res       Weight    StaLoc(X  Y         Z)        SDist    SAzim  RAz  RDip RQual    Tcorr       TTerr
M06          ?    BHZ  i P      d 20230719 1901   51.8116 GAU  9.06e-04 -1.00e+00 -1.00e+00 -1.00e+00    1.0000 >    0.5829    0.1470    0.0105  738.3100 9819.1170   -1.3960    1.0411   0.44   0.4 150.6 10     0.0000    0.0117
M06          ?    BHN  i S      ? 20230719 1901   52.3699 GAU  2.95e-03 -1.00e+00 -1.00e+00 -1.00e+00    1.0000 >    1.0148    0.2733    0.0000  738.3100 9819.1170   -1.3960    1.0411   0.44   0.4 147.8 10     0.0000    0.0203
M04          ?    BHZ  e P      c 20230719 1901   51.7922 GAU  1.24e-03 -1.00e+00 -1.00e+00 -1.00e+00    1.0000 >    0.7130   -0.0026    1.9633  737.1400 9819.2520   -1.5710    1.6534 315.34 315.3 140.2 10     0.0000    0.0143
M04          ?    BHN  e S      ? 20230719 1901   52.3350 GAU  2.68e-03 -1.00e+00  6.94e+02 -1.00e+00    1.0000 >    1.2404    0.0129    1.6508  737.1400 9819.2520   -1.5710    1.6534 315.34 315.3 135.9 10     0.0000    0.0248
M14          ?    BHZ  i P      c 20230719 1901   51.8990 GAU  2.33e-03 -1.00e+00 -1.00e+00 -1.00e+00    1.0000 >    0.7528    0.0645    0.5541  737.5530 9820.0110   -1.3980    2.0750 338.84 338.8 130.6 10     0.0000    0.0151
M14          ?    BHE  e S      ? 20230719 1901   52.4634 GAU  5.52e-04 -1.00e+00  3.55e+02 -1.00e+00    1.0000 >    1.3105    0.0712    0.5746  737.5530 9820.0110   -1.3980    2.0750 338.84 338.8 124.5 10     0.0000    0.0262
M02          ?    BHZ  e P      c 20230719 1901   51.8714 GAU  6.14e-04 -1.00e+00 -1.00e+00 -1.00e+00    1.0000 >    0.7888    0.0009    1.9445  736.5970 9819.4060   -1.4960    2.1625 307.96 308.0 130.8 10     0.0000    0.0158
M02          ?    BHE  e S      ? 20230719 1901   52.4328 GAU  8.72e-04 -1.00e+00 -1.00e+00 -1.00e+00    1.0000 >    1.3726   -0.0215    1.3869  736.5970 9819.4060   -1.4960    2.1625 307.96 308.0 124.7 10     0.0000    0.0275
M11          ?    BHZ  i P      d 20230719 1901   51.8891 GAU  2.24e-03 -1.00e+00 -1.00e+00 -1.00e+00    1.0000 >    0.8068    0.0006    1.9325  738.4670 9820.4900   -1.3120    2.4197   3.91   3.9 124.6 10     0.0000    0.0161
M11          ?    BHN  i S      ? 20230719 1901   52.4616 GAU  9.88e-04 -1.00e+00 -1.00e+00 -1.00e+00    1.0000 >    1.4049   -0.0249    1.3108  738.4670 9820.4900   -1.3120    2.4197   3.91   3.9 116.7 10     0.0000    0.0281
M09          ?    BHZ  i P      c 20230719 1901   51.9914 GAU  2.61e-03 -1.00e+00  1.85e+02 -1.00e+00    1.0000 >    0.9133   -0.0035    1.8572  737.8820 9820.9850   -1.2700    2.9393 351.78 351.8 118.3 10     0.0000    0.0183
M09          ?    BHE  e S      ? 20230719 1901   52.6996 GAU  4.01e-04 -1.00e+00  3.71e+02 -1.00e+00    1.0000 >    1.5903    0.0276    1.3685  737.8820 9820.9850   -1.2700    2.9393 351.78 351.8 107.5 10     0.0000    0.0318
M13          ?    BHZ  e P      d 20230719 1901   52.0303 GAU  7.17e-04 -1.00e+00  5.53e+02 -1.00e+00    1.0000 >    1.0694   -0.1208    0.3035  737.1780 9821.5410   -1.2220    3.6429 342.03 342.0 111.9 10     0.0000    0.0214
M13          ?    BHE  e S      ? 20230719 1901   52.6539 GAU  6.04e-04 -1.00e+00 -1.00e+00 -1.00e+00    1.0000 >    1.8607   -0.2885    0.0914  737.1780 9821.5410   -1.2220    3.6429 342.03 342.0  95.8  9     0.0000    0.0372
M05          ?    BHZ  e P      c 20230719 1901   52.1972 GAU  8.69e-04 -1.00e+00  6.23e+01 -1.00e+00    1.0000 >    1.2663   -0.1508    0.2360  736.2660 9822.0830   -1.1500    4.4947 333.06 333.1 106.1 10     0.0000    0.0253
M05          ?    BHN  e S      ? 20230719 1901   52.9539 GAU  3.06e-04 -1.00e+00  2.78e+02 -1.00e+00    1.0000 >    2.1921   -0.3199    0.0883  736.2660 9822.0830   -1.1500    4.4947 333.06 333.1  92.1  9     0.0000    0.0438
M07          ?    BHZ  e P      c 20230719 1901   52.4329 GAU  1.07e-03 -1.00e+00 -1.00e+00 -1.00e+00    1.0000 >    1.3382    0.0130    1.6195  737.4430 9822.8030   -1.1120    4.8045 349.70 349.7 104.3 10     0.0000    0.0268
M07          ?    BHN  e S      ? 20230719 1901   53.3987 GAU  2.89e-04 -1.00e+00 -1.00e+00 -1.00e+00    1.0000 >    2.3101    0.0070    1.3190  737.4430 9822.8030   -1.1120    4.8045 349.70 349.7  91.7  9     0.0000    0.0462
M01          ?    BHZ  e P      d 20230719 1901   52.4352 GAU  1.30e-03 -1.00e+00  1.40e+02 -1.00e+00    1.0000 >    1.3442    0.0092    1.6488  736.4090 9822.5140   -1.1200    4.8250 336.90 336.9 104.2 10     0.0000    0.0269
M01          ?    BHE  e S      ? 20230719 1901   53.4152 GAU  9.30e-04 -1.00e+00  5.28e+02 -1.00e+00    1.0000 >    2.3204    0.0132    1.3028  736.4090 9822.5140   -1.1200    4.8250 336.90 336.9  91.7  9     0.0000    0.0464
M12          ?    BHZ  e P      d 20230719 1901   52.5056 GAU  3.97e-04 -1.00e+00 -1.00e+00 -1.00e+00    1.0000 >    1.4980   -0.0741    0.4703  736.8520 9823.3800   -0.9890    5.4988 344.71 344.7 100.5 10     0.0000    0.0300
M12          ?    BHN  e S      ? 20230719 1901   53.5177 GAU  1.03e-03 -1.00e+00 -1.00e+00 -1.00e+00    1.0000 >    2.5657   -0.1297    0.3666  736.8520 9823.3800   -0.9890    5.4988 344.71 344.7  91.1  9     0.0000    0.0513
END_PHASE
END_NLLOC

