NLLOC "./loc/SEML.20230715.043619.grid0" "LOCATED" "Location completed."
PUBLIC_ID None
SIGNATURE "Arham Zakki Edelo - edelo.17034@mhs.its.ac.id   obs:./obs/2023_07.obs   NLLoc:v7.00.10(30Aug2020)   run:28Dec2023 20h05m41"
COMMENT "SEML"
GRID  2001 2001 1001  727 9811 -2  0.01 0.01 0.01 PROB_DENSITY
SEARCH OCTREE nInitial 4851 nEvaluated 20011 smallestNodeSide 0.014881/0.014881/0.014205 oct_tree_integral 5.229097e-02 scatter_volume 5.218814e-02
HYPOCENTER  x 737.975 y 9822.27 z -1.14062  OT 18.917  ix -1 iy -1 iz -1 MAXIMUM_LIKELIHOOD
GEOGRAPHIC  OT 2023 07 15  04 36 18.917047  Lat 9822.272321 Long 737.974702 Depth -1.140625
QUALITY  Pmax 2.43524e+20 MFmin 38.0737 MFmax 57.1102 RMS 0.0111713 Nphs 8 Gap 270.257 Dist 1.08146 Mamp -9.90 0 Mdur -9.90 0
VPVSRATIO  VpVsRatio 1.87107  Npair 4  Diff 0.730436
STATISTICS  ExpectX 738.022548 Y 9822.093021 Z -1.152911  CovXX 0.268619 XY 0.0147611 XZ -0.0491007 YY 0.0689943 YZ -0.0334537 ZZ 0.192719 EllAz1  359.295 Dip1  13.9515 Len1  0.462135 Az2  293.556 Dip2  -58.8427 Len2  0.782796 Len3  1.022610e+00
STAT_GEOG  ExpectLat 9822.093021 Long 738.022548 Depth -1.152911
TRANSFORM  NONE
QML_OriginQuality  assocPhCt 8  usedPhCt 8  assocStaCt -1  usedStaCt 4  depthPhCt -1  stdErr 0.0111713  azGap 270.257  secAzGap 270.257  gtLevel -  minDist 1.08146 maxDist 3.17309 medDist 1.70454
QML_OriginUncertainty  horUnc -1  minHorUnc 0.395209  maxHorUnc 0.787604  azMaxHorUnc 85.7938
QML_ConfidenceEllipsoid  semiMajorAxisLength 1.02261  semiMinorAxisLength 0.462135  semiIntermediateAxisLength 0.782796  majorAxisPlunge -27.2439  majorAxisAzimuth 81.9455  majorAxisRotation 154.125
FOCALMECH  Hyp  9822.272321 737.974702 -1.140625 Mech  0 0 0 mf  0 nObs -1
PHASE ID Ins Cmp On Pha  FM Date     HrMn   Sec     Err  ErrMag    Coda      Amp       Per       PriorWt  >   TTpred    Res       Weight    StaLoc(X  Y         Z)        SDist    SAzim  RAz  RDip RQual    Tcorr       TTerr
M13          ?    BHZ  e P      d 20230715 0436   19.1476 GAU  7.19e-04 -1.00e+00  5.88e+01 -1.00e+00    1.0000 >    0.2981   -0.0676    0.0005  737.1780 9821.5410   -1.2220    1.0815 227.45 227.5  94.7  9     0.0000    0.0060
M13          ?    BHN  e S      ? 20230715 0436   19.4329 GAU  5.72e-04 -1.00e+00  6.24e+00 -1.00e+00    1.0000 >    0.5142    0.0016    1.9140  737.1780 9821.5410   -1.2220    1.0815 227.45 227.5  94.7  9     0.0000    0.0103
M10          ?    BHZ  e P      d 20230715 0436   19.4005 GAU  1.61e-03 -1.00e+00  2.02e+03 -1.00e+00    1.0000 >    0.4649    0.0185    1.3275  736.5490 9821.3650   -1.2200    1.6899 237.53 237.5  93.0  9     0.0000    0.0093
M10          ?    BHN  e S      ? 20230715 0436   19.7163 GAU  8.98e-04 -1.00e+00  1.03e+02 -1.00e+00    1.0000 >    0.8020   -0.0028    1.7187  736.5490 9821.3650   -1.2200    1.6899 237.53 237.5  93.0  9     0.0000    0.0160
M05          ?    BHZ  i P      c 20230715 0436   19.3808 GAU  1.88e-03 -1.00e+00  5.23e+01 -1.00e+00    1.0000 >    0.4723   -0.0085    1.4774  736.2660 9822.0830   -1.1500    1.7192 263.68 263.7  90.7  9     0.0000    0.0094
M05          ?    BHN  e S      ? 20230715 0436   19.7477 GAU  4.49e-04 -1.00e+00  2.95e+02 -1.00e+00    1.0000 >    0.8148    0.0158    1.5620  736.2660 9822.0830   -1.1500    1.7192 263.68 263.7  90.7  9     0.0000    0.0163
M06          ?    BHZ  e P      c 20230715 0436   20.1684 GAU  1.61e-03 -1.00e+00  5.95e+00 -1.00e+00    1.0000 >    0.8748    0.3766    0.0000  738.3100 9819.1170   -1.3960    3.1731 173.93 173.9  94.8 10     0.0000    0.0175
M06          ?    BHN  e S      ? 20230715 0436   21.1841 GAU  9.75e-04 -1.00e+00 -1.00e+00 -1.00e+00    1.0000 >    1.5090    0.7580    0.0000  738.3100 9819.1170   -1.3960    3.1731 173.93 173.9  94.8 10     0.0000    0.0302
END_PHASE
END_NLLOC

