NLLOC "./loc/SEML.20230726.001742.grid0" "LOCATED" "Location completed."
PUBLIC_ID None
SIGNATURE "Arham Zakki Edelo - edelo.17034@mhs.its.ac.id   obs:./obs/2023_07.obs   NLLoc:v7.00.10(30Aug2020)   run:28Dec2023 20h06m16"
COMMENT "SEML"
GRID  2001 2001 1001  727 9811 -2  0.01 0.01 0.01 PROB_DENSITY
SEARCH OCTREE nInitial 4851 nEvaluated 20027 smallestNodeSide 0.014881/0.014881/0.014205 oct_tree_integral 1.848384e-02 scatter_volume 1.844320e-02
HYPOCENTER  x 734.426 y 9823.31 z -1.0483  OT 42.2952  ix -1 iy -1 iz -1 MAXIMUM_LIKELIHOOD
GEOGRAPHIC  OT 2023 07 26  00 17 42.295181  Lat 9823.306548 Long 734.425595 Depth -1.048295
QUALITY  Pmax 1.21862e+45 MFmin 59.66 MFmax 75.1891 RMS 0.0378184 Nphs 16 Gap 297.37 Dist 2.13589 Mamp -9.90 0 Mdur -9.90 0
VPVSRATIO  VpVsRatio 1.71805  Npair 8  Diff 0.531311
STATISTICS  ExpectX 734.494764 Y 9823.321239 Z -1.072374  CovXX 0.053157 XY -0.00570687 XZ 0.0883248 YY 0.00650591 YZ -0.0281449 ZZ 0.318494 EllAz1  174.902 Dip1  -6.50478 Len1  0.115715 Az2  263.015 Dip2  16.1076 Len2  0.307352 Len3  1.107718e+00
STAT_GEOG  ExpectLat 9823.321239 Long 734.494764 Depth -1.072374
TRANSFORM  NONE
QML_OriginQuality  assocPhCt 16  usedPhCt 16  assocStaCt -1  usedStaCt 8  depthPhCt -1  stdErr 0.0378184  azGap 297.37  secAzGap 297.37  gtLevel -  minDist 2.13589 maxDist 4.92604 medDist 3.07361
QML_OriginUncertainty  horUnc -1  minHorUnc 0.115677  maxHorUnc 0.351914  azMaxHorUnc 96.874
QML_ConfidenceEllipsoid  semiMajorAxisLength 1.10772  semiMinorAxisLength 0.115715  semiIntermediateAxisLength 0.307352  majorAxisPlunge 72.5616  majorAxisAzimuth 106.186  majorAxisRotation 26.4605
FOCALMECH  Hyp  9823.306548 734.425595 -1.048295 Mech  0 0 0 mf  0 nObs -1
PHASE ID Ins Cmp On Pha  FM Date     HrMn   Sec     Err  ErrMag    Coda      Amp       Per       PriorWt  >   TTpred    Res       Weight    StaLoc(X  Y         Z)        SDist    SAzim  RAz  RDip RQual    Tcorr       TTerr
M01          ?    BHZ  e P      d 20230726 0017   42.8769 GAU  8.11e-04 -1.00e+00  1.06e+03 -1.00e+00    1.0000 >    0.5872   -0.0055    2.3182  736.4090 9822.5140   -1.1200    2.1359 111.78 111.8  92.2  9     0.0000    0.0117
M01          ?    BHN  e S      ? 20230726 0017   43.3237 GAU  1.02e-03 -1.00e+00  1.72e+03 -1.00e+00    1.0000 >    1.0130    0.0155    1.9610  736.4090 9822.5140   -1.1200    2.1359 111.78 111.8  92.3  9     0.0000    0.0203
M05          ?    BHZ  i P      c 20230726 0017   43.0077 GAU  4.83e-03 -1.00e+00 -1.00e+00 -1.00e+00    1.0000 >    0.6079    0.1046    0.1002  736.2660 9822.0830   -1.1500    2.2100 123.62 123.6  93.0  9     0.0000    0.0122
M05          ?    BHN  e S      ? 20230726 0017   43.5287 GAU  2.12e-03 -1.00e+00  2.50e+02 -1.00e+00    1.0000 >    1.0488    0.1847    0.2588  736.2660 9822.0830   -1.1500    2.2100 123.62 123.6  93.0  9     0.0000    0.0210
M12          ?    BHZ  e P      c 20230726 0017   42.9636 GAU  1.42e-03 -1.00e+00 -1.00e+00 -1.00e+00    1.0000 >    0.6632    0.0052    2.3853  736.8520 9823.3800   -0.9890    2.4275  88.27  88.3  82.6 10     0.0000    0.0133
M12          ?    BHN  e S      ? 20230726 0017   43.4342 GAU  5.26e-03 -1.00e+00 -1.00e+00 -1.00e+00    1.0000 >    1.1473   -0.0083    1.9644  736.8520 9823.3800   -0.9890    2.4275  88.27  88.3  84.4 10     0.0000    0.0229
M10          ?    BHZ  e P      d 20230726 0017   43.5599 GAU  9.88e-04 -1.00e+00  1.16e+03 -1.00e+00    1.0000 >    0.7920    0.4727    0.0000  736.5490 9821.3650   -1.2200    2.8772 132.44 132.4  93.6  9     0.0000    0.0158
M10          ?    BHE  e S      ? 20230726 0017   44.4855 GAU  9.47e-04 -1.00e+00 -1.00e+00 -1.00e+00    1.0000 >    1.3664    0.8239    0.0000  736.5490 9821.3650   -1.2200    2.8772 132.44 132.4  93.6  9     0.0000    0.0273
M13          ?    BHZ  i P      c 20230726 0017   43.3469 GAU  1.29e-03 -1.00e+00 -1.00e+00 -1.00e+00    1.0000 >    0.8998    0.1519    0.2554  737.1780 9821.5410   -1.2220    3.2700 122.68 122.7  93.2  9     0.0000    0.0180
M13          ?    BHN  e S      ? 20230726 0017   44.0976 GAU  5.92e-04 -1.00e+00 -1.00e+00 -1.00e+00    1.0000 >    1.5523    0.2501    0.0699  737.1780 9821.5410   -1.2220    3.2700 122.68 122.7  93.2  9     0.0000    0.0310
M09          ?    BHZ  e P      c 20230726 0017   43.3078 GAU  1.62e-03 -1.00e+00 -1.00e+00 -1.00e+00    1.0000 >    1.1457   -0.1331    0.0655  737.8820 9820.9850   -1.2700    4.1637 123.89 123.9  90.8  9     0.0000    0.0229
M09          ?    BHN  e S      ? 20230726 0017   44.0561 GAU  8.43e-04 -1.00e+00  4.60e+02 -1.00e+00    1.0000 >    1.9764   -0.2155    0.0473  737.8820 9820.9850   -1.2700    4.1637 123.89 123.9  93.2 10     0.0000    0.0395
M02          ?    BHZ  e P      d 20230726 0017   43.5261 GAU  1.20e-03 -1.00e+00  3.98e+02 -1.00e+00    1.0000 >    1.2329   -0.0019    2.0196  736.5970 9819.4060   -1.4960    4.4642 150.90 150.9  95.8 10     0.0000    0.0247
M02          ?    BHE  e S      ? 20230726 0017   44.4022 GAU  6.24e-04 -1.00e+00  1.99e+03 -1.00e+00    1.0000 >    2.1268   -0.0198    1.3629  736.5970 9819.4060   -1.4960    4.4642 150.90 150.9  95.8 10     0.0000    0.0425
M11          ?    BHZ  i P      c 20230726 0017   43.6674 GAU  2.24e-03 -1.00e+00 -1.00e+00 -1.00e+00    1.0000 >    1.3552    0.0171    1.7731  738.4670 9820.4900   -1.3120    4.9260 124.87 124.9  85.5  9     0.0000    0.0271
M11          ?    BHE  e S      ? 20230726 0017   44.6456 GAU  8.22e-04 -1.00e+00 -1.00e+00 -1.00e+00    1.0000 >    2.3383    0.0121    1.4186  738.4670 9820.4900   -1.3120    4.9260 124.87 124.9  93.2 10     0.0000    0.0468
END_PHASE
END_NLLOC

