NLLOC "./loc/SEML.20230721.065053.grid0" "LOCATED" "Location completed."
PUBLIC_ID None
SIGNATURE "Arham Zakki Edelo - edelo.17034@mhs.its.ac.id   obs:./obs/2023_07.obs   NLLoc:v7.00.10(30Aug2020)   run:28Dec2023 20h06m14"
COMMENT "SEML"
GRID  2001 2001 1001  727 9811 -2  0.01 0.01 0.01 PROB_DENSITY
SEARCH OCTREE nInitial 4851 nEvaluated 20019 smallestNodeSide 0.014881/0.014881/0.014205 oct_tree_integral 1.437323e-02 scatter_volume 1.435637e-02
HYPOCENTER  x 736.635 y 9818.31 z -0.203125  OT 53.0109  ix -1 iy -1 iz -1 MAXIMUM_LIKELIHOOD
GEOGRAPHIC  OT 2023 07 21  06 50 53.010944  Lat 9818.313988 Long 736.635417 Depth -0.203125
QUALITY  Pmax 1.6466e+58 MFmin 69.2523 MFmax 88.5014 RMS 0.0248927 Nphs 18 Gap 290.021 Dist 1.06512 Mamp -9.90 0 Mdur -9.90 0
VPVSRATIO  VpVsRatio 1.74852  Npair 9  Diff 0.468037
STATISTICS  ExpectX 736.664736 Y 9818.309414 Z -0.219699  CovXX 0.0374408 XY 0.0073119 XZ 0.0282866 YY 0.00855646 YZ 0.00819638 ZZ 0.0519927 EllAz1  170.476 Dip1  4.29731 Len1  0.153848 Az2  263.906 Dip2  38.5259 Len2  0.234458 Len3  5.169763e-01
STAT_GEOG  ExpectLat 9818.309414 Long 736.664736 Depth -0.219699
TRANSFORM  NONE
QML_OriginQuality  assocPhCt 18  usedPhCt 18  assocStaCt -1  usedStaCt 9  depthPhCt -1  stdErr 0.0248927  azGap 290.021  secAzGap 290.021  gtLevel -  minDist 1.06512 maxDist 4.56108 medDist 2.94759
QML_OriginUncertainty  horUnc -1  minHorUnc 0.125161  maxHorUnc 0.300214  azMaxHorUnc 76.5737
QML_ConfidenceEllipsoid  semiMajorAxisLength 0.516976  semiMinorAxisLength 0.153848  semiIntermediateAxisLength 0.234458  majorAxisPlunge 51.1444  majorAxisAzimuth 75.1239  majorAxisRotation 330.524
FOCALMECH  Hyp  9818.313988 736.635417 -0.203125 Mech  0 0 0 mf  0 nObs -1
PHASE ID Ins Cmp On Pha  FM Date     HrMn   Sec     Err  ErrMag    Coda      Amp       Per       PriorWt  >   TTpred    Res       Weight    StaLoc(X  Y         Z)        SDist    SAzim  RAz  RDip RQual    Tcorr       TTerr
M04          ?    BHZ  i P      d 20230721 0650   53.7222 GAU  1.24e-03 -1.00e+00  1.14e+03 -1.00e+00    1.0000 >    0.4690    0.2423    0.0000  737.1400 9819.2520   -1.5710    1.0651  28.28  28.3 140.3 10     0.0000    0.0094
M04          ?    BHN  i S      ? 20230721 0650   54.2714 GAU  6.59e-04 -1.00e+00  7.98e+02 -1.00e+00    1.0000 >    0.8171    0.4434    0.0000  737.1400 9819.2520   -1.5710    1.0651  28.28  28.3 141.6 10     0.0000    0.0163
M06          ?    BHZ  i P      d 20230721 0650   53.6053 GAU  5.89e-04 -1.00e+00 -1.00e+00 -1.00e+00    1.0000 >    0.5956   -0.0013    1.7010  738.3100 9819.1170   -1.3960    1.8572  64.38  64.4 118.9 10     0.0000    0.0119
M06          ?    BHN  e S      ? 20230721 0650   54.0684 GAU  9.06e-04 -1.00e+00 -1.00e+00 -1.00e+00    1.0000 >    1.0396    0.0178    1.3048  738.3100 9819.1170   -1.3960    1.8572  64.38  64.4 121.5 10     0.0000    0.0208
M14          ?    BHZ  e P      c 20230721 0650   53.5941 GAU  3.42e-03 -1.00e+00 -1.00e+00 -1.00e+00    1.0000 >    0.6123   -0.0292    1.1818  737.5530 9820.0110   -1.3980    1.9292  28.40  28.4 117.9 10     0.0000    0.0122
M14          ?    BHE  e S      ? 20230721 0650   54.0678 GAU  2.20e-03 -1.00e+00  3.77e+02 -1.00e+00    1.0000 >    1.0689   -0.0120    1.5359  737.5530 9820.0110   -1.3980    1.9292  28.40  28.4 120.5 10     0.0000    0.0214
M11          ?    BHZ  i P      d 20230721 0650   53.7067 GAU  2.46e-03 -1.00e+00  1.77e+02 -1.00e+00    1.0000 >    0.8216   -0.1259    0.1512  738.4670 9820.4900   -1.3120    2.8442  40.09  40.1 105.9 10     0.0000    0.0164
M11          ?    BHE  i S      ? 20230721 0650   54.2745 GAU  2.02e-03 -1.00e+00 -1.00e+00 -1.00e+00    1.0000 >    1.4373   -0.1737    0.0712  738.4670 9820.4900   -1.3120    2.8442  40.09  40.1 109.6 10     0.0000    0.0287
M09          ?    BHZ  i P      d 20230721 0650   53.8099 GAU  2.42e-03 -1.00e+00  2.65e+02 -1.00e+00    1.0000 >    0.8428   -0.0438    0.8158  737.8820 9820.9850   -1.2700    2.9476  25.02  25.0 104.3 10     0.0000    0.0169
M09          ?    BHN  e S      ? 20230721 0650   54.3946 GAU  3.88e-04 -1.00e+00  4.93e+02 -1.00e+00    1.0000 >    1.4755   -0.0919    0.2925  737.8820 9820.9850   -1.2700    2.9476  25.02  25.0 108.1 10     0.0000    0.0295
M13          ?    BHZ  e P      c 20230721 0650   53.9401 GAU  1.27e-03 -1.00e+00 -1.00e+00 -1.00e+00    1.0000 >    0.9197    0.0095    1.5128  737.1780 9821.5410   -1.2220    3.2723   9.54   9.5 101.5 10     0.0000    0.0184
M13          ?    BHN  e S      ? 20230721 0650   54.6364 GAU  7.52e-04 -1.00e+00  1.70e+01 -1.00e+00    1.0000 >    1.6125    0.0129    1.2467  737.1780 9821.5410   -1.2220    3.2723   9.54   9.5 105.3 10     0.0000    0.0323
M05          ?    BHZ  e P      d 20230721 0650   54.0609 GAU  8.39e-04 -1.00e+00  2.78e+02 -1.00e+00    1.0000 >    1.0439    0.0061    1.5272  736.2660 9822.0830   -1.1500    3.7871 354.40 354.4  98.4 10     0.0000    0.0209
M05          ?    BHE  e S      ? 20230721 0650   54.8485 GAU  1.70e-04 -1.00e+00 -1.00e+00 -1.00e+00    1.0000 >    1.8353    0.0022    1.2579  736.2660 9822.0830   -1.1500    3.7871 354.40 354.4 101.8 10     0.0000    0.0367
M08          ?    BHZ  e P      c 20230721 0650   54.1476 GAU  3.72e-04 -1.00e+00  4.45e+01 -1.00e+00    1.0000 >    1.1424   -0.0057    1.5487  738.2480 9822.1600   -1.1510    4.1704  22.75  22.7  97.2 10     0.0000    0.0228
M08          ?    BHN  e S      ? 20230721 0650   55.0192 GAU  2.26e-04 -1.00e+00  3.40e+02 -1.00e+00    1.0000 >    2.0104   -0.0022    1.2104  738.2480 9822.1600   -1.1510    4.1704  22.75  22.7 100.4 10     0.0000    0.0402
M07          ?    BHZ  e P      d 20230721 0650   54.2519 GAU  1.24e-03 -1.00e+00  4.05e+01 -1.00e+00    1.0000 >    1.2393    0.0017    1.4923  737.4430 9822.8030   -1.1120    4.5611  10.20  10.2  96.1 10     0.0000    0.0248
M07          ?    BHN  e S      ? 20230721 0650   55.1830 GAU  5.05e-04 -1.00e+00 -1.00e+00 -1.00e+00    1.0000 >    2.1851   -0.0130    1.1498  737.4430 9822.8030   -1.1120    4.5611  10.20  10.2  98.8 10     0.0000    0.0437
END_PHASE
END_NLLOC

