NLLOC "./loc/SEML.20230719.030838.grid0" "LOCATED" "Location completed."
PUBLIC_ID None
SIGNATURE "Arham Zakki Edelo - edelo.17034@mhs.its.ac.id   obs:./obs/2023_07.obs   NLLoc:v7.00.10(30Aug2020)   run:28Dec2023 20h05m57"
COMMENT "SEML"
GRID  2001 2001 1001  727 9811 -2  0.01 0.01 0.01 PROB_DENSITY
SEARCH OCTREE nInitial 4851 nEvaluated 20003 smallestNodeSide 0.014881/0.014881/0.014205 oct_tree_integral 3.660671e-02 scatter_volume 3.660671e-02
HYPOCENTER  x 739.448 y 9819.31 z 1.18892  OT 37.7134  ix -1 iy -1 iz -1 MAXIMUM_LIKELIHOOD
GEOGRAPHIC  OT 2023 07 19  03 08 37.713387  Lat 9819.311012 Long 739.447917 Depth 1.188920
QUALITY  Pmax 6.22668e+35 MFmin 44.5245 MFmax 55.0823 RMS 0.0166295 Nphs 12 Gap 300.085 Dist 1.15434 Mamp -9.90 0 Mdur -9.90 0
VPVSRATIO  VpVsRatio 1.74649  Npair 6  Diff 0.28027
STATISTICS  ExpectX 739.393719 Y 9819.239500 Z 1.216783  CovXX 0.0580006 XY 0.0351787 XZ -0.0147574 YY 0.0379126 YZ -0.0146612 ZZ 0.0258171 EllAz1  327.669 Dip1  16.3993 Len1  0.192894 Az2  278.114 Dip2  -65.5974 Len2  0.266555 Len3  5.669643e-01
STAT_GEOG  ExpectLat 9819.239500 Long 739.393719 Depth 1.216783
TRANSFORM  NONE
QML_OriginQuality  assocPhCt 12  usedPhCt 12  assocStaCt -1  usedStaCt 6  depthPhCt -1  stdErr 0.0166295  azGap 300.085  secAzGap 300.085  gtLevel -  minDist 1.15434 maxDist 3.55283 medDist 2.15615
QML_OriginUncertainty  horUnc -1  minHorUnc 0.161727  maxHorUnc 0.440959  azMaxHorUnc 52.9674
QML_ConfidenceEllipsoid  semiMajorAxisLength 0.566964  semiMinorAxisLength 0.192894  semiIntermediateAxisLength 0.266555  majorAxisPlunge -17.5553  majorAxisAzimuth 52.3268  majorAxisRotation 159.244
FOCALMECH  Hyp  9819.311012 739.447917 1.188920 Mech  0 0 0 mf  0 nObs -1
PHASE ID Ins Cmp On Pha  FM Date     HrMn   Sec     Err  ErrMag    Coda      Amp       Per       PriorWt  >   TTpred    Res       Weight    StaLoc(X  Y         Z)        SDist    SAzim  RAz  RDip RQual    Tcorr       TTerr
M06          ?    BHZ  i P      c 20230719 0308   38.4524 GAU  1.27e-03 -1.00e+00 -1.00e+00 -1.00e+00    1.0000 >    0.7408   -0.0018    1.5269  738.3100 9819.1170   -1.3960    1.1543 260.32 260.3 153.1 10     0.0000    0.0148
M06          ?    BHN  i S      ? 20230719 0308   38.9883 GAU  2.26e-04 -1.00e+00 -1.00e+00 -1.00e+00    1.0000 >    1.2665    0.0084    1.3373  738.3100 9819.1170   -1.3960    1.1543 260.32 260.3 152.0 10     0.0000    0.0253
M11          ?    BHZ  i P      c 20230719 0308   38.4791 GAU  1.79e-03 -1.00e+00 -1.00e+00 -1.00e+00    1.0000 >    0.7662   -0.0005    1.5274  738.4670 9820.4900   -1.3120    1.5337 320.24 320.2 144.7 10     0.0000    0.0153
M11          ?    BHE  e S      ? 20230719 0308   38.9941 GAU  3.76e-04 -1.00e+00 -1.00e+00 -1.00e+00    1.0000 >    1.3092   -0.0285    0.9045  738.4670 9820.4900   -1.3120    1.5337 320.24 320.2 143.2 10     0.0000    0.0262
M14          ?    BHZ  e P      d 20230719 0308   38.5762 GAU  6.76e-04 -1.00e+00  3.45e+02 -1.00e+00    1.0000 >    0.8583    0.0045    1.5009  737.5530 9820.0110   -1.3980    2.0201 290.27 290.3 137.2 10     0.0000    0.0172
M14          ?    BHE  e S      ? 20230719 0308   39.1863 GAU  2.93e-04 -1.00e+00  3.78e+02 -1.00e+00    1.0000 >    1.4665    0.0064    1.2692  737.5530 9820.0110   -1.3980    2.0201 290.27 290.3 135.2 10     0.0000    0.0293
M09          ?    BHZ  i P      c 20230719 0308   38.6277 GAU  4.74e-04 -1.00e+00  7.63e+01 -1.00e+00    1.0000 >    0.8765    0.0378    0.7837  737.8820 9820.9850   -1.2700    2.2922 316.91 316.9 131.3 10     0.0000    0.0175
M09          ?    BHN  e S      ? 20230719 0308   39.2504 GAU  1.81e-04 -1.00e+00  4.83e+02 -1.00e+00    1.0000 >    1.4962    0.0408    0.8172  737.8820 9820.9850   -1.2700    2.2922 316.91 316.9 129.0 10     0.0000    0.0299
M04          ?    BHZ  e P      c 20230719 0308   38.5070 GAU  1.26e-03 -1.00e+00 -1.00e+00 -1.00e+00    1.0000 >    0.9437   -0.1500    0.0011  737.1400 9819.2520   -1.5710    2.3087 268.54 268.5 134.6 10     0.0000    0.0189
M04          ?    BHN  e S      ? 20230719 0308   39.0495 GAU  1.07e-03 -1.00e+00  7.45e+02 -1.00e+00    1.0000 >    1.6132   -0.2770    0.0005  737.1400 9819.2520   -1.5710    2.3087 268.54 268.5 132.5 10     0.0000    0.0323
M10          ?    BHZ  e P      d 20230719 0308   38.8159 GAU  1.71e-03 -1.00e+00  1.20e+03 -1.00e+00    1.0000 >    1.1169   -0.0143    1.2335  736.5490 9821.3650   -1.2200    3.5528 305.32 305.3 114.5 10     0.0000    0.0223
M10          ?    BHE  e S      ? 20230719 0308   39.6112 GAU  1.09e-03 -1.00e+00 -1.00e+00 -1.00e+00    1.0000 >    1.9018   -0.0040    1.0978  736.5490 9821.3650   -1.2200    3.5528 305.32 305.3 111.0 10     0.0000    0.0380
END_PHASE
END_NLLOC

