NLLOC "./loc/SEML.20230721.123146.grid0" "LOCATED" "Location completed."
PUBLIC_ID None
SIGNATURE "Arham Zakki Edelo - edelo.17034@mhs.its.ac.id   obs:./obs/2023_07.obs   NLLoc:v7.00.10(30Aug2020)   run:28Dec2023 20h06m14"
COMMENT "SEML"
GRID  2001 2001 1001  727 9811 -2  0.01 0.01 0.01 PROB_DENSITY
SEARCH OCTREE nInitial 4851 nEvaluated 20003 smallestNodeSide 0.014881/0.014881/0.014205 oct_tree_integral 3.401278e-02 scatter_volume 3.390267e-02
HYPOCENTER  x 737.573 y 9817.3 z -0.00426136  OT 45.8288  ix -1 iy -1 iz -1 MAXIMUM_LIKELIHOOD
GEOGRAPHIC  OT 2023 07 21  12 31 45.828832  Lat 9817.302083 Long 737.572917 Depth -0.004261
QUALITY  Pmax 3.01086e+78 MFmin 82.5968 MFmax 101.213 RMS 0.0515806 Nphs 24 Gap 313.012 Dist 1.95888 Mamp -9.90 0 Mdur -9.90 0
VPVSRATIO  VpVsRatio 1.69424  Npair 12  Diff 0.743916
STATISTICS  ExpectX 737.586356 Y 9817.329194 Z -0.012136  CovXX 0.0248879 XY 0.000488616 XZ 0.0155535 YY 0.0215537 YZ 0.00305277 ZZ 0.0411376 EllAz1  77.2663 Dip1  -31.4598 Len1  0.231959 Az2  347.805 Dip2  0.879989 Len2  0.275465 Len3  4.236374e-01
STAT_GEOG  ExpectLat 9817.329194 Long 737.586356 Depth -0.012136
TRANSFORM  NONE
QML_OriginQuality  assocPhCt 24  usedPhCt 24  assocStaCt -1  usedStaCt 12  depthPhCt -1  stdErr 0.0515806  azGap 313.012  secAzGap 313.012  gtLevel -  minDist 1.95888 maxDist 6.12052 medDist 3.94291
QML_OriginUncertainty  horUnc -1  minHorUnc 0.222289  maxHorUnc 0.23959  azMaxHorUnc 81.8321
QML_ConfidenceEllipsoid  semiMajorAxisLength 0.423637  semiMinorAxisLength 0.231959  semiIntermediateAxisLength 0.275465  majorAxisPlunge 58.525  majorAxisAzimuth 79.2424  majorAxisRotation 90.7667
FOCALMECH  Hyp  9817.302083 737.572917 -0.004261 Mech  0 0 0 mf  0 nObs -1
PHASE ID Ins Cmp On Pha  FM Date     HrMn   Sec     Err  ErrMag    Coda      Amp       Per       PriorWt  >   TTpred    Res       Weight    StaLoc(X  Y         Z)        SDist    SAzim  RAz  RDip RQual    Tcorr       TTerr
M06          ?    BHZ  i P      c 20230721 1231   46.4731 GAU  2.48e-03 -1.00e+00 -1.00e+00 -1.00e+00    1.0000 >    0.6446   -0.0003    1.8062  738.3100 9819.1170   -1.3960    1.9589  22.10  22.1 122.5 10     0.0000    0.0129
M06          ?    BHN  e S      ? 20230721 1231   46.9692 GAU  1.86e-03 -1.00e+00 -1.00e+00 -1.00e+00    1.0000 >    1.1297    0.0107    1.7221  738.3100 9819.1170   -1.3960    1.9589  22.10  22.1 123.3  9     0.0000    0.0226
M04          ?    BHZ  i P      c 20230721 1231   46.6246 GAU  1.08e-03 -1.00e+00 -1.00e+00 -1.00e+00    1.0000 >    0.6828    0.1130    0.4507  737.1400 9819.2520   -1.5710    1.9974 347.48 347.5 125.2 10     0.0000    0.0137
M04          ?    BHN  e S      ? 20230721 1231   47.2824 GAU  7.71e-04 -1.00e+00  7.25e+02 -1.00e+00    1.0000 >    1.1944    0.2591    0.1594  737.1400 9819.2520   -1.5710    1.9974 347.48 347.5 126.2  9     0.0000    0.0239
M02          ?    BHZ  i P      c 20230721 1231   46.5974 GAU  2.59e-03 -1.00e+00 -1.00e+00 -1.00e+00    1.0000 >    0.7408    0.0277    1.5086  736.5970 9819.4060   -1.4960    2.3192 335.12 335.1 119.4 10     0.0000    0.0148
M02          ?    BHE  e S      ? 20230721 1231   47.1231 GAU  1.16e-03 -1.00e+00  1.34e+03 -1.00e+00    1.0000 >    1.2972   -0.0029    1.6293  736.5970 9819.4060   -1.4960    2.3192 335.12 335.1 120.4  9     0.0000    0.0259
M14          ?    BHZ  e P      c 20230721 1231   46.6412 GAU  1.26e-03 -1.00e+00 -1.00e+00 -1.00e+00    1.0000 >    0.8169   -0.0045    1.7372  737.5530 9820.0110   -1.3980    2.7090 359.58 359.6 113.4 10     0.0000    0.0163
M14          ?    BHE  e S      ? 20230721 1231   47.1976 GAU  8.74e-04 -1.00e+00  3.34e+02 -1.00e+00    1.0000 >    1.4325   -0.0637    0.5956  737.5530 9820.0110   -1.3980    2.7090 359.58 359.6 114.3  9     0.0000    0.0286
M11          ?    BHZ  e P      d 20230721 1231   46.8276 GAU  1.88e-03 -1.00e+00  3.41e+02 -1.00e+00    1.0000 >    0.9523    0.0465    1.1987  738.4670 9820.4900   -1.3120    3.3109  15.67  15.7 107.2 10     0.0000    0.0190
M11          ?    BHE  e S      ? 20230721 1231   47.5658 GAU  6.86e-04 -1.00e+00 -1.00e+00 -1.00e+00    1.0000 >    1.6730    0.0640    1.0825  738.4670 9820.4900   -1.3120    3.3109  15.67  15.7 107.6  9     0.0000    0.0335
M09          ?    BHZ  i P      c 20230721 1231   46.8636 GAU  1.62e-03 -1.00e+00  2.52e+01 -1.00e+00    1.0000 >    1.0434   -0.0087    1.6228  737.8820 9820.9850   -1.2700    3.6959   4.80   4.8 104.3 10     0.0000    0.0209
M09          ?    BHE  i S      ? 20230721 1231   47.6719 GAU  1.26e-04 -1.00e+00  3.91e+02 -1.00e+00    1.0000 >    1.8353    0.0078    1.5217  737.8820 9820.9850   -1.2700    3.6959   4.80   4.8 103.9  9     0.0000    0.0367
M10          ?    BHZ  e P      d 20230721 1231   47.0853 GAU  2.56e-03 -1.00e+00  1.45e+03 -1.00e+00    1.0000 >    1.1628    0.0937    0.6951  736.5490 9821.3650   -1.2200    4.1900 345.86 345.9 101.5  9     0.0000    0.0233
M10          ?    BHN  e S      ? 20230721 1231   47.9413 GAU  1.16e-03 -1.00e+00  4.90e+01 -1.00e+00    1.0000 >    2.0476    0.0649    1.0941  736.5490 9821.3650   -1.2200    4.1900 345.86 345.9  89.6  9     0.0000    0.0410
M13          ?    BHZ  e P      c 20230721 1231   46.9151 GAU  8.73e-04 -1.00e+00 -1.00e+00 -1.00e+00    1.0000 >    1.1801   -0.0938    0.3025  737.1780 9821.5410   -1.2220    4.2573 354.68 354.7 101.3  9     0.0000    0.0236
M13          ?    BHN  e S      ? 20230721 1231   47.7256 GAU  5.18e-04 -1.00e+00 -1.00e+00 -1.00e+00    1.0000 >    2.0780   -0.1812    0.1064  737.1780 9821.5410   -1.2220    4.2573 354.68 354.7  87.0  9     0.0000    0.0416
M08          ?    BHZ  e P      c 20230721 1231   47.4373 GAU  3.41e-04 -1.00e+00 -1.00e+00 -1.00e+00    1.0000 >    1.3380    0.2704    0.1632  738.2480 9822.1600   -1.1510    4.9046   7.91   7.9  98.7  9     0.0000    0.0268
M08          ?    BHE  e S      ? 20230721 1231   48.5744 GAU  7.21e-04 -1.00e+00 -1.00e+00 -1.00e+00    1.0000 >    2.3543    0.3913    0.0137  738.2480 9822.1600   -1.1510    4.9046   7.91   7.9  77.9  8     0.0000    0.0471
M05          ?    BHZ  e P      d 20230721 1231   47.1606 GAU  8.98e-04 -1.00e+00  3.29e+02 -1.00e+00    1.0000 >    1.3512   -0.0194    1.3784  736.2660 9822.0830   -1.1500    4.9563 344.71 344.7  98.5  9     0.0000    0.0270
M05          ?    BHN  e S      ? 20230721 1231   48.0694 GAU  9.98e-04 -1.00e+00  2.67e+02 -1.00e+00    1.0000 >    2.3771   -0.1365    0.2555  736.2660 9822.0830   -1.1500    4.9563 344.71 344.7  77.9  8     0.0000    0.0475
M07          ?    BHZ  e P      d 20230721 1231   47.3068 GAU  6.29e-04 -1.00e+00  1.03e+00 -1.00e+00    1.0000 >    1.4876   -0.0097    1.5052  737.4430 9822.8030   -1.1120    5.5025 358.65 358.6  97.2  9     0.0000    0.0298
M07          ?    BHE  e S      ? 20230721 1231   48.4384 GAU  2.54e-04 -1.00e+00 -1.00e+00 -1.00e+00    1.0000 >    2.6137   -0.0041    1.2967  737.4430 9822.8030   -1.1120    5.5025 358.65 358.6  77.8  8     0.0000    0.0523
M12          ?    BHZ  e P      c 20230721 1231   47.5250 GAU  1.29e-03 -1.00e+00 -1.00e+00 -1.00e+00    1.0000 >    1.6351    0.0611    1.1147  736.8520 9823.3800   -0.9890    6.1205 353.24 353.2  95.7  9     0.0000    0.0327
M12          ?    BHE  e S      ? 20230721 1231   48.7650 GAU  5.72e-04 -1.00e+00  1.50e+02 -1.00e+00    1.0000 >    2.8687    0.0675    1.0398  736.8520 9823.3800   -0.9890    6.1205 353.24 353.2  77.8  8     0.0000    0.0574
END_PHASE
END_NLLOC

