NLLOC "./loc/SEML.20230719.032806.grid0" "LOCATED" "Location completed."
PUBLIC_ID None
SIGNATURE "Arham Zakki Edelo - edelo.17034@mhs.its.ac.id   obs:./obs/2023_07.obs   NLLoc:v7.00.10(30Aug2020)   run:28Dec2023 20h06m07"
COMMENT "SEML"
GRID  2001 2001 1001  727 9811 -2  0.01 0.01 0.01 PROB_DENSITY
SEARCH OCTREE nInitial 4851 nEvaluated 20011 smallestNodeSide 0.014881/0.014881/0.014205 oct_tree_integral 5.701158e-02 scatter_volume 5.701158e-02
HYPOCENTER  x 738.882 y 9818.85 z 1.14631  OT 6.32337  ix -1 iy -1 iz -1 MAXIMUM_LIKELIHOOD
GEOGRAPHIC  OT 2023 07 19  03 28 6.323373  Lat 9818.849702 Long 738.882440 Depth 1.146307
QUALITY  Pmax 1.1324e+51 MFmin 58.9897 MFmax 73.7708 RMS 0.0210664 Nphs 16 Gap 297.213 Dist 0.631772 Mamp -9.90 0 Mdur -9.90 0
VPVSRATIO  VpVsRatio 1.80487  Npair 8  Diff 0.478524
STATISTICS  ExpectX 738.682730 Y 9818.758272 Z 0.954676  CovXX 0.107453 XY 0.0498961 XZ 0.0831841 YY 0.0488796 YZ 0.057085 ZZ 0.118233 EllAz1  171.963 Dip1  23.7942 Len1  0.240714 Az2  282.194 Dip2  38.1046 Len2  0.325039 Len3  8.975636e-01
STAT_GEOG  ExpectLat 9818.758272 Long 738.682730 Depth 0.954676
TRANSFORM  NONE
QML_OriginQuality  assocPhCt 16  usedPhCt 16  assocStaCt -1  usedStaCt 8  depthPhCt -1  stdErr 0.0210664  azGap 297.213  secAzGap 297.213  gtLevel -  minDist 0.631772 maxDist 4.15932 medDist 2.07316
QML_OriginUncertainty  horUnc -1  minHorUnc 0.216133  maxHorUnc 0.559331  azMaxHorUnc 60.2054
QML_ConfidenceEllipsoid  semiMajorAxisLength 0.897564  semiMinorAxisLength 0.240714  semiIntermediateAxisLength 0.325039  majorAxisPlunge 42.4995  majorAxisAzimuth 58.1329  majorAxisRotation 82.4054
FOCALMECH  Hyp  9818.849702 738.882440 1.146307 Mech  0 0 0 mf  0 nObs -1
PHASE ID Ins Cmp On Pha  FM Date     HrMn   Sec     Err  ErrMag    Coda      Amp       Per       PriorWt  >   TTpred    Res       Weight    StaLoc(X  Y         Z)        SDist    SAzim  RAz  RDip RQual    Tcorr       TTerr
M06          ?    BHZ  i P      c 20230719 0328    7.0216 GAU  2.46e-03 -1.00e+00 -1.00e+00 -1.00e+00    1.0000 >    0.6867    0.0115    1.5090  738.3100 9819.1170   -1.3960    0.6318 295.03 295.0 164.4 10     0.0000    0.0137
M06          ?    BHN  e S      ? 20230719 0328    7.5113 GAU  3.91e-04 -1.00e+00 -1.00e+00 -1.00e+00    1.0000 >    1.1750    0.0129    1.3893  738.3100 9819.1170   -1.3960    0.6318 295.03 295.0 163.7 10     0.0000    0.0235
M11          ?    BHZ  e P      c 20230719 0328    7.0975 GAU  1.86e-03 -1.00e+00 -1.00e+00 -1.00e+00    1.0000 >    0.7807   -0.0066    1.5277  738.4670 9820.4900   -1.3120    1.6921 345.79 345.8 141.2 10     0.0000    0.0156
M11          ?    BHN  i S      ? 20230719 0328    7.6728 GAU  5.06e-04 -1.00e+00 -1.00e+00 -1.00e+00    1.0000 >    1.3346    0.0149    1.3192  738.4670 9820.4900   -1.3120    1.6921 345.79 345.8 139.4 10     0.0000    0.0267
M14          ?    BHZ  e P      c 20230719 0328    7.1208 GAU  8.33e-04 -1.00e+00 -1.00e+00 -1.00e+00    1.0000 >    0.8114   -0.0139    1.3895  737.5530 9820.0110   -1.3980    1.7652 311.14 311.1 140.8 10     0.0000    0.0162
M14          ?    BHE  e S      ? 20230719 0328    7.6292 GAU  3.55e-04 -1.00e+00  4.51e+02 -1.00e+00    1.0000 >    1.3875   -0.0816    0.2140  737.5530 9820.0110   -1.3980    1.7652 311.14 311.1 139.1 10     0.0000    0.0277
M04          ?    BHZ  e P      c 20230719 0328    6.9753 GAU  1.42e-03 -1.00e+00 -1.00e+00 -1.00e+00    1.0000 >    0.8549   -0.2030    0.0004  737.1400 9819.2520   -1.5710    1.7883 283.00 283.0 142.3 10     0.0000    0.0171
M04          ?    BHE  e S      ? 20230719 0328    7.3757 GAU  3.27e-04 -1.00e+00  3.88e+02 -1.00e+00    1.0000 >    1.4629   -0.4105    0.0000  737.1400 9819.2520   -1.5710    1.7883 283.00 283.0 140.6 10     0.0000    0.0293
M09          ?    BHZ  i P      c 20230719 0328    7.1894 GAU  1.12e-03 -1.00e+00  1.31e+02 -1.00e+00    1.0000 >    0.8818   -0.0157    1.3396  737.8820 9820.9850   -1.2700    2.3580 334.90 334.9 129.5 10     0.0000    0.0176
M09          ?    BHN  e S      ? 20230719 0328    7.8197 GAU  8.39e-04 -1.00e+00  5.12e+02 -1.00e+00    1.0000 >    1.5061   -0.0098    1.2713  737.8820 9820.9850   -1.2700    2.3580 334.90 334.9 127.0 10     0.0000    0.0301
M13          ?    BHZ  e P      d 20230719 0328    7.3823 GAU  2.02e-04 -1.00e+00 -1.00e+00 -1.00e+00    1.0000 >    1.0352    0.0238    1.2361  737.1780 9821.5410   -1.2220    3.1856 327.65 327.7 117.6 10     0.0000    0.0207
M13          ?    BHN  e S      ? 20230719 0328    8.1323 GAU  8.32e-04 -1.00e+00 -1.00e+00 -1.00e+00    1.0000 >    1.7651    0.0438    0.8231  737.1780 9821.5410   -1.2220    3.1856 327.65 327.7 114.2 10     0.0000    0.0353
M10          ?    BHZ  e P      d 20230719 0328    7.3957 GAU  2.07e-03 -1.00e+00  1.08e+03 -1.00e+00    1.0000 >    1.0866   -0.0144    1.3307  736.5490 9821.3650   -1.2200    3.4310 317.15 317.1 114.8 10     0.0000    0.0217
M10          ?    BHN  e S      ? 20230719 0328    8.1165 GAU  1.46e-03 -1.00e+00 -1.00e+00 -1.00e+00    1.0000 >    1.8519   -0.0589    0.5664  736.5490 9821.3650   -1.2200    3.4310 317.15 317.1 111.2 10     0.0000    0.0370
M05          ?    BHZ  e P      c 20230719 0328    7.5833 GAU  1.40e-03 -1.00e+00 -1.00e+00 -1.00e+00    1.0000 >    1.2357    0.0242    1.2039  736.2660 9822.0830   -1.1500    4.1593 321.02 321.0 106.4 10     0.0000    0.0247
M05          ?    BHN  e S      ? 20230719 0328    8.4623 GAU  5.85e-04 -1.00e+00  2.71e+02 -1.00e+00    1.0000 >    2.1005    0.0384    0.8797  736.2660 9822.0830   -1.1500    4.1593 321.02 321.0 102.6 10     0.0000    0.0420
END_PHASE
END_NLLOC

