NLLOC "./loc/SEML.20230719.030634.grid0" "LOCATED" "Location completed."
PUBLIC_ID None
SIGNATURE "Arham Zakki Edelo - edelo.17034@mhs.its.ac.id   obs:./obs/2023_07.obs   NLLoc:v7.00.10(30Aug2020)   run:28Dec2023 20h05m56"
COMMENT "SEML"
GRID  2001 2001 1001  727 9811 -2  0.01 0.01 0.01 PROB_DENSITY
SEARCH OCTREE nInitial 4851 nEvaluated 20003 smallestNodeSide 0.014881/0.014881/0.014205 oct_tree_integral 1.374903e-02 scatter_volume 1.366171e-02
HYPOCENTER  x 738.912 y 9818.49 z 0.137784  OT 34.2144  ix -1 iy -1 iz -1 MAXIMUM_LIKELIHOOD
GEOGRAPHIC  OT 2023 07 19  03 06 34.214383  Lat 9818.492560 Long 738.912202 Depth 0.137784
QUALITY  Pmax 8.13217e+51 MFmin 62.3051 MFmax 69.8635 RMS 0.0195245 Nphs 16 Gap 305.762 Dist 0.86751 Mamp -9.90 0 Mdur -9.90 0
VPVSRATIO  VpVsRatio 1.67658  Npair 8  Diff 0.440819
STATISTICS  ExpectX 738.907703 Y 9818.476524 Z 0.142254  CovXX 0.0113043 XY -0.000159633 XZ -0.00453395 YY 0.00836815 YZ 0.000421652 ZZ 0.0147658 EllAz1  121.179 Dip1  31.6901 Len1  0.169398 Az2  203.328 Dip2  -12.4758 Len2  0.172207 Len3  2.514280e-01
STAT_GEOG  ExpectLat 9818.476524 Long 738.907703 Depth 0.142254
TRANSFORM  NONE
QML_OriginQuality  assocPhCt 16  usedPhCt 16  assocStaCt -1  usedStaCt 8  depthPhCt -1  stdErr 0.0195245  azGap 305.762  secAzGap 305.762  gtLevel -  minDist 0.86751 maxDist 4.46023 medDist 2.37171
QML_OriginUncertainty  horUnc -1  minHorUnc 0.138661  maxHorUnc 0.161306  azMaxHorUnc 93.1029
QML_ConfidenceEllipsoid  semiMajorAxisLength 0.251428  semiMinorAxisLength 0.169398  semiIntermediateAxisLength 0.172207  majorAxisPlunge -55.3885  majorAxisAzimuth 94.6299  majorAxisRotation 278.299
FOCALMECH  Hyp  9818.492560 738.912202 0.137784 Mech  0 0 0 mf  0 nObs -1
PHASE ID Ins Cmp On Pha  FM Date     HrMn   Sec     Err  ErrMag    Coda      Amp       Per       PriorWt  >   TTpred    Res       Weight    StaLoc(X  Y         Z)        SDist    SAzim  RAz  RDip RQual    Tcorr       TTerr
M06          ?    BHZ  i P      c 20230719 0306   34.8977 GAU  1.26e-03 -1.00e+00 -1.00e+00 -1.00e+00    1.0000 >    0.4715    0.2119    0.0000  738.3100 9819.1170   -1.3960    0.8675 316.04 316.0 149.5 10     0.0000    0.0094
M06          ?    BHE  i S      ? 20230719 0306   35.3695 GAU  1.08e-03 -1.00e+00 -1.00e+00 -1.00e+00    1.0000 >    0.8246    0.3305    0.0000  738.3100 9819.1170   -1.3960    0.8675 316.04 316.0 148.9 10     0.0000    0.0165
M04          ?    BHZ  e P      d 20230719 0306   34.9031 GAU  1.26e-03 -1.00e+00  1.37e+03 -1.00e+00    1.0000 >    0.6906   -0.0020    1.4954  737.1400 9819.2520   -1.5710    1.9281 293.20 293.2 129.1 10     0.0000    0.0138
M04          ?    BHE  e S      ? 20230719 0306   35.4285 GAU  5.66e-04 -1.00e+00  3.23e+02 -1.00e+00    1.0000 >    1.2064    0.0077    1.3272  737.1400 9819.2520   -1.5710    1.9281 293.20 293.2 127.9 10     0.0000    0.0241
M14          ?    BHZ  e P      c 20230719 0306   34.8649 GAU  1.58e-03 -1.00e+00 -1.00e+00 -1.00e+00    1.0000 >    0.6822   -0.0316    0.9290  737.5530 9820.0110   -1.3980    2.0379 318.17 318.2 124.4 10     0.0000    0.0136
M14          ?    BHE  e S      ? 20230719 0306   35.4101 GAU  1.05e-03 -1.00e+00  3.90e+02 -1.00e+00    1.0000 >    1.1935    0.0023    1.3595  737.5530 9820.0110   -1.3980    2.0379 318.17 318.2 122.8 10     0.0000    0.0239
M11          ?    BHZ  e P      d 20230719 0306   34.8840 GAU  6.24e-04 -1.00e+00  9.65e+01 -1.00e+00    1.0000 >    0.6694    0.0002    1.4987  738.4670 9820.4900   -1.3120    2.0465 347.43 347.4 122.6 10     0.0000    0.0134
M11          ?    BHE  e S      ? 20230719 0306   35.3773 GAU  1.31e-03 -1.00e+00 -1.00e+00 -1.00e+00    1.0000 >    1.1721   -0.0092    1.3380  738.4670 9820.4900   -1.3120    2.0465 347.43 347.4 120.9 10     0.0000    0.0234
M09          ?    BHZ  i P      c 20230719 0306   35.0570 GAU  3.36e-03 -1.00e+00 -1.00e+00 -1.00e+00    1.0000 >    0.8111    0.0316    0.9161  737.8820 9820.9850   -1.2700    2.6970 337.54 337.5 114.3 10     0.0000    0.0162
M09          ?    BHE  e S      ? 20230719 0306   35.6824 GAU  1.81e-04 -1.00e+00  3.55e+02 -1.00e+00    1.0000 >    1.4211    0.0469    0.6605  737.8820 9820.9850   -1.2700    2.6970 337.54 337.5 111.6 10     0.0000    0.0284
M13          ?    BHZ  e P      c 20230719 0306   35.1831 GAU  5.72e-04 -1.00e+00 -1.00e+00 -1.00e+00    1.0000 >    1.0008   -0.0321    0.9667  737.1780 9821.5410   -1.2220    3.5072 330.37 330.4 107.4 10     0.0000    0.0200
M13          ?    BHE  e S      ? 20230719 0306   35.9273 GAU  5.21e-04 -1.00e+00 -1.00e+00 -1.00e+00    1.0000 >    1.7550   -0.0421    0.7798  737.1780 9821.5410   -1.2220    3.5072 330.37 330.4 103.2 10     0.0000    0.0351
M10          ?    BHZ  e P      c 20230719 0306   35.2716 GAU  2.33e-03 -1.00e+00 -1.00e+00 -1.00e+00    1.0000 >    1.0532    0.0040    1.3960  736.5490 9821.3650   -1.2200    3.7196 320.56 320.6 106.1 10     0.0000    0.0211
M10          ?    BHN  e S      ? 20230719 0306   36.0550 GAU  3.31e-04 -1.00e+00 -1.00e+00 -1.00e+00    1.0000 >    1.8469   -0.0063    1.1327  736.5490 9821.3650   -1.2200    3.7196 320.56 320.6 101.5 10     0.0000    0.0369
M05          ?    BHZ  e P      d 20230719 0306   35.4662 GAU  4.47e-04 -1.00e+00  2.65e+02 -1.00e+00    1.0000 >    1.2312    0.0206    1.1604  736.2660 9822.0830   -1.1500    4.4602 323.61 323.6 102.0 10     0.0000    0.0246
M05          ?    BHE  e S      ? 20230719 0306   36.3787 GAU  3.60e-04 -1.00e+00 -1.00e+00 -1.00e+00    1.0000 >    2.1600    0.0043    1.0398  736.2660 9822.0830   -1.1500    4.4602 323.61 323.6  96.4  9     0.0000    0.0432
END_PHASE
END_NLLOC

