NLLOC "./loc/SEML.20230719.032811.grid0" "LOCATED" "Location completed."
PUBLIC_ID None
SIGNATURE "Arham Zakki Edelo - edelo.17034@mhs.its.ac.id   obs:./obs/2023_07.obs   NLLoc:v7.00.10(30Aug2020)   run:28Dec2023 20h06m07"
COMMENT "SEML"
GRID  2001 2001 1001  727 9811 -2  0.01 0.01 0.01 PROB_DENSITY
SEARCH OCTREE nInitial 4851 nEvaluated 20003 smallestNodeSide 0.014881/0.014881/0.014205 oct_tree_integral 1.745217e-02 scatter_volume 1.745217e-02
HYPOCENTER  x 737.945 y 9819.19 z 1.1321  OT 11.3  ix -1 iy -1 iz -1 MAXIMUM_LIKELIHOOD
GEOGRAPHIC  OT 2023 07 19  03 28 11.300041  Lat 9819.191964 Long 737.944940 Depth 1.132102
QUALITY  Pmax 8.58177e+23 MFmin 31.8505 MFmax 39.1054 RMS 0.00445152 Nphs 8 Gap 232.823 Dist 0.372677 Mamp -9.90 0 Mdur -9.90 0
VPVSRATIO  VpVsRatio 1.85476  Npair 4  Diff 0.0754223
STATISTICS  ExpectX 737.947491 Y 9819.186147 Z 1.143023  CovXX 0.0268507 XY 0.00318808 XZ 0.0011068 YY 0.00806886 YZ -0.000841547 ZZ 0.0134004 EllAz1  170.162 Dip1  -9.58717 Len1  0.161314 Az2  12.7325 Dip2  -79.6342 Len2  0.218348 Len3  3.112413e-01
STAT_GEOG  ExpectLat 9819.186147 Long 737.947491 Depth 1.143023
TRANSFORM  NONE
QML_OriginQuality  assocPhCt 8  usedPhCt 8  assocStaCt -1  usedStaCt 4  depthPhCt -1  stdErr 0.00445152  azGap 232.823  secAzGap 232.823  gtLevel -  minDist 0.372677 maxDist 1.79414 medDist 1.15354
QML_OriginUncertainty  horUnc -1  minHorUnc 0.13171  maxHorUnc 0.250933  azMaxHorUnc 80.6242
QML_ConfidenceEllipsoid  semiMajorAxisLength 0.311241  semiMinorAxisLength 0.161314  semiIntermediateAxisLength 0.218348  majorAxisPlunge 3.90463  majorAxisAzimuth 80.8228  majorAxisRotation 350.302
FOCALMECH  Hyp  9819.191964 737.944940 1.132102 Mech  0 0 0 mf  0 nObs -1
PHASE ID Ins Cmp On Pha  FM Date     HrMn   Sec     Err  ErrMag    Coda      Amp       Per       PriorWt  >   TTpred    Res       Weight    StaLoc(X  Y         Z)        SDist    SAzim  RAz  RDip RQual    Tcorr       TTerr
M06          ?    BHZ  i P      c 20230719 0328   11.9659 GAU  3.01e-04 -1.00e+00 -1.00e+00 -1.00e+00    1.0000 >    0.6702   -0.0043    1.1296  738.3100 9819.1170   -1.3960    0.3727 101.60 101.6 170.5 10     0.0000    0.0134
M06          ?    BHN  e S      ? 20230719 0328   12.4478 GAU  8.09e-04 -1.00e+00 -1.00e+00 -1.00e+00    1.0000 >    1.1470    0.0008    0.9399  738.3100 9819.1170   -1.3960    0.3727 101.60 101.6 170.1 10     0.0000    0.0229
M14          ?    BHZ  e P      c 20230719 0328   12.0102 GAU  1.19e-03 -1.00e+00 -1.00e+00 -1.00e+00    1.0000 >    0.7051    0.0050    1.1116  737.5530 9820.0110   -1.3980    0.9080 334.43 334.4 158.0 10     0.0000    0.0141
M14          ?    BHN  e S      ? 20230719 0328   12.5081 GAU  9.88e-04 -1.00e+00  3.32e+02 -1.00e+00    1.0000 >    1.2066    0.0015    0.9136  737.5530 9820.0110   -1.3980    0.9080 334.43 334.4 157.0 10     0.0000    0.0241
M11          ?    BHZ  i P      c 20230719 0328   12.0406 GAU  1.04e-03 -1.00e+00 -1.00e+00 -1.00e+00    1.0000 >    0.7373    0.0032    1.1160  738.4670 9820.4900   -1.3120    1.3991  21.91  21.9 146.6 10     0.0000    0.0147
M11          ?    BHE  e S      ? 20230719 0328   12.5685 GAU  7.17e-04 -1.00e+00 -1.00e+00 -1.00e+00    1.0000 >    1.2610    0.0074    0.8669  738.4670 9820.4900   -1.3120    1.3991  21.91  21.9 145.2 10     0.0000    0.0252
M09          ?    BHZ  i P      c 20230719 0328   12.0786 GAU  9.88e-04 -1.00e+00 -1.00e+00 -1.00e+00    1.0000 >    0.7840   -0.0054    1.0719  737.8820 9820.9850   -1.2700    1.7941 357.99 358.0 138.6 10     0.0000    0.0157
M09          ?    BHN  e S      ? 20230719 0328   12.6359 GAU  4.72e-04 -1.00e+00  5.17e+02 -1.00e+00    1.0000 >    1.3402   -0.0043    0.8506  737.8820 9820.9850   -1.2700    1.7941 357.99 358.0 136.7 10     0.0000    0.0268
END_PHASE
END_NLLOC

