NLLOC "./loc/SEML.20230719.020531.grid0" "LOCATED" "Location completed."
PUBLIC_ID None
SIGNATURE "Arham Zakki Edelo - edelo.17034@mhs.its.ac.id   obs:./obs/2023_07.obs   NLLoc:v7.00.10(30Aug2020)   run:28Dec2023 20h05m45"
COMMENT "SEML"
GRID  2001 2001 1001  727 9811 -2  0.01 0.01 0.01 PROB_DENSITY
SEARCH OCTREE nInitial 4851 nEvaluated 20011 smallestNodeSide 0.007440/0.007440/0.007102 oct_tree_integral 9.688557e-03 scatter_volume 9.688557e-03
HYPOCENTER  x 738.38 y 9818.85 z 0.489347  OT 31.2967  ix -1 iy -1 iz -1 MAXIMUM_LIKELIHOOD
GEOGRAPHIC  OT 2023 07 19  02 05 31.296704  Lat 9818.845982 Long 738.380208 Depth 0.489347
QUALITY  Pmax 3.46621e+86 MFmin 92.6863 MFmax 107.107 RMS 0.0220715 Nphs 24 Gap 284.413 Dist 0.279964 Mamp -9.90 0 Mdur -9.90 0
VPVSRATIO  VpVsRatio 1.73953  Npair 12  Diff 0.54508
STATISTICS  ExpectX 738.410413 Y 9818.847066 Z 0.500444  CovXX 0.0126264 XY 0.00076661 XZ -1.57295e-05 YY 0.00564997 YZ -0.0011887 ZZ 0.0105766 EllAz1  174.052 Dip1  -12.6184 Len1  0.136814 Az2  334.94 Dip2  -76.6711 Len2  0.195526 Len3  2.119019e-01
STAT_GEOG  ExpectLat 9818.847066 Long 738.410413 Depth 0.500444
TRANSFORM  NONE
QML_OriginQuality  assocPhCt 24  usedPhCt 24  assocStaCt -1  usedStaCt 12  depthPhCt -1  stdErr 0.0220715  azGap 284.413  secAzGap 284.413  gtLevel -  minDist 0.279964 maxDist 4.78464 medDist 2.57364
QML_OriginUncertainty  horUnc -1  minHorUnc 0.113152  maxHorUnc 0.170974  azMaxHorUnc 83.8025
QML_ConfidenceEllipsoid  semiMajorAxisLength 0.211902  semiMinorAxisLength 0.136814  semiIntermediateAxisLength 0.195526  majorAxisPlunge -4.22425  majorAxisAzimuth 83.1044  majorAxisRotation 347.212
FOCALMECH  Hyp  9818.845982 738.380208 0.489347 Mech  0 0 0 mf  0 nObs -1
PHASE ID Ins Cmp On Pha  FM Date     HrMn   Sec     Err  ErrMag    Coda      Amp       Per       PriorWt  >   TTpred    Res       Weight    StaLoc(X  Y         Z)        SDist    SAzim  RAz  RDip RQual    Tcorr       TTerr
M06          ?    BHZ  i P      c 20230719 0205   31.8443 GAU  1.12e-03 -1.00e+00  5.02e+01 -1.00e+00    1.0000 >    0.5068    0.0409    0.6874  738.3100 9819.1170   -1.3960    0.2800 345.48 345.5 171.2 10     0.0000    0.0101
M06          ?    BHN  e S      ? 20230719 0205   32.3028 GAU  1.92e-03 -1.00e+00 -1.00e+00 -1.00e+00    1.0000 >    0.8836    0.1225    0.0319  738.3100 9819.1170   -1.3960    0.2800 345.48 345.5 171.0 10     0.0000    0.0177
M04          ?    BHZ  e P      d 20230719 0205   31.9493 GAU  1.15e-03 -1.00e+00  1.49e+03 -1.00e+00    1.0000 >    0.6501    0.0025    1.5689  737.1400 9819.2520   -1.5710    1.3050 288.13 288.1 146.7 10     0.0000    0.0130
M04          ?    BHN  e S      ? 20230719 0205   32.4024 GAU  1.62e-03 -1.00e+00  6.29e+02 -1.00e+00    1.0000 >    1.1325   -0.0268    1.0140  737.1400 9819.2520   -1.5710    1.3050 288.13 288.1 146.2 10     0.0000    0.0227
M14          ?    BHZ  i P      c 20230719 0205   31.9347 GAU  1.79e-03 -1.00e+00 -1.00e+00 -1.00e+00    1.0000 >    0.6291    0.0089    1.5052  737.5530 9820.0110   -1.3980    1.4288 324.62 324.6 141.8 10     0.0000    0.0126
M14          ?    BHN  e S      ? 20230719 0205   32.3925 GAU  1.73e-03 -1.00e+00  2.82e+02 -1.00e+00    1.0000 >    1.0970   -0.0013    1.4069  737.5530 9820.0110   -1.3980    1.4288 324.62 324.6 141.2 10     0.0000    0.0219
M11          ?    BHZ  i P      c 20230719 0205   31.9359 GAU  2.95e-03 -1.00e+00 -1.00e+00 -1.00e+00    1.0000 >    0.6474   -0.0082    1.5044  738.4670 9820.4900   -1.3120    1.6463   3.02   3.0 136.4 10     0.0000    0.0129
M11          ?    BHN  e S      ? 20230719 0205   32.4538 GAU  8.81e-03 -1.00e+00 -1.00e+00 -1.00e+00    1.0000 >    1.1294    0.0277    1.0858  738.4670 9820.4900   -1.3120    1.6463   3.02   3.0 135.6 10     0.0000    0.0226
M02          ?    BHZ  i P      d 20230719 0205   31.8838 GAU  2.25e-03 -1.00e+00 -1.00e+00 -1.00e+00    1.0000 >    0.7256   -0.1385    0.0755  736.5970 9819.4060   -1.4960    1.8691 287.43 287.4 135.3 10     0.0000    0.0145
M02          ?    BHE  e S      ? 20230719 0205   32.3331 GAU  1.19e-03 -1.00e+00 -1.00e+00 -1.00e+00    1.0000 >    1.2646   -0.2282    0.0047  736.5970 9819.4060   -1.4960    1.8691 287.43 287.4 134.5 10     0.0000    0.0253
M09          ?    BHZ  i P      c 20230719 0205   32.0320 GAU  3.77e-03 -1.00e+00  9.35e+01 -1.00e+00    1.0000 >    0.7458   -0.0104    1.4394  737.8820 9820.9850   -1.2700    2.1963 346.89 346.9 126.8 10     0.0000    0.0149
M09          ?    BHE  e S      ? 20230719 0205   32.6006 GAU  8.99e-04 -1.00e+00  3.08e+02 -1.00e+00    1.0000 >    1.3014    0.0025    1.3296  737.8820 9820.9850   -1.2700    2.1963 346.89 346.9 125.7 10     0.0000    0.0260
M13          ?    BHZ  e P      c 20230719 0205   32.1785 GAU  1.42e-03 -1.00e+00  4.54e+01 -1.00e+00    1.0000 >    0.9030   -0.0212    1.1699  737.1780 9821.5410   -1.2220    2.9510 335.96 336.0 117.9 10     0.0000    0.0181
M13          ?    BHN  e S      ? 20230719 0205   32.8748 GAU  8.24e-04 -1.00e+00 -1.00e+00 -1.00e+00    1.0000 >    1.5763    0.0018    1.2226  737.1780 9821.5410   -1.2220    2.9510 335.96 336.0 116.2 10     0.0000    0.0315
M10          ?    BHZ  e P      c 20230719 0205   32.2526 GAU  3.09e-03 -1.00e+00 -1.00e+00 -1.00e+00    1.0000 >    0.9403    0.0156    1.3426  736.5490 9821.3650   -1.2200    3.1143 323.98 324.0 116.4 10     0.0000    0.0188
M10          ?    BHE  e S      ? 20230719 0205   32.9688 GAU  6.93e-04 -1.00e+00 -1.00e+00 -1.00e+00    1.0000 >    1.6414    0.0308    0.9816  736.5490 9821.3650   -1.2200    3.1143 323.98 324.0 114.6 10     0.0000    0.0328
M08          ?    BHZ  e P      d 20230719 0205   32.2419 GAU  2.89e-04 -1.00e+00  6.46e+02 -1.00e+00    1.0000 >    0.9778   -0.0325    0.8652  738.2480 9822.1600   -1.1510    3.3167 357.72 357.7 113.9 10     0.0000    0.0196
M08          ?    BHE  e S      ? 20230719 0205   32.8783 GAU  6.02e-04 -1.00e+00 -1.00e+00 -1.00e+00    1.0000 >    1.7075   -0.1259    0.1013  738.2480 9822.1600   -1.1510    3.3167 357.72 357.7 111.6 10     0.0000    0.0341
M05          ?    BHZ  i P      d 20230719 0205   32.4012 GAU  1.53e-03 -1.00e+00  8.84e+02 -1.00e+00    1.0000 >    1.1092   -0.0047    1.3853  736.2660 9822.0830   -1.1500    3.8663 326.85 326.9 110.4 10     0.0000    0.0222
M05          ?    BHE  e S      ? 20230719 0205   33.2483 GAU  4.99e-04 -1.00e+00 -1.00e+00 -1.00e+00    1.0000 >    1.9359    0.0157    1.0605  736.2660 9822.0830   -1.1500    3.8663 326.85 326.9  82.1  8     0.0000    0.0387
M07          ?    BHZ  e P      d 20230719 0205   32.4553 GAU  7.76e-04 -1.00e+00  1.54e+03 -1.00e+00    1.0000 >    1.1532    0.0055    1.3820  737.4430 9822.8030   -1.1120    4.0665 346.68 346.7 108.9 10     0.0000    0.0231
M07          ?    BHN  e S      ? 20230719 0205   33.2892 GAU  2.33e-03 -1.00e+00 -1.00e+00 -1.00e+00    1.0000 >    2.0092   -0.0167    0.9931  737.4430 9822.8030   -1.1120    4.0665 346.68 346.7  67.6  9     0.0000    0.0402
M12          ?    BHZ  e P      c 20230719 0205   32.6327 GAU  2.95e-03 -1.00e+00 -1.00e+00 -1.00e+00    1.0000 >    1.3165    0.0195    1.1979  736.8520 9823.3800   -0.9890    4.7846 341.37 341.4 104.8 10     0.0000    0.0263
M12          ?    BHE  e S      ? 20230719 0205   33.6271 GAU  6.37e-04 -1.00e+00  2.60e+01 -1.00e+00    1.0000 >    2.2747    0.0557    0.6443  736.8520 9823.3800   -0.9890    4.7846 341.37 341.4  67.2 10     0.0000    0.0455
END_PHASE
END_NLLOC

