NLLOC "./loc/SEML.20230714.233810.grid0" "LOCATED" "Location completed."
PUBLIC_ID None
SIGNATURE "Arham Zakki Edelo - edelo.17034@mhs.its.ac.id   obs:./obs/2023_07.obs   NLLoc:v7.00.10(30Aug2020)   run:28Dec2023 20h05m39"
COMMENT "SEML"
GRID  2001 2001 1001  727 9811 -2  0.01 0.01 0.01 PROB_DENSITY
SEARCH OCTREE nInitial 4851 nEvaluated 20011 smallestNodeSide 0.014881/0.014881/0.014205 oct_tree_integral 3.390780e-02 scatter_volume 3.381947e-02
HYPOCENTER  x 737.99 y 9817.7 z -0.302557  OT 10.2671  ix -1 iy -1 iz -1 MAXIMUM_LIKELIHOOD
GEOGRAPHIC  OT 2023 07 14  23 38 10.267111  Lat 9817.703869 Long 737.989583 Depth -0.302557
QUALITY  Pmax 4.22639e+56 MFmin 71.9004 MFmax 83.346 RMS 0.0481699 Nphs 19 Gap 307.937 Dist 1.449 Mamp -9.90 0 Mdur -9.90 0
VPVSRATIO  VpVsRatio 1.60288  Npair 9  Diff 0.530634
STATISTICS  ExpectX 735.062081 Y 9818.564019 Z -1.011960  CovXX 4.49644 XY -1.43144 XZ 1.41722 YY 0.476582 YZ -0.47926 ZZ 0.575476 EllAz1  193.779 Dip1  -12.8188 Len1  0.216411 Az2  248.85 Dip2  68.3267 Len2  0.64792 Len3  4.372591e+00
STAT_GEOG  ExpectLat 9818.564019 Long 735.062081 Depth -1.011960
TRANSFORM  NONE
QML_OriginQuality  assocPhCt 19  usedPhCt 19  assocStaCt -1  usedStaCt 10  depthPhCt -1  stdErr 0.0481699  azGap 307.937  secAzGap 310.989  gtLevel -  minDist 1.449 maxDist 5.12834 medDist 3.05482
QML_OriginUncertainty  horUnc -1  minHorUnc 0.208797  maxHorUnc 3.37555  azMaxHorUnc 107.729
QML_ConfidenceEllipsoid  semiMajorAxisLength 4.37259  semiMinorAxisLength 0.216411  semiIntermediateAxisLength 0.64792  majorAxisPlunge 17.1719  majorAxisAzimuth 107.811  majorAxisRotation 343.872
FOCALMECH  Hyp  9817.703869 737.989583 -0.302557 Mech  0 0 0 mf  0 nObs -1
PHASE ID Ins Cmp On Pha  FM Date     HrMn   Sec     Err  ErrMag    Coda      Amp       Per       PriorWt  >   TTpred    Res       Weight    StaLoc(X  Y         Z)        SDist    SAzim  RAz  RDip RQual    Tcorr       TTerr
M06          ?    BHZ  e P      d 20230714 2338   11.4674 GAU  8.05e-04 -1.00e+00 -1.00e+00 -1.00e+00    1.0000 >    0.4917    0.7087    0.0000  738.3100 9819.1170   -1.3960    1.4490  12.78  12.8 123.4 10     0.0000    0.0098
M06          ?    BHN  e S      ? 20230714 2338   12.4636 GAU  2.67e-03 -1.00e+00 -1.00e+00 -1.00e+00    1.0000 >    0.8558    1.3406    0.0000  738.3100 9819.1170   -1.3960    1.4490  12.78  12.8 125.9 10     0.0000    0.0171
M04          ?    BHZ  e P      c 20230714 2338   11.0342 GAU  2.66e-03 -1.00e+00 -1.00e+00 -1.00e+00    1.0000 >    0.5900    0.1770    0.2120  737.1400 9819.2520   -1.5710    1.7659 331.24 331.2 121.8 10     0.0000    0.0118
M04          ?    BHN  e S      ? 20230714 2338   11.5687 GAU  1.12e-03 -1.00e+00  7.18e+02 -1.00e+00    1.0000 >    1.0258    0.2757    0.0700  737.1400 9819.2520   -1.5710    1.7659 331.24 331.2 124.5 10     0.0000    0.0205
M02          ?    BHZ  i P      c 20230714 2338   10.9493 GAU  7.76e-04 -1.00e+00 -1.00e+00 -1.00e+00    1.0000 >    0.6784    0.0038    2.3065  736.5970 9819.4060   -1.4960    2.1992 320.71 320.7 113.4 10     0.0000    0.0136
M02          ?    BHE  e S      ? 20230714 2338   11.5971 GAU  3.73e-04 -1.00e+00  1.51e+04 -1.00e+00    1.0000 >    1.1804    0.1496    0.2024  736.5970 9819.4060   -1.4960    2.1992 320.71 320.7 117.0 10     0.0000    0.0236
M14          ?    BHZ  e P      c 20230714 2338   10.9631 GAU  1.93e-03 -1.00e+00 -1.00e+00 -1.00e+00    1.0000 >    0.7015   -0.0056    2.2863  737.5530 9820.0110   -1.3980    2.3481 349.28 349.3 109.3 10     0.0000    0.0140
M14          ?    BHE  e S      ? 20230714 2338   11.4848 GAU  8.82e-04 -1.00e+00  3.98e+02 -1.00e+00    1.0000 >    1.2219   -0.0042    1.9744  737.5530 9820.0110   -1.3980    2.3481 349.28 349.3 113.3 10     0.0000    0.0244
M11          ?    BHZ  e P      c 20230714 2338   11.0809 GAU  2.51e-03 -1.00e+00 -1.00e+00 -1.00e+00    1.0000 >    0.8108    0.0030    2.2402  738.4670 9820.4900   -1.3120    2.8267   9.72   9.7 102.8 10     0.0000    0.0162
M09          ?    BHZ  i P      d 20230714 2338   11.4180 GAU  1.93e-03 -1.00e+00  1.13e+02 -1.00e+00    1.0000 >    0.9226    0.2283    0.1050  737.8820 9820.9850   -1.2700    3.2829 358.12 358.1  99.1 10     0.0000    0.0185
M09          ?    BHE  e S      ? 20230714 2338   12.3204 GAU  1.03e-03 -1.00e+00  3.37e+02 -1.00e+00    1.0000 >    1.6126    0.4406    0.0000  737.8820 9820.9850   -1.2700    3.2829 358.12 358.1 104.0 10     0.0000    0.0323
M13          ?    BHZ  i P      d 20230714 2338   11.3556 GAU  6.71e-04 -1.00e+00 -1.00e+00 -1.00e+00    1.0000 >    1.0822    0.0063    2.0196  737.1780 9821.5410   -1.2220    3.9220 348.06 348.1  96.1 10     0.0000    0.0216
M13          ?    BHE  e S      ? 20230714 2338   12.1895 GAU  6.50e-04 -1.00e+00 -1.00e+00 -1.00e+00    1.0000 >    1.8970    0.0253    1.3142  737.1780 9821.5410   -1.2220    3.9220 348.06 348.1 100.3 10     0.0000    0.0379
M10          ?    BHZ  e P      d 20230714 2338   11.1266 GAU  2.88e-03 -1.00e+00  1.09e+03 -1.00e+00    1.0000 >    1.0852   -0.2257    0.1915  736.5490 9821.3650   -1.2200    3.9344 338.52 338.5  96.1  9     0.0000    0.0217
M10          ?    BHN  e S      ? 20230714 2338   11.9437 GAU  9.23e-04 -1.00e+00 -1.00e+00 -1.00e+00    1.0000 >    1.9024   -0.2259    0.1919  736.5490 9821.3650   -1.2200    3.9344 338.52 338.5 100.2 10     0.0000    0.0380
M05          ?    BHZ  i P      c 20230714 2338   11.5126 GAU  1.12e-03 -1.00e+00  1.55e+00 -1.00e+00    1.0000 >    1.2779   -0.0324    1.2912  736.2660 9822.0830   -1.1500    4.7061 338.52 338.5  94.2  9     0.0000    0.0256
M05          ?    BHN  e S      ? 20230714 2338   12.5138 GAU  1.23e-03 -1.00e+00  2.45e+02 -1.00e+00    1.0000 >    2.2497   -0.0030    1.4106  736.2660 9822.0830   -1.1500    4.7061 338.52 338.5  96.9 10     0.0000    0.0450
M07          ?    BHZ  e P      c 20230714 2338   11.6467 GAU  3.35e-03 -1.00e+00 -1.00e+00 -1.00e+00    1.0000 >    1.3835   -0.0040    1.8624  737.4430 9822.8030   -1.1120    5.1283 353.88 353.9  93.6  9     0.0000    0.0277
M07          ?    BHE  e S      ? 20230714 2338   12.6990 GAU  6.38e-04 -1.00e+00 -1.00e+00 -1.00e+00    1.0000 >    2.4411   -0.0092    1.3219  737.4430 9822.8030   -1.1120    5.1283 353.88 353.9  95.5 10     0.0000    0.0488
END_PHASE
END_NLLOC

