NLLOC "./loc/SEML.20230719.032655.grid0" "LOCATED" "Location completed."
PUBLIC_ID None
SIGNATURE "Arham Zakki Edelo - edelo.17034@mhs.its.ac.id   obs:./obs/2023_07.obs   NLLoc:v7.00.10(30Aug2020)   run:28Dec2023 20h06m06"
COMMENT "SEML"
GRID  2001 2001 1001  727 9811 -2  0.01 0.01 0.01 PROB_DENSITY
SEARCH OCTREE nInitial 4851 nEvaluated 20003 smallestNodeSide 0.014881/0.014881/0.014205 oct_tree_integral 2.934509e-02 scatter_volume 2.934509e-02
HYPOCENTER  x 736.308 y 9818.39 z 0.237216  OT 54.4573  ix -1 iy -1 iz -1 MAXIMUM_LIKELIHOOD
GEOGRAPHIC  OT 2023 07 19  03 26 54.457299  Lat 9818.388393 Long 736.308036 Depth 0.237216
QUALITY  Pmax 8.39023e+34 MFmin 44.5294 MFmax 53.6256 RMS 0.0135171 Nphs 12 Gap 289.347 Dist 2.04519 Mamp -9.90 0 Mdur -9.90 0
VPVSRATIO  VpVsRatio 1.86011  Npair 6  Diff 0.437519
STATISTICS  ExpectX 736.447803 Y 9818.405525 Z 0.373786  CovXX 0.131968 XY 0.0223865 XZ 0.120594 YY 0.0166145 YZ 0.023542 ZZ 0.148559 EllAz1  173.148 Dip1  3.77509 Len1  0.20888 Az2  266.714 Dip2  43.3068 Len2  0.261672 Len3  9.678891e-01
STAT_GEOG  ExpectLat 9818.405525 Long 736.447803 Depth 0.373786
TRANSFORM  NONE
QML_OriginQuality  assocPhCt 12  usedPhCt 12  assocStaCt -1  usedStaCt 6  depthPhCt -1  stdErr 0.0135171  azGap 289.347  secAzGap 289.347  gtLevel -  minDist 2.04519 maxDist 3.69485 medDist 3.02468
QML_OriginUncertainty  horUnc -1  minHorUnc 0.169031  maxHorUnc 0.559615  azMaxHorUnc 79.3935
QML_ConfidenceEllipsoid  semiMajorAxisLength 0.967889  semiMinorAxisLength 0.20888  semiIntermediateAxisLength 0.261672  majorAxisPlunge 46.4444  majorAxisAzimuth 79.1689  majorAxisRotation 297.701
FOCALMECH  Hyp  9818.388393 736.308036 0.237216 Mech  0 0 0 mf  0 nObs -1
PHASE ID Ins Cmp On Pha  FM Date     HrMn   Sec     Err  ErrMag    Coda      Amp       Per       PriorWt  >   TTpred    Res       Weight    StaLoc(X  Y         Z)        SDist    SAzim  RAz  RDip RQual    Tcorr       TTerr
M14          ?    BHZ  e P      c 20230719 0326   55.1511 GAU  1.19e-03 -1.00e+00 -1.00e+00 -1.00e+00    1.0000 >    0.6986   -0.0048    1.7247  737.5530 9820.0110   -1.3980    2.0452  37.50  37.5 126.3 10     0.0000    0.0140
M14          ?    BHE  e S      ? 20230719 0326   55.6864 GAU  9.80e-04 -1.00e+00  3.83e+02 -1.00e+00    1.0000 >    1.2208    0.0082    1.4412  737.5530 9820.0110   -1.3980    2.0452  37.50  37.5 125.0 10     0.0000    0.0244
M06          ?    BHZ  i P      c 20230719 0326   55.1844 GAU  4.34e-04 -1.00e+00  5.58e+00 -1.00e+00    1.0000 >    0.7161    0.0110    1.5920  738.3100 9819.1170   -1.3960    2.1304  70.00  70.0 125.0 10     0.0000    0.0143
M06          ?    BHN  i S      ? 20230719 0326   55.6964 GAU  6.24e-04 -1.00e+00 -1.00e+00 -1.00e+00    1.0000 >    1.2515   -0.0124    1.3641  738.3100 9819.1170   -1.3960    2.1304  70.00  70.0 123.6 10     0.0000    0.0250
M11          ?    BHZ  e P      c 20230719 0326   55.2782 GAU  2.64e-03 -1.00e+00 -1.00e+00 -1.00e+00    1.0000 >    0.9020   -0.0811    0.1008  738.4670 9820.4900   -1.3120    3.0130  45.77  45.8 114.0 10     0.0000    0.0180
M11          ?    BHN  e S      ? 20230719 0326   55.8930 GAU  3.51e-04 -1.00e+00 -1.00e+00 -1.00e+00    1.0000 >    1.5777   -0.1420    0.0518  738.4670 9820.4900   -1.3120    3.0130  45.77  45.8 111.7 10     0.0000    0.0316
M09          ?    BHZ  i P      c 20230719 0326   55.3545 GAU  4.24e-03 -1.00e+00  1.64e+01 -1.00e+00    1.0000 >    0.9017   -0.0045    1.6285  737.8820 9820.9850   -1.2700    3.0364  31.22  31.2 113.3 10     0.0000    0.0180
M09          ?    BHN  e S      ? 20230719 0326   56.0459 GAU  8.31e-04 -1.00e+00  4.80e+02 -1.00e+00    1.0000 >    1.5778    0.0108    1.2521  737.8820 9820.9850   -1.2700    3.0364  31.22  31.2 110.8 10     0.0000    0.0316
M13          ?    BHZ  e P      c 20230719 0326   55.4040 GAU  7.90e-04 -1.00e+00 -1.00e+00 -1.00e+00    1.0000 >    0.9514   -0.0047    1.6126  737.1780 9821.5410   -1.2220    3.2704  15.43  15.4 110.8 10     0.0000    0.0190
M13          ?    BHE  e S      ? 20230719 0326   56.1317 GAU  2.69e-04 -1.00e+00 -1.00e+00 -1.00e+00    1.0000 >    1.6655    0.0089    1.2319  737.1780 9821.5410   -1.2220    3.2704  15.43  15.4 107.9 10     0.0000    0.0333
M05          ?    BHZ  e P      c 20230719 0326   55.7887 GAU  2.74e-03 -1.00e+00  8.89e+01 -1.00e+00    1.0000 >    1.0462    0.2852    0.0001  736.2660 9822.0830   -1.1500    3.6948 359.35 359.3 107.2 10     0.0000    0.0209
M05          ?    BHN  e S      ? 20230719 0326   56.7381 GAU  3.90e-04 -1.00e+00  2.57e+02 -1.00e+00    1.0000 >    1.8327    0.4482    0.0001  736.2660 9822.0830   -1.1500    3.6948 359.35 359.3 103.6 10     0.0000    0.0367
END_PHASE
END_NLLOC

