NLLOC "./loc/SEML.20230719.032904.grid0" "LOCATED" "Location completed."
PUBLIC_ID None
SIGNATURE "Arham Zakki Edelo - edelo.17034@mhs.its.ac.id   obs:./obs/2023_07.obs   NLLoc:v7.00.10(30Aug2020)   run:28Dec2023 20h06m08"
COMMENT "SEML"
GRID  2001 2001 1001  727 9811 -2  0.01 0.01 0.01 PROB_DENSITY
SEARCH OCTREE nInitial 4851 nEvaluated 20011 smallestNodeSide 0.029762/0.029762/0.028409 oct_tree_integral 1.406989e-01 scatter_volume 1.400062e-01
HYPOCENTER  x 739.932 y 9818.78 z 0.65625  OT 4.27111  ix -1 iy -1 iz -1 MAXIMUM_LIKELIHOOD
GEOGRAPHIC  OT 2023 07 19  03 29 4.271108  Lat 9818.782738 Long 739.931548 Depth 0.656250
QUALITY  Pmax 1.77857e+34 MFmin 42.3793 MFmax 52.5706 RMS 0.0382693 Nphs 12 Gap 322.272 Dist 1.65564 Mamp -9.90 0 Mdur -9.90 0
VPVSRATIO  VpVsRatio 1.66219  Npair 6  Diff 0.487855
STATISTICS  ExpectX 739.743990 Y 9818.736322 Z 0.731728  CovXX 0.122514 XY 0.0250835 XZ -0.059316 YY 0.0522644 YZ -0.00559339 ZZ 0.0971074 EllAz1  323.506 Dip1  -27.2284 Len1  0.362804 Az2  207.237 Dip2  -40.7005 Len2  0.459314 Len3  7.855962e-01
STAT_GEOG  ExpectLat 9818.736322 Long 739.743990 Depth 0.731728
TRANSFORM  NONE
QML_OriginQuality  assocPhCt 12  usedPhCt 12  assocStaCt -1  usedStaCt 6  depthPhCt -1  stdErr 0.0382693  azGap 322.272  secAzGap 322.272  gtLevel -  minDist 1.65564 maxDist 4.93234 medDist 2.84269
QML_OriginUncertainty  horUnc -1  minHorUnc 0.318941  maxHorUnc 0.547967  azMaxHorUnc 72.2343
QML_ConfidenceEllipsoid  semiMajorAxisLength 0.785596  semiMinorAxisLength 0.362804  semiIntermediateAxisLength 0.459314  majorAxisPlunge -37.1926  majorAxisAzimuth 76.49  majorAxisRotation 249.012
FOCALMECH  Hyp  9818.782738 739.931548 0.656250 Mech  0 0 0 mf  0 nObs -1
PHASE ID Ins Cmp On Pha  FM Date     HrMn   Sec     Err  ErrMag    Coda      Amp       Per       PriorWt  >   TTpred    Res       Weight    StaLoc(X  Y         Z)        SDist    SAzim  RAz  RDip RQual    Tcorr       TTerr
M06          ?    BHZ  i P      d 20230719 0329    4.9749 GAU  2.17e-03 -1.00e+00 -1.00e+00 -1.00e+00    1.0000 >    0.6986    0.0052    1.3550  738.3100 9819.1170   -1.3960    1.6556 281.65 281.6 139.6 10     0.0000    0.0140
M06          ?    BHN  i S      ? 20230719 0329    5.4790 GAU  3.61e-04 -1.00e+00 -1.00e+00 -1.00e+00    1.0000 >    1.2104   -0.0026    1.3173  738.3100 9819.1170   -1.3960    1.6556 281.65 281.6 135.6 10     0.0000    0.0242
M11          ?    BHZ  e P      c 20230719 0329    5.0475 GAU  3.35e-03 -1.00e+00 -1.00e+00 -1.00e+00    1.0000 >    0.7904   -0.0139    1.2772  738.4670 9820.4900   -1.3120    2.2494 319.38 319.4 128.9 10     0.0000    0.0158
M11          ?    BHN  i S      ? 20230719 0329    5.6490 GAU  4.01e-04 -1.00e+00 -1.00e+00 -1.00e+00    1.0000 >    1.3691    0.0088    1.2176  738.4670 9820.4900   -1.3120    2.2494 319.38 319.4 123.0 10     0.0000    0.0274
M14          ?    BHZ  e P      c 20230719 0329    5.1047 GAU  3.47e-03 -1.00e+00 -1.00e+00 -1.00e+00    1.0000 >    0.8936   -0.0601    0.8392  737.5530 9820.0110   -1.3980    2.6770 297.31 297.3 124.9 10     0.0000    0.0179
M14          ?    BHE  e S      ? 20230719 0329    5.7179 GAU  2.33e-03 -1.00e+00  3.93e+02 -1.00e+00    1.0000 >    1.5474   -0.1005    0.4839  737.5530 9820.0110   -1.3980    2.6770 297.31 297.3 117.9 10     0.0000    0.0309
M09          ?    BHZ  e P      c 20230719 0329    5.1444 GAU  2.18e-03 -1.00e+00  1.52e+01 -1.00e+00    1.0000 >    0.9437   -0.0704    0.7767  737.8820 9820.9850   -1.2700    3.0084 317.06 317.1 119.7 10     0.0000    0.0189
M09          ?    BHE  i S      ? 20230719 0329    5.8234 GAU  2.04e-03 -1.00e+00  3.82e+02 -1.00e+00    1.0000 >    1.6335   -0.0812    0.7145  737.8820 9820.9850   -1.2700    3.0084 317.06 317.1 111.2 10     0.0000    0.0327
M13          ?    BHZ  e P      c 20230719 0329    5.4358 GAU  1.22e-03 -1.00e+00 -1.00e+00 -1.00e+00    1.0000 >    1.1413    0.0234    1.0261  737.1780 9821.5410   -1.2220    3.8974 315.05 315.0 112.2 10     0.0000    0.0228
M13          ?    BHN  e S      ? 20230719 0329    6.2925 GAU  2.54e-03 -1.00e+00 -1.00e+00 -1.00e+00    1.0000 >    1.9714    0.0500    0.6147  737.1780 9821.5410   -1.2220    3.8974 315.05 315.0 100.9 10     0.0000    0.0394
M05          ?    BHZ  e P      d 20230719 0329    5.6379 GAU  2.50e-03 -1.00e+00  1.84e+02 -1.00e+00    1.0000 >    1.3824   -0.0156    1.2664  736.2660 9822.0830   -1.1500    4.9323 312.00 312.0 106.0 10     0.0000    0.0276
M05          ?    BHE  e S      ? 20230719 0329    6.6298 GAU  2.32e-03 -1.00e+00 -1.00e+00 -1.00e+00    1.0000 >    2.3744   -0.0157    1.1115  736.2660 9822.0830   -1.1500    4.9323 312.00 312.0  95.3  9     0.0000    0.0475
END_PHASE
END_NLLOC

