NLLOC "./loc/SEML.20230715.092707.grid0" "LOCATED" "Location completed."
PUBLIC_ID None
SIGNATURE "Arham Zakki Edelo - edelo.17034@mhs.its.ac.id   obs:./obs/2023_07.obs   NLLoc:v7.00.10(30Aug2020)   run:28Dec2023 20h05m41"
COMMENT "SEML"
GRID  2001 2001 1001  727 9811 -2  0.01 0.01 0.01 PROB_DENSITY
SEARCH OCTREE nInitial 4851 nEvaluated 20011 smallestNodeSide 0.014881/0.014881/0.014205 oct_tree_integral 2.669056e-02 scatter_volume 2.669056e-02
HYPOCENTER  x 737.32 y 9818.89 z 0.734375  OT 6.65925  ix -1 iy -1 iz -1 MAXIMUM_LIKELIHOOD
GEOGRAPHIC  OT 2023 07 15  09 27 6.659251  Lat 9818.894345 Long 737.319940 Depth 0.734375
QUALITY  Pmax 1.27071e+23 MFmin 32.3715 MFmax 39.1073 RMS 0.012162 Nphs 8 Gap 294.463 Dist 1.01479 Mamp -9.90 0 Mdur -9.90 0
VPVSRATIO  VpVsRatio 1.74068  Npair 4  Diff 0.126418
STATISTICS  ExpectX 737.346067 Y 9818.856485 Z 0.744929  CovXX 0.0491221 XY 0.00271174 XZ 0.0134575 YY 0.0169006 YZ 0.00180376 ZZ 0.0256584 EllAz1  179.781 Dip1  10.8821 Len1  0.241658 Az2  291.898 Dip2  62.9511 Len2  0.263212 Len3  4.426680e-01
STAT_GEOG  ExpectLat 9818.856485 Long 737.346067 Depth 0.744929
TRANSFORM  NONE
QML_OriginQuality  assocPhCt 8  usedPhCt 8  assocStaCt -1  usedStaCt 4  depthPhCt -1  stdErr 0.012162  azGap 294.463  secAzGap 294.463  gtLevel -  minDist 1.01479 maxDist 2.16489 medDist 1.55294
QML_OriginUncertainty  horUnc -1  minHorUnc 0.195832  maxHorUnc 0.336901  azMaxHorUnc 85.2228
QML_ConfidenceEllipsoid  semiMajorAxisLength 0.442668  semiMinorAxisLength 0.241658  semiIntermediateAxisLength 0.263212  majorAxisPlunge 24.4382  majorAxisAzimuth 84.7691  majorAxisRotation 17.8643
FOCALMECH  Hyp  9818.894345 737.319940 0.734375 Mech  0 0 0 mf  0 nObs -1
PHASE ID Ins Cmp On Pha  FM Date     HrMn   Sec     Err  ErrMag    Coda      Amp       Per       PriorWt  >   TTpred    Res       Weight    StaLoc(X  Y         Z)        SDist    SAzim  RAz  RDip RQual    Tcorr       TTerr
M06          ?    BHZ  i P      c 20230715 0927    7.2880 GAU  6.50e-04 -1.00e+00 -1.00e+00 -1.00e+00    1.0000 >    0.6248    0.0040    1.2431  738.3100 9819.1170   -1.3960    1.0148  77.33  77.3 153.6 10     0.0000    0.0125
M06          ?    BHN  e S      ? 20230715 0927    7.7501 GAU  2.76e-04 -1.00e+00 -1.00e+00 -1.00e+00    1.0000 >    1.0798    0.0111    1.0290  738.3100 9819.1170   -1.3960    1.0148  77.33  77.3 151.5 10     0.0000    0.0216
M14          ?    BHZ  i P      c 20230715 0927    7.2936 GAU  1.50e-03 -1.00e+00 -1.00e+00 -1.00e+00    1.0000 >    0.6402   -0.0059    1.1798  737.5530 9820.0110   -1.3980    1.1407  11.79  11.8 150.9 10     0.0000    0.0128
M14          ?    BHE  e S      ? 20230715 0927    7.7647 GAU  7.19e-04 -1.00e+00  4.20e+02 -1.00e+00    1.0000 >    1.1065   -0.0010    1.0618  737.5530 9820.0110   -1.3980    1.1407  11.79  11.8 148.4 10     0.0000    0.0221
M11          ?    BHZ  e P      c 20230715 0927    7.3976 GAU  1.10e-03 -1.00e+00 -1.00e+00 -1.00e+00    1.0000 >    0.7493   -0.0110    1.0466  738.4670 9820.4900   -1.3120    1.9652  35.71  35.7 134.5 10     0.0000    0.0150
M11          ?    BHN  e S      ? 20230715 0927    7.9420 GAU  6.24e-04 -1.00e+00 -1.00e+00 -1.00e+00    1.0000 >    1.2945   -0.0118    0.8945  738.4670 9820.4900   -1.3120    1.9652  35.71  35.7 130.0 10     0.0000    0.0259
M09          ?    BHZ  e P      c 20230715 0927    7.4538 GAU  2.96e-04 -1.00e+00  8.63e+01 -1.00e+00    1.0000 >    0.7785    0.0161    1.0063  737.8820 9820.9850   -1.2700    2.1649  15.05  15.0 130.8 10     0.0000    0.0156
M09          ?    BHE  e S      ? 20230715 0927    8.0424 GAU  1.82e-04 -1.00e+00  3.85e+02 -1.00e+00    1.0000 >    1.3446    0.0385    0.5388  737.8820 9820.9850   -1.2700    2.1649  15.05  15.0 125.7 10     0.0000    0.0269
END_PHASE
END_NLLOC

