NLLOC "./loc/SEML.20230715.020249.grid0" "LOCATED" "Location completed."
PUBLIC_ID None
SIGNATURE "Arham Zakki Edelo - edelo.17034@mhs.its.ac.id   obs:./obs/2023_07.obs   NLLoc:v7.00.10(30Aug2020)   run:28Dec2023 20h05m39"
COMMENT "SEML"
GRID  2001 2001 1001  727 9811 -2  0.01 0.01 0.01 PROB_DENSITY
SEARCH OCTREE nInitial 4851 nEvaluated 20003 smallestNodeSide 0.014881/0.014881/0.014205 oct_tree_integral 2.493416e-02 scatter_volume 2.493416e-02
HYPOCENTER  x 737.625 y 9818.47 z 0.8125  OT 49.29  ix -1 iy -1 iz -1 MAXIMUM_LIKELIHOOD
GEOGRAPHIC  OT 2023 07 15  02 02 49.289997  Lat 9818.470238 Long 737.625000 Depth 0.812500
QUALITY  Pmax 8.6979e+52 MFmin 60.3512 MFmax 72.1236 RMS 0.0284662 Nphs 16 Gap 281.54 Dist 0.919987 Mamp -9.90 0 Mdur -9.90 0
VPVSRATIO  VpVsRatio 1.68854  Npair 8  Diff 0.472591
STATISTICS  ExpectX 737.596480 Y 9818.458611 Z 0.825558  CovXX 0.024387 XY 0.00229056 XZ 0.0031428 YY 0.0143184 YZ -0.00736665 ZZ 0.0164965 EllAz1  163.626 Dip1  -40.329 Len1  0.158617 Az2  203.833 Dip2  41.9749 Len2  0.282295 Len3  3.000214e-01
STAT_GEOG  ExpectLat 9818.458611 Long 737.596480 Depth 0.825558
TRANSFORM  NONE
QML_OriginQuality  assocPhCt 16  usedPhCt 16  assocStaCt -1  usedStaCt 8  depthPhCt -1  stdErr 0.0284662  azGap 281.54  secAzGap 281.54  gtLevel -  minDist 0.919987 maxDist 4.33658 medDist 2.35805
QML_OriginUncertainty  horUnc -1  minHorUnc 0.178298  maxHorUnc 0.239232  azMaxHorUnc 77.7674
QML_ConfidenceEllipsoid  semiMajorAxisLength 0.300021  semiMinorAxisLength 0.158617  semiIntermediateAxisLength 0.282295  majorAxisPlunge 21.4613  majorAxisAzimuth 93.1218  majorAxisRotation 307.117
FOCALMECH  Hyp  9818.470238 737.625000 0.812500 Mech  0 0 0 mf  0 nObs -1
PHASE ID Ins Cmp On Pha  FM Date     HrMn   Sec     Err  ErrMag    Coda      Amp       Per       PriorWt  >   TTpred    Res       Weight    StaLoc(X  Y         Z)        SDist    SAzim  RAz  RDip RQual    Tcorr       TTerr
M04          ?    BHZ  e P      c 20230715 0202   49.9722 GAU  6.81e-04 -1.00e+00  7.32e+02 -1.00e+00    1.0000 >    0.6775    0.0047    1.1924  737.1400 9819.2520   -1.5710    0.9200 328.18 328.2 158.1 10     0.0000    0.0136
M04          ?    BHN  e S      ? 20230715 0202   50.4495 GAU  1.24e-03 -1.00e+00  8.23e+02 -1.00e+00    1.0000 >    1.1681   -0.0086    1.1950  737.1400 9819.2520   -1.5710    0.9200 328.18 328.2 156.4 10     0.0000    0.0234
M06          ?    BHZ  i P      d 20230715 0202   49.8683 GAU  8.94e-04 -1.00e+00 -1.00e+00 -1.00e+00    1.0000 >    0.6350   -0.0566    0.7402  738.3100 9819.1170   -1.3960    0.9421  46.64  46.6 156.2 10     0.0000    0.0127
M06          ?    BHN  i S      ? 20230715 0202   50.3638 GAU  7.45e-04 -1.00e+00 -1.00e+00 -1.00e+00    1.0000 >    1.0947   -0.0209    1.1885  738.3100 9819.1170   -1.3960    0.9421  46.64  46.6 154.3 10     0.0000    0.0219
M14          ?    BHZ  i P      c 20230715 0202   50.0104 GAU  1.71e-03 -1.00e+00  5.74e+02 -1.00e+00    1.0000 >    0.7126    0.0078    1.1385  737.5530 9820.0110   -1.3980    1.5424 357.32 357.3 143.9 10     0.0000    0.0143
M14          ?    BHE  e S      ? 20230715 0202   50.4606 GAU  4.16e-04 -1.00e+00  4.60e+02 -1.00e+00    1.0000 >    1.2281   -0.0575    0.7603  737.5530 9820.0110   -1.3980    1.5424 357.32 357.3 140.8 10     0.0000    0.0246
M11          ?    BHZ  e P      c 20230715 0202   50.0691 GAU  3.48e-03 -1.00e+00 -1.00e+00 -1.00e+00    1.0000 >    0.8045   -0.0254    1.1571  738.4670 9820.4900   -1.3120    2.1882  22.63  22.6 132.3 10     0.0000    0.0161
M11          ?    BHN  e S      ? 20230715 0202   50.7181 GAU  6.65e-04 -1.00e+00 -1.00e+00 -1.00e+00    1.0000 >    1.3858    0.0423    0.4645  738.4670 9820.4900   -1.3120    2.1882  22.63  22.6 127.8 10     0.0000    0.0277
M09          ?    BHZ  i P      c 20230715 0202   50.1634 GAU  2.46e-03 -1.00e+00  5.13e+01 -1.00e+00    1.0000 >    0.8632    0.0101    1.0760  737.8820 9820.9850   -1.2700    2.5279   5.84   5.8 127.3 10     0.0000    0.0173
M09          ?    BHE  e S      ? 20230715 0202   50.7712 GAU  7.66e-04 -1.00e+00  3.78e+02 -1.00e+00    1.0000 >    1.4862   -0.0051    1.1056  737.8820 9820.9850   -1.2700    2.5279   5.84   5.8 121.8 10     0.0000    0.0297
M13          ?    BHZ  i P      c 20230715 0202   50.2644 GAU  4.31e-04 -1.00e+00 -1.00e+00 -1.00e+00    1.0000 >    0.9770   -0.0026    1.2103  737.1780 9821.5410   -1.2220    3.1031 351.72 351.7 120.7 10     0.0000    0.0195
M13          ?    BHE  e S      ? 20230715 0202   50.9383 GAU  2.76e-04 -1.00e+00 -1.00e+00 -1.00e+00    1.0000 >    1.6804   -0.0320    1.0218  737.1780 9821.5410   -1.2220    3.1031 351.72 351.7 113.8 10     0.0000    0.0336
M05          ?    BHZ  e P      c 20230715 0202   50.3730 GAU  3.25e-03 -1.00e+00  6.16e+01 -1.00e+00    1.0000 >    1.1381   -0.0551    0.7987  736.2660 9822.0830   -1.1500    3.8599 339.39 339.4 114.0 10     0.0000    0.0228
M05          ?    BHE  e S      ? 20230715 0202   51.2283 GAU  1.28e-04 -1.00e+00 -1.00e+00 -1.00e+00    1.0000 >    1.9530   -0.0147    1.0117  736.2660 9822.0830   -1.1500    3.8599 339.39 339.4 105.6 10     0.0000    0.0391
M07          ?    BHZ  e P      c 20230715 0202   50.4938 GAU  9.73e-04 -1.00e+00 -1.00e+00 -1.00e+00    1.0000 >    1.2456   -0.0417    0.9863  737.4430 9822.8030   -1.1120    4.3366 357.59 357.6 110.8 10     0.0000    0.0249
M07          ?    BHE  e S      ? 20230715 0202   51.4167 GAU  3.91e-04 -1.00e+00 -1.00e+00 -1.00e+00    1.0000 >    2.1332   -0.0065    0.9531  737.4430 9822.8030   -1.1120    4.3366 357.59 357.6 102.0 10     0.0000    0.0427
END_PHASE
END_NLLOC

