NLLOC "./loc/SEML.20230715.093140.grid0" "LOCATED" "Location completed."
PUBLIC_ID None
SIGNATURE "Arham Zakki Edelo - edelo.17034@mhs.its.ac.id   obs:./obs/2023_07.obs   NLLoc:v7.00.10(30Aug2020)   run:28Dec2023 20h05m43"
COMMENT "SEML"
GRID  2001 2001 1001  727 9811 -2  0.01 0.01 0.01 PROB_DENSITY
SEARCH OCTREE nInitial 4851 nEvaluated 20003 smallestNodeSide 0.029762/0.029762/0.028409 oct_tree_integral 6.348853e-02 scatter_volume 6.293466e-02
HYPOCENTER  x 737.848 y 9818.78 z 0.65625  OT 39.715  ix -1 iy -1 iz -1 MAXIMUM_LIKELIHOOD
GEOGRAPHIC  OT 2023 07 15  09 31 39.714963  Lat 9818.782738 Long 737.848214 Depth 0.656250
QUALITY  Pmax 7.87072e+21 MFmin 31.5744 MFmax 43.3211 RMS 0.0147301 Nphs 8 Gap 292.241 Dist 0.570068 Mamp -9.90 0 Mdur -9.90 0
VPVSRATIO  VpVsRatio 1.66084  Npair 4  Diff 0.209457
STATISTICS  ExpectX 737.851120 Y 9818.630974 Z 0.390159  CovXX 0.585532 XY 0.089924 XZ 0.425227 YY 0.0441571 YZ 0.07472 ZZ 0.47088 EllAz1  173.018 Dip1  2.91395 Len1  0.321674 Az2  266.387 Dip2  49.1048 Len2  0.591916 Len3  1.852343e+00
STAT_GEOG  ExpectLat 9818.630974 Long 737.851120 Depth 0.390159
TRANSFORM  NONE
QML_OriginQuality  assocPhCt 8  usedPhCt 8  assocStaCt -1  usedStaCt 4  depthPhCt -1  stdErr 0.0147301  azGap 292.241  secAzGap 292.241  gtLevel -  minDist 0.570068 maxDist 2.83852 medDist 2.00923
QML_OriginUncertainty  horUnc -1  minHorUnc 0.260971  maxHorUnc 1.17481  azMaxHorUnc 80.8116
QML_ConfidenceEllipsoid  semiMajorAxisLength 1.85234  semiMinorAxisLength 0.321674  semiIntermediateAxisLength 0.591916  majorAxisPlunge 40.7456  majorAxisAzimuth 80.5046  majorAxisRotation 24.4426
FOCALMECH  Hyp  9818.782738 737.848214 0.656250 Mech  0 0 0 mf  0 nObs -1
PHASE ID Ins Cmp On Pha  FM Date     HrMn   Sec     Err  ErrMag    Coda      Amp       Per       PriorWt  >   TTpred    Res       Weight    StaLoc(X  Y         Z)        SDist    SAzim  RAz  RDip RQual    Tcorr       TTerr
M06          ?    BHZ  i P      c 20230715 0931   40.2754 GAU  5.37e-04 -1.00e+00 -1.00e+00 -1.00e+00    1.0000 >    0.5647   -0.0042    1.3648  738.3100 9819.1170   -1.3960    0.5701  54.10  54.1 163.9 10     0.0000    0.0113
M06          ?    BHN  e S      ? 20230715 0931   40.7046 GAU  2.01e-04 -1.00e+00 -1.00e+00 -1.00e+00    1.0000 >    0.9787    0.0109    1.2551  738.3100 9819.1170   -1.3960    0.5701  54.10  54.1 162.6 10     0.0000    0.0196
M11          ?    BHZ  i P      c 20230715 0931   40.4266 GAU  1.12e-03 -1.00e+00 -1.00e+00 -1.00e+00    1.0000 >    0.7082    0.0034    1.3994  738.4670 9820.4900   -1.3120    1.8159  19.92  19.9 135.7 10     0.0000    0.0142
M11          ?    BHE  e S      ? 20230715 0931   40.9384 GAU  8.09e-04 -1.00e+00 -1.00e+00 -1.00e+00    1.0000 >    1.2272   -0.0038    1.1494  738.4670 9820.4900   -1.3120    1.8159  19.92  19.9 131.1 10     0.0000    0.0245
M09          ?    BHZ  i P      c 20230715 0931   40.5296 GAU  7.76e-04 -1.00e+00  1.78e+02 -1.00e+00    1.0000 >    0.7731    0.0416    0.4856  737.8820 9820.9850   -1.2700    2.2025   0.88   0.9 128.9 10     0.0000    0.0155
M09          ?    BHE  e S      ? 20230715 0931   41.1466 GAU  1.06e-03 -1.00e+00  3.84e+02 -1.00e+00    1.0000 >    1.3393    0.0923    0.0897  737.8820 9820.9850   -1.2700    2.2025   0.88   0.9 123.0 10     0.0000    0.0268
M13          ?    BHZ  e P      c 20230715 0931   40.6182 GAU  9.48e-04 -1.00e+00 -1.00e+00 -1.00e+00    1.0000 >    0.8984    0.0049    1.3281  737.1780 9821.5410   -1.2220    2.8385 346.34 346.3 120.7 10     0.0000    0.0180
M13          ?    BHN  e S      ? 20230715 0931   41.2568 GAU  7.46e-04 -1.00e+00 -1.00e+00 -1.00e+00    1.0000 >    1.5554   -0.0136    0.9279  737.1780 9821.5410   -1.2220    2.8385 346.34 346.3 112.6 10     0.0000    0.0311
END_PHASE
END_NLLOC

