NLLOC "./loc/SEML.20230707.202455.grid0" "LOCATED" "Location completed."
PUBLIC_ID None
SIGNATURE "Arham Zakki Edelo - edelo.17034@mhs.its.ac.id   obs:./obs/2023_07.obs   NLLoc:v7.00.10(30Aug2020)   run:28Dec2023 20h05m38"
COMMENT "SEML"
GRID  2001 2001 1001  727 9811 -2  0.01 0.01 0.01 PROB_DENSITY
SEARCH OCTREE nInitial 4851 nEvaluated 20011 smallestNodeSide 0.059524/0.059524/0.056818 oct_tree_integral 8.688216e-01 scatter_volume 8.688216e-01
HYPOCENTER  x 742.863 y 9818.65 z -1.74432  OT 54.2834  ix -1 iy -1 iz -1 MAXIMUM_LIKELIHOOD
GEOGRAPHIC  OT 2023 07 07  20 24 54.283450  Lat 9818.648810 Long 742.863095 Depth -1.744318
QUALITY  Pmax 1.85595e+19 MFmin 21.8762 MFmax 25.2234 RMS 0.0144254 Nphs 8 Gap 338.371 Dist 4.5771 Mamp -9.90 0 Mdur -9.90 0
VPVSRATIO  VpVsRatio 1.68698  Npair 4  Diff 0.228352
STATISTICS  ExpectX 739.866455 Y 9818.202649 Z 1.043547  CovXX 9.64091 XY 1.88693 XZ -1.79804 YY 0.700644 YZ 0.596918 ZZ 5.98051 EllAz1  346.937 Dip1  -9.63074 Len1  0.748788 Az2  232.427 Dip2  -67.7534 Len2  4.42482 Len3  6.121857e+00
STAT_GEOG  ExpectLat 9818.202649 Long 739.866455 Depth 1.043547
TRANSFORM  NONE
QML_OriginQuality  assocPhCt 8  usedPhCt 8  assocStaCt -1  usedStaCt 4  depthPhCt -1  stdErr 0.0144254  azGap 338.371  secAzGap 338.371  gtLevel -  minDist 4.5771 maxDist 7.43743 medDist 5.13391
QML_OriginUncertainty  horUnc -1  minHorUnc 0.856167  maxHorUnc 4.80131  azMaxHorUnc 78.5572
QML_ConfidenceEllipsoid  semiMajorAxisLength 6.12186  semiMinorAxisLength 0.748788  semiIntermediateAxisLength 4.42482  majorAxisPlunge -19.854  majorAxisAzimuth 80.4496  majorAxisRotation 193.222
FOCALMECH  Hyp  9818.648810 742.863095 -1.744318 Mech  0 0 0 mf  0 nObs -1
PHASE ID Ins Cmp On Pha  FM Date     HrMn   Sec     Err  ErrMag    Coda      Amp       Per       PriorWt  >   TTpred    Res       Weight    StaLoc(X  Y         Z)        SDist    SAzim  RAz  RDip RQual    Tcorr       TTerr
M06          ?    BHZ  e P      c 20230707 2024   55.5480 GAU  1.63e-03 -1.00e+00 -1.00e+00 -1.00e+00    1.0000 >    1.2613    0.0032    1.5515  738.3100 9819.1170   -1.3960    4.5771 275.87 275.9  85.5 10     0.0000    0.0252
M06          ?    BHE  e S      ? 20230707 2024   56.4616 GAU  2.73e-04 -1.00e+00 -1.00e+00 -1.00e+00    1.0000 >    2.1759    0.0022    1.3158  738.3100 9819.1170   -1.3960    4.5771 275.87 275.9  85.5 10     0.0000    0.0435
M11          ?    BHZ  e P      c 20230707 2024   55.5764 GAU  2.98e-03 -1.00e+00 -1.00e+00 -1.00e+00    1.0000 >    1.3150   -0.0221    1.3223  738.4670 9820.4900   -1.3120    4.7661 292.73 292.7  84.7 10     0.0000    0.0263
M11          ?    BHN  e S      ? 20230707 2024   56.5474 GAU  3.76e-04 -1.00e+00 -1.00e+00 -1.00e+00    1.0000 >    2.2686   -0.0047    1.2822  738.4670 9820.4900   -1.3120    4.7661 292.73 292.7  84.7 10     0.0000    0.0454
M09          ?    BHZ  e P      c 20230707 2024   55.8153 GAU  2.15e-03 -1.00e+00  6.25e+01 -1.00e+00    1.0000 >    1.5174    0.0144    1.4262  737.8820 9820.9850   -1.2700    5.5017 295.13 295.1  85.0 10     0.0000    0.0303
M09          ?    BHE  e S      ? 20230707 2024   56.9265 GAU  2.41e-04 -1.00e+00  3.47e+02 -1.00e+00    1.0000 >    2.6177    0.0254    1.1020  737.8820 9820.9850   -1.2700    5.5017 295.13 295.1  85.0 10     0.0000    0.0524
M05          ?    BHZ  e P      d 20230707 2024   55.8242 GAU  8.94e-04 -1.00e+00  2.16e+02 -1.00e+00    1.0000 >    2.0501   -0.5094    0.0000  736.2660 9822.0830   -1.1500    7.4374 297.50 297.5  85.3 10     0.0000    0.0410
M05          ?    BHE  e S      ? 20230707 2024   56.9661 GAU  1.22e-04 -1.00e+00 -1.00e+00 -1.00e+00    1.0000 >    3.5367   -0.8541    0.0000  736.2660 9822.0830   -1.1500    7.4374 297.50 297.5  85.3 10     0.0000    0.0707
END_PHASE
END_NLLOC

