NLLOC "./loc/SEML.20230719.032323.grid0" "LOCATED" "Location completed."
PUBLIC_ID None
SIGNATURE "Arham Zakki Edelo - edelo.17034@mhs.its.ac.id   obs:./obs/2023_07.obs   NLLoc:v7.00.10(30Aug2020)   run:28Dec2023 20h06m03"
COMMENT "SEML"
GRID  2001 2001 1001  727 9811 -2  0.01 0.01 0.01 PROB_DENSITY
SEARCH OCTREE nInitial 4851 nEvaluated 20011 smallestNodeSide 0.014881/0.014881/0.014205 oct_tree_integral 1.674801e-02 scatter_volume 1.671991e-02
HYPOCENTER  x 738.109 y 9818.28 z 0.27983  OT 22.7721  ix -1 iy -1 iz -1 MAXIMUM_LIKELIHOOD
GEOGRAPHIC  OT 2023 07 19  03 23 22.772053  Lat 9818.284226 Long 738.108631 Depth 0.279830
QUALITY  Pmax 1.49755e+74 MFmin 83.5881 MFmax 100.512 RMS 0.0308798 Nphs 22 Gap 292.985 Dist 0.856774 Mamp -9.90 0 Mdur -9.90 0
VPVSRATIO  VpVsRatio 1.67217  Npair 11  Diff 0.632841
STATISTICS  ExpectX 738.104584 Y 9818.304597 Z 0.303780  CovXX 0.0279429 XY -0.00271696 XZ -0.0108548 YY 0.0128585 YZ -9.80108e-07 ZZ 0.0230525 EllAz1  24.363 Dip1  21.406 Len1  0.202598 Az2  316.782 Dip2  -44.212 Len2  0.233253 Len3  3.604874e-01
STAT_GEOG  ExpectLat 9818.304597 Long 738.104584 Depth 0.303780
TRANSFORM  NONE
QML_OriginQuality  assocPhCt 22  usedPhCt 22  assocStaCt -1  usedStaCt 11  depthPhCt -1  stdErr 0.0308798  azGap 292.985  secAzGap 292.985  gtLevel -  minDist 0.856774 maxDist 5.24843 medDist 2.71027
QML_OriginUncertainty  horUnc -1  minHorUnc 0.16877  maxHorUnc 0.255656  azMaxHorUnc 99.9054
QML_ConfidenceEllipsoid  semiMajorAxisLength 0.360487  semiMinorAxisLength 0.202598  semiIntermediateAxisLength 0.233253  majorAxisPlunge -38.0889  majorAxisAzimuth 96.469  majorAxisRotation 114.535
FOCALMECH  Hyp  9818.284226 738.108631 0.279830 Mech  0 0 0 mf  0 nObs -1
PHASE ID Ins Cmp On Pha  FM Date     HrMn   Sec     Err  ErrMag    Coda      Amp       Per       PriorWt  >   TTpred    Res       Weight    StaLoc(X  Y         Z)        SDist    SAzim  RAz  RDip RQual    Tcorr       TTerr
M06          ?    BHZ  i P      c 20230719 0323   23.3649 GAU  9.73e-04 -1.00e+00 -1.00e+00 -1.00e+00    1.0000 >    0.5022    0.0906    0.1428  738.3100 9819.1170   -1.3960    0.8568  13.59  13.6 152.1 10     0.0000    0.0100
M06          ?    BHN  e S      ? 20230719 0323   23.8649 GAU  1.13e-03 -1.00e+00 -1.00e+00 -1.00e+00    1.0000 >    0.8771    0.2157    0.0000  738.3100 9819.1170   -1.3960    0.8568  13.59  13.6 151.6 10     0.0000    0.0175
M04          ?    BHZ  e P      c 20230719 0323   23.3867 GAU  2.88e-03 -1.00e+00 -1.00e+00 -1.00e+00    1.0000 >    0.6157   -0.0011    1.6272  737.1400 9819.2520   -1.5710    1.3692 314.97 315.0 142.2 10     0.0000    0.0123
M04          ?    BHE  e S      ? 20230719 0323   23.8306 GAU  1.16e-03 -1.00e+00  1.61e+02 -1.00e+00    1.0000 >    1.0741   -0.0156    1.3374  737.1400 9819.2520   -1.5710    1.3692 314.97 315.0 141.5 10     0.0000    0.0215
M14          ?    BHZ  i P      c 20230719 0323   23.4665 GAU  2.41e-03 -1.00e+00 -1.00e+00 -1.00e+00    1.0000 >    0.6587    0.0358    1.1682  737.5530 9820.0110   -1.3980    1.8140 342.16 342.2 130.8 10     0.0000    0.0132
M14          ?    BHE  e S      ? 20230719 0323   23.9308 GAU  2.61e-03 -1.00e+00  1.75e+02 -1.00e+00    1.0000 >    1.1505    0.0082    1.5457  737.5530 9820.0110   -1.3980    1.8140 342.16 342.2 129.7 10     0.0000    0.0230
M02          ?    BHZ  i P      c 20230719 0323   23.4849 GAU  3.60e-03 -1.00e+00 -1.00e+00 -1.00e+00    1.0000 >    0.6910    0.0219    1.4981  736.5970 9819.4060   -1.4960    1.8824 306.58 306.6 131.3 10     0.0000    0.0138
M02          ?    BHE  e S      ? 20230719 0323   23.9896 GAU  2.30e-03 -1.00e+00 -1.00e+00 -1.00e+00    1.0000 >    1.2061    0.0115    1.5195  736.5970 9819.4060   -1.4960    1.8824 306.58 306.6 130.2 10     0.0000    0.0241
M11          ?    BHZ  i P      c 20230719 0323   23.4920 GAU  2.05e-03 -1.00e+00  3.12e+02 -1.00e+00    1.0000 >    0.7302   -0.0103    1.4704  738.4670 9820.4900   -1.3120    2.2347   9.23   9.2 123.0 10     0.0000    0.0146
M11          ?    BHN  e S      ? 20230719 0323   24.0979 GAU  6.24e-04 -1.00e+00 -1.00e+00 -1.00e+00    1.0000 >    1.2764    0.0494    0.9257  738.4670 9820.4900   -1.3120    2.2347   9.23   9.2 121.5 10     0.0000    0.0255
M09          ?    BHZ  i P      c 20230719 0323   23.5415 GAU  1.35e-03 -1.00e+00 -1.00e+00 -1.00e+00    1.0000 >    0.8301   -0.0606    0.5065  737.8820 9820.9850   -1.2700    2.7103 355.20 355.2 117.0 10     0.0000    0.0166
M09          ?    BHE  e S      ? 20230719 0323   24.2215 GAU  8.62e-04 -1.00e+00  4.38e+02 -1.00e+00    1.0000 >    1.4516   -0.0021    1.4242  737.8820 9820.9850   -1.2700    2.7103 355.20 355.2 115.0 10     0.0000    0.0290
M13          ?    BHZ  i P      c 20230719 0323   23.6876 GAU  2.92e-03 -1.00e+00 -1.00e+00 -1.00e+00    1.0000 >    0.9835   -0.0679    0.4919  737.1780 9821.5410   -1.2220    3.3871 344.05 344.1 110.8 10     0.0000    0.0197
M13          ?    BHE  e S      ? 20230719 0323   24.3841 GAU  1.86e-03 -1.00e+00  1.69e+02 -1.00e+00    1.0000 >    1.7207   -0.1087    0.3055  737.1780 9821.5410   -1.2220    3.3871 344.05 344.1 108.0 10     0.0000    0.0344
M10          ?    BHZ  e P      c 20230719 0323   23.7592 GAU  1.65e-03 -1.00e+00 -1.00e+00 -1.00e+00    1.0000 >    0.9992   -0.0121    1.4101  736.5490 9821.3650   -1.2200    3.4531 333.15 333.1 110.3 10     0.0000    0.0200
M10          ?    BHN  e S      ? 20230719 0323   24.5424 GAU  2.68e-03 -1.00e+00 -1.00e+00 -1.00e+00    1.0000 >    1.7482    0.0221    1.2892  736.5490 9821.3650   -1.2200    3.4531 333.15 333.1 107.5 10     0.0000    0.0350
M08          ?    BHZ  i P      d 20230719 0323   23.7642 GAU  2.98e-03 -1.00e+00  1.23e+03 -1.00e+00    1.0000 >    1.0949   -0.1028    0.2725  738.2480 9822.1600   -1.1510    3.8783   2.06   2.1 107.0 10     0.0000    0.0219
M08          ?    BHE  e S      ? 20230719 0323   24.4980 GAU  1.72e-03 -1.00e+00 -1.00e+00 -1.00e+00    1.0000 >    1.9166   -0.1907    0.0414  738.2480 9822.1600   -1.1510    3.8783   2.06   2.1 103.6 10     0.0000    0.0383
M01          ?    BHZ  i P      d 20230719 0323   24.0679 GAU  9.98e-04 -1.00e+00  5.68e+03 -1.00e+00    1.0000 >    1.2609    0.0349    1.2130  736.4090 9822.5140   -1.1200    4.5585 338.11 338.1 103.7 10     0.0000    0.0252
M01          ?    BHN  e S      ? 20230719 0323   24.9900 GAU  2.33e-03 -1.00e+00  1.59e+03 -1.00e+00    1.0000 >    2.2071    0.0109    1.2210  736.4090 9822.5140   -1.1200    4.5585 338.11 338.1  99.8 10     0.0000    0.0441
M12          ?    BHZ  i P      c 20230719 0323   24.1915 GAU  1.36e-03 -1.00e+00 -1.00e+00 -1.00e+00    1.0000 >    1.4215   -0.0021    1.4327  736.8520 9823.3800   -0.9890    5.2484 346.15 346.1 100.6 10     0.0000    0.0284
M12          ?    BHE  e S      ? 20230719 0323   25.2682 GAU  1.77e-03 -1.00e+00  2.61e+01 -1.00e+00    1.0000 >    2.4883    0.0078    1.1569  736.8520 9823.3800   -0.9890    5.2484 346.15 346.1  96.6 10     0.0000    0.0498
END_PHASE
END_NLLOC

