NLLOC "./loc/SEML.20230719.032626.grid0" "LOCATED" "Location completed."
PUBLIC_ID None
SIGNATURE "Arham Zakki Edelo - edelo.17034@mhs.its.ac.id   obs:./obs/2023_07.obs   NLLoc:v7.00.10(30Aug2020)   run:28Dec2023 20h06m06"
COMMENT "SEML"
GRID  2001 2001 1001  727 9811 -2  0.01 0.01 0.01 PROB_DENSITY
SEARCH OCTREE nInitial 4851 nEvaluated 20019 smallestNodeSide 0.007440/0.007440/0.007102 oct_tree_integral 5.753469e-03 scatter_volume 5.738649e-03
HYPOCENTER  x 737.621 y 9818.91 z 0.489347  OT 25.941  ix -1 iy -1 iz -1 MAXIMUM_LIKELIHOOD
GEOGRAPHIC  OT 2023 07 19  03 26 25.941019  Lat 9818.912946 Long 737.621280 Depth 0.489347
QUALITY  Pmax 2.45339e+76 MFmin 88.9122 MFmax 110.562 RMS 0.0234322 Nphs 22 Gap 222.208 Dist 0.588717 Mamp -9.90 0 Mdur -9.90 0
VPVSRATIO  VpVsRatio 1.63211  Npair 11  Diff 0.561422
STATISTICS  ExpectX 737.701959 Y 9818.880737 Z 0.538279  CovXX 0.0169161 XY -0.00535708 XZ 0.0051243 YY 0.00722107 YZ -0.00428391 ZZ 0.00761309 EllAz1  183.435 Dip1  -41.417 Len1  0.104839 Az2  227.852 Dip2  38.9969 Len2  0.151141 Len3  2.797206e-01
STAT_GEOG  ExpectLat 9818.880737 Long 737.701959 Depth 0.538279
TRANSFORM  NONE
QML_OriginQuality  assocPhCt 22  usedPhCt 22  assocStaCt -1  usedStaCt 11  depthPhCt -1  stdErr 0.0234322  azGap 222.208  secAzGap 222.208  gtLevel -  minDist 0.588717 maxDist 4.53281 medDist 2.08839
QML_OriginUncertainty  horUnc -1  minHorUnc 0.10555  maxHorUnc 0.210653  azMaxHorUnc 113.929
QML_ConfidenceEllipsoid  semiMajorAxisLength 0.279721  semiMinorAxisLength 0.104839  semiIntermediateAxisLength 0.151141  majorAxisPlunge 24.073  majorAxisAzimuth 116.645  majorAxisRotation 302.403
FOCALMECH  Hyp  9818.912946 737.621280 0.489347 Mech  0 0 0 mf  0 nObs -1
PHASE ID Ins Cmp On Pha  FM Date     HrMn   Sec     Err  ErrMag    Coda      Amp       Per       PriorWt  >   TTpred    Res       Weight    StaLoc(X  Y         Z)        SDist    SAzim  RAz  RDip RQual    Tcorr       TTerr
M04          ?    BHZ  e P      d 20230719 0326   26.5124 GAU  2.91e-03 -1.00e+00  1.07e+03 -1.00e+00    1.0000 >    0.5714   -0.0000    1.7872  737.1400 9819.2520   -1.5710    0.5887 305.16 305.2 163.5 10     0.0000    0.0114
M04          ?    BHE  e S      ? 20230719 0326   26.9359 GAU  7.49e-04 -1.00e+00  4.30e+02 -1.00e+00    1.0000 >    0.9953   -0.0004    1.5608  737.1400 9819.2520   -1.5710    0.5887 305.16 305.2 163.3 10     0.0000    0.0199
M06          ?    BHZ  i P      c 20230719 0326   26.5169 GAU  2.26e-03 -1.00e+00 -1.00e+00 -1.00e+00    1.0000 >    0.5365    0.0394    0.6078  738.3100 9819.1170   -1.3960    0.7183  73.50  73.5 158.5 10     0.0000    0.0107
M06          ?    BHN  e S      ? 20230719 0326   26.8738 GAU  1.54e-03 -1.00e+00 -1.00e+00 -1.00e+00    1.0000 >    0.9355   -0.0027    1.5797  738.3100 9819.1170   -1.3960    0.7183  73.50  73.5 158.2 10     0.0000    0.0187
M14          ?    BHZ  i P      c 20230719 0326   26.5252 GAU  1.68e-03 -1.00e+00 -1.00e+00 -1.00e+00    1.0000 >    0.5808    0.0034    1.7755  737.5530 9820.0110   -1.3980    1.1002 356.44 356.4 149.0 10     0.0000    0.0116
M14          ?    BHE  e S      ? 20230719 0326   26.9570 GAU  5.49e-04 -1.00e+00  3.02e+02 -1.00e+00    1.0000 >    1.0127    0.0033    1.5519  737.5530 9820.0110   -1.3980    1.1002 356.44 356.4 148.5 10     0.0000    0.0203
M02          ?    BHZ  e P      c 20230719 0326   26.5464 GAU  1.81e-03 -1.00e+00 -1.00e+00 -1.00e+00    1.0000 >    0.6092   -0.0038    1.7407  736.5970 9819.4060   -1.4960    1.1368 295.70 295.7 149.4 10     0.0000    0.0122
M02          ?    BHN  e S      ? 20230719 0326   27.0998 GAU  1.19e-03 -1.00e+00 -1.00e+00 -1.00e+00    1.0000 >    1.0617    0.0971    0.1857  736.5970 9819.4060   -1.4960    1.1368 295.70 295.7 148.9 10     0.0000    0.0212
M11          ?    BHZ  i P      c 20230719 0326   26.5618 GAU  1.14e-03 -1.00e+00  3.79e+02 -1.00e+00    1.0000 >    0.6735   -0.0527    0.2900  738.4670 9820.4900   -1.3120    1.7895  28.20  28.2 133.8 10     0.0000    0.0135
M11          ?    BHN  i S      ? 20230719 0326   27.1245 GAU  9.70e-04 -1.00e+00 -1.00e+00 -1.00e+00    1.0000 >    1.1749    0.0086    1.4378  738.4670 9820.4900   -1.3120    1.7895  28.20  28.2 133.0 10     0.0000    0.0235
M09          ?    BHZ  i P      c 20230719 0326   26.6542 GAU  1.12e-03 -1.00e+00  1.97e+02 -1.00e+00    1.0000 >    0.7237   -0.0105    1.5434  737.8820 9820.9850   -1.2700    2.0884   7.17   7.2 128.3 10     0.0000    0.0145
M09          ?    BHE  e S      ? 20230719 0326   27.2263 GAU  4.33e-04 -1.00e+00  3.09e+02 -1.00e+00    1.0000 >    1.2629    0.0224    1.2076  737.8820 9820.9850   -1.2700    2.0884   7.17   7.2 127.2 10     0.0000    0.0253
M13          ?    BHZ  i P      c 20230719 0326   26.7971 GAU  1.03e-03 -1.00e+00  1.79e+01 -1.00e+00    1.0000 >    0.8385    0.0176    1.3947  737.1780 9821.5410   -1.2220    2.6652 350.43 350.4 120.5 10     0.0000    0.0168
M13          ?    BHE  e S      ? 20230719 0326   27.3966 GAU  1.29e-03 -1.00e+00 -1.00e+00 -1.00e+00    1.0000 >    1.4637   -0.0082    1.2872  737.1780 9821.5410   -1.2220    2.6652 350.43 350.4 119.1 10     0.0000    0.0293
M10          ?    BHZ  e P      c 20230719 0326   26.8726 GAU  3.48e-03 -1.00e+00 -1.00e+00 -1.00e+00    1.0000 >    0.8407    0.0910    0.1773  736.5490 9821.3650   -1.2200    2.6763 336.38 336.4 120.4 10     0.0000    0.0168
M10          ?    BHN  e S      ? 20230719 0326   27.6439 GAU  5.99e-04 -1.00e+00 -1.00e+00 -1.00e+00    1.0000 >    1.4675    0.2354    0.0490  736.5490 9821.3650   -1.2200    2.6763 336.38 336.4 119.0 10     0.0000    0.0294
M08          ?    BHZ  i P      d 20230719 0326   26.8936 GAU  3.34e-04 -1.00e+00  6.72e+02 -1.00e+00    1.0000 >    0.9755   -0.0229    1.1371  738.2480 9822.1600   -1.1510    3.3070  10.92  10.9 114.0 10     0.0000    0.0195
M08          ?    BHN  e S      ? 20230719 0326   27.5551 GAU  4.36e-04 -1.00e+00  3.44e+02 -1.00e+00    1.0000 >    1.7035   -0.0894    0.1669  738.2480 9822.1600   -1.1510    3.3070  10.92  10.9 111.8 10     0.0000    0.0341
M05          ?    BHZ  i P      c 20230719 0326   27.1044 GAU  1.24e-03 -1.00e+00 -1.00e+00 -1.00e+00    1.0000 >    1.0087    0.1547    0.0339  736.2660 9822.0830   -1.1500    3.4476 336.85 336.9 113.0 10     0.0000    0.0202
M05          ?    BHE  e S      ? 20230719 0326   27.9892 GAU  4.54e-04 -1.00e+00 -1.00e+00 -1.00e+00    1.0000 >    1.7614    0.2867    0.0417  736.2660 9822.0830   -1.1500    3.4476 336.85 336.9 108.1  9     0.0000    0.0352
M12          ?    BHZ  e P      d 20230719 0326   27.2053 GAU  6.74e-04 -1.00e+00 -1.00e+00 -1.00e+00    1.0000 >    1.2537    0.0106    1.3845  736.8520 9823.3800   -0.9890    4.5328 350.23 350.2 105.8 10     0.0000    0.0251
M12          ?    BHE  e S      ? 20230719 0326   28.1236 GAU  1.28e-03 -1.00e+00  9.13e+01 -1.00e+00    1.0000 >    2.1715    0.0111    1.0596  736.8520 9823.3800   -0.9890    4.5328 350.23 350.2  67.2 10     0.0000    0.0434
END_PHASE
END_NLLOC

