NLLOC "./loc/SEML.20230719.032319.grid0" "LOCATED" "Location completed."
PUBLIC_ID None
SIGNATURE "Arham Zakki Edelo - edelo.17034@mhs.its.ac.id   obs:./obs/2023_07.obs   NLLoc:v7.00.10(30Aug2020)   run:28Dec2023 20h06m02"
COMMENT "SEML"
GRID  2001 2001 1001  727 9811 -2  0.01 0.01 0.01 PROB_DENSITY
SEARCH OCTREE nInitial 4851 nEvaluated 20019 smallestNodeSide 0.014881/0.014881/0.014205 oct_tree_integral 2.823034e-02 scatter_volume 2.823034e-02
HYPOCENTER  x 738.585 y 9818.58 z 0.208807  OT 19.3642  ix -1 iy -1 iz -1 MAXIMUM_LIKELIHOOD
GEOGRAPHIC  OT 2023 07 19  03 23 19.364235  Lat 9818.581845 Long 738.584821 Depth 0.208807
QUALITY  Pmax 4.8998e+84 MFmin 91.51 MFmax 117.338 RMS 0.0295036 Nphs 24 Gap 296.052 Dist 0.601596 Mamp -9.90 0 Mdur -9.90 0
VPVSRATIO  VpVsRatio 1.74138  Npair 12  Diff 0.60685
STATISTICS  ExpectX 738.469171 Y 9818.617886 Z 0.333506  CovXX 0.0450585 XY -0.0140741 XZ -0.0429443 YY 0.0176936 YZ 0.0112144 ZZ 0.0564617 EllAz1  63.5256 Dip1  33.6149 Len1  0.14742 Az2  170.482 Dip2  23.6875 Len2  0.230605 Len3  5.881440e-01
STAT_GEOG  ExpectLat 9818.617886 Long 738.469171 Depth 0.333506
TRANSFORM  NONE
QML_OriginQuality  assocPhCt 24  usedPhCt 24  assocStaCt -1  usedStaCt 12  depthPhCt -1  stdErr 0.0295036  azGap 296.052  secAzGap 296.052  gtLevel -  minDist 0.601596 maxDist 5.10147 medDist 2.89018
QML_OriginUncertainty  horUnc -1  minHorUnc 0.164373  maxHorUnc 0.342507  azMaxHorUnc 112.904
QML_ConfidenceEllipsoid  semiMajorAxisLength 0.588144  semiMinorAxisLength 0.14742  semiIntermediateAxisLength 0.230605  majorAxisPlunge -46.8414  majorAxisAzimuth 108.377  majorAxisRotation 267.331
FOCALMECH  Hyp  9818.581845 738.584821 0.208807 Mech  0 0 0 mf  0 nObs -1
PHASE ID Ins Cmp On Pha  FM Date     HrMn   Sec     Err  ErrMag    Coda      Amp       Per       PriorWt  >   TTpred    Res       Weight    StaLoc(X  Y         Z)        SDist    SAzim  RAz  RDip RQual    Tcorr       TTerr
M06          ?    BHZ  i P      c 20230719 0323   19.9009 GAU  8.62e-04 -1.00e+00  1.77e+02 -1.00e+00    1.0000 >    0.4580    0.0787    0.3530  738.3100 9819.1170   -1.3960    0.6016 332.82 332.8 158.7 10     0.0000    0.0092
M06          ?    BHN  e S      ? 20230719 0323   20.3416 GAU  1.91e-03 -1.00e+00 -1.00e+00 -1.00e+00    1.0000 >    0.8004    0.1770    0.0067  738.3100 9819.1170   -1.3960    0.6016 332.82 332.8 158.4 10     0.0000    0.0160
M04          ?    BHZ  i P      d 20230719 0323   20.0182 GAU  9.88e-04 -1.00e+00 -1.00e+00 -1.00e+00    1.0000 >    0.6394    0.0145    1.3472  737.1400 9819.2520   -1.5710    1.5927 294.88 294.9 136.5 10     0.0000    0.0128
M04          ?    BHE  e S      ? 20230719 0323   20.5011 GAU  1.29e-03 -1.00e+00  2.00e+02 -1.00e+00    1.0000 >    1.1162    0.0207    1.2045  737.1400 9819.2520   -1.5710    1.5927 294.88 294.9 135.6 10     0.0000    0.0223
M14          ?    BHZ  i P      c 20230719 0323   19.9991 GAU  2.25e-03 -1.00e+00 -1.00e+00 -1.00e+00    1.0000 >    0.6367   -0.0019    1.5121  737.5530 9820.0110   -1.3980    1.7627 324.17 324.2 130.2 10     0.0000    0.0127
M14          ?    BHN  e S      ? 20230719 0323   20.4574 GAU  8.73e-04 -1.00e+00 -1.00e+00 -1.00e+00    1.0000 >    1.1129   -0.0197    1.3418  737.5530 9820.0110   -1.3980    1.7627 324.17 324.2 129.0 10     0.0000    0.0223
M11          ?    BHZ  i P      c 20230719 0323   20.0322 GAU  1.19e-03 -1.00e+00  5.54e+02 -1.00e+00    1.0000 >    0.6511    0.0169    1.2989  738.4670 9820.4900   -1.3120    1.9118 356.47 356.5 126.2 10     0.0000    0.0130
M11          ?    BHN  e S      ? 20230719 0323   20.5954 GAU  7.76e-04 -1.00e+00 -1.00e+00 -1.00e+00    1.0000 >    1.1389    0.0922    0.3074  738.4670 9820.4900   -1.3120    1.9118 356.47 356.5 124.8 10     0.0000    0.0228
M02          ?    BHZ  i P      c 20230719 0323   20.0640 GAU  2.24e-03 -1.00e+00 -1.00e+00 -1.00e+00    1.0000 >    0.7340   -0.0343    1.1068  736.5970 9819.4060   -1.4960    2.1519 292.52 292.5 125.9 10     0.0000    0.0147
M02          ?    BHN  i S      ? 20230719 0323   20.6173 GAU  1.94e-03 -1.00e+00  1.10e+04 -1.00e+00    1.0000 >    1.2822   -0.0290    1.1793  736.5970 9819.4060   -1.4960    2.1519 292.52 292.5 124.6 10     0.0000    0.0256
M09          ?    BHZ  i P      c 20230719 0323   20.1185 GAU  1.42e-03 -1.00e+00  2.78e+02 -1.00e+00    1.0000 >    0.7742   -0.0199    1.3842  737.8820 9820.9850   -1.2700    2.5038 343.70 343.7 117.7 10     0.0000    0.0155
M09          ?    BHE  e S      ? 20230719 0323   20.7026 GAU  1.53e-03 -1.00e+00  5.59e+01 -1.00e+00    1.0000 >    1.3551   -0.0167    1.3134  737.8820 9820.9850   -1.2700    2.5038 343.70 343.7 115.6 10     0.0000    0.0271
M13          ?    BHZ  i P      c 20230719 0323   20.2546 GAU  1.26e-03 -1.00e+00  3.11e+02 -1.00e+00    1.0000 >    0.9503   -0.0600    0.5204  737.1780 9821.5410   -1.2220    3.2765 334.57 334.6 110.2 10     0.0000    0.0190
M13          ?    BHE  e S      ? 20230719 0323   20.8901 GAU  1.20e-03 -1.00e+00 -1.00e+00 -1.00e+00    1.0000 >    1.6643   -0.1385    0.0286  737.1780 9821.5410   -1.2220    3.2765 334.57 334.6 107.1 10     0.0000    0.0333
M10          ?    BHZ  i P      c 20230719 0323   20.3473 GAU  3.09e-03 -1.00e+00  7.61e+02 -1.00e+00    1.0000 >    0.9919   -0.0088    1.4561  736.5490 9821.3650   -1.2200    3.4483 323.82 323.8 109.1 10     0.0000    0.0198
M10          ?    BHN  e S      ? 20230719 0323   21.1177 GAU  9.95e-04 -1.00e+00 -1.00e+00 -1.00e+00    1.0000 >    1.7372    0.0163    1.1715  736.5490 9821.3650   -1.2200    3.4483 323.82 323.8 105.7 10     0.0000    0.0347
M08          ?    BHZ  i P      d 20230719 0323   20.3539 GAU  7.04e-04 -1.00e+00  5.86e+02 -1.00e+00    1.0000 >    1.0192   -0.0296    1.2031  738.2480 9822.1600   -1.1510    3.5940 354.62 354.6 107.3 10     0.0000    0.0204
M08          ?    BHE  e S      ? 20230719 0323   21.1219 GAU  9.98e-04 -1.00e+00 -1.00e+00 -1.00e+00    1.0000 >    1.7863   -0.0286    1.0935  738.2480 9822.1600   -1.1510    3.5940 354.62 354.6 103.5 10     0.0000    0.0357
M05          ?    BHZ  i P      d 20230719 0323   20.5248 GAU  3.34e-03 -1.00e+00 -1.00e+00 -1.00e+00    1.0000 >    1.1697   -0.0091    1.4092  736.2660 9822.0830   -1.1500    4.1994 326.48 326.5 104.3 10     0.0000    0.0234
M05          ?    BHE  e S      ? 20230719 0323   21.4314 GAU  2.17e-03 -1.00e+00 -1.00e+00 -1.00e+00    1.0000 >    2.0497    0.0174    1.1046  736.2660 9822.0830   -1.1500    4.1994 326.48 326.5  99.9 10     0.0000    0.0410
M01          ?    BHZ  e P      d 20230719 0323   20.6423 GAU  6.32e-03 -1.00e+00  2.87e+03 -1.00e+00    1.0000 >    1.2405    0.0375    0.9234  736.4090 9822.5140   -1.1200    4.4940 331.04 331.0 102.8 10     0.0000    0.0248
M01          ?    BHN  e S      ? 20230719 0323   21.6041 GAU  2.91e-03 -1.00e+00  1.87e+03 -1.00e+00    1.0000 >    2.1738    0.0661    0.6487  736.4090 9822.5140   -1.1200    4.4940 331.04 331.0  98.2 10     0.0000    0.0435
M12          ?    BHZ  i P      c 20230719 0323   20.7690 GAU  2.46e-03 -1.00e+00 -1.00e+00 -1.00e+00    1.0000 >    1.3809    0.0239    1.1371  736.8520 9823.3800   -0.9890    5.1015 340.14 340.1 100.0 10     0.0000    0.0276
M12          ?    BHE  e S      ? 20230719 0323   21.8165 GAU  2.77e-03 -1.00e+00  4.92e+01 -1.00e+00    1.0000 >    2.4200    0.0323    0.9483  736.8520 9823.3800   -0.9890    5.1015 340.14 340.1  95.5 10     0.0000    0.0484
END_PHASE
END_NLLOC

