NLLOC "./loc/SEML.20230719.021848.grid0" "LOCATED" "Location completed."
PUBLIC_ID None
SIGNATURE "Arham Zakki Edelo - edelo.17034@mhs.its.ac.id   obs:./obs/2023_07.obs   NLLoc:v7.00.10(30Aug2020)   run:28Dec2023 20h05m45"
COMMENT "SEML"
GRID  2001 2001 1001  727 9811 -2  0.01 0.01 0.01 PROB_DENSITY
SEARCH OCTREE nInitial 4851 nEvaluated 20011 smallestNodeSide 0.014881/0.014881/0.014205 oct_tree_integral 2.779555e-02 scatter_volume 2.779555e-02
HYPOCENTER  x 738.168 y 9818.63 z 1.31676  OT 47.7356  ix -1 iy -1 iz -1 MAXIMUM_LIKELIHOOD
GEOGRAPHIC  OT 2023 07 19  02 18 47.735603  Lat 9818.626488 Long 738.168155 Depth 1.316761
QUALITY  Pmax 2.50741e+65 MFmin 73.609 MFmax 91.5203 RMS 0.0274436 Nphs 20 Gap 280.259 Dist 0.510609 Mamp -9.90 0 Mdur -9.90 0
VPVSRATIO  VpVsRatio 1.81242  Npair 10  Diff 0.449677
STATISTICS  ExpectX 738.165270 Y 9818.622853 Z 1.314621  CovXX 0.0279218 XY -0.0116789 XZ -0.00848796 YY 0.0213749 YZ -0.00136069 ZZ 0.0313257 EllAz1  221.308 Dip1  -17.6744 Len1  0.192839 Az2  333.116 Dip2  -49.3782 Len2  0.320364 Len3  3.804963e-01
STAT_GEOG  ExpectLat 9818.622853 Long 738.165270 Depth 1.314621
TRANSFORM  NONE
QML_OriginQuality  assocPhCt 20  usedPhCt 20  assocStaCt -1  usedStaCt 10  depthPhCt -1  stdErr 0.0274436  azGap 280.259  secAzGap 280.259  gtLevel -  minDist 0.510609 maxDist 3.94533 medDist 2.13157
QML_OriginUncertainty  horUnc -1  minHorUnc 0.16969  maxHorUnc 0.29084  azMaxHorUnc 127.171
QML_ConfidenceEllipsoid  semiMajorAxisLength 0.380496  semiMinorAxisLength 0.192839  semiIntermediateAxisLength 0.320364  majorAxisPlunge -35.1654  majorAxisAzimuth 118.335  majorAxisRotation 310.08
FOCALMECH  Hyp  9818.626488 738.168155 1.316761 Mech  0 0 0 mf  0 nObs -1
PHASE ID Ins Cmp On Pha  FM Date     HrMn   Sec     Err  ErrMag    Coda      Amp       Per       PriorWt  >   TTpred    Res       Weight    StaLoc(X  Y         Z)        SDist    SAzim  RAz  RDip RQual    Tcorr       TTerr
M06          ?    BHZ  i P      c 20230719 0218   48.4589 GAU  8.74e-04 -1.00e+00 -1.00e+00 -1.00e+00    1.0000 >    0.7189    0.0044    1.7828  738.3100 9819.1170   -1.3960    0.5106  16.13  16.1 168.1 10     0.0000    0.0144
M06          ?    BHN  e S      ? 20230719 0218   48.9669 GAU  1.17e-03 -1.00e+00 -1.00e+00 -1.00e+00    1.0000 >    1.2272    0.0041    1.5723  738.3100 9819.1170   -1.3960    0.5106  16.13  16.1 167.7 10     0.0000    0.0245
M04          ?    BHZ  e P      c 20230719 0218   48.5422 GAU  1.27e-03 -1.00e+00 -1.00e+00 -1.00e+00    1.0000 >    0.8174   -0.0108    1.6907  737.1400 9819.2520   -1.5710    1.2035 301.32 301.3 154.8 10     0.0000    0.0163
M04          ?    BHN  e S      ? 20230719 0218   49.0618 GAU  1.26e-03 -1.00e+00  7.44e+02 -1.00e+00    1.0000 >    1.3960   -0.0698    0.5647  737.1400 9819.2520   -1.5710    1.2035 301.32 301.3 153.8 10     0.0000    0.0279
M14          ?    BHZ  i P      c 20230719 0218   48.5547 GAU  1.84e-03 -1.00e+00 -1.00e+00 -1.00e+00    1.0000 >    0.8095    0.0096    1.6602  737.5530 9820.0110   -1.3980    1.5150 336.04 336.0 147.6 10     0.0000    0.0162
M14          ?    BHN  e S      ? 20230719 0218   49.1763 GAU  1.35e-03 -1.00e+00  2.37e+02 -1.00e+00    1.0000 >    1.3813    0.0594    0.5254  737.5530 9820.0110   -1.3980    1.5150 336.04 336.0 146.3 10     0.0000    0.0276
M02          ?    BHZ  e P      c 20230719 0218   48.6045 GAU  3.58e-03 -1.00e+00 -1.00e+00 -1.00e+00    1.0000 >    0.8646    0.0043    1.7222  736.5970 9819.4060   -1.4960    1.7539 296.39 296.4 144.3 10     0.0000    0.0173
M02          ?    BHN  e S      ? 20230719 0218   49.2129 GAU  2.34e-03 -1.00e+00 -1.00e+00 -1.00e+00    1.0000 >    1.4757    0.0016    1.4785  736.5970 9819.4060   -1.4960    1.7539 296.39 296.4 142.9 10     0.0000    0.0295
M11          ?    BHZ  i P      c 20230719 0218   48.5551 GAU  8.02e-04 -1.00e+00  9.13e+01 -1.00e+00    1.0000 >    0.8408   -0.0213    1.4318  738.4670 9820.4900   -1.3120    1.8873   9.11   9.1 140.2 10     0.0000    0.0168
M11          ?    BHN  e S      ? 20230719 0218   49.1382 GAU  1.18e-03 -1.00e+00 -1.00e+00 -1.00e+00    1.0000 >    1.4337   -0.0311    1.2085  738.4670 9820.4900   -1.3120    1.8873   9.11   9.1 138.6 10     0.0000    0.0287
M09          ?    BHZ  i P      c 20230719 0218   48.6370 GAU  8.11e-04 -1.00e+00  1.03e+02 -1.00e+00    1.0000 >    0.9112   -0.0098    1.6801  737.8820 9820.9850   -1.2700    2.3758 353.08 353.1 132.2 10     0.0000    0.0182
M09          ?    BHE  e S      ? 20230719 0218   49.2984 GAU  5.42e-04 -1.00e+00  3.89e+02 -1.00e+00    1.0000 >    1.5526    0.0103    1.3921  737.8820 9820.9850   -1.2700    2.3758 353.08 353.1 130.1 10     0.0000    0.0311
M13          ?    BHZ  e P      c 20230719 0218   48.7028 GAU  1.73e-03 -1.00e+00 -1.00e+00 -1.00e+00    1.0000 >    1.0333   -0.0661    0.5158  737.1780 9821.5410   -1.2220    3.0781 341.24 341.2 122.3 10     0.0000    0.0207
M13          ?    BHE  e S      ? 20230719 0218   49.4057 GAU  1.08e-03 -1.00e+00 -1.00e+00 -1.00e+00    1.0000 >    1.7581   -0.0880    0.4483  737.1780 9821.5410   -1.2220    3.0781 341.24 341.2 119.8 10     0.0000    0.0352
M10          ?    BHZ  e P      c 20230719 0218   48.6437 GAU  9.67e-04 -1.00e+00 -1.00e+00 -1.00e+00    1.0000 >    1.0536   -0.1455    0.0793  736.5490 9821.3650   -1.2200    3.1814 329.41 329.4 121.0 10     0.0000    0.0211
M10          ?    BHN  e S      ? 20230719 0218   49.2948 GAU  1.47e-03 -1.00e+00 -1.00e+00 -1.00e+00    1.0000 >    1.7923   -0.2331    0.0152  736.5490 9821.3650   -1.2200    3.1814 329.41 329.4 118.4 10     0.0000    0.0358
M08          ?    BHZ  e P      c 20230719 0218   48.8613 GAU  5.72e-04 -1.00e+00 -1.00e+00 -1.00e+00    1.0000 >    1.1140    0.0117    1.5238  738.2480 9822.1600   -1.1510    3.5344   1.29   1.3 116.5 10     0.0000    0.0223
M08          ?    BHE  e S      ? 20230719 0218   49.6912 GAU  3.26e-04 -1.00e+00 -1.00e+00 -1.00e+00    1.0000 >    1.8926    0.0630    0.6028  738.2480 9822.1600   -1.1510    3.5344   1.29   1.3 113.7 10     0.0000    0.0379
M05          ?    BHZ  e P      d 20230719 0218   49.0562 GAU  3.22e-03 -1.00e+00  6.14e+02 -1.00e+00    1.0000 >    1.2018    0.1189    0.1002  736.2660 9822.0830   -1.1500    3.9453 331.18 331.2 112.6 10     0.0000    0.0240
M05          ?    BHE  e S      ? 20230719 0218   50.0139 GAU  5.28e-04 -1.00e+00 -1.00e+00 -1.00e+00    1.0000 >    2.0398    0.2386    0.0052  736.2660 9822.0830   -1.1500    3.9453 331.18 331.2 109.7 10     0.0000    0.0408
END_PHASE
END_NLLOC

