NLLOC "./loc/SEML.20230719.031108.grid0" "LOCATED" "Location completed."
PUBLIC_ID None
SIGNATURE "Arham Zakki Edelo - edelo.17034@mhs.its.ac.id   obs:./obs/2023_07.obs   NLLoc:v7.00.10(30Aug2020)   run:28Dec2023 20h05m59"
COMMENT "SEML"
GRID  2001 2001 1001  727 9811 -2  0.01 0.01 0.01 PROB_DENSITY
SEARCH OCTREE nInitial 4851 nEvaluated 20011 smallestNodeSide 0.014881/0.014881/0.014205 oct_tree_integral 2.391987e-02 scatter_volume 2.391987e-02
HYPOCENTER  x 738.302 y 9818.86 z 0.677557  OT 7.88559  ix -1 iy -1 iz -1 MAXIMUM_LIKELIHOOD
GEOGRAPHIC  OT 2023 07 19  03 11 7.885590  Lat 9818.864583 Long 738.302083 Depth 0.677557
QUALITY  Pmax 1.13076e+94 MFmin 99.7903 MFmax 116.403 RMS 0.0281908 Nphs 26 Gap 281.823 Dist 0.252541 Mamp -9.90 0 Mdur -9.90 0
VPVSRATIO  VpVsRatio 1.74978  Npair 13  Diff 0.555558
STATISTICS  ExpectX 738.353656 Y 9818.826156 Z 0.636793  CovXX 0.0240079 XY -0.00336485 XZ -0.0034757 YY 0.0132258 YZ -0.00217623 ZZ 0.0157246 EllAz1  22.6938 Dip1  31.9216 Len1  0.191135 Az2  169.18 Dip2  53.2334 Len2  0.243772 Len3  3.016376e-01
STAT_GEOG  ExpectLat 9818.826156 Long 738.353656 Depth 0.636793
TRANSFORM  NONE
QML_OriginQuality  assocPhCt 26  usedPhCt 26  assocStaCt -1  usedStaCt 13  depthPhCt -1  stdErr 0.0281908  azGap 281.823  secAzGap 281.823  gtLevel -  minDist 0.252541 maxDist 4.74254 medDist 2.44542
QML_OriginUncertainty  horUnc -1  minHorUnc 0.167935  maxHorUnc 0.239656  azMaxHorUnc 105.985
QML_ConfidenceEllipsoid  semiMajorAxisLength 0.301638  semiMinorAxisLength 0.191135  semiIntermediateAxisLength 0.243772  majorAxisPlunge -16.2905  majorAxisAzimuth 102.204  majorAxisRotation 141.927
FOCALMECH  Hyp  9818.864583 738.302083 0.677557 Mech  0 0 0 mf  0 nObs -1
PHASE ID Ins Cmp On Pha  FM Date     HrMn   Sec     Err  ErrMag    Coda      Amp       Per       PriorWt  >   TTpred    Res       Weight    StaLoc(X  Y         Z)        SDist    SAzim  RAz  RDip RQual    Tcorr       TTerr
M06          ?    BHZ  i P      c 20230719 0311    8.4422 GAU  5.72e-04 -1.00e+00  7.55e+01 -1.00e+00    1.0000 >    0.5535    0.0031    1.6458  738.3100 9819.1170   -1.3960    0.2525   1.80   1.8 172.6 10     0.0000    0.0111
M06          ?    BHE  i S      ? 20230719 0311    8.8871 GAU  3.42e-03 -1.00e+00  1.97e+02 -1.00e+00    1.0000 >    0.9585    0.0430    0.8026  738.3100 9819.1170   -1.3960    0.2525   1.80   1.8 172.0 10     0.0000    0.0192
M04          ?    BHZ  i P      c 20230719 0311    8.5740 GAU  1.16e-03 -1.00e+00 -1.00e+00 -1.00e+00    1.0000 >    0.6804    0.0081    1.5424  737.1400 9819.2520   -1.5710    1.2250 288.44 288.4 150.3 10     0.0000    0.0136
M04          ?    BHN  e S      ? 20230719 0311    9.0474 GAU  9.70e-04 -1.00e+00  7.70e+02 -1.00e+00    1.0000 >    1.1778   -0.0159    1.2857  737.1400 9819.2520   -1.5710    1.2250 288.44 288.4 147.7 10     0.0000    0.0236
M14          ?    BHZ  i P      c 20230719 0311    8.5413 GAU  1.29e-03 -1.00e+00  2.60e+02 -1.00e+00    1.0000 >    0.6588   -0.0031    1.6189  737.5530 9820.0110   -1.3980    1.3695 326.84 326.8 145.4 10     0.0000    0.0132
M14          ?    BHN  e S      ? 20230719 0311    9.0398 GAU  1.76e-03 -1.00e+00  1.20e+03 -1.00e+00    1.0000 >    1.1407    0.0135    1.3412  737.5530 9820.0110   -1.3980    1.3695 326.84 326.8 142.2 10     0.0000    0.0228
M11          ?    BHZ  i P      c 20230719 0311    8.5526 GAU  8.62e-04 -1.00e+00  2.28e+01 -1.00e+00    1.0000 >    0.6808   -0.0137    1.4322  738.4670 9820.4900   -1.3120    1.6338   5.79   5.8 139.2 10     0.0000    0.0136
M11          ?    BHN  e S      ? 20230719 0311    9.0765 GAU  1.72e-03 -1.00e+00  4.99e+01 -1.00e+00    1.0000 >    1.1787    0.0122    1.3463  738.4670 9820.4900   -1.3120    1.6338   5.79   5.8 135.2 10     0.0000    0.0236
M02          ?    BHZ  e P      c 20230719 0311    8.5641 GAU  2.42e-03 -1.00e+00 -1.00e+00 -1.00e+00    1.0000 >    0.7468   -0.0682    0.3454  736.5970 9819.4060   -1.4960    1.7890 287.62 287.6 139.0 10     0.0000    0.0149
M02          ?    BHN  e S      ? 20230719 0311    9.1116 GAU  1.86e-03 -1.00e+00 -1.00e+00 -1.00e+00    1.0000 >    1.2926   -0.0667    0.4547  736.5970 9819.4060   -1.4960    1.7890 287.62 287.6 134.9 10     0.0000    0.0259
M09          ?    BHZ  i P      c 20230719 0311    8.6484 GAU  8.63e-04 -1.00e+00  4.54e+02 -1.00e+00    1.0000 >    0.7685   -0.0057    1.5556  737.8820 9820.9850   -1.2700    2.1616 348.79 348.8 129.9 10     0.0000    0.0154
M09          ?    BHE  e S      ? 20230719 0311    9.2277 GAU  2.57e-03 -1.00e+00  2.25e+02 -1.00e+00    1.0000 >    1.3302    0.0119    1.3052  737.8820 9820.9850   -1.2700    2.1616 348.79 348.8 124.3 10     0.0000    0.0266
M03          ?    BHZ  i P      d 20230719 0311    8.7259 GAU  1.44e-03 -1.00e+00  1.65e+03 -1.00e+00    1.0000 >    0.8375    0.0028    1.5460  736.8800 9820.8540   -1.3350    2.4454 324.44 324.4 127.1 10     0.0000    0.0168
M03          ?    BHN  e S      ? 20230719 0311    9.3134 GAU  1.51e-03 -1.00e+00 -1.00e+00 -1.00e+00    1.0000 >    1.4493   -0.0216    1.1519  736.8800 9820.8540   -1.3350    2.4454 324.44 324.4 120.8 10     0.0000    0.0290
M13          ?    BHZ  i P      c 20230719 0311    8.7713 GAU  1.86e-03 -1.00e+00 -1.00e+00 -1.00e+00    1.0000 >    0.9153   -0.0296    1.0159  737.1780 9821.5410   -1.2220    2.9029 337.22 337.2 120.4 10     0.0000    0.0183
M13          ?    BHE  e S      ? 20230719 0311    9.3885 GAU  9.06e-04 -1.00e+00 -1.00e+00 -1.00e+00    1.0000 >    1.5831   -0.0802    0.3504  737.1780 9821.5410   -1.2220    2.9029 337.22 337.2 112.5 10     0.0000    0.0317
M10          ?    BHZ  i P      c 20230719 0311    8.8975 GAU  1.30e-03 -1.00e+00  1.31e+03 -1.00e+00    1.0000 >    0.9485    0.0634    0.5149  736.5490 9821.3650   -1.2200    3.0537 324.97 325.0 119.0 10     0.0000    0.0190
M10          ?    BHN  e S      ? 20230719 0311    9.6724 GAU  1.35e-03 -1.00e+00 -1.00e+00 -1.00e+00    1.0000 >    1.6401    0.1467    0.1264  736.5490 9821.3650   -1.2200    3.0537 324.97 325.0 110.5 10     0.0000    0.0328
M08          ?    BHZ  i P      d 20230719 0311    8.8614 GAU  4.51e-04 -1.00e+00  5.72e+02 -1.00e+00    1.0000 >    0.9928   -0.0170    1.3078  738.2480 9822.1600   -1.1510    3.2959 359.06 359.1 116.0 10     0.0000    0.0199
M08          ?    BHN  e S      ? 20230719 0311    9.5704 GAU  1.73e-03 -1.00e+00  2.45e+02 -1.00e+00    1.0000 >    1.7157   -0.0309    0.9966  738.2480 9822.1600   -1.1510    3.2959 359.06 359.1 106.5 10     0.0000    0.0343
M05          ?    BHZ  i P      d 20230719 0311    9.0158 GAU  3.22e-03 -1.00e+00  3.05e+02 -1.00e+00    1.0000 >    1.1123    0.0178    1.2857  736.2660 9822.0830   -1.1500    3.8084 327.68 327.7 112.3 10     0.0000    0.0222
M05          ?    BHN  e S      ? 20230719 0311    9.8946 GAU  9.70e-04 -1.00e+00  3.03e+02 -1.00e+00    1.0000 >    1.9194    0.0897    0.4187  736.2660 9822.0830   -1.1500    3.8084 327.68 327.7 101.5 10     0.0000    0.0384
M01          ?    BHZ  i P      c 20230719 0311    9.1231 GAU  9.70e-04 -1.00e+00 -1.00e+00 -1.00e+00    1.0000 >    1.1805    0.0570    0.6372  736.4090 9822.5140   -1.1200    4.1112 332.58 332.6 110.1 10     0.0000    0.0236
M01          ?    BHN  e S      ? 20230719 0311   10.0399 GAU  8.61e-04 -1.00e+00  1.61e+03 -1.00e+00    1.0000 >    2.0342    0.1201    0.2483  736.4090 9822.5140   -1.1200    4.1112 332.58 332.6  99.1 10     0.0000    0.0407
M12          ?    BHZ  e P      d 20230719 0311    9.2256 GAU  1.30e-03 -1.00e+00 -1.00e+00 -1.00e+00    1.0000 >    1.3179    0.0221    1.1944  736.8520 9823.3800   -0.9890    4.7425 342.20 342.2 105.7 10     0.0000    0.0264
M12          ?    BHE  e S      ? 20230719 0311   10.2260 GAU  3.44e-03 -1.00e+00  1.62e+02 -1.00e+00    1.0000 >    2.2596    0.0809    0.5297  736.8520 9823.3800   -0.9890    4.7425 342.20 342.2  95.6  9     0.0000    0.0452
END_PHASE
END_NLLOC

