NLLOC "./loc/SEML.20230719.030121.grid0" "LOCATED" "Location completed."
PUBLIC_ID None
SIGNATURE "Arham Zakki Edelo - edelo.17034@mhs.its.ac.id   obs:./obs/2023_07.obs   NLLoc:v7.00.10(30Aug2020)   run:28Dec2023 20h05m50"
COMMENT "SEML"
GRID  2001 2001 1001  727 9811 -2  0.01 0.01 0.01 PROB_DENSITY
SEARCH OCTREE nInitial 4851 nEvaluated 20003 smallestNodeSide 0.014881/0.014881/0.014205 oct_tree_integral 3.053552e-02 scatter_volume 3.053552e-02
HYPOCENTER  x 738.525 y 9818.51 z 0.208807  OT 20.8499  ix -1 iy -1 iz -1 MAXIMUM_LIKELIHOOD
GEOGRAPHIC  OT 2023 07 19  03 01 20.849911  Lat 9818.507440 Long 738.525298 Depth 0.208807
QUALITY  Pmax 2.40427e+85 MFmin 92.7596 MFmax 109.662 RMS 0.0284976 Nphs 24 Gap 296.669 Dist 0.646464 Mamp -9.90 0 Mdur -9.90 0
VPVSRATIO  VpVsRatio 1.71162  Npair 12  Diff 0.517361
STATISTICS  ExpectX 738.537959 Y 9818.500670 Z 0.203045  CovXX 0.032795 XY -0.00568387 XZ -0.0210989 YY 0.0115813 YZ 0.00235328 ZZ 0.0260067 EllAz1  54.0406 Dip1  39.6517 Len1  0.157955 Az2  167.477 Dip2  25.6364 Len2  0.203113 Len3  4.269042e-01
STAT_GEOG  ExpectLat 9818.500670 Long 738.537959 Depth 0.203045
TRANSFORM  NONE
QML_OriginQuality  assocPhCt 24  usedPhCt 24  assocStaCt -1  usedStaCt 12  depthPhCt -1  stdErr 0.0284976  azGap 296.669  secAzGap 296.669  gtLevel -  minDist 0.646464 maxDist 4.53114 medDist 2.7128
QML_OriginUncertainty  horUnc -1  minHorUnc 0.152824  maxHorUnc 0.280554  azMaxHorUnc 104.093
QML_ConfidenceEllipsoid  semiMajorAxisLength 0.426904  semiMinorAxisLength 0.157955  semiIntermediateAxisLength 0.203113  majorAxisPlunge -39.5592  majorAxisAzimuth 100.833  majorAxisRotation 97.294
FOCALMECH  Hyp  9818.507440 738.525298 0.208807 Mech  0 0 0 mf  0 nObs -1
PHASE ID Ins Cmp On Pha  FM Date     HrMn   Sec     Err  ErrMag    Coda      Amp       Per       PriorWt  >   TTpred    Res       Weight    StaLoc(X  Y         Z)        SDist    SAzim  RAz  RDip RQual    Tcorr       TTerr
M06          ?    BHZ  i P      c 20230719 0301   21.4451 GAU  5.20e-04 -1.00e+00  3.73e+01 -1.00e+00    1.0000 >    0.4623    0.1328    0.0526  738.3100 9819.1170   -1.3960    0.6465 340.55 340.5 157.3 10     0.0000    0.0092
M06          ?    BHE  i S      ? 20230719 0301   21.8901 GAU  1.37e-03 -1.00e+00  5.37e+01 -1.00e+00    1.0000 >    0.8080    0.2322    0.0001  738.3100 9819.1170   -1.3960    0.6465 340.55 340.5 156.9 10     0.0000    0.0162
M04          ?    BHZ  i P      c 20230719 0301   21.4749 GAU  6.49e-03 -1.00e+00 -1.00e+00 -1.00e+00    1.0000 >    0.6359   -0.0109    1.3971  737.1400 9819.2520   -1.5710    1.5727 298.26 298.3 136.9 10     0.0000    0.0127
M04          ?    BHN  e S      ? 20230719 0301   21.9571 GAU  2.10e-03 -1.00e+00  6.93e+02 -1.00e+00    1.0000 >    1.1100   -0.0029    1.3851  737.1400 9819.2520   -1.5710    1.5727 298.26 298.3 136.0 10     0.0000    0.0222
M14          ?    BHZ  i P      c 20230719 0301   21.5067 GAU  4.50e-03 -1.00e+00 -1.00e+00 -1.00e+00    1.0000 >    0.6422    0.0145    1.4146  737.5530 9820.0110   -1.3980    1.7905 327.11 327.1 129.8 10     0.0000    0.0128
M14          ?    BHE  e S      ? 20230719 0301   21.9663 GAU  8.43e-04 -1.00e+00  3.02e+02 -1.00e+00    1.0000 >    1.1225   -0.0061    1.3560  737.5530 9820.0110   -1.3980    1.7905 327.11 327.1 128.6 10     0.0000    0.0225
M11          ?    BHZ  i P      c 20230719 0301   21.5618 GAU  8.98e-04 -1.00e+00  5.31e+01 -1.00e+00    1.0000 >    0.6661    0.0457    0.8488  738.4670 9820.4900   -1.3120    1.9834 358.32 358.3 125.1 10     0.0000    0.0133
M11          ?    BHN  e S      ? 20230719 0301   22.0805 GAU  5.43e-04 -1.00e+00 -1.00e+00 -1.00e+00    1.0000 >    1.1653    0.0653    0.6172  738.4670 9820.4900   -1.3120    1.9834 358.32 358.3 123.6 10     0.0000    0.0233
M02          ?    BHZ  e P      c 20230719 0301   21.5793 GAU  1.77e-03 -1.00e+00 -1.00e+00 -1.00e+00    1.0000 >    0.7289    0.0005    1.5130  736.5970 9819.4060   -1.4960    2.1274 294.98 295.0 126.2 10     0.0000    0.0146
M02          ?    BHN  i S      ? 20230719 0301   22.1758 GAU  2.28e-03 -1.00e+00  3.25e+03 -1.00e+00    1.0000 >    1.2732    0.0527    0.8245  736.5970 9819.4060   -1.4960    2.1274 294.98 295.0 124.9 10     0.0000    0.0255
M09          ?    BHZ  i P      c 20230719 0301   21.6302 GAU  1.40e-03 -1.00e+00  1.38e+02 -1.00e+00    1.0000 >    0.7871   -0.0068    1.4447  737.8820 9820.9850   -1.2700    2.5597 345.44 345.4 117.2 10     0.0000    0.0157
M09          ?    BHE  e S      ? 20230719 0301   22.2277 GAU  9.51e-04 -1.00e+00  3.14e+02 -1.00e+00    1.0000 >    1.3776    0.0003    1.3160  737.8820 9820.9850   -1.2700    2.5597 345.44 345.4 115.0 10     0.0000    0.0276
M03          ?    BHZ  i P      d 20230719 0301   21.7360 GAU  7.08e-04 -1.00e+00 -1.00e+00 -1.00e+00    1.0000 >    0.8676    0.0184    1.3563  736.8800 9820.8540   -1.3350    2.8659 324.96 325.0 115.1 10     0.0000    0.0174
M03          ?    BHN  e S      ? 20230719 0301   22.4318 GAU  2.52e-03 -1.00e+00 -1.00e+00 -1.00e+00    1.0000 >    1.5178    0.0640    0.6830  736.8800 9820.8540   -1.3350    2.8659 324.96 325.0 112.8 10     0.0000    0.0304
M13          ?    BHZ  i P      c 20230719 0301   21.7895 GAU  7.22e-04 -1.00e+00  2.83e+01 -1.00e+00    1.0000 >    0.9607   -0.0211    1.1415  737.1780 9821.5410   -1.2220    3.3193 336.05 336.1 109.9 10     0.0000    0.0192
M13          ?    BHN  e S      ? 20230719 0301   22.4942 GAU  5.78e-04 -1.00e+00 -1.00e+00 -1.00e+00    1.0000 >    1.6825   -0.0382    0.7884  737.1780 9821.5410   -1.2220    3.3193 336.05 336.1 106.8 10     0.0000    0.0337
M10          ?    BHZ  e P      d 20230719 0301   21.8281 GAU  8.89e-03 -1.00e+00  1.59e+03 -1.00e+00    1.0000 >    0.9982   -0.0200    1.1505  736.5490 9821.3650   -1.2200    3.4744 325.33 325.3 108.9 10     0.0000    0.0200
M10          ?    BHE  e S      ? 20230719 0301   22.5701 GAU  1.19e-03 -1.00e+00 -1.00e+00 -1.00e+00    1.0000 >    1.7483   -0.0281    0.9362  736.5490 9821.3650   -1.2200    3.4744 325.33 325.3 105.5 10     0.0000    0.0350
M08          ?    BHZ  i P      d 20230719 0301   21.8891 GAU  3.76e-04 -1.00e+00  6.44e+02 -1.00e+00    1.0000 >    1.0363    0.0028    1.4324  738.2480 9822.1600   -1.1510    3.6631 355.66 355.7 106.9 10     0.0000    0.0207
M08          ?    BHN  e S      ? 20230719 0301   22.6014 GAU  1.24e-03 -1.00e+00  3.10e+02 -1.00e+00    1.0000 >    1.8162   -0.0647    0.4193  738.2480 9822.1600   -1.1510    3.6631 355.66 355.7 103.0 10     0.0000    0.0363
M05          ?    BHZ  i P      d 20230719 0301   22.0550 GAU  1.67e-03 -1.00e+00  2.65e+01 -1.00e+00    1.0000 >    1.1773    0.0278    1.2076  736.2660 9822.0830   -1.1500    4.2295 327.71 327.7 104.2 10     0.0000    0.0235
M05          ?    BHE  e S      ? 20230719 0301   22.9835 GAU  7.94e-04 -1.00e+00 -1.00e+00 -1.00e+00    1.0000 >    2.0629    0.0706    0.6523  736.2660 9822.0830   -1.1500    4.2295 327.71 327.7  99.8 10     0.0000    0.0413
M01          ?    BHZ  i P      c 20230719 0301   22.1278 GAU  3.26e-03 -1.00e+00 -1.00e+00 -1.00e+00    1.0000 >    1.2499    0.0280    1.1976  736.4090 9822.5140   -1.1200    4.5311 332.16 332.2 102.7 10     0.0000    0.0250
M01          ?    BHN  e S      ? 20230719 0301   23.0901 GAU  8.77e-04 -1.00e+00  1.70e+03 -1.00e+00    1.0000 >    2.1902    0.0501    0.8654  736.4090 9822.5140   -1.1200    4.5311 332.16 332.2  98.1 10     0.0000    0.0438
END_PHASE
END_NLLOC

