NLLOC "./loc/SEML.20230719.030720.grid0" "LOCATED" "Location completed."
PUBLIC_ID None
SIGNATURE "Arham Zakki Edelo - edelo.17034@mhs.its.ac.id   obs:./obs/2023_07.obs   NLLoc:v7.00.10(30Aug2020)   run:28Dec2023 20h05m57"
COMMENT "SEML"
GRID  2001 2001 1001  727 9811 -2  0.01 0.01 0.01 PROB_DENSITY
SEARCH OCTREE nInitial 4851 nEvaluated 20003 smallestNodeSide 0.014881/0.014881/0.014205 oct_tree_integral 3.699272e-02 scatter_volume 3.699272e-02
HYPOCENTER  x 738.228 y 9817.73 z 0.223011  OT 20.1732  ix -1 iy -1 iz -1 MAXIMUM_LIKELIHOOD
GEOGRAPHIC  OT 2023 07 19  03 07 20.173221  Lat 9817.733631 Long 738.227679 Depth 0.223011
QUALITY  Pmax 4.25187e+78 MFmin 84.8955 MFmax 107.488 RMS 0.0461057 Nphs 24 Gap 310.761 Dist 1.38582 Mamp -9.90 0 Mdur -9.90 0
VPVSRATIO  VpVsRatio 1.76355  Npair 12  Diff 0.737928
STATISTICS  ExpectX 738.686129 Y 9817.990789 Z 0.240420  CovXX 0.18451 XY 0.08148 XZ -0.119015 YY 0.0691338 YZ 0.0141968 ZZ 0.553681 EllAz1  328.911 Dip1  -7.82071 Len1  0.250143 Az2  236.861 Dip2  -14.5928 Len2  0.841709 Len3  1.441808e+00
STAT_GEOG  ExpectLat 9817.990789 Long 738.686129 Depth 0.240420
TRANSFORM  NONE
QML_OriginQuality  assocPhCt 24  usedPhCt 24  assocStaCt -1  usedStaCt 12  depthPhCt -1  stdErr 0.0461057  azGap 310.761  secAzGap 310.761  gtLevel -  minDist 1.38582 maxDist 5.81154 medDist 3.60955
QML_OriginUncertainty  horUnc -1  minHorUnc 0.249142  maxHorUnc 0.722018  azMaxHorUnc 62.6494
QML_ConfidenceEllipsoid  semiMajorAxisLength 1.44181  semiMinorAxisLength 0.250143  semiIntermediateAxisLength 0.841709  majorAxisPlunge -73.3607  majorAxisAzimuth 86.271  majorAxisRotation 147.136
FOCALMECH  Hyp  9817.733631 738.227679 0.223011 Mech  0 0 0 mf  0 nObs -1
PHASE ID Ins Cmp On Pha  FM Date     HrMn   Sec     Err  ErrMag    Coda      Amp       Per       PriorWt  >   TTpred    Res       Weight    StaLoc(X  Y         Z)        SDist    SAzim  RAz  RDip RQual    Tcorr       TTerr
M06          ?    BHZ  i P      c 20230719 0307   20.9365 GAU  8.73e-04 -1.00e+00 -1.00e+00 -1.00e+00    1.0000 >    0.5689    0.1945    0.1770  738.3100 9819.1170   -1.3960    1.3858   3.41   3.4 138.0 10     0.0000    0.0114
M06          ?    BHE  e S      ? 20230719 0307   21.4773 GAU  7.80e-04 -1.00e+00  9.65e+01 -1.00e+00    1.0000 >    0.9941    0.3099    0.0001  738.3100 9819.1170   -1.3960    1.3858   3.41   3.4 137.1 10     0.0000    0.0199
M04          ?    BHZ  e P      d 20230719 0307   20.8614 GAU  2.64e-03 -1.00e+00  3.44e+03 -1.00e+00    1.0000 >    0.6930   -0.0049    1.9857  737.1400 9819.2520   -1.5710    1.8677 324.38 324.4 131.7 10     0.0000    0.0139
M04          ?    BHE  e S      ? 20230719 0307   21.3848 GAU  1.75e-03 -1.00e+00  4.80e+02 -1.00e+00    1.0000 >    1.2097    0.0019    1.8085  737.1400 9819.2520   -1.5710    1.8677 324.38 324.4 130.7 10     0.0000    0.0242
M02          ?    BHZ  e P      c 20230719 0307   21.0747 GAU  1.35e-03 -1.00e+00 -1.00e+00 -1.00e+00    1.0000 >    0.7752    0.1263    0.2385  736.5970 9819.4060   -1.4960    2.3358 315.72 315.7 123.7 10     0.0000    0.0155
M02          ?    BHN  e S      ? 20230719 0307   21.7016 GAU  9.83e-04 -1.00e+00  7.35e+03 -1.00e+00    1.0000 >    1.3539    0.1745    0.2657  736.5970 9819.4060   -1.4960    2.3358 315.72 315.7 122.3 10     0.0000    0.0271
M14          ?    BHZ  e P      c 20230719 0307   20.7726 GAU  1.10e-03 -1.00e+00 -1.00e+00 -1.00e+00    1.0000 >    0.7673   -0.1680    0.1344  737.5530 9820.0110   -1.3980    2.3752 343.50 343.5 121.6 10     0.0000    0.0153
M14          ?    BHN  e S      ? 20230719 0307   21.1888 GAU  5.12e-04 -1.00e+00  1.53e+02 -1.00e+00    1.0000 >    1.3413   -0.3256    0.0037  737.5530 9820.0110   -1.3980    2.3752 343.50 343.5 120.0 10     0.0000    0.0268
M11          ?    BHZ  e P      c 20230719 0307   21.0203 GAU  2.64e-03 -1.00e+00 -1.00e+00 -1.00e+00    1.0000 >    0.8428    0.0043    1.9611  738.4670 9820.4900   -1.3120    2.7667   4.96   5.0 116.0 10     0.0000    0.0169
M11          ?    BHN  e S      ? 20230719 0307   21.6631 GAU  2.34e-03 -1.00e+00 -1.00e+00 -1.00e+00    1.0000 >    1.4743    0.0155    1.6027  738.4670 9820.4900   -1.3120    2.7667   4.96   5.0 113.8 10     0.0000    0.0295
M09          ?    BHZ  i P      c 20230719 0307   21.1285 GAU  2.61e-03 -1.00e+00 -1.00e+00 -1.00e+00    1.0000 >    0.9562   -0.0009    1.9208  737.8820 9820.9850   -1.2700    3.2697 353.93 353.9 111.2 10     0.0000    0.0191
M09          ?    BHN  e S      ? 20230719 0307   21.8545 GAU  8.84e-04 -1.00e+00  6.25e+02 -1.00e+00    1.0000 >    1.6735    0.0078    1.5908  737.8820 9820.9850   -1.2700    3.2697 353.93 353.9 108.4 10     0.0000    0.0335
M13          ?    BHZ  e P      c 20230719 0307   21.2598 GAU  2.02e-03 -1.00e+00  2.76e+02 -1.00e+00    1.0000 >    1.1166   -0.0300    1.2861  737.1780 9821.5410   -1.2220    3.9494 344.59 344.6 106.4 10     0.0000    0.0223
M13          ?    BHN  e S      ? 20230719 0307   22.0695 GAU  6.24e-04 -1.00e+00 -1.00e+00 -1.00e+00    1.0000 >    1.9552   -0.0589    0.8097  737.1780 9821.5410   -1.2220    3.9494 344.59 344.6 102.7 10     0.0000    0.0391
M10          ?    BHZ  e P      d 20230719 0307   21.3102 GAU  1.29e-03 -1.00e+00  3.44e+03 -1.00e+00    1.0000 >    1.1291    0.0079    1.8173  736.5490 9821.3650   -1.2200    4.0006 335.19 335.2 106.2 10     0.0000    0.0226
M10          ?    BHN  e S      ? 20230719 0307   22.1489 GAU  6.74e-04 -1.00e+00 -1.00e+00 -1.00e+00    1.0000 >    1.9770   -0.0014    1.4841  736.5490 9821.3650   -1.2200    4.0006 335.19 335.2 102.3 10     0.0000    0.0395
M08          ?    BHZ  e P      d 20230719 0307   21.2976 GAU  6.29e-04 -1.00e+00  1.66e+03 -1.00e+00    1.0000 >    1.2277   -0.1034    0.2104  738.2480 9822.1600   -1.1510    4.4264   0.26   0.3 103.6 10     0.0000    0.0246
M08          ?    BHN  e S      ? 20230719 0307   22.1309 GAU  1.03e-03 -1.00e+00  2.20e+02 -1.00e+00    1.0000 >    2.1505   -0.1928    0.1488  738.2480 9822.1600   -1.1510    4.4264   0.26   0.3  99.2 10     0.0000    0.0430
M05          ?    BHZ  e P      d 20230719 0307   21.5217 GAU  3.48e-03 -1.00e+00  7.92e+02 -1.00e+00    1.0000 >    1.3145    0.0340    1.2904  736.2660 9822.0830   -1.1500    4.7713 335.72 335.7 102.3 10     0.0000    0.0263
M05          ?    BHN  e S      ? 20230719 0307   22.4814 GAU  2.17e-03 -1.00e+00  2.29e+02 -1.00e+00    1.0000 >    2.3020    0.0062    1.3772  736.2660 9822.0830   -1.1500    4.7713 335.72 335.7  97.8 10     0.0000    0.0460
M01          ?    BHZ  e P      d 20230719 0307   21.6531 GAU  1.26e-03 -1.00e+00  6.20e+02 -1.00e+00    1.0000 >    1.3982    0.0817    0.4842  736.4090 9822.5140   -1.1200    5.1146 339.17 339.2 101.0 10     0.0000    0.0280
M01          ?    BHN  e S      ? 20230719 0307   22.7217 GAU  2.58e-03 -1.00e+00  1.77e+03 -1.00e+00    1.0000 >    2.4483    0.1002    0.5771  736.4090 9822.5140   -1.1200    5.1146 339.17 339.2  96.5 10     0.0000    0.0490
M12          ?    BHZ  e P      c 20230719 0307   21.7326 GAU  2.07e-03 -1.00e+00 -1.00e+00 -1.00e+00    1.0000 >    1.5626   -0.0032    1.6386  736.8520 9823.3800   -0.9890    5.8115 346.31 346.3  98.6 10     0.0000    0.0313
M12          ?    BHN  e S      ? 20230719 0307   22.8867 GAU  2.79e-03 -1.00e+00 -1.00e+00 -1.00e+00    1.0000 >    2.7350   -0.0215    1.1871  736.8520 9823.3800   -0.9890    5.8115 346.31 346.3  94.5 10     0.0000    0.0547
END_PHASE
END_NLLOC

