NLLOC "./loc/SEML.20230719.030718.grid0" "LOCATED" "Location completed."
PUBLIC_ID None
SIGNATURE "Arham Zakki Edelo - edelo.17034@mhs.its.ac.id   obs:./obs/2023_07.obs   NLLoc:v7.00.10(30Aug2020)   run:28Dec2023 20h05m56"
COMMENT "SEML"
GRID  2001 2001 1001  727 9811 -2  0.01 0.01 0.01 PROB_DENSITY
SEARCH OCTREE nInitial 4851 nEvaluated 20011 smallestNodeSide 0.007440/0.007440/0.007102 oct_tree_integral 7.155006e-03 scatter_volume 7.155006e-03
HYPOCENTER  x 738.41 y 9818.47 z 0.411222  OT 18.0308  ix -1 iy -1 iz -1 MAXIMUM_LIKELIHOOD
GEOGRAPHIC  OT 2023 07 19  03 07 18.030754  Lat 9818.466518 Long 738.409970 Depth 0.411222
QUALITY  Pmax 2.24979e+84 MFmin 91.3186 MFmax 107.079 RMS 0.0296597 Nphs 24 Gap 295.779 Dist 0.658119 Mamp -9.90 0 Mdur -9.90 0
VPVSRATIO  VpVsRatio 1.82808  Npair 12  Diff 0.594629
STATISTICS  ExpectX 738.418770 Y 9818.460373 Z 0.398365  CovXX 0.00900546 XY -0.00187767 XZ -0.00359251 YY 0.00665599 YZ -9.36695e-05 ZZ 0.00802324 EllAz1  51.9631 Dip1  36.6507 Len1  0.12093 Az2  169.166 Dip2  31.5669 Len2  0.158022 Len3  2.097904e-01
STAT_GEOG  ExpectLat 9818.460373 Long 738.418770 Depth 0.398365
TRANSFORM  NONE
QML_OriginQuality  assocPhCt 24  usedPhCt 24  assocStaCt -1  usedStaCt 12  depthPhCt -1  stdErr 0.0296597  azGap 295.779  secAzGap 295.779  gtLevel -  minDist 0.658119 maxDist 5.15457 medDist 2.70444
QML_OriginUncertainty  horUnc -1  minHorUnc 0.113651  maxHorUnc 0.152003  azMaxHorUnc 118.984
QML_ConfidenceEllipsoid  semiMajorAxisLength 0.20979  semiMinorAxisLength 0.12093  semiIntermediateAxisLength 0.158022  majorAxisPlunge -37.4426  majorAxisAzimuth 107.231  majorAxisRotation 102.88
FOCALMECH  Hyp  9818.466518 738.409970 0.411222 Mech  0 0 0 mf  0 nObs -1
PHASE ID Ins Cmp On Pha  FM Date     HrMn   Sec     Err  ErrMag    Coda      Amp       Per       PriorWt  >   TTpred    Res       Weight    StaLoc(X  Y         Z)        SDist    SAzim  RAz  RDip RQual    Tcorr       TTerr
M06          ?    BHZ  i P      c 20230719 0307   18.6596 GAU  6.24e-04 -1.00e+00  3.48e+01 -1.00e+00    1.0000 >    0.5121    0.1168    0.2276  738.3100 9819.1170   -1.3960    0.6581 351.26 351.3 159.4 10     0.0000    0.0102
M06          ?    BHN  e S      ? 20230719 0307   19.1137 GAU  1.40e-03 -1.00e+00 -1.00e+00 -1.00e+00    1.0000 >    0.8934    0.1895    0.0284  738.3100 9819.1170   -1.3960    0.6581 351.26 351.3 159.1 10     0.0000    0.0179
M04          ?    BHZ  e P      c 20230719 0307   18.7258 GAU  1.05e-03 -1.00e+00 -1.00e+00 -1.00e+00    1.0000 >    0.6622    0.0329    1.1363  737.1400 9819.2520   -1.5710    1.4933 301.74 301.7 141.8 10     0.0000    0.0132
M04          ?    BHN  e S      ? 20230719 0307   19.1959 GAU  3.90e-04 -1.00e+00  7.78e+02 -1.00e+00    1.0000 >    1.1542    0.0110    1.4717  737.1400 9819.2520   -1.5710    1.4933 301.74 301.7 141.1 10     0.0000    0.0231
M14          ?    BHZ  e P      c 20230719 0307   18.6843 GAU  2.20e-03 -1.00e+00 -1.00e+00 -1.00e+00    1.0000 >    0.6725   -0.0190    1.2608  737.5530 9820.0110   -1.3980    1.7663 330.98 331.0 134.1 10     0.0000    0.0135
M14          ?    BHN  e S      ? 20230719 0307   19.2014 GAU  3.97e-04 -1.00e+00  2.29e+02 -1.00e+00    1.0000 >    1.1734   -0.0027    1.4520  737.5530 9820.0110   -1.3980    1.7663 330.98 331.0 133.3 10     0.0000    0.0235
M11          ?    BHZ  i P      c 20230719 0307   18.7326 GAU  2.15e-03 -1.00e+00 -1.00e+00 -1.00e+00    1.0000 >    0.7059   -0.0041    1.5817  738.4670 9820.4900   -1.3120    2.0243   1.61   1.6 128.5 10     0.0000    0.0141
M11          ?    BHN  e S      ? 20230719 0307   19.2867 GAU  9.59e-04 -1.00e+00 -1.00e+00 -1.00e+00    1.0000 >    1.2324    0.0236    1.3111  738.4670 9820.4900   -1.3120    2.0243   1.61   1.6 127.4 10     0.0000    0.0246
M02          ?    BHZ  e P      c 20230719 0307   18.7688 GAU  2.18e-03 -1.00e+00 -1.00e+00 -1.00e+00    1.0000 >    0.7444   -0.0063    1.5459  736.5970 9819.4060   -1.4960    2.0419 297.39 297.4 131.1 10     0.0000    0.0149
M02          ?    BHN  e S      ? 20230719 0307   19.3648 GAU  1.48e-03 -1.00e+00 -1.00e+00 -1.00e+00    1.0000 >    1.2980    0.0361    1.0838  736.5970 9819.4060   -1.4960    2.0419 297.39 297.4 130.2 10     0.0000    0.0260
M09          ?    BHZ  i P      c 20230719 0307   18.8613 GAU  2.46e-03 -1.00e+00  1.61e+02 -1.00e+00    1.0000 >    0.8155    0.0150    1.5240  737.8820 9820.9850   -1.2700    2.5732 348.16 348.2 120.9 10     0.0000    0.0163
M09          ?    BHE  e S      ? 20230719 0307   19.4393 GAU  4.23e-04 -1.00e+00  3.46e+02 -1.00e+00    1.0000 >    1.4241   -0.0156    1.2104  737.8820 9820.9850   -1.2700    2.5732 348.16 348.2 119.4 10     0.0000    0.0285
M03          ?    BHZ  e P      c 20230719 0307   18.8852 GAU  1.17e-03 -1.00e+00 -1.00e+00 -1.00e+00    1.0000 >    0.8846   -0.0301    0.9200  736.8800 9820.8540   -1.3350    2.8356 327.35 327.3 119.2 10     0.0000    0.0177
M03          ?    BHN  e S      ? 20230719 0307   19.5666 GAU  4.50e-03 -1.00e+00 -1.00e+00 -1.00e+00    1.0000 >    1.5441   -0.0083    1.2609  736.8800 9820.8540   -1.3350    2.8356 327.35 327.3 117.6 10     0.0000    0.0309
M13          ?    BHZ  e P      c 20230719 0307   18.8257 GAU  2.76e-03 -1.00e+00 -1.00e+00 -1.00e+00    1.0000 >    0.9784   -0.1835    0.0017  737.1780 9821.5410   -1.2220    3.3121 338.16 338.2 113.6 10     0.0000    0.0196
M13          ?    BHE  e S      ? 20230719 0307   19.4449 GAU  5.45e-04 -1.00e+00 -1.00e+00 -1.00e+00    1.0000 >    1.7091   -0.2949    0.0016  737.1780 9821.5410   -1.2220    3.3121 338.16 338.2 111.5 10     0.0000    0.0342
M10          ?    BHZ  e P      d 20230719 0307   19.1375 GAU  3.12e-03 -1.00e+00  7.05e+02 -1.00e+00    1.0000 >    1.0096    0.0972    0.2868  736.5490 9821.3650   -1.2200    3.4445 327.30 327.3 112.6 10     0.0000    0.0202
M10          ?    BHE  e S      ? 20230719 0307   19.9230 GAU  9.98e-04 -1.00e+00 -1.00e+00 -1.00e+00    1.0000 >    1.7636    0.1286    0.2423  736.5490 9821.3650   -1.2200    3.4445 327.30 327.3 110.4 10     0.0000    0.0353
M08          ?    BHZ  e P      c 20230719 0307   19.1013 GAU  1.57e-04 -1.00e+00 -1.00e+00 -1.00e+00    1.0000 >    1.0613    0.0093    1.5134  738.2480 9822.1600   -1.1510    3.6970 357.49 357.5 110.2 10     0.0000    0.0212
M08          ?    BHN  e S      ? 20230719 0307   19.9239 GAU  4.55e-04 -1.00e+00  3.13e+02 -1.00e+00    1.0000 >    1.8548    0.0383    1.0142  738.2480 9822.1600   -1.1510    3.6970 357.49 357.5 107.7 10     0.0000    0.0371
M05          ?    BHZ  e P      d 20230719 0307   19.2227 GAU  4.61e-03 -1.00e+00  2.73e+02 -1.00e+00    1.0000 >    1.1853    0.0067    1.4683  736.2660 9822.0830   -1.1500    4.2042 329.34 329.3 107.5 10     0.0000    0.0237
M05          ?    BHN  e S      ? 20230719 0307   20.1009 GAU  4.01e-04 -1.00e+00  2.86e+02 -1.00e+00    1.0000 >    2.0712   -0.0010    1.1380  736.2660 9822.0830   -1.1500    4.2042 329.34 329.3 104.7 10     0.0000    0.0414
M12          ?    BHZ  e P      c 20230719 0307   19.4533 GAU  2.00e-03 -1.00e+00 -1.00e+00 -1.00e+00    1.0000 >    1.4046    0.0179    1.3326  736.8520 9823.3800   -0.9890    5.1546 342.41 342.4 102.6 10     0.0000    0.0281
M12          ?    BHE  e S      ? 20230719 0307   20.5020 GAU  2.41e-03 -1.00e+00  1.42e+02 -1.00e+00    1.0000 >    2.4398    0.0315    0.9864  736.8520 9823.3800   -0.9890    5.1546 342.41 342.4  67.2 10     0.0000    0.0488
END_PHASE
END_NLLOC

