M15 ? BHZ e P d 20220801 1059 35.32366943 GAU 0.02066577 0.0 470.66930 0.0
M15 ? BHN e S ? 20220801 1059 36.46848297 GAU 0.01487967 0.0 -89.00000 0.0
M05 ? BHZ e P c 20220801 1059 35.35181046 GAU 0.03085378 0.0 349.66930 0.0
M05 ? BHE e S ? 20220801 1059 36.48703384 GAU 0.01377791 0.0 -166.00000 0.0
M11 ? BHZ e P c 20220801 1059 35.67429733 GAU 0.02479893 0.0 -34.69977 0.0
M11 ? BHN e S ? 20220801 1059 37.16134262 GAU 0.04285648 0.0 -105.36964 0.0
M09 ? BHZ e P d 20220801 1059 35.69233704 GAU 0.03570981 0.0 -27.62813 0.0
M09 ? BHE e S ? 20220801 1059 37.21471786 GAU 0.01984019 0.0 340.60013 0.0
M13 ? BHZ e P c 20220801 1059 35.69758224 GAU 0.01997051 0.0 -637.14230 0.0
M13 ? BHE e S ? 20220801 1059 37.27920532 GAU 0.03571235 0.0 -192.14800 0.0
M02 ? BHZ e P c 20220801 1059 35.73861694 GAU 0.02067001 0.0 -726.84040 0.0
M02 ? BHN e S ? 20220801 1059 37.06752014 GAU 0.02864063 0.0 -1849.06970 0.0
M06 ? BHZ i P c 20220801 1059 35.89789963 GAU 0.03471903 0.0 -262.87982 0.0
M06 ? BHN e S ? 20220801 1059 37.30342865 GAU 0.03428257 0.0 -89.29761 0.0

M04 ? BHZ e P c 20220802 0814 27.60863686 GAU 0.03472034 0.0 -1198.99650 0.0
M04 ? BHN e S ? 20220802 0814 28.55420303 GAU 0.01984009 0.0 615.23096 0.0
M02 ? BHZ e P c 20220802 0814 27.62915802 GAU 0.01653288 0.0 -1778.71310 0.0
M02 ? BHE e S ? 20220802 0814 28.39791870 GAU 0.02856445 0.0 -705.24020 0.0
M06 ? BHZ e P d 20220802 0814 27.87063026 GAU 0.01653413 0.0 -4.79401 0.0
M06 ? BHE e S ? 20220802 0814 28.72470856 GAU 0.03173956 0.0 -105.38745 0.0
M11 ? BHZ e P c 20220802 0814 28.24110222 GAU 0.04285475 0.0 -1188.33260 0.0
M11 ? BHN e S ? 20220802 0814 29.48251534 GAU 0.02380915 0.0 -98.75566 0.0

M14 ? BHZ e P c 20220802 1427 45.86782455 GAU 0.02782878 0.0 -1043.56850 0.0
M14 ? BHN e S ? 20220802 1427 46.64163208 GAU 0.02479836 0.0 -1692.34080 0.0
M06 ? BHZ i P c 20220802 1427 45.98648453 GAU 0.01935443 0.0 -730.75830 0.0
M06 ? BHN e S ? 20220802 1427 46.59203339 GAU 0.04165547 0.0 -84.42366 0.0
M11 ? BHZ e P c 20220802 1427 46.08181000 GAU 0.03428367 0.0 -325.13327 0.0
M11 ? BHN e S ? 20220802 1427 46.92626953 GAU 0.02571208 0.0 -105.28567 0.0
M04 ? BHZ e P c 20220802 1427 46.17279816 GAU 0.01951871 0.0 -139.62009 0.0
M04 ? BHN e S ? 20220802 1427 46.84382629 GAU 0.01377693 0.0 715.63763 0.0
M09 ? BHZ e P c 20220802 1427 46.46159744 GAU 0.00861058 0.0 18.13201 0.0
M09 ? BHE e S ? 20220802 1427 47.39673996 GAU 0.01289606 0.0 343.58356 0.0
M08 ? BHZ e P c 20220802 1427 46.82958221 GAU 0.02391824 0.0 99.21521 0.0
M08 ? BHN e S ? 20220802 1427 48.27731705 GAU 0.01488007 0.0 -257.62490 0.0

M02 ? BHZ e P c 20220804 1740 31.46804237 GAU 0.04999571 0.0 1467.31100 0.0
M02 ? BHE e S ? 20220804 1740 31.78874969 GAU 0.04285470 0.0 -567.29050 0.0
M01 ? BHZ e P d 20220804 1740 31.57806015 GAU 0.01785523 0.0 -948.59740 0.0
M01 ? BHE e S ? 20220804 1740 31.98211479 GAU 0.00991978 0.0 296.75214 0.0
M05 ? BHZ e P d 20220804 1740 31.58592606 GAU 0.02571276 0.0 1535.80250 0.0
M05 ? BHN e S ? 20220804 1740 31.99739075 GAU 0.02424646 0.0 152.67517 0.0
M12 ? BHZ e P c 20220804 1740 31.62508392 GAU 0.01714172 0.0 -374.87738 0.0
M12 ? BHE e S ? 20220804 1740 32.04610443 GAU 0.03085384 0.0 -124.38365 0.0
M10 ? BHZ e P c 20220804 1740 31.71938324 GAU 0.02142696 0.0 -1134.72330 0.0
M10 ? BHE e S ? 20220804 1740 32.20355606 GAU 0.03428367 0.0 -310.12534 0.0
M03 ? BHZ e P d 20220804 1740 31.72632408 GAU 0.03428313 0.0 6017.77440 0.0
M03 ? BHE e S ? 20220804 1740 32.21898270 GAU 0.03644051 0.0 12545.27700 0.0
M13 ? BHZ e P c 20220804 1740 31.75588036 GAU 0.01785523 0.0 -1541.35580 0.0
M13 ? BHN e S ? 20220804 1740 32.35385513 GAU 0.02856897 0.0 51.17501 0.0
M09 ? BHZ e P c 20220804 1740 31.78458214 GAU 0.02678567 0.0 -804.75670 0.0
M09 ? BHN e S ? 20220804 1740 32.31887054 GAU 0.03856611 0.0 387.91724 0.0
M14 ? BHZ e P c 20220804 1740 31.79290581 GAU 0.04762500 0.0 2060.25590 0.0
M14 ? BHN e S ? 20220804 1740 32.38067627 GAU 0.03842935 0.0 -5558.33000 0.0
M06 ? BHZ e P c 20220804 1740 31.86197281 GAU 0.03570964 0.0 -5416.59670 0.0
M06 ? BHN e S ? 20220804 1740 32.48143768 GAU 0.05394613 0.0 -390.38388 0.0
M11 ? BHZ e P c 20220804 1740 31.87720299 GAU 0.02857098 0.0 -1447.28850 0.0
M11 ? BHN e S ? 20220804 1740 32.42247772 GAU 0.03428125 0.0 -164.06609 0.0
M15 ? BHZ e P d 20220804 1740 31.94214249 GAU 0.01547618 0.0 -1206.44200 0.0
M15 ? BHE e S ? 20220804 1740 32.57386780 GAU 0.06171332 0.0 -247.48860 0.0

M15 ? BHZ e P d 20220806 2254 18.44532967 GAU 0.01387282 0.0 -349.17386 0.0
M15 ? BHN e S ? 20220806 2254 18.47121239 GAU 0.00496005 0.0 -104.51749 0.0
M05 ? BHZ e P c 20220806 2254 18.68541336 GAU 0.01239947 0.0 70.61335 0.0
M05 ? BHN e S ? 20220806 2254 18.91032219 GAU 0.01488014 0.0 261.04822 0.0
M09 ? BHZ e P c 20220806 2254 18.71352768 GAU 0.00826670 0.0 42.25746 0.0
M09 ? BHN e S ? 20220806 2254 18.96503830 GAU 0.00478472 0.0 475.63730 0.0
M13 ? BHZ e P c 20220806 2254 18.76554298 GAU 0.01033270 0.0 -202.19853 0.0
M13 ? BHN e S ? 20220806 2254 18.94849968 GAU 0.00861054 0.0 -131.16841 0.0
M06 ? BHZ i P c 20220806 2254 18.97394943 GAU 0.02468345 0.0 -215.02943 0.0
M06 ? BHE e S ? 20220806 2254 19.29199791 GAU 0.02457162 0.0 -141.45222 0.0

M06 ? BHZ e P c 20220807 1847 14.48104954 GAU 0.01200919 0.0 -791.21570 0.0
M06 ? BHN e S ? 20220807 1847 15.32896137 GAU 0.02709642 0.0 -107.39688 0.0
M14 ? BHZ e P c 20220807 1847 14.56282806 GAU 0.02975464 0.0 -2119.29170 0.0
M14 ? BHE e S ? 20220807 1847 15.37509823 GAU 0.02380748 0.0 -1762.33470 0.0
M11 ? BHZ e P c 20220807 1847 14.64911175 GAU 0.03428367 0.0 -368.04230 0.0
M11 ? BHE e S ? 20220807 1847 15.55709743 GAU 0.03428385 0.0 -60.62998 0.0
M09 ? BHZ e P c 20220807 1847 14.86600780 GAU 0.02571106 0.0 177.58719 0.0
M09 ? BHE e S ? 20220807 1847 15.79125977 GAU 0.02571208 0.0 323.10270 0.0
M13 ? BHZ e P c 20220807 1847 15.02500343 GAU 0.01540361 0.0 16.48950 0.0
M13 ? BHN e S ? 20220807 1847 15.98932171 GAU 0.02422999 0.0 -135.32678 0.0
M05 ? BHZ e P d 20220807 1847 15.40344906 GAU 0.02142824 0.0 -10.19346 0.0
M05 ? BHE e S ? 20220807 1847 16.56585503 GAU 0.01488007 0.0 -173.14404 0.0
M12 ? BHZ e P c 20220807 1847 15.72811031 GAU 0.03107215 0.0 -72.39417 0.0
M12 ? BHN e S ? 20220807 1847 16.95423508 GAU 0.02066577 0.0 -164.45395 0.0

M06 ? BHZ e P c 20220808 1117 46.47316742 GAU 0.00691981 0.0 207.71150 0.0
M06 ? BHN e S ? 20220808 1117 46.95584106 GAU 0.02754687 0.0 -96.66670 0.0
M04 ? BHZ e P c 20220808 1117 46.49593735 GAU 0.01984009 0.0 -1376.18050 0.0
M04 ? BHN e S ? 20220808 1117 47.04167938 GAU 0.00597871 0.0 756.94340 0.0
M02 ? BHZ e P c 20220808 1117 46.52436066 GAU 0.00956731 0.0 -189.92207 0.0
M02 ? BHN e S ? 20220808 1117 47.14804840 GAU 0.02009215 0.0 -1769.21190 0.0
M11 ? BHZ i P c 20220808 1117 46.60880280 GAU 0.01435417 0.0 -108.82329 0.0
M11 ? BHN e S ? 20220808 1117 47.28582382 GAU 0.01488014 0.0 -94.77386 0.0
M09 ? BHZ i P c 20220808 1117 46.70821381 GAU 0.00741583 0.0 417.21750 0.0
M09 ? BHE e S ? 20220808 1117 47.49951553 GAU 0.01984050 0.0 349.26700 0.0
M13 ? BHZ e P c 20220808 1117 46.75394058 GAU 0.01033311 0.0 -215.12642 0.0
M13 ? BHN e S ? 20220808 1117 47.50989914 GAU 0.00861115 0.0 -138.68930 0.0
M08 ? BHZ e P d 20220808 1117 46.95251465 GAU 0.00952922 0.0 -194.29465 0.0
M08 ? BHN e S ? 20220808 1117 47.90353012 GAU 0.03571216 0.0 973.60620 0.0
M01 ? BHZ e P c 20220808 1117 47.16024399 GAU 0.02779621 0.0 -344.57440 0.0
M01 ? BHN e S ? 20220808 1117 48.19252777 GAU 0.02086030 0.0 1689.00000 0.0

M06 ? BHZ i P c 20220808 1214 33.61308670 GAU 0.00398666 0.0 234.03288 0.0
M06 ? BHN e S ? 20220808 1214 34.12004852 GAU 0.02296144 0.0 -62.91258 0.0
M14 ? BHZ e P c 20220808 1214 33.68158340 GAU 0.02066687 0.0 -366.24655 0.0
M14 ? BHE e S ? 20220808 1214 34.19850922 GAU 0.02444851 0.0 132.96830 0.0
M11 ? BHZ i P c 20220808 1214 33.74797058 GAU 0.01239965 0.0 161.42538 0.0
M11 ? BHN e S ? 20220808 1214 34.44262314 GAU 0.01884938 0.0 -118.20836 0.0
M09 ? BHZ i P c 20220808 1214 33.84946060 GAU 0.00398612 0.0 391.61896 0.0
M09 ? BHE e S ? 20220808 1214 34.64419937 GAU 0.00413281 0.0 321.72693 0.0
M13 ? BHZ i P c 20220808 1214 33.91283035 GAU 0.01033289 0.0 -280.84440 0.0
M13 ? BHN e S ? 20220808 1214 34.66125870 GAU 0.01239918 0.0 -111.06098 0.0
M08 ? BHZ e P c 20220808 1214 34.13869858 GAU 0.02196630 0.0 264.65900 0.0
M08 ? BHN e S ? 20220808 1214 35.13185120 GAU 0.01428418 0.0 -964.30160 0.0

M06 ? BHZ i P c 20220812 1407 54.33535004 GAU 0.01195993 0.0 478.50880 0.0
M06 ? BHE e S ? 20220812 1407 54.79828262 GAU 0.00665982 0.0 -615.79010 0.0
M04 ? BHZ i P c 20220812 1407 54.43128204 GAU 0.00573957 0.0 1920.36410 0.0
M04 ? BHE e S ? 20220812 1407 54.82631302 GAU 0.00826552 0.0 818.23460 0.0
M14 ? BHZ i P c 20220812 1407 54.45845795 GAU 0.00597954 0.0 3730.37300 0.0
M14 ? BHE e S ? 20220812 1407 54.87590790 GAU 0.01240031 0.0 -26078.01400 0.0
M11 ? BHZ i P c 20220812 1407 54.49768829 GAU 0.00797339 0.0 1674.67910 0.0
M11 ? BHN e S ? 20220812 1407 55.11741257 GAU 0.01190327 0.0 -407.96326 0.0
M02 ? BHZ i P c 20220812 1407 54.51693726 GAU 0.01377845 0.0 -2291.97270 0.0
M02 ? BHE e S ? 20220812 1407 54.92255402 GAU 0.02066718 0.0 -47.61210 0.0
M03 ? BHZ i P d 20220812 1407 54.57191467 GAU 0.01976075 0.0 2719.94360 0.0
M03 ? BHN e S ? 20220812 1407 55.07851791 GAU 0.02976013 0.0 -258.65010 0.0
M09 ? BHZ i P c 20220812 1407 54.58842850 GAU 0.00688922 0.0 1563.23940 0.0
M09 ? BHE e S ? 20220812 1407 55.17505264 GAU 0.02480062 0.0 65.93851 0.0
M13 ? BHZ i P c 20220812 1407 54.70464325 GAU 0.01377845 0.0 147.99423 0.0
M13 ? BHE e S ? 20220812 1407 55.35252762 GAU 0.02857031 0.0 -304.30832 0.0
M10 ? BHZ i P c 20220812 1407 54.77655792 GAU 0.03428380 0.0 1984.75500 0.0
M10 ? BHN e S ? 20220812 1407 55.63284683 GAU 0.02856983 0.0 32.18529 0.0
M08 ? BHZ i P d 20220812 1407 54.82283783 GAU 0.01487996 0.0 -289.15085 0.0
M08 ? BHN e S ? 20220812 1407 55.86308670 GAU 0.02380811 0.0 1507.72020 0.0
M01 ? BHZ e P c 20220812 1407 54.95911407 GAU 0.02380788 0.0 -3305.25900 0.0
M01 ? BHN e S ? 20220812 1407 56.15562057 GAU 0.02571106 0.0 1462.35670 0.0
M05 ? BHZ i P c 20220812 1407 54.96323776 GAU 0.01428449 0.0 86.34392 0.0
M05 ? BHN e S ? 20220812 1407 55.98388672 GAU 0.01083349 0.0 82.16574 0.0
M15 ? BHZ i P c 20220812 1407 54.98680496 GAU 0.01190458 0.0 329.42798 0.0
M15 ? BHN e S ? 20220812 1407 56.07449341 GAU 0.01983957 0.0 -124.17239 0.0
M12 ? BHZ e P d 20220812 1407 55.08803558 GAU 0.02142660 0.0 -153.48053 0.0
M12 ? BHE e S ? 20220812 1407 56.38872147 GAU 0.04284894 0.0 -11.50241 0.0

M06 ? BHZ e P c 20220812 1408 51.58835602 GAU 0.01033322 0.0 4625.78700 0.0
M06 ? BHE e S ? 20220812 1408 52.08783722 GAU 0.02380794 0.0 -97.39166 0.0
M04 ? BHZ e P c 20220812 1408 51.64802551 GAU 0.00857078 0.0 -704.19450 0.0
M04 ? BHN e S ? 20220812 1408 52.12660599 GAU 0.02142715 0.0 672.09710 0.0
M14 ? BHZ i P c 20220812 1408 51.67221069 GAU 0.01148153 0.0 -38.32456 0.0
M14 ? BHE e S ? 20220812 1408 52.23481369 GAU 0.01984019 0.0 1472.92590 0.0
M11 ? BHZ i P c 20220812 1408 51.73201752 GAU 0.00717627 0.0 182.00589 0.0
M11 ? BHN e S ? 20220812 1408 52.36044312 GAU 0.02468099 0.0 -151.31667 0.0
M02 ? BHZ e P c 20220812 1408 51.74748993 GAU 0.00857065 0.0 -1608.54810 0.0
M02 ? BHN e S ? 20220812 1408 52.27069092 GAU 0.00228710 0.0 -1910.98070 0.0
M09 ? BHZ e P c 20220812 1408 51.81921768 GAU 0.00861101 0.0 236.17212 0.0
M09 ? BHE e S ? 20220812 1408 52.38942719 GAU 0.01785617 0.0 322.65704 0.0
M13 ? BHZ i P c 20220812 1408 51.94385910 GAU 0.00714232 0.0 -104.12602 0.0
M13 ? BHE e S ? 20220812 1408 52.58305359 GAU 0.01714102 0.0 -184.43549 0.0
M08 ? BHZ e P c 20220812 1408 52.11410904 GAU 0.01714129 0.0 60.72626 0.0
M08 ? BHN e S ? 20220812 1408 53.06624603 GAU 0.01028477 0.0 -379.46097 0.0
M10 ? BHZ e P c 20220812 1408 52.17173004 GAU 0.01487983 0.0 -916.36090 0.0
M10 ? BHE e S ? 20220812 1408 53.03926086 GAU 0.02976144 0.0 -150.13885 0.0
M05 ? BHZ e P c 20220812 1408 52.25733948 GAU 0.01777238 0.0 13.00396 0.0
M05 ? BHN e S ? 20220812 1408 53.21242523 GAU 0.01714099 0.0 245.42924 0.0
M15 ? BHZ e P c 20220812 1408 52.31288528 GAU 0.00000000 0.0 233.69472 0.0
M15 ? BHN e S ? 20220812 1408 53.35153580 GAU 0.01785580 0.0 -19.22341 0.0
M12 ? BHZ i P c 20220812 1408 52.45399094 GAU 0.01714167 0.0 -212.36726 0.0
M12 ? BHE e S ? 20220812 1408 53.55272675 GAU 0.00496024 0.0 92.39564 0.0

M06 ? BHZ i P c 20220812 1409  9.75582218 GAU 0.01148097 0.0 727.92725 0.0
M06 ? BHN e S ? 20220812 1409 10.21927738 GAU 0.01239746 0.0 -52.13518 0.0
M04 ? BHZ e P c 20220812 1409  9.81416893 GAU 0.01903632 0.0 544.21310 0.0
M04 ? BHN e S ? 20220812 1409 10.27552509 GAU 0.01983957 0.0 680.48080 0.0
M02 ? BHZ e P d 20220812 1409  9.83789730 GAU 0.00635511 0.0 1416.44340 0.0
M02 ? BHE e S ? 20220812 1409 10.36017990 GAU 0.01033338 0.0 -553.63070 0.0
M14 ? BHZ i P c 20220812 1409  9.85570431 GAU 0.00826670 0.0 887.75195 0.0
M14 ? BHE e S ? 20220812 1409 10.36837578 GAU 0.01487901 0.0 -3182.63480 0.0
M11 ? BHZ i P c 20220812 1409  9.90777111 GAU 0.02142630 0.0 647.23303 0.0
M11 ? BHE e S ? 20220812 1409 10.44302368 GAU 0.01488014 0.0 -289.37850 0.0
M09 ? BHZ i P c 20220812 1409  9.99716187 GAU 0.00287024 0.0 790.98610 0.0
M09 ? BHE e S ? 20220812 1409 10.57507038 GAU 0.00689019 0.0 291.23178 0.0
M03 ? BHZ i P c 20220812 1409 10.08203411 GAU 0.05142388 0.0 -4027.95020 0.0
M03 ? BHE e S ? 20220812 1409 10.80334091 GAU 0.02571153 0.0 -330.69583 0.0
M13 ? BHZ i P c 20220812 1409 10.09720516 GAU 0.00826644 0.0 -171.55426 0.0
M13 ? BHE e S ? 20220812 1409 10.68476009 GAU 0.00595206 0.0 -124.49000 0.0
M10 ? BHZ i P d 20220812 1409 10.24080563 GAU 0.01239966 0.0 1382.81680 0.0
M10 ? BHE e S ? 20220812 1409 11.16381741 GAU 0.00496008 0.0 -115.75782 0.0
M08 ? BHZ e P c 20220812 1409 10.26630211 GAU 0.01239947 0.0 -863.57733 0.0
M08 ? BHN i S d 20220812 1409 11.23504448 GAU 0.03571216 0.0 1017.57184 0.0
M05 ? BHZ e P c 20220812 1409 10.40087223 GAU 0.01997201 0.0 244.38861 0.0
M05 ? BHN e S ? 20220812 1409 11.34443855 GAU 0.04114002 0.0 268.20285 0.0
M15 ? BHZ e P c 20220812 1409 10.44610977 GAU 0.02142662 0.0 -632.51630 0.0
M15 ? BHN e S ? 20220812 1409 11.44561672 GAU 0.01488007 0.0 -84.00000 0.0
M01 ? BHZ e P d 20220812 1409 10.56292248 GAU 0.05547264 0.0 -235.70761 0.0
M01 ? BHE e S ? 20220812 1409 11.79431248 GAU 0.05142516 0.0 508.20862 0.0
M12 ? BHZ i P c 20220812 1409 10.61611557 GAU 0.00826665 0.0 -236.24776 0.0
M12 ? BHN e S ? 20220812 1409 11.91924000 GAU 0.04113908 0.0 -169.07404 0.0

M04 ? BHZ e P c 20220812 1409 17.43415642 GAU 0.00574080 0.0 21.39074 0.0
M04 ? BHN e S ? 20220812 1409 17.97793198 GAU 0.01190349 0.0 697.12775 0.0
M06 ? BHZ i P c 20220812 1409 17.44260216 GAU 0.01435090 0.0 -36.01447 0.0
M06 ? BHN e S ? 20220812 1409 17.97099686 GAU 0.01239973 0.0 -45.38880 0.0
M02 ? BHZ e P c 20220812 1409 17.52287865 GAU 0.03428344 0.0 918.53530 0.0
M02 ? BHE e S ? 20220812 1409 18.14231300 GAU 0.01504297 0.0 -335.25876 0.0
M14 ? BHZ i P c 20220812 1409 17.52866173 GAU 0.01377718 0.0 -232.71501 0.0
M14 ? BHE e S ? 20220812 1409 18.12283897 GAU 0.01653341 0.0 -3968.31100 0.0
M11 ? BHZ i P c 20220812 1409 17.57900429 GAU 0.00826707 0.0 -96.35773 0.0
M11 ? BHN e S ? 20220812 1409 18.22338676 GAU 0.01714184 0.0 -101.74213 0.0
M09 ? BHZ i P c 20220812 1409 17.62000656 GAU 0.01428392 0.0 97.00000 0.0
M09 ? BHE e S ? 20220812 1409 18.27063751 GAU 0.00574049 0.0 321.32648 0.0
M13 ? BHZ i P c 20220812 1409 17.72764587 GAU 0.02142628 0.0 -138.49252 0.0
M13 ? BHN e S ? 20220812 1409 18.46174049 GAU 0.02631430 0.0 -63.66033 0.0
M08 ? BHZ e P c 20220812 1409 17.94189835 GAU 0.03195086 0.0 -473.56363 0.0
M08 ? BHN e S ? 20220812 1409 18.85194778 GAU 0.02571388 0.0 -1483.33920 0.0

M06 ? BHZ i P c 20220812 1409 20.55677605 GAU 0.00992344 0.0 -122.57467 0.0
M06 ? BHE e S ? 20220812 1409 20.92448807 GAU 0.01377515 0.0 -16.82648 0.0
M04 ? BHZ i P c 20220812 1409 20.60352898 GAU 0.02142447 0.0 -2904.16630 0.0
M04 ? BHN e S ? 20220812 1409 21.01982307 GAU 0.00826675 0.0 222.14075 0.0
M09 ? BHZ i P c 20220812 1409 20.61944008 GAU 0.01785686 0.0 722.50330 0.0
M09 ? BHN e S ? 20220812 1409 21.11476326 GAU 0.01785617 0.0 438.39148 0.0
M14 ? BHZ i P c 20220812 1409 20.64648056 GAU 0.01239777 0.0 2741.49340 0.0
M14 ? BHE e S ? 20220812 1409 21.16699219 GAU 0.00688906 0.0 5205.55100 0.0
M02 ? BHZ i P d 20220812 1409 20.65490723 GAU 0.01033270 0.0 -1762.94600 0.0
M02 ? BHE e S ? 20220812 1409 21.21097374 GAU 0.00688874 0.0 -810.46660 0.0
M11 ? BHZ i P c 20220812 1409 20.66908073 GAU 0.01428392 0.0 481.45523 0.0
M11 ? BHN e S ? 20220812 1409 21.28338432 GAU 0.01714259 0.0 30.00726 0.0
M13 ? BHZ i P c 20220812 1409 20.82756615 GAU 0.02380794 0.0 -1644.23350 0.0
M13 ? BHN e S ? 20220812 1409 21.42047119 GAU 0.00688906 0.0 -181.81200 0.0
M03 ? BHZ i P d 20220812 1409 20.83745956 GAU 0.01653224 0.0 2329.66430 0.0
M03 ? BHN e S ? 20220812 1409 21.57740974 GAU 0.01785608 0.0 -274.11950 0.0
M10 ? BHZ i P c 20220812 1409 20.88791275 GAU 0.03085509 0.0 9.99716 0.0
M10 ? BHE e S ? 20220812 1409 21.59879494 GAU 0.03571235 0.0 -447.48450 0.0
M08 ? BHZ e P d 20220812 1409 21.04176712 GAU 0.01653262 0.0 -514.50600 0.0
M08 ? BHE e S ? 20220812 1409 21.99602127 GAU 0.01714184 0.0 626.92590 0.0
M05 ? BHZ i P c 20220812 1409 21.25250053 GAU 0.04285429 0.0 47.85671 0.0
M05 ? BHN e S ? 20220812 1409 22.19384956 GAU 0.01428492 0.0 118.21380 0.0
M01 ? BHZ i P d 20220812 1409 21.31300545 GAU 0.01190458 0.0 1458.96850 0.0
M01 ? BHN e S ? 20220812 1409 22.34738350 GAU 0.01714259 0.0 1551.62720 0.0
M15 ? BHZ e P c 20220812 1409 21.32404900 GAU 0.05214126 0.0 -1027.07860 0.0
M15 ? BHE e S ? 20220812 1409 22.30715752 GAU 0.00595229 0.0 -230.94759 0.0
M12 ? BHZ i P c 20220812 1409 21.42168045 GAU 0.01785596 0.0 -923.76890 0.0
M12 ? BHE e S ? 20220812 1409 22.68203735 GAU 0.02571276 0.0 -222.49333 0.0

M06 ? BHZ i P c 20220812 1410 23.37178230 GAU 0.00498306 0.0 -167.00677 0.0
M06 ? BHN e S ? 20220812 1410 23.88588715 GAU 0.01488007 0.0 -97.20270 0.0
M08 ? BHZ e P d 20220812 1410 23.81960106 GAU 0.01653329 0.0 255.53888 0.0
M08 ? BHN e S ? 20220812 1410 24.79606438 GAU 0.02240829 0.0 -274.76040 0.0
M05 ? BHZ i P c 20220812 1410 23.96373940 GAU 0.02142824 0.0 112.76897 0.0
M05 ? BHN e S ? 20220812 1410 25.00758171 GAU 0.01653259 0.0 268.87150 0.0
M12 ? BHZ e P c 20220812 1410 24.21631241 GAU 0.01653325 0.0 -306.70050 0.0
M12 ? BHE e S ? 20220812 1410 25.42504120 GAU 0.02380497 0.0 86.90554 0.0

M06 ? BHZ i P c 20220812 1412 59.17107391 GAU 0.00498317 0.0 30.06079 0.0
M06 ? BHE i S d 20220812 1412 59.68733978 GAU 0.01377530 0.0 -68.34939 0.0
M04 ? BHZ e P c 20220812 1412 59.18909836 GAU 0.02480020 0.0 -689.06100 0.0
M04 ? BHN e S ? 20220812 1412 59.71469116 GAU 0.00574070 0.0 742.30273 0.0
M14 ? BHZ e P c 20220812 1412 59.20064545 GAU 0.03571373 0.0 -897.36070 0.0
M14 ? BHN e S ? 20220812 1412 59.72848129 GAU 0.00398666 0.0 -1692.25650 0.0
M09 ? BHZ i P c 20220812 1412 59.40846252 GAU 0.00797316 0.0 13.93935 0.0
M09 ? BHE e S ? 20220812 1412 60.03261185 GAU 0.01814148 0.0 364.79654 0.0
M13 ? BHZ i P c 20220812 1412 59.49871445 GAU 0.02066438 0.0 -210.77904 0.0
M13 ? BHE e S ? 20220812 1412 60.28052139 GAU 0.00694981 0.0 -173.34232 0.0
M08 ? BHZ i P c 20220812 1412 59.67449570 GAU 0.01283971 0.0 51.70800 0.0
M08 ? BHE e S ? 20220812 1412 60.52700043 GAU 0.00574039 0.0 -339.75952 0.0
M05 ? BHZ i P c 20220812 1412 59.87166595 GAU 0.00862408 0.0 -16.99611 0.0
M05 ? BHN e S ? 20220812 1412 60.80408478 GAU 0.01983995 0.0 272.38354 0.0
M12 ? BHZ i P c 20220812 1412 60.10148364 GAU 0.05237922 0.0 -199.71361 0.0
M12 ? BHE e S ? 20220812 1412 61.21197510 GAU 0.01653297 0.0 81.68056 0.0

M06 ? BHZ i P d 20220812 1414  5.45848656 GAU 0.00692115 0.0 -179.76970 0.0
M06 ? BHN e S ? 20220812 1414  5.94349432 GAU 0.02755549 0.0 -106.51505 0.0
