M15 ? BHZ e P d 20220419 0040 23.30079651 GAU 0.0 0.0 -444.90466 0.0
M15 ? BHN e S d 20220419 0040 24.41488075 GAU 0.0 0.0 -1997.76840 0.0
M05 ? BHZ e P d 20220419 0040 23.36614037 GAU 0.0 0.0 92.92814 0.0
M05 ? BHN e S c 20220419 0040 24.64696884 GAU 0.0 0.0 467.54382 0.0
M13 ? BHZ e P d 20220419 0040 23.51279640 GAU 0.0 0.0 -48.54479 0.0
M13 ? BHE i S d 20220419 0040 24.76571655 GAU 0.0 0.0 -351.71252 0.0
M11 ? BHZ e P c 20220419 0040 23.67438698 GAU 0.0 0.0 -474.58237 0.0
M11 ? BHN e S ? 20220419 0040 25.08832359 GAU 0.0 0.0 -3160.27220 0.0
M14 ? BHZ e P c 20220419 0040 23.70147133 GAU 0.0 0.0 -223.79842 0.0
M14 ? BHE e S ? 20220419 0040 25.11248016 GAU 0.0 0.0 1796.00650 0.0
M06 ? BHZ e P d 20220419 0040 23.74888229 GAU 0.0 0.0 -145.08963 0.0
M06 ? BHE i S c 20220419 0040 25.32598877 GAU 0.0 0.0 -774.51105 0.0

M06 ? BHZ i P c 20220401 0551 17.95919037 GAU 0.0 0.0 79.27138 0.0
M06 ? BHN i S c 20220401 0551 18.47725105 GAU 0.0 0.0 -4302.96900 0.0
M11 ? BHZ i P c 20220401 0551 18.04030991 GAU 0.0 0.0 -199.27473 0.0
M11 ? BHN i S c 20220401 0551 18.66696548 GAU 0.0 0.0 -4856.36900 0.0
M14 ? BHZ i P c 20220401 0551 18.05618286 GAU 0.0 0.0 953.95100 0.0
M14 ? BHN i S d 20220401 0551 18.53742981 GAU 0.0 0.0 9528.77100 0.0
M04 ? BHZ i P d 20220401 0551 18.07454109 GAU 0.0 0.0 792.43360 0.0
M04 ? BHN i S c 20220401 0551 18.58230782 GAU 0.0 0.0 2645.52340 0.0
M02 ? BHZ i P c 20220401 0551 18.12276459 GAU 0.0 0.0 -167.77708 0.0
M02 ? BHN i S c 20220401 0551 18.74853134 GAU 0.0 0.0 -610.86490 0.0
M05 ? BHZ i P c 20220401 0551 18.61546135 GAU 0.0 0.0 -923.10720 0.0
M05 ? BHN i S c 20220401 0551 19.63066292 GAU 0.0 0.0 -1390.42590 0.0
M12 ? BHZ i P c 20220401 0551 18.79328728 GAU 0.0 0.0 -1253.30870 0.0
M12 ? BHN e S ? 20220401 0551 19.86005020 GAU 0.0 0.0 -1862.64030 0.0

M02 ? BHZ e P c 20220401 2022 21.52988815 GAU 0.0 0.0 -1279.38150 0.0
M02 ? BHN i S d 20220401 2022 21.96133423 GAU 0.0 0.0 -6069.26700 0.0
M06 ? BHZ i P c 20220401 2022 21.61448097 GAU 0.0 0.0 297.58444 0.0
M06 ? BHN i S d 20220401 2022 22.12014008 GAU 0.0 0.0 1046.75900 0.0
M11 ? BHZ e P c 20220401 2022 21.62477875 GAU 0.0 0.0 -439.49875 0.0
M11 ? BHN e S ? 20220401 2022 22.25066185 GAU 0.0 0.0 65.01764 0.0
M05 ? BHZ e P d 20220401 2022 21.68859291 GAU 0.0 0.0 470.89100 0.0
M05 ? BHN e S ? 20220401 2022 22.38253593 GAU 0.0 0.0 -1264.18420 0.0
M08 ? BHZ e P c 20220401 2022 21.71976662 GAU 0.0 0.0 105.22738 0.0
M08 ? BHN e S ? 20220401 2022 22.48664665 GAU 0.0 0.0 508.49402 0.0
M12 ? BHZ e P c 20220401 2022 21.73549271 GAU 0.0 0.0 -338.61035 0.0
M12 ? BHN i S c 20220401 2022 22.51208687 GAU 0.0 0.0 -315.88278 0.0

M06 ? BHZ i P c 20220406 0218 42.21321869 GAU 0.0 0.0 -28.05014 0.0
M06 ? BHN i S d 20220406 0218 42.83752060 GAU 0.0 0.0 4447.32700 0.0
M11 ? BHZ i P c 20220406 0218 42.27412415 GAU 0.0 0.0 -82.18261 0.0
M11 ? BHN e S ? 20220406 0218 43.05416489 GAU 0.0 0.0 -515.44890 0.0
M02 ? BHZ e P d 20220406 0218 42.29822922 GAU 0.0 0.0 649.05994 0.0
M02 ? BHN i S d 20220406 0218 43.06587219 GAU 0.0 0.0 469.04703 0.0
M14 ? BHZ e P c 20220406 0218 42.29975128 GAU 0.0 0.0 110.67237 0.0
M14 ? BHE e S d 20220406 0218 42.91007233 GAU 0.0 0.0 4230.23050 0.0
M13 ? BHZ e P c 20220406 0218 42.47278595 GAU 0.0 0.0 -517.41797 0.0
M13 ? BHN e S c 20220406 0218 43.43707275 GAU 0.0 0.0 -1167.10190 0.0
M08 ? BHZ i P d 20220406 0218 42.60649109 GAU 0.0 0.0 338.57245 0.0
M08 ? BHN e S ? 20220406 0218 43.59926987 GAU 0.0 0.0 1045.71570 0.0
M10 ? BHZ i P d 20220406 0218 42.65504837 GAU 0.0 0.0 2072.92360 0.0
M10 ? BHN i S d 20220406 0218 43.61282730 GAU 0.0 0.0 2276.71200 0.0
M05 ? BHZ i P d 20220406 0218 42.79255295 GAU 0.0 0.0 338.26248 0.0
M05 ? BHE e S ? 20220406 0218 43.84151459 GAU 0.0 0.0 -935.81610 0.0

M06 ? BHZ i P c 20220406 0304 36.22822571 GAU 0.0 0.0 -12.85187 0.0
M06 ? BHE i S c 20220406 0304 36.88571548 GAU 0.0 0.0 -2164.57930 0.0
M11 ? BHZ e P c 20220406 0304 36.28004074 GAU 0.0 0.0 -224.81664 0.0
M11 ? BHN e S ? 20220406 0304 37.00339890 GAU 0.0 0.0 -531.97144 0.0
M13 ? BHZ i P d 20220406 0304 36.56887817 GAU 0.0 0.0 327.16037 0.0
M13 ? BHN e S ? 20220406 0304 37.53183746 GAU 0.0 0.0 -710.25964 0.0
M08 ? BHZ e P d 20220406 0304 36.65148926 GAU 0.0 0.0 135.62784 0.0
M08 ? BHN e S ? 20220406 0304 37.69242477 GAU 0.0 0.0 -893.73210 0.0
M05 ? BHZ e P c 20220406 0304 36.76681137 GAU 0.0 0.0 335.82825 0.0
M05 ? BHE e S ? 20220406 0304 37.81631851 GAU 0.0 0.0 -538.28357 0.0

M06 ? BHZ i P c 20220406 0358 33.24504471 GAU 0.0 0.0 -174.90740 0.0
M06 ? BHE e S c 20220406 0358 33.90280914 GAU 0.0 0.0 -2854.31710 0.0
M02 ? BHZ e P c 20220406 0358 33.28901672 GAU 0.0 0.0 1189.67220 0.0
M02 ? BHN i S d 20220406 0358 34.09531403 GAU 0.0 0.0 671.18604 0.0
M11 ? BHZ e P c 20220406 0358 33.31692886 GAU 0.0 0.0 -131.85390 0.0
M11 ? BHN e S d 20220406 0358 34.14527893 GAU 0.0 0.0 2099.90480 0.0
M14 ? BHZ i P d 20220406 0358 33.36801147 GAU 0.0 0.0 87.30100 0.0
M14 ? BHE e S ? 20220406 0358 34.06744003 GAU 0.0 0.0 991.93340 0.0
M05 ? BHZ e P d 20220406 0358 33.84009933 GAU 0.0 0.0 140.55463 0.0
M05 ? BHE e S d 20220406 0358 35.05340195 GAU 0.0 0.0 1238.10670 0.0

M05 ? BHZ i P d 20220407 1215 36.47395706 GAU 0.0 0.0 619.13074 0.0
M05 ? BHN e S ? 20220407 1215 36.71656418 GAU 0.0 0.0 324.25745 0.0
M13 ? BHZ e P c 20220407 1215 36.67972946 GAU 0.0 0.0 -255.77908 0.0
M13 ? BHE e S ? 20220407 1215 37.03892517 GAU 0.0 0.0 -919.06836 0.0
M11 ? BHZ e P c 20220407 1215 36.94023514 GAU 0.0 0.0 -56.96149 0.0
M11 ? BHN e S ? 20220407 1215 37.48651886 GAU 0.0 0.0 -764.48040 0.0
M06 ? BHZ e P c 20220407 1215 37.05092621 GAU 0.0 0.0 -415.07022 0.0
M06 ? BHE i S c 20220407 1215 37.68429565 GAU 0.0 0.0 -1434.07480 0.0
M02 ? BHZ e P c 20220407 1215 37.15716934 GAU 0.0 0.0 828.47490 0.0
M02 ? BHN e S ? 20220407 1215 37.91748047 GAU 0.0 0.0 549.93085 0.0

M06 ? BHZ i P d 20220408 2258 15.39795589 GAU 0.0 0.0 -129.47595 0.0
M06 ? BHN e S c 20220408 2258 15.93799782 GAU 0.0 0.0 -558.91296 0.0
M11 ? BHZ e P c 20220408 2258 15.52116013 GAU 0.0 0.0 -215.95126 0.0
M11 ? BHN i S d 20220408 2258 16.24747658 GAU 0.0 0.0 641.92786 0.0
M05 ? BHZ e P c 20220408 2258 15.90478897 GAU 0.0 0.0 88.01431 0.0
M05 ? BHN e S c 20220408 2258 16.79581261 GAU 0.0 0.0 3.85326 0.0
M08 ? BHZ i P c 20220408 2258 15.91564178 GAU 0.0 0.0 58.07241 0.0
M08 ? BHE i S d 20220408 2258 16.90885735 GAU 0.0 0.0 61.70472 0.0

M04 ? BHZ e P c 20220414 1033 30.48404312 GAU 0.0 0.0 793.45960 0.0
M04 ? BHE e S c 20220414 1033 30.54644966 GAU 0.0 0.0 641.07100 0.0
M02 ? BHZ e P c 20220414 1033 31.43640900 GAU 0.0 0.0 -6743.51500 0.0
M02 ? BHN e S c 20220414 1033 31.55307198 GAU 0.0 0.0 -846.80255 0.0
M06 ? BHZ e P c 20220414 1033 31.68571091 GAU 0.0 0.0 -2261.10740 0.0
M06 ? BHE e S c 20220414 1033 31.89539719 GAU 0.0 0.0 -4129.34230 0.0
M14 ? BHZ e P c 20220414 1033 32.06641388 GAU 0.0 0.0 -3294.85300 0.0
M14 ? BHN e S c 20220414 1033 32.42556763 GAU 0.0 0.0 -2345.81570 0.0

M04 ? BHZ e P c 20220416 0842 25.46049881 GAU 0.0 0.0 -1442.67540 0.0
M04 ? BHN i S c 20220416 0842 26.04240608 GAU 0.0 0.0 -3756.39380 0.0
M06 ? BHZ i P d 20220416 0842 25.52490234 GAU 0.0 0.0 -788.77660 0.0
M06 ? BHN i S d 20220416 0842 26.06457138 GAU 0.0 0.0 -7107.66000 0.0
M14 ? BHZ e P c 20220416 0842 25.54932785 GAU 0.0 0.0 -373.01355 0.0
M14 ? BHN e S ? 20220416 0842 26.06821823 GAU 0.0 0.0 -4923.36430 0.0
M11 ? BHZ e P d 20220416 0842 25.68194199 GAU 0.0 0.0 262.55830 0.0
M11 ? BHN i S d 20220416 0842 26.30064774 GAU 0.0 0.0 -527.02220 0.0
M13 ? BHZ e P c 20220416 0842 25.89205170 GAU 0.0 0.0 -205.38805 0.0
M13 ? BHN e S ? 20220416 0842 26.69758034 GAU 0.0 0.0 -1373.55590 0.0
M08 ? BHZ e P c 20220416 0842 26.18004417 GAU 0.0 0.0 11.65880 0.0
M08 ? BHN e S c 20220416 0842 27.17005730 GAU 0.0 0.0 -3273.50500 0.0

M06 ? BHZ i P c 20220417 0713 34.43153381 GAU 0.0 0.0 109.34689 0.0
M06 ? BHN i S c 20220417 0713 34.95036316 GAU 0.0 0.0 1027.89830 0.0
M14 ? BHZ e P c 20220417 0713 34.50150299 GAU 0.0 0.0 -38.92406 0.0
M14 ? BHE i S d 20220417 0713 35.00854111 GAU 0.0 0.0 3613.10300 0.0
M11 ? BHZ i P c 20220417 0713 34.53411102 GAU 0.0 0.0 -23.49986 0.0
M11 ? BHN i S c 20220417 0713 35.14760971 GAU 0.0 0.0 -1533.28630 0.0
M04 ? BHZ e P c 20220417 0713 34.54434586 GAU 0.0 0.0 -1924.24500 0.0
M04 ? BHN i S c 20220417 0713 35.04847336 GAU 0.0 0.0 5628.70100 0.0
M02 ? BHZ e P c 20220417 0713 34.55456924 GAU 0.0 0.0 503.06046 0.0
M02 ? BHN i S d 20220417 0713 35.22291946 GAU 0.0 0.0 318.66983 0.0
M08 ? BHZ e P c 20220417 0713 34.89418793 GAU 0.0 0.0 125.63803 0.0
M08 ? BHN e S ? 20220417 0713 35.88502121 GAU 0.0 0.0 -4100.72170 0.0
M05 ? BHZ e P d 20220417 0713 35.02302933 GAU 0.0 0.0 340.98960 0.0
M05 ? BHE i S d 20220417 0713 36.22407150 GAU 0.0 0.0 959.78094 0.0

M06 ? BHZ i P d 20220417 0728 11.89696789 GAU 0.0 0.0 -131.05746 0.0
M06 ? BHE i S d 20220417 0728 12.43466473 GAU 0.0 0.0 7188.80270 0.0
M14 ? BHZ i P c 20220417 0728 11.90429878 GAU 0.0 0.0 579.02660 0.0
M14 ? BHN e S ? 20220417 0728 12.55191994 GAU 0.0 0.0 -11165.46200 0.0
M02 ? BHZ e P c 20220417 0728 11.96214390 GAU 0.0 0.0 -407.27350 0.0
M02 ? BHE i S c 20220417 0728 12.68605137 GAU 0.0 0.0 -2532.18500 0.0
M04 ? BHZ e P c 20220417 0728 11.97269630 GAU 0.0 0.0 -2235.13040 0.0
M04 ? BHN e S ? 20220417 0728 12.56590748 GAU 0.0 0.0 -10090.48200 0.0
M11 ? BHZ e P c 20220417 0728 12.07314968 GAU 0.0 0.0 161.21715 0.0
M11 ? BHN i S c 20220417 0728 12.74675655 GAU 0.0 0.0 -6206.16600 0.0
M15 ? BHZ e P c 20220417 0728 12.61422825 GAU 0.0 0.0 -673.08923 0.0
M15 ? BHN e S ? 20220417 0728 13.65942383 GAU 0.0 0.0 1535.35660 0.0

M06 ? BHZ i P c 20220417 1131 48.22821045 GAU 0.0 0.0 713.87463 0.0
M06 ? BHN e S c 20220417 1131 48.64521408 GAU 0.0 0.0 -1363.81930 0.0
M04 ? BHZ e P c 20220417 1131 48.35987473 GAU 0.0 0.0 -294.15260 0.0
M04 ? BHE e S ? 20220417 1131 48.91507339 GAU 0.0 0.0 -9176.25700 0.0
M14 ? BHZ i P c 20220417 1131 48.37996292 GAU 0.0 0.0 1865.06420 0.0
M14 ? BHE e S ? 20220417 1131 48.99872589 GAU 0.0 0.0 -9108.26500 0.0
M11 ? BHZ i P c 20220417 1131 48.40724945 GAU 0.0 0.0 -64.96822 0.0
M11 ? BHN e S ? 20220417 1131 49.01220322 GAU 0.0 0.0 -940.62164 0.0
M02 ? BHZ e P c 20220417 1131 48.42453384 GAU 0.0 0.0 -227.27148 0.0
M02 ? BHN e S c 20220417 1131 49.05580902 GAU 0.0 0.0 -17218.91400 0.0
M10 ? BHZ e P c 20220417 1131 48.80702209 GAU 0.0 0.0 -505.16867 0.0
M10 ? BHN e S ? 20220417 1131 49.75393295 GAU 0.0 0.0 887.42980 0.0
M08 ? BHZ e P c 20220417 1131 48.81774521 GAU 0.0 0.0 -137.33673 0.0
M08 ? BHN i S d 20220417 1131 49.82095337 GAU 0.0 0.0 276.26870 0.0

M06 ? BHZ e P c 20220417 1303  4.55229282 GAU 0.0 0.0 -14.07812 0.0
M06 ? BHE e S d 20220417 1303  5.08628464 GAU 0.0 0.0 -494.78397 0.0
M04 ? BHZ e P c 20220417 1303  4.56434631 GAU 0.0 0.0 -838.97064 0.0
M04 ? BHN e S ? 20220417 1303  5.09715986 GAU 0.0 0.0 -1416.20720 0.0
M11 ? BHZ e P c 20220417 1303  4.58303261 GAU 0.0 0.0 -5.90431 0.0
M11 ? BHN i S c 20220417 1303  5.18455315 GAU 0.0 0.0 -1228.75610 0.0
M14 ? BHZ e P c 20220417 1303  4.58635855 GAU 0.0 0.0 820.56120 0.0
M14 ? BHE i S c 20220417 1303  5.13897657 GAU 0.0 0.0 5469.17500 0.0
M02 ? BHZ e P c 20220417 1303  4.71765852 GAU 0.0 0.0 498.15347 0.0
M02 ? BHN i S c 20220417 1303  5.40011406 GAU 0.0 0.0 -869.95490 0.0
M13 ? BHZ i P d 20220417 1303  4.88257551 GAU 0.0 0.0 253.38733 0.0
M13 ? BHE i S c 20220417 1303  5.57065487 GAU 0.0 0.0 1625.65050 0.0
M08 ? BHZ i P c 20220417 1303  4.98923206 GAU 0.0 0.0 522.08500 0.0
M08 ? BHE e S c 20220417 1303  5.83319330 GAU 0.0 0.0 -53.33046 0.0
M05 ? BHZ e P d 20220417 1303  5.13847446 GAU 0.0 0.0 178.23515 0.0
M05 ? BHN e S c 20220417 1303  6.07845592 GAU 0.0 0.0 -435.72632 0.0

M03 ? BHZ e P c 20220417 2339 35.04584503 GAU 0.0 0.0 -6214.62500 0.0
M03 ? BHN i S d 20220417 2339 35.13449478 GAU 0.0 0.0 45443.75400 0.0
M14 ? BHZ e P c 20220417 2339 36.50295258 GAU 0.0 0.0 -249.45450 0.0
M14 ? BHE i S d 20220417 2339 36.72686386 GAU 0.0 0.0 563.10516 0.0
M02 ? BHZ e P c 20220417 2339 36.58356094 GAU 0.0 0.0 -77.26831 0.0
M02 ? BHE e S c 20220417 2339 36.74251938 GAU 0.0 0.0 -8755.96700 0.0
M08 ? BHZ e P c 20220417 2339 36.74469757 GAU 0.0 0.0 2977.70580 0.0
M08 ? BHE e S c 20220417 2339 36.83122635 GAU 0.0 0.0 9903.14500 0.0
M04 ? BHZ e P c 20220417 2339 37.34248734 GAU 0.0 0.0 -3894.97530 0.0
M04 ? BHE i S c 20220417 2339 37.51279068 GAU 0.0 0.0 -12644.14700 0.0

M01 ? BHZ e P d 20220417 2355 44.12738037 GAU 0.0 0.0 -64.21341 0.0
M01 ? BHE e S d 20220417 2355 44.24755859 GAU 0.0 0.0 6528.11800 0.0
M05 ? BHZ e P c 20220417 2355 45.33787155 GAU 0.0 0.0 665.89740 0.0
M05 ? BHN i S d 20220417 2355 45.50087738 GAU 0.0 0.0 -6602.71000 0.0
M08 ? BHZ e P c 20220417 2355 46.42850113 GAU 0.0 0.0 -1040.10800 0.0
M08 ? BHN e S c 20220417 2355 46.70525360 GAU 0.0 0.0 -6041.27800 0.0
M13 ? BHZ e P c 20220417 2355 47.08523560 GAU 0.0 0.0 -1621.42460 0.0
M13 ? BHN e S c 20220417 2355 47.50774765 GAU 0.0 0.0 342.76080 0.0

M06 ? BHZ i P c 20220419 0625 42.33625412 GAU 0.0 0.0 -361.02655 0.0
M06 ? BHN i S c 20220419 0625 42.84593582 GAU 0.0 0.0 -2883.44630 0.0
M14 ? BHZ i P c 20220419 0625 42.45209885 GAU 0.0 0.0 7665.47900 0.0
M14 ? BHE i S d 20220419 0625 42.93971252 GAU 0.0 0.0 34340.77300 0.0
M11 ? BHZ i P c 20220419 0625 42.45511627 GAU 0.0 0.0 881.04510 0.0
M11 ? BHN i S c 20220419 0625 43.08278656 GAU 0.0 0.0 -11739.70800 0.0
M04 ? BHZ e P c 20220419 0625 42.46146393 GAU 0.0 0.0 -2404.84180 0.0
M04 ? BHN i S c 20220419 0625 42.95298386 GAU 0.0 0.0 15934.20200 0.0
M02 ? BHZ e P c 20220419 0625 42.47689438 GAU 0.0 0.0 -437.23310 0.0
M02 ? BHN i S d 20220419 0625 43.11751938 GAU 0.0 0.0 6055.55300 0.0
M03 ? BHZ i P c 20220419 0625 42.68914032 GAU 0.0 0.0 -4097.37160 0.0
M03 ? BHN e S c 20220419 0625 43.30585480 GAU 0.0 0.0 -1004.75240 0.0
M13 ? BHZ i P c 20220419 0625 42.68940735 GAU 0.0 0.0 931.07697 0.0
M13 ? BHN e S ? 20220419 0625 43.33898926 GAU 0.0 0.0 6664.29740 0.0
M08 ? BHZ e P d 20220419 0625 42.77296448 GAU 0.0 0.0 239.12020 0.0
M08 ? BHN e S ? 20220419 0625 43.69871521 GAU 0.0 0.0 -12808.99200 0.0
M10 ? BHZ e P c 20220419 0625 42.77726364 GAU 0.0 0.0 969.04250 0.0
M10 ? BHN e S ? 20220419 0625 43.55662918 GAU 0.0 0.0 -6159.77540 0.0
M15 ? BHZ e P d 20220419 0625 42.92311478 GAU 0.0 0.0 524.22925 0.0
M15 ? BHE e S c 20220419 0625 43.97948837 GAU 0.0 0.0 -4090.00200 0.0
M05 ? BHZ i P c 20220419 0625 42.99531555 GAU 0.0 0.0 -2531.84380 0.0
M05 ? BHN e S ? 20220419 0625 44.08323288 GAU 0.0 0.0 7888.88100 0.0

M06 ? BHZ i P c 20220419 0626  5.24810362 GAU 0.0 0.0 8713.24900 0.0
M06 ? BHN i S c 20220419 0626  5.76600885 GAU 0.0 0.0 -5723.72170 0.0
M02 ? BHZ e P c 20220419 0626  5.30915928 GAU 0.0 0.0 -4661.33000 0.0
M02 ? BHN i S d 20220419 0626  5.96551275 GAU 0.0 0.0 45362.49200 0.0
M14 ? BHZ i P c 20220419 0626  5.33270741 GAU 0.0 0.0 -717.88790 0.0
M14 ? BHE e S c 20220419 0626  5.77500248 GAU 0.0 0.0 -12501.27200 0.0
M11 ? BHZ i P c 20220419 0626  5.36178064 GAU 0.0 0.0 859.18585 0.0
M11 ? BHE e S c 20220419 0626  5.94506931 GAU 0.0 0.0 -18216.00200 0.0
M04 ? BHZ i P c 20220419 0626  5.37329960 GAU 0.0 0.0 -700.93890 0.0
M04 ? BHN i S c 20220419 0626  5.81284761 GAU 0.0 0.0 -8061.24000 0.0
M03 ? BHZ i P d 20220419 0626  5.54558182 GAU 0.0 0.0 -1782.69800 0.0
M03 ? BHN e S c 20220419 0626  6.28997183 GAU 0.0 0.0 -23766.29900 0.0
M13 ? BHZ i P c 20220419 0626  5.59525919 GAU 0.0 0.0 1041.62670 0.0
M13 ? BHE e S c 20220419 0626  6.23114824 GAU 0.0 0.0 -15731.00600 0.0
M08 ? BHZ e P d 20220419 0626  5.67193508 GAU 0.0 0.0 -1547.14940 0.0
M08 ? BHN e S ? 20220419 0626  6.58513975 GAU 0.0 0.0 6386.69600 0.0
M10 ? BHZ i P c 20220419 0626  5.68842936 GAU 0.0 0.0 -285.67440 0.0
M10 ? BHN e S c 20220419 0626  6.49059010 GAU 0.0 0.0 -16098.92200 0.0
M05 ? BHZ i P d 20220419 0626  5.78369761 GAU 0.0 0.0 2151.96880 0.0
M05 ? BHN i S c 20220419 0626  6.85379839 GAU 0.0 0.0 -9106.76200 0.0
M15 ? BHZ i P d 20220419 0626  5.84529448 GAU 0.0 0.0 2059.33100 0.0
M15 ? BHE i S c 20220419 0626  6.97989368 GAU 0.0 0.0 -9045.17800 0.0
M12 ? BHZ i P c 20220419 0626  6.06805658 GAU 0.0 0.0 -3205.50830 0.0
M12 ? BHN i S c 20220419 0626  7.41258526 GAU 0.0 0.0 -40912.24600 0.0

M06 ? BHZ i P c 20220419 0626 48.07770538 GAU 0.0 0.0 5243.39600 0.0
M06 ? BHE i S d 20220419 0626 48.58906937 GAU 0.0 0.0 11863.35400 0.0
M04 ? BHZ e P c 20220419 0626 48.17067337 GAU 0.0 0.0 3525.76560 0.0
M04 ? BHN e S c 20220419 0626 48.67933273 GAU 0.0 0.0 -10002.36200 0.0
M14 ? BHZ i P c 20220419 0626 48.18148041 GAU 0.0 0.0 1006.13350 0.0
M14 ? BHE i S d 20220419 0626 48.69049835 GAU 0.0 0.0 33490.79700 0.0
M11 ? BHZ i P c 20220419 0626 48.20302963 GAU 0.0 0.0 6609.18460 0.0
M11 ? BHN i S c 20220419 0626 48.79414749 GAU 0.0 0.0 -27175.14600 0.0
M02 ? BHZ e P d 20220419 0626 48.23519897 GAU 0.0 0.0 1516.36410 0.0
M02 ? BHN i S d 20220419 0626 48.84812164 GAU 0.0 0.0 12942.39000 0.0
M03 ? BHZ e P d 20220419 0626 48.35193634 GAU 0.0 0.0 5784.50730 0.0
M03 ? BHN e S c 20220419 0626 49.17135239 GAU 0.0 0.0 -3187.34400 0.0
M13 ? BHZ i P c 20220419 0626 48.41224670 GAU 0.0 0.0 -1736.04530 0.0
M13 ? BHE e S c 20220419 0626 49.06791306 GAU 0.0 0.0 -13204.14900 0.0
M10 ? BHZ e P c 20220419 0626 48.49624634 GAU 0.0 0.0 -4005.46700 0.0
M10 ? BHN i S c 20220419 0626 49.34383011 GAU 0.0 0.0 -6503.32600 0.0
M15 ? BHZ e P c 20220419 0626 48.64770889 GAU 0.0 0.0 -1671.94030 0.0
M15 ? BHN e S c 20220419 0626 49.76615524 GAU 0.0 0.0 -8404.70000 0.0
M05 ? BHZ e P d 20220419 0626 48.66202927 GAU 0.0 0.0 704.38306 0.0
M05 ? BHE i S c 20220419 0626 49.76203537 GAU 0.0 0.0 -9391.31200 0.0
M12 ? BHZ e P d 20220419 0626 48.87136841 GAU 0.0 0.0 -189.78035 0.0
M12 ? BHE e S d 20220419 0626 50.13381958 GAU 0.0 0.0 13899.23600 0.0

M06 ? BHZ i P c 20220419 0627 55.95520020 GAU 0.0 0.0 -1245.38460 0.0
M06 ? BHN i S c 20220419 0627 56.42059326 GAU 0.0 0.0 4644.17770 0.0
M14 ? BHZ i P c 20220419 0627 56.05664825 GAU 0.0 0.0 1208.19230 0.0
M14 ? BHE e S c 20220419 0627 56.54953766 GAU 0.0 0.0 7801.43700 0.0
M11 ? BHZ i P c 20220419 0627 56.08229065 GAU 0.0 0.0 6620.95100 0.0
M11 ? BHN i S c 20220419 0627 56.70114136 GAU 0.0 0.0 -8393.69800 0.0
M04 ? BHZ i P c 20220419 0627 56.08419037 GAU 0.0 0.0 -2634.07230 0.0
M04 ? BHN i S c 20220419 0627 56.56990814 GAU 0.0 0.0 -8295.47400 0.0
M02 ? BHZ e P c 20220419 0627 56.10498810 GAU 0.0 0.0 -1602.52110 0.0
M02 ? BHN i S d 20220419 0627 56.73774719 GAU 0.0 0.0 13446.83700 0.0
M03 ? BHZ i P d 20220419 0627 56.24035263 GAU 0.0 0.0 1511.28670 0.0
M03 ? BHE i S c 20220419 0627 56.97621918 GAU 0.0 0.0 -8927.60100 0.0
M13 ? BHZ i P c 20220419 0627 56.30212021 GAU 0.0 0.0 802.88330 0.0
M13 ? BHE e S c 20220419 0627 57.01706696 GAU 0.0 0.0 -1611.12780 0.0
M08 ? BHZ i P d 20220419 0627 56.36977768 GAU 0.0 0.0 954.24945 0.0
M08 ? BHE e S ? 20220419 0627 57.18223190 GAU 0.0 0.0 -5908.27700 0.0
M10 ? BHZ i P c 20220419 0627 56.37772751 GAU 0.0 0.0 2483.69920 0.0
M10 ? BHN i S c 20220419 0627 57.18566513 GAU 0.0 0.0 -2607.54170 0.0
M15 ? BHZ e P c 20220419 0627 56.51647186 GAU 0.0 0.0 63.23739 0.0
M15 ? BHE e S c 20220419 0627 57.54353333 GAU 0.0 0.0 -2521.47800 0.0
M05 ? BHZ i P d 20220419 0627 56.58237839 GAU 0.0 0.0 -1165.04630 0.0
M05 ? BHE i S c 20220419 0627 57.62033463 GAU 0.0 0.0 -2989.32150 0.0
M12 ? BHZ e P d 20220419 0627 56.74907684 GAU 0.0 0.0 -1029.75330 0.0
M12 ? BHN e S c 20220419 0627 57.91560745 GAU 0.0 0.0 -3591.10280 0.0

M06 ? BHZ i P c 20220419 0630 23.93987656 GAU 0.0 0.0 21013.41400 0.0
M06 ? BHE e S d 20220419 0630 24.40446091 GAU 0.0 0.0 3197.78560 0.0
M14 ? BHZ i P c 20220419 0630 24.02630424 GAU 0.0 0.0 3859.29640 0.0
M14 ? BHE e S c 20220419 0630 24.43979645 GAU 0.0 0.0 -3671.04300 0.0
M04 ? BHZ i P c 20220419 0630 24.04052162 GAU 0.0 0.0 -2983.36550 0.0
M04 ? BHN i S c 20220419 0630 24.51458549 GAU 0.0 0.0 -7725.72300 0.0
M11 ? BHZ i P c 20220419 0630 24.04087830 GAU 0.0 0.0 1182.10070 0.0
M11 ? BHN e S c 20220419 0630 24.66620064 GAU 0.0 0.0 -9333.42000 0.0
M02 ? BHZ i P d 20220419 0630 24.08820915 GAU 0.0 0.0 3556.06470 0.0
M02 ? BHN i S d 20220419 0630 24.65075493 GAU 0.0 0.0 11955.50300 0.0
M13 ? BHZ i P c 20220419 0630 24.25685883 GAU 0.0 0.0 255.75603 0.0
