M06 ? BHZ i P d 20220502 0830 19.66799927 GAU 0.01107242 0.0 -1675.75210 0.0
M06 ? BHN i S d 20220502 0830 20.19186592 GAU 0.02290650 0.0 473.36360 0.0
M02 ? BHZ e P d 20220502 0830 19.69309044 GAU 0.02296291 0.0 -754.35780 0.0
M02 ? BHE e S ? 20220502 0830 20.20842361 GAU 0.03444478 0.0 -2240.84420 0.0
M14 ? BHZ e P c 20220502 0830 19.72833824 GAU 0.01993332 0.0 -33.76117 0.0
M14 ? BHE e S ? 20220502 0830 20.28380966 GAU 0.01993689 0.0 -370.06223 0.0
M11 ? BHZ e P c 20220502 0830 19.73146057 GAU 0.02893346 0.0 -493.25165 0.0
M11 ? BHE e S ? 20220502 0830 20.33763885 GAU 0.03444216 0.0 -1483.81140 0.0
M13 ? BHZ e P c 20220502 0830 19.91870117 GAU 0.00969374 0.0 208.11086 0.0
M13 ? BHE e S ? 20220502 0830 20.59485435 GAU 0.01261762 0.0 720.75507 0.0
M08 ? BHZ e P c 20220502 0830 19.94327164 GAU 0.01107450 0.0 212.74269 0.0
M08 ? BHE e S ? 20220502 0830 20.65758324 GAU 0.00848776 0.0 -322.05810 0.0
M05 ? BHZ e P d 20220502 0830 20.04758263 GAU 0.02390430 0.0 -76.99172 0.0
M05 ? BHE e S c 20220502 0830 20.88492584 GAU 0.02871094 0.0 -647.36163 0.0

M11 ? BHZ e P c 20220513 0438  8.29092312 GAU 0.07142746 0.0 -1092.24730 0.0
M11 ? BHE e S ? 20220513 0438  8.87781143 GAU 0.07713623 0.0 575.72960 0.0
M14 ? BHZ e P c 20220513 0438  8.34605789 GAU 0.05952027 0.0 1169.38880 0.0
M14 ? BHE e S ? 20220513 0438  8.97031975 GAU 0.04166419 0.0 -2336.34180 0.0
M02 ? BHZ e P c 20220513 0438  8.41191292 GAU 0.10285140 0.0 156.71602 0.0
M02 ? BHN e S ? 20220513 0438  9.03116512 GAU 0.12342122 0.0 422.52563 0.0
M13 ? BHZ e P c 20220513 0438  8.86009693 GAU 0.01555178 0.0 -632.89790 0.0
M13 ? BHE e S ? 20220513 0438  9.90450191 GAU 0.01911354 0.0 -1069.23220 0.0

M11 ? BHZ e P d 20220513 2014 42.22717667 GAU 0.03099795 0.0 -176.52617 0.0
M11 ? BHN e S ? 20220513 2014 42.72726440 GAU 0.03099795 0.0 -98.82938 0.0
M14 ? BHZ e P c 20220513 2014 42.26425171 GAU 0.03789196 0.0 -201.69577 0.0
M14 ? BHN e S ? 20220513 2014 42.79348373 GAU 0.02583751 0.0 1660.81570 0.0
M06 ? BHZ i P c 20220513 2014 42.26675797 GAU 0.01672939 0.0 -269.47058 0.0
M06 ? BHN e S ? 20220513 2014 42.77252960 GAU 0.01794434 0.0 1026.86830 0.0
M02 ? BHZ e P c 20220513 2014 42.30694199 GAU 0.03489177 0.0 -140.99152 0.0
M02 ? BHN e S ? 20220513 2014 42.87771606 GAU 0.03100077 0.0 -1188.29060 0.0
M13 ? BHZ e P c 20220513 2014 42.58439636 GAU 0.02755204 0.0 -333.92712 0.0
M13 ? BHN e S ? 20220513 2014 43.33869934 GAU 0.04821353 0.0 -206.33244 0.0

M06 ? BHZ e P c 20220513 2135  5.43534374 GAU 0.02391817 0.0 44.80971 0.0
M06 ? BHE e S d 20220513 2135  5.98567772 GAU 0.02870913 0.0 -3167.26510 0.0
M11 ? BHZ e P d 20220513 2135  5.46458530 GAU 0.05166385 0.0 271.84033 0.0
M11 ? BHE e S d 20220513 2135  6.16472912 GAU 0.03004099 0.0 314.63214 0.0
M14 ? BHZ e P c 20220513 2135  5.61085987 GAU 0.02823887 0.0 438.27454 0.0
M14 ? BHE e S ? 20220513 2135  6.20030451 GAU 0.03349609 0.0 1855.14920 0.0
M02 ? BHZ e P c 20220513 2135  5.64578295 GAU 0.01395227 0.0 -540.81520 0.0
M02 ? BHE e S c 20220513 2135  6.28652716 GAU 0.02583358 0.0 -1832.24410 0.0
M13 ? BHZ e P c 20220513 2135  5.85944843 GAU 0.04133155 0.0 -231.84125 0.0
M13 ? BHN e S ? 20220513 2135  6.77039623 GAU 0.04066269 0.0 -537.53480 0.0
M08 ? BHZ e P d 20220513 2135  6.01468515 GAU 0.01913538 0.0 68.43761 0.0
M08 ? BHN e S d 20220513 2135  6.94324017 GAU 0.02152831 0.0 -46.85478 0.0
M05 ? BHZ e P d 20220513 2135  6.15423012 GAU 0.07142201 0.0 67.68258 0.0
M05 ? BHE e S ? 20220513 2135  7.22482109 GAU 0.06547229 0.0 -97.01517 0.0
M12 ? BHZ e P c 20220513 2135  6.29554176 GAU 0.03968192 0.0 -349.84903 0.0
M12 ? BHE e S ? 20220513 2135  7.55027342 GAU 0.04761307 0.0 -140.58954 0.0

M06 ? BHZ e P c 20220514 2130  0.40321776 GAU 0.02245738 0.0 -116.76588 0.0
M06 ? BHE e S ? 20220514 2130  0.93036377 GAU 0.05373593 0.0 -443.30020 0.0
M11 ? BHZ e P c 20220514 2130  0.64692283 GAU 0.06094017 0.0 -163.59315 0.0
M11 ? BHE e S ? 20220514 2130  1.30094111 GAU 0.04960022 0.0 -130.03513 0.0
M13 ? BHZ e P c 20220514 2130  0.99797875 GAU 0.03109434 0.0 -109.63656 0.0
M13 ? BHN e S ? 20220514 2130  1.81212080 GAU 0.03719771 0.0 -351.83432 0.0
M08 ? BHZ e P c 20220514 2130  1.00761354 GAU 0.01993290 0.0 172.41205 0.0
M08 ? BHE e S ? 20220514 2130  2.02974463 GAU 0.02870509 0.0 8.84623 0.0
M05 ? BHZ e P c 20220514 2130  1.40898359 GAU 0.08570641 0.0 195.59528 0.0
M05 ? BHE e S ? 20220514 2130  2.73237872 GAU 0.02111447 0.0 -303.91540 0.0
M12 ? BHZ e P c 20220514 2130  1.48066282 GAU 0.07853293 0.0 -653.43120 0.0
M12 ? BHE e S ? 20220514 2130  2.84973931 GAU 0.02208626 0.0 -134.78076 0.0

M04 ? BHZ e P c 20220518 0257 36.01043701 GAU 0.01993227 0.0 2458.60740 0.0
M04 ? BHE e S ? 20220518 0257 37.25902557 GAU 0.05372709 0.0 508.41388 0.0
M06 ? BHZ e P c 20220518 0257 36.03654480 GAU 0.02391969 0.0 1418.23160 0.0
M06 ? BHE e S ? 20220518 0257 37.33306885 GAU 0.05373593 0.0 3616.43900 0.0
M02 ? BHZ e P d 20220518 0257 36.14772797 GAU 0.05952027 0.0 -2379.48540 0.0
M02 ? BHE e S ? 20220518 0257 37.66642761 GAU 0.02755495 0.0 -922.47350 0.0
M11 ? BHZ e P c 20220518 0257 36.43820190 GAU 0.04546656 0.0 334.47210 0.0
M11 ? BHN e S ? 20220518 0257 38.13409424 GAU 0.02042846 0.0 -1326.19530 0.0
M13 ? BHZ e P c 20220518 0257 36.44198227 GAU 0.02755386 0.0 219.55320 0.0
M13 ? BHN e S ? 20220518 0257 38.15893555 GAU 0.01806687 0.0 -1861.54810 0.0
M08 ? BHZ e P d 20220518 0257 36.63384628 GAU 0.02526048 0.0 -336.39032 0.0
M08 ? BHE e S ? 20220518 0257 38.34973907 GAU 0.00799100 0.0 -2678.51560 0.0
M05 ? BHZ e P c 20220518 0257 36.67003632 GAU 0.04546687 0.0 1070.65820 0.0
M05 ? BHE e S ? 20220518 0257 38.62089539 GAU 0.11143664 0.0 -2158.58960 0.0
M12 ? BHZ e P c 20220518 0257 36.83755875 GAU 0.03134272 0.0 -1051.03590 0.0
M12 ? BHE e S ? 20220518 0257 38.76810074 GAU 0.03207307 0.0 2177.91650 0.0

M08 ? BHZ e P d 20220521 2155 58.29277802 GAU 0.14217901 0.0 282.83505 0.0
M08 ? BHE e S ? 20220521 2155 58.99069214 GAU 0.06171139 0.0 108.35861 0.0
M12 ? BHZ e P d 20220521 2155 58.40351486 GAU 0.04761471 0.0 -366.54852 0.0
M12 ? BHE e S ? 20220521 2155 59.24982834 GAU 0.09873378 0.0 -570.00000 0.0
M06 ? BHZ e P c 20220521 2155 58.53608704 GAU 0.04113838 0.0 -872.68365 0.0
M06 ? BHN e S ? 20220521 2155 59.35988617 GAU 0.08308187 0.0 -618.89520 0.0
M05 ? BHZ e P d 20220521 2155 58.55238342 GAU 0.10663633 0.0 238.89369 0.0
M05 ? BHE e S ? 20220521 2155 59.44886017 GAU 0.06856408 0.0 -285.11945 0.0

M10 ? BHZ e P c 20220525 1507 16.44325638 GAU 0.04698642 0.0 3970.24500 0.0
M10 ? BHN e S ? 20220525 1507 16.97120667 GAU 0.08885905 0.0 -10932.91400 0.0
M02 ? BHZ e P c 20220525 1507 16.45562172 GAU 0.07856157 0.0 2811.19630 0.0
M02 ? BHN e S ? 20220525 1507 16.89530945 GAU 0.08570692 0.0 7858.86100 0.0
M05 ? BHZ e P d 20220525 1507 16.46386337 GAU 0.03554497 0.0 -3412.76660 0.0
M05 ? BHE e S ? 20220525 1507 17.00517082 GAU 0.06428019 0.0 -415.71347 0.0
M04 ? BHZ e P d 20220525 1507 16.51325035 GAU 0.04959672 0.0 1673.60640 0.0
M04 ? BHE e S ? 20220525 1507 16.92363167 GAU 0.11998437 0.0 12683.97000 0.0
M12 ? BHZ e P d 20220525 1507 16.54566765 GAU 0.03702611 0.0 -924.07890 0.0
M12 ? BHN e S ? 20220525 1507 16.99223137 GAU 0.11848438 0.0 11796.50900 0.0
M13 ? BHZ e P c 20220525 1507 16.57516861 GAU 0.03720180 0.0 2039.10360 0.0
M13 ? BHE e S ? 20220525 1507 16.98242950 GAU 0.07199229 0.0 1574.83140 0.0
M06 ? BHZ e P c 20220525 1507 16.58067131 GAU 0.04285321 0.0 4890.93260 0.0
M06 ? BHE e S ? 20220525 1507 17.25186920 GAU 0.08570510 0.0 2682.22680 0.0
M14 ? BHZ e P d 20220525 1507 16.59382057 GAU 0.05714197 0.0 2936.02730 0.0
M14 ? BHE e S ? 20220525 1507 16.90110016 GAU 0.04166419 0.0 250.96803 0.0
M03 ? BHZ e P c 20220525 1507 16.60113907 GAU 0.05713673 0.0 -1175.01500 0.0
M03 ? BHN e S d 20220525 1507 17.18635368 GAU 0.10284612 0.0 -24243.98800 0.0
M01 ? BHZ i P d 20220525 1507 16.67860222 GAU 0.08227816 0.0 -4406.24560 0.0
M01 ? BHN e S ? 20220525 1507 17.24242973 GAU 0.05816225 0.0 -5235.74300 0.0
M08 ? BHZ e P d 20220525 1507 16.73439598 GAU 0.04960240 0.0 -655.35925 0.0
M08 ? BHN e S ? 20220525 1507 17.46756935 GAU 0.05000488 0.0 1228.99680 0.0
M11 ? BHZ e P c 20220525 1507 16.75123024 GAU 0.04166284 0.0 1589.61150 0.0
M11 ? BHN e S ? 20220525 1507 17.18807411 GAU 0.08570353 0.0 8350.87100 0.0
M15 ? BHZ e P d 20220525 1507 17.01352119 GAU 0.07199888 0.0 -439.43800 0.0
M15 ? BHE e S ? 20220525 1507 17.93228531 GAU 0.05999485 0.0 2768.12800 0.0

M04 ? BHZ e P c 20220526 2327 46.71483994 GAU 0.03100030 0.0 -2237.46920 0.0
M04 ? BHN e S ? 20220526 2327 47.19207382 GAU 0.00570428 0.0 -3607.00680 0.0
M14 ? BHZ e P c 20220526 2327 46.73681259 GAU 0.05713946 0.0 1450.26070 0.0
M14 ? BHE e S ? 20220526 2327 47.29751205 GAU 0.03472034 0.0 -745.19244 0.0
M02 ? BHZ e P c 20220526 2327 46.76884842 GAU 0.00406621 0.0 356.29210 0.0
M02 ? BHN e S ? 20220526 2327 47.29590225 GAU 0.05455639 0.0 -6893.53370 0.0
M06 ? BHZ e P d 20220526 2327 46.77000809 GAU 0.03306448 0.0 500.81577 0.0
M06 ? BHN e S ? 20220526 2327 47.36891556 GAU 0.01855171 0.0 -1275.33510 0.0
M13 ? BHZ e P c 20220526 2327 46.86311722 GAU 0.01398643 0.0 -582.18800 0.0
M13 ? BHN e S ? 20220526 2327 47.49833679 GAU 0.03306250 0.0 914.13403 0.0
M05 ? BHZ e P d 20220526 2327 46.91299057 GAU 0.06427883 0.0 896.90590 0.0
M05 ? BHE e S ? 20220526 2327 47.58160400 GAU 0.03166328 0.0 708.82404 0.0

