M05 ? BHZ e P c 20220602 0626 53.34352875 GAU 0.03272127 0.0 -2159.02780 0.0
M05 ? BHN e S ? 20220602 0626 53.81200409 GAU 0.01488037 0.0 -4364.58700 0.0
M10 ? BHZ e P d 20220602 0626 53.52457809 GAU 0.02296319 0.0 2886.08520 0.0
M10 ? BHN e S ? 20220602 0626 54.08120346 GAU 0.02893880 0.0 -3021.08420 0.0
M12 ? BHZ e P c 20220602 0626 53.72423172 GAU 0.00688847 0.0 -1341.27250 0.0
M12 ? BHN e S ? 20220602 0626 54.37491989 GAU 0.03968039 0.0 -1479.21170 0.0
M11 ? BHZ e P c 20220602 0626 53.77018356 GAU 0.05713673 0.0 -123.89004 0.0
M11 ? BHN e S ? 20220602 0626 54.52404785 GAU 0.04999702 0.0 -535.87524 0.0
M14 ? BHZ e P c 20220602 0626 53.79264069 GAU 0.01195743 0.0 -993.02830 0.0
M14 ? BHN e S ? 20220602 0626 54.60759735 GAU 0.02856250 0.0 -1887.80710 0.0
M06 ? BHZ e P c 20220602 0626 53.89143372 GAU 0.01377718 0.0 4.69231 0.0
M06 ? BHN e S ? 20220602 0626 54.74002457 GAU 0.02380497 0.0 -414.68768 0.0

M02 ? BHZ e P c 20220606 1919 47.44277191 GAU 0.02756001 0.0 -636.18720 0.0
M02 ? BHE e S ? 20220606 1919 47.98244095 GAU 0.03991142 0.0 2145.90940 0.0
M04 ? BHZ e P c 20220606 1919 47.45887375 GAU 0.03306448 0.0 -2181.10030 0.0
M04 ? BHN e S ? 20220606 1919 47.98001480 GAU 0.03445096 0.0 -312.08750 0.0
M06 ? BHZ e P c 20220606 1919 47.63348007 GAU 0.00778799 0.0 83.01211 0.0
M06 ? BHE e S ? 20220606 1919 48.16720581 GAU 0.03788983 0.0 -804.50616 0.0
M14 ? BHZ e P c 20220606 1919 47.73906708 GAU 0.02591135 0.0 94.95035 0.0
M14 ? BHE e S ? 20220606 1919 48.33047104 GAU 0.02392804 0.0 -1412.03860 0.0
M11 ? BHZ e P c 20220606 1919 47.78225327 GAU 0.02391828 0.0 -126.87619 0.0
M11 ? BHN e S ? 20220606 1919 48.38557053 GAU 0.03802704 0.0 231.84785 0.0
M13 ? BHZ e P c 20220606 1919 47.98900986 GAU 0.02192499 0.0 -209.92075 0.0
M13 ? BHE e S ? 20220606 1919 48.75917435 GAU 0.03305625 0.0 -1257.58690 0.0
M08 ? BHZ e P c 20220606 1919 48.16315842 GAU 0.03444296 0.0 -131.73962 0.0
M08 ? BHN e S ? 20220606 1919 49.06941223 GAU 0.04546780 0.0 733.79486 0.0
M05 ? BHZ e P c 20220606 1919 48.24370575 GAU 0.05455848 0.0 410.56280 0.0
M05 ? BHN e S ? 20220606 1919 49.28631592 GAU 0.05455313 0.0 -430.79980 0.0
M15 ? BHZ e P c 20220606 1919 48.27715683 GAU 0.03100014 0.0 38.89402 0.0
M15 ? BHN e S ? 20220606 1919 49.30329514 GAU 0.02870180 0.0 -35.60487 0.0
M12 ? BHZ e P c 20220606 1919 48.50948715 GAU 0.01993259 0.0 -310.00000 0.0
M12 ? BHN e S ? 20220606 1919 49.78608704 GAU 0.05356569 0.0 -693.74190 0.0

M02 ? BHZ i P c 20220617 0600 20.83817482 GAU 0.02009357 0.0 7504.48140 0.0
M02 ? BHN e S ? 20220617 0600 21.06076431 GAU 0.03968039 0.0 7975.48050 0.0
M04 ? BHZ i P c 20220617 0600 20.91808701 GAU 0.02296291 0.0 -3481.19700 0.0
M04 ? BHE e S ? 20220617 0600 21.33167076 GAU 0.04463704 0.0 1016.29486 0.0
M06 ? BHZ i P d 20220617 0600 20.96835327 GAU 0.02411131 0.0 -1340.25710 0.0
M06 ? BHN e S ? 20220617 0600 21.32242393 GAU 0.04887146 0.0 -995.58600 0.0
M14 ? BHZ i P c 20220617 0600 20.98499107 GAU 0.01435097 0.0 -1804.68210 0.0
M14 ? BHN e S ? 20220617 0600 21.35013771 GAU 0.04133374 0.0 -690.19556 0.0
M13 ? BHZ e P d 20220617 0600 21.01774025 GAU 0.03320459 0.0 311.43567 0.0
M13 ? BHN e S ? 20220617 0600 21.46867371 GAU 0.01488037 0.0 -384.60345 0.0
M10 ? BHZ i P c 20220617 0600 21.08502197 GAU 0.02066621 0.0 -4819.97750 0.0
M10 ? BHN e S ? 20220617 0600 21.47508621 GAU 0.02975391 0.0 6772.81100 0.0
M05 ? BHZ i P c 20220617 0600 21.11902618 GAU 0.03467952 0.0 13909.32100 0.0
M05 ? BHE e S ? 20220617 0600 21.71079826 GAU 0.01785617 0.0 -14198.56300 0.0
M03 ? BHZ e P d 20220617 0600 21.12810135 GAU 0.04166353 0.0 -18490.50000 0.0
M03 ? BHN e S ? 20220617 0600 21.63508415 GAU 0.03968039 0.0 53.98912 0.0
M11 ? BHZ i P c 20220617 0600 21.16741180 GAU 0.02975935 0.0 -1001.64905 0.0
M11 ? BHN e S ? 20220617 0600 21.64162827 GAU 0.02480024 0.0 -5082.18800 0.0
M12 ? BHZ i P c 20220617 0600 21.24088287 GAU 0.02009203 0.0 535.89400 0.0
M12 ? BHE e S ? 20220617 0600 21.75433350 GAU 0.02975803 0.0 262.12256 0.0
M08 ? BHZ i P c 20220617 0600 21.27991676 GAU 0.04463876 0.0 182.04527 0.0
M08 ? BHN e S ? 20220617 0600 21.97878647 GAU 0.01284627 0.0 -2614.57080 0.0
M15 ? BHZ e P c 20220617 0600 21.53281021 GAU 0.02893284 0.0 1393.49790 0.0
M15 ? BHN e S ? 20220617 0600 22.28257561 GAU 0.02029586 0.0 -138.11061 0.0

M02 ? BHZ e P c 20220617 0600 30.53738022 GAU 0.03471924 0.0 10311.31100 0.0
M02 ? BHE e S ? 20220617 0600 30.90103340 GAU 0.04167188 0.0 -44849.25400 0.0
M06 ? BHZ e P c 20220617 0600 30.55625725 GAU 0.04959865 0.0 4451.10300 0.0
M06 ? BHE e S ? 20220617 0600 30.89953995 GAU 0.06999071 0.0 -6140.66160 0.0
M04 ? BHZ e P c 20220617 0600 30.56781197 GAU 0.03306699 0.0 3173.61840 0.0
M04 ? BHE e S ? 20220617 0600 30.89046860 GAU 0.03100781 0.0 4244.38400 0.0
M14 ? BHZ e P c 20220617 0600 30.70935822 GAU 0.01419610 0.0 -2240.98360 0.0
M14 ? BHE e S ? 20220617 0600 31.13307571 GAU 0.03471924 0.0 18072.12100 0.0
M13 ? BHZ e P c 20220617 0600 30.72904778 GAU 0.02631419 0.0 -837.73334 0.0
M13 ? BHE e S ? 20220617 0600 31.14987183 GAU 0.03571122 0.0 4997.70950 0.0
M11 ? BHZ e P c 20220617 0600 30.85647774 GAU 0.01892843 0.0 -2216.29570 0.0
M11 ? BHN e S ? 20220617 0600 31.38454437 GAU 0.01086539 0.0 -6591.00100 0.0
M10 ? BHZ e P d 20220617 0600 31.00801659 GAU 0.00843303 0.0 4334.39750 0.0
M10 ? BHN e S ? 20220617 0600 31.69271088 GAU 0.05713795 0.0 -16020.42500 0.0

M14 ? BHZ e P c 20220617 2152 30.87347603 GAU 0.03284219 0.0 -500.52567 0.0
M14 ? BHE e S ? 20220617 2152 31.45772743 GAU 0.04166441 0.0 -1181.58840 0.0
M11 ? BHZ e P c 20220617 2152 30.94048309 GAU 0.01993308 0.0 -131.71378 0.0
M11 ? BHE e S ? 20220617 2152 31.60730934 GAU 0.03471770 0.0 -745.08070 0.0
M06 ? BHZ i P d 20220617 2152 30.98397446 GAU 0.01245744 0.0 -107.63406 0.0
M06 ? BHE e S ? 20220617 2152 31.61355782 GAU 0.04132758 0.0 -932.63350 0.0
M09 ? BHZ i P c 20220617 2152 30.99758339 GAU 0.03099965 0.0 115.35696 0.0
M09 ? BHE e S ? 20220617 2152 31.67233086 GAU 0.04114667 0.0 -192.07007 0.0
M04 ? BHZ e P c 20220617 2152 31.01320267 GAU 0.03472034 0.0 -738.04770 0.0
M04 ? BHN e S ? 20220617 2152 31.66341782 GAU 0.02708090 0.0 150.95772 0.0
M13 ? BHZ e P c 20220617 2152 31.23360062 GAU 0.03306827 0.0 -447.68643 0.0
M13 ? BHE e S ? 20220617 2152 32.07955551 GAU 0.02029945 0.0 -552.14110 0.0
M05 ? BHZ e P c 20220617 2152 31.32875443 GAU 0.04642639 0.0 -48.96884 0.0
M05 ? BHN e S ? 20220617 2152 32.23804474 GAU 0.04999702 0.0 264.02094 0.0

M14 ? BHZ e P c 20220617 2155 39.55914688 GAU 0.01195908 0.0 -664.87460 0.0
M14 ? BHE e S ? 20220617 2155 40.07188797 GAU 0.01328908 0.0 -859.71240 0.0
M06 ? BHZ i P d 20220617 2155 39.55949020 GAU 0.00830568 0.0 -726.49930 0.0
M06 ? BHE e S c 20220617 2155 40.13603973 GAU 0.01674699 0.0 -111.80711 0.0
M11 ? BHZ e P c 20220617 2155 39.58347321 GAU 0.03100014 0.0 -234.76796 0.0
M11 ? BHE e S ? 20220617 2155 40.01278687 GAU 0.03719918 0.0 1013.18180 0.0
M04 ? BHZ e P c 20220617 2155 39.60901260 GAU 0.03099932 0.0 -524.77110 0.0
M04 ? BHE e S ? 20220617 2155 40.15664673 GAU 0.03731234 0.0 1526.99070 0.0
M09 ? BHZ i P c 20220617 2155 39.64337540 GAU 0.02153126 0.0 142.68167 0.0
M09 ? BHE e S ? 20220617 2155 40.30992508 GAU 0.02296354 0.0 -1024.22940 0.0
M02 ? BHZ e P c 20220617 2155 39.64596176 GAU 0.03306681 0.0 -995.13116 0.0
M02 ? BHE e S ? 20220617 2155 40.16036224 GAU 0.02893270 0.0 -574.92790 0.0
M13 ? BHZ i P d 20220617 2155 39.82194901 GAU 0.03444233 0.0 -108.46570 0.0
M13 ? BHE e S ? 20220617 2155 40.59773636 GAU 0.01794272 0.0 218.99692 0.0
M10 ? BHZ e P c 20220617 2155 39.84693527 GAU 0.03471787 0.0 -468.30203 0.0
M10 ? BHN e S ? 20220617 2155 40.67110825 GAU 0.01529105 0.0 299.62378 0.0
M08 ? BHZ e P c 20220617 2155 39.88153458 GAU 0.02009136 0.0 -487.66602 0.0
M08 ? BHE e S ? 20220617 2155 40.71924210 GAU 0.00773348 0.0 123.44102 0.0
M05 ? BHZ e P d 20220617 2155 40.05278015 GAU 0.02152685 0.0 374.14400 0.0
M05 ? BHN e S ? 20220617 2155 40.90153885 GAU 0.00644381 0.0 -451.28806 0.0
M12 ? BHZ i P c 20220617 2155 40.24117279 GAU 0.02391995 0.0 -490.17500 0.0
M12 ? BHE e S ? 20220617 2155 41.20584488 GAU 0.02360599 0.0 6.38635 0.0

M02 ? BHZ e P d 20220625 0351 25.83109856 GAU 0.03306699 0.0 1454.13640 0.0
M02 ? BHE e S ? 20220625 0351 26.22713852 GAU 0.02296319 0.0 -448.50024 0.0
M04 ? BHZ e P c 20220625 0351 25.87828255 GAU 0.04761496 0.0 -1799.87330 0.0
M04 ? BHE e S ? 20220625 0351 26.29757309 GAU 0.03721289 0.0 1894.50440 0.0
M06 ? BHZ e P c 20220625 0351 25.96140671 GAU 0.04285255 0.0 155.05005 0.0
M06 ? BHN e S ? 20220625 0351 26.41946220 GAU 0.04999571 0.0 565.40620 0.0
M05 ? BHZ e P c 20220625 0351 26.08520126 GAU 0.03570703 0.0 460.09384 0.0
M05 ? BHE e S ? 20220625 0351 26.68026352 GAU 0.02976029 0.0 -785.39330 0.0

M06 ? BHZ e P c 20220627 2334 56.21520233 GAU 0.05142570 0.0 -151.32866 0.0
M06 ? BHN e S ? 20220627 2334 56.82494736 GAU 0.10614378 0.0 -522.38780 0.0
M09 ? BHZ e P c 20220627 2334 56.27439117 GAU 0.07713773 0.0 412.84630 0.0
M09 ? BHE e S ? 20220627 2334 57.00629044 GAU 0.08228444 0.0 -186.57437 0.0
M10 ? BHZ e P c 20220627 2334 56.40475082 GAU 0.04463977 0.0 2062.26900 0.0
M10 ? BHN e S ? 20220627 2334 57.07280731 GAU 0.04891203 0.0 317.27734 0.0
M05 ? BHZ e P c 20220627 2334 56.60480881 GAU 0.06171019 0.0 119.92310 0.0
M05 ? BHN e S ? 20220627 2334 57.54438400 GAU 0.02215236 0.0 118.38452 0.0

M11 ? BHZ e P c 20220628 2325 55.55795288 GAU 0.03828177 0.0 -98.07114 0.0
M11 ? BHE e S ? 20220628 2325 56.86253738 GAU 0.05141873 0.0 122.76752 0.0
M09 ? BHZ e P d 20220628 2325 55.63492966 GAU 0.03571100 0.0 104.86297 0.0
M09 ? BHN e S ? 20220628 2325 56.83860397 GAU 0.07405599 0.0 334.89750 0.0
M06 ? BHZ e P c 20220628 2325 55.65512085 GAU 0.04761576 0.0 -375.79034 0.0
M06 ? BHE e S ? 20220628 2325 56.90564728 GAU 0.05952288 0.0 309.06146 0.0
M13 ? BHZ e P c 20220628 2325 56.23021317 GAU 0.01228491 0.0 -342.25073 0.0
M13 ? BHE e S ? 20220628 2325 57.88317108 GAU 0.00946370 0.0 -172.49086 0.0
M05 ? BHZ e P d 20220628 2325 56.47220230 GAU 0.06029058 0.0 -130.53671 0.0
M05 ? BHN e S ? 20220628 2325 58.23441315 GAU 0.02084144 0.0 500.26660 0.0

