M06 ? BHZ i P d 20221015 0258 42.21724319 GAU 0.00687257 0.0 229.00000 0.0
M06 ? BHE e S ? 20221015 0258 42.71968460 GAU 0.01033265 0.0 -49.20862 0.0
M11 ? BHZ i P d 20221015 0258 42.32573318 GAU 0.01190248 0.0 -339.33510 0.0
M11 ? BHN e S ? 20221015 0258 42.92707825 GAU 0.01033265 0.0 -65.14755 0.0
M14 ? BHZ e P d 20221015 0258 42.34626770 GAU 0.01722239 0.0 -549.73720 0.0
M14 ? BHN e S ? 20221015 0258 43.00011826 GAU 0.00276792 0.0 304.57935 0.0
M09 ? BHZ i P d 20221015 0258 42.37872696 GAU 0.01240006 0.0 251.05309 0.0
M09 ? BHN e S ? 20221015 0258 43.01009750 GAU 0.01033265 0.0 481.72970 0.0
M13 ? BHZ i P c 20221015 0258 42.57779312 GAU 0.00861153 0.0 -201.86635 0.0
M13 ? BHN e S ? 20221015 0258 43.34534073 GAU 0.01395325 0.0 -37.02541 0.0
M08 ? BHZ e P d 20221015 0258 42.73241043 GAU 0.00830341 0.0 237.76608 0.0
M08 ? BHN e S ? 20221015 0258 43.64951324 GAU 0.01653232 0.0 298.59300 0.0
M05 ? BHZ e P c 20221015 0258 42.85157394 GAU 0.01714172 0.0 221.29665 0.0
M05 ? BHE e S ? 20221015 0258 43.94916153 GAU 0.01983878 0.0 -160.15530 0.0
M12 ? BHZ e P c 20221015 0258 42.99143982 GAU 0.02856880 0.0 -712.11053 0.0
M12 ? BHN e S ? 20221015 0258 44.20079422 GAU 0.01428549 0.0 770.65670 0.0

M06 ? BHZ i P c 20221015 0351 11.96460342 GAU 0.00332221 0.0 323.22083 0.0
M06 ? BHN e S ? 20221015 0351 12.44406605 GAU 0.00498352 0.0 -41.00000 0.0
M04 ? BHZ e P c 20221015 0351 12.03150272 GAU 0.00991978 0.0 -1068.14600 0.0
M04 ? BHN e S ? 20221015 0351 12.52627468 GAU 0.01196214 0.0 714.67847 0.0
M14 ? BHZ i P c 20221015 0351 12.05171108 GAU 0.01653232 0.0 184.51955 0.0
M14 ? BHE e S ? 20221015 0351 12.56335640 GAU 0.00478400 0.0 317.12143 0.0
M11 ? BHZ i P c 20221015 0351 12.05647087 GAU 0.01984016 0.0 -1.75584 0.0
M11 ? BHN e S ? 20221015 0351 12.64605236 GAU 0.01722230 0.0 -76.29139 0.0
M09 ? BHZ i P c 20221015 0351 12.13045025 GAU 0.02066656 0.0 274.41043 0.0
M09 ? BHE e S ? 20221015 0351 12.76074123 GAU 0.01239947 0.0 359.40920 0.0
M10 ? BHZ e P d 20221015 0351 12.30551052 GAU 0.07405599 0.0 -1126.59160 0.0
M10 ? BHN e S ? 20221015 0351 13.01396847 GAU 0.02444007 0.0 530.54877 0.0
M13 ? BHZ i P d 20221015 0351 12.34966087 GAU 0.02380915 0.0 1164.92270 0.0
M13 ? BHE e S ? 20221015 0351 13.07626820 GAU 0.02066540 0.0 -63.87963 0.0
M08 ? BHZ i P d 20221015 0351 12.41638374 GAU 0.01239924 0.0 226.25665 0.0
M08 ? BHN e S ? 20221015 0351 13.30090714 GAU 0.01033383 0.0 274.00000 0.0
M05 ? BHZ e P d 20221015 0351 12.57630348 GAU 0.03825182 0.0 -43.84211 0.0
M05 ? BHN e S ? 20221015 0351 13.46360397 GAU 0.02479946 0.0 320.91530 0.0
M12 ? BHZ i P c 20221015 0351 12.79833508 GAU 0.01190394 0.0 -1244.81410 0.0
M12 ? BHE e S ? 20221015 0351 13.86436844 GAU 0.04638042 0.0 571.61260 0.0

M06 ? BHZ i P c 20221015 0353 11.43628311 GAU 0.01435146 0.0 181.95816 0.0
M06 ? BHN e S ? 20221015 0353 11.97628689 GAU 0.00826673 0.0 -12.32172 0.0
M14 ? BHZ i P c 20221015 0353 11.53530502 GAU 0.02142624 0.0 -102.72777 0.0
M14 ? BHE e S ? 20221015 0353 12.09502602 GAU 0.00826707 0.0 406.86807 0.0
M11 ? BHZ e P c 20221015 0353 11.54969692 GAU 0.04114002 0.0 -1.03491 0.0
M11 ? BHN e S ? 20221015 0353 12.11853218 GAU 0.02380734 0.0 -71.35345 0.0
M09 ? BHZ i P c 20221015 0353 11.65731621 GAU 0.02479987 0.0 230.27812 0.0
M09 ? BHN e S ? 20221015 0353 12.30763817 GAU 0.01240031 0.0 495.02040 0.0
M05 ? BHZ e P d 20221015 0353 11.98257923 GAU 0.02056988 0.0 64.00000 0.0
M05 ? BHN e S ? 20221015 0353 12.79120445 GAU 0.00595174 0.0 296.72266 0.0
M08 ? BHZ e P c 20221015 0353 11.90715122 GAU 0.03137807 0.0 244.95837 0.0
M08 ? BHN e S ? 20221015 0353 12.68509388 GAU 0.01983914 0.0 319.50003 0.0

M14 ? BHZ i P c 20221015 0354 42.35643768 GAU 0.04284894 0.0 130.23972 0.0
M14 ? BHE e S ? 20221015 0354 42.90079498 GAU 0.01239828 0.0 414.11105 0.0
M06 ? BHZ i P c 20221015 0354 42.38689804 GAU 0.01435182 0.0 -80.16490 0.0
M06 ? BHN e S ? 20221015 0354 42.90164185 GAU 0.01291698 0.0 -3.38233 0.0
M11 ? BHZ i P c 20221015 0354 42.50721359 GAU 0.02856953 0.0 -204.82964 0.0
M11 ? BHN e S ? 20221015 0354 43.18439865 GAU 0.00714209 0.0 -78.92586 0.0
M09 ? BHZ i P c 20221015 0354 42.62492371 GAU 0.01435197 0.0 204.14270 0.0
M09 ? BHE e S ? 20221015 0354 43.40731430 GAU 0.01983594 0.0 375.93230 0.0
M13 ? BHZ i P c 20221015 0354 42.64360428 GAU 0.02571192 0.0 -159.83880 0.0
M13 ? BHE e S ? 20221015 0354 43.44952011 GAU 0.01190412 0.0 -77.52715 0.0
M08 ? BHZ i P c 20221015 0354 42.88974762 GAU 0.03571103 0.0 171.78749 0.0
M08 ? BHE e S ? 20221015 0354 43.86849976 GAU 0.01487909 0.0 -829.63495 0.0
M05 ? BHZ e P c 20221015 0354 42.98374939 GAU 0.03085482 0.0 237.69304 0.0
M05 ? BHN e S ? 20221015 0354 44.02795792 GAU 0.02301551 0.0 287.76212 0.0

M06 ? BHZ i P c 20221015 0358  4.50680685 GAU 0.00717573 0.0 -121.41051 0.0
M06 ? BHN e S ? 20221015 0358  5.04462814 GAU 0.00574077 0.0 -15.28366 0.0
M14 ? BHZ e P c 20221015 0358  4.54265022 GAU 0.01377748 0.0 -347.68207 0.0
M14 ? BHE e S ? 20221015 0358  5.09042883 GAU 0.01033122 0.0 435.14197 0.0
M11 ? BHZ i P c 20221015 0358  4.62383652 GAU 0.01033305 0.0 -105.28732 0.0
M11 ? BHN e S ? 20221015 0358  5.21869087 GAU 0.00574036 0.0 -68.00000 0.0
M09 ? BHZ e P c 20221015 0358  4.63283634 GAU 0.01377754 0.0 148.37712 0.0
M09 ? BHE e S ? 20221015 0358  5.21280432 GAU 0.00783055 0.0 397.59210 0.0
M13 ? BHZ e P c 20221015 0358  4.77420855 GAU 0.01377845 0.0 -138.83522 0.0
M13 ? BHN e S ? 20221015 0358  5.42729568 GAU 0.00991939 0.0 2.00000 0.0

M06 ? BHZ i P c 20221015 0415 33.24530029 GAU 0.00692156 0.0 403.47354 0.0
M06 ? BHN e S ? 20221015 0415 33.68051529 GAU 0.01033343 0.0 -126.91768 0.0
M14 ? BHZ i P c 20221015 0415 33.34112930 GAU 0.00478366 0.0 -543.33170 0.0
M14 ? BHE e S ? 20221015 0415 33.88082504 GAU 0.00956769 0.0 516.40600 0.0
M11 ? BHZ i P c 20221015 0415 33.39094162 GAU 0.00478394 0.0 318.51895 0.0
M11 ? BHN e S ? 20221015 0415 34.01576233 GAU 0.01190405 0.0 -149.34100 0.0
M09 ? BHZ i P c 20221015 0415 33.48386002 GAU 0.00996613 0.0 401.57266 0.0
M09 ? BHN e S ? 20221015 0415 34.13588715 GAU 0.01377693 0.0 394.80246 0.0
M13 ? BHZ i P c 20221015 0415 33.60990143 GAU 0.01033317 0.0 -4.08400 0.0
M13 ? BHN e S ? 20221015 0415 34.32488251 GAU 0.00991978 0.0 -31.04016 0.0
M08 ? BHZ i P d 20221015 0415 33.68239975 GAU 0.01488012 0.0 555.29680 0.0
M08 ? BHN e S ? 20221015 0415 34.50340652 GAU 0.00991934 0.0 301.66672 0.0
M10 ? BHZ i P d 20221015 0415 33.72022629 GAU 0.05142306 0.0 1452.00630 0.0
M10 ? BHN e S ? 20221015 0415 34.56313705 GAU 0.02066767 0.0 -41.26895 0.0
M12 ? BHZ i P c 20221015 0415 34.11098480 GAU 0.01798290 0.0 -1153.25370 0.0
M12 ? BHE e S ? 20221015 0415 35.19562912 GAU 0.01785523 0.0 -17.39695 0.0

M06 ? BHZ i P c 20221015 0417 26.53143120 GAU 0.00332204 0.0 87.88736 0.0
M06 ? BHN e S ? 20221015 0417 27.04728889 GAU 0.00991957 0.0 -86.56815 0.0
M04 ? BHZ i P c 20221015 0417 26.58320618 GAU 0.02033192 0.0 767.91270 0.0
M04 ? BHE e S ? 20221015 0417 27.08680725 GAU 0.00398645 0.0 339.58542 0.0
M14 ? BHZ i P c 20221015 0417 26.60269547 GAU 0.00826681 0.0 -375.35590 0.0
M14 ? BHE e S ? 20221015 0417 27.18205452 GAU 0.00861054 0.0 446.25415 0.0
M11 ? BHZ i P c 20221015 0417 26.63871574 GAU 0.01239986 0.0 -271.70508 0.0
M11 ? BHN e S ? 20221015 0417 27.27276421 GAU 0.00496008 0.0 -48.21386 0.0
M09 ? BHZ i P c 20221015 0417 26.77705574 GAU 0.00478390 0.0 193.12372 0.0
M09 ? BHN e S ? 20221015 0417 27.46327972 GAU 0.01377740 0.0 505.00000 0.0
M13 ? BHZ i P c 20221015 0417 26.84523773 GAU 0.01428504 0.0 -246.36807 0.0
M13 ? BHE e S ? 20221015 0417 27.60766983 GAU 0.00574080 0.0 -69.00000 0.0
M08 ? BHZ e P c 20221015 0417 27.03831673 GAU 0.01487983 0.0 -51.80784 0.0
M08 ? BHN e S ? 20221015 0417 27.94320297 GAU 0.00688894 0.0 312.42540 0.0
M05 ? BHZ e P c 20221015 0417 27.04228592 GAU 0.04443076 0.0 247.31816 0.0
M05 ? BHE e S ? 20221015 0417 27.92130089 GAU 0.01084048 0.0 -146.50249 0.0
M12 ? BHZ i P d 20221015 0417 27.38110542 GAU 0.05142313 0.0 -1187.98510 0.0
M12 ? BHE e S ? 20221015 0417 28.49611092 GAU 0.02479931 0.0 162.54001 0.0

M06 ? BHZ i P c 20221015 0436 27.76553154 GAU 0.00461437 0.0 -503.43735 0.0
M06 ? BHN e S ? 20221015 0436 28.22847748 GAU 0.01033338 0.0 -24.27948 0.0
M11 ? BHZ e P c 20221015 0436 27.87428474 GAU 0.00664419 0.0 -409.13617 0.0
M11 ? BHN e S ? 20221015 0436 28.44903374 GAU 0.00810620 0.0 -57.00000 0.0
M09 ? BHZ i P c 20221015 0436 27.99793243 GAU 0.00797303 0.0 197.03404 0.0
M09 ? BHN e S ? 20221015 0436 28.65086746 GAU 0.00286974 0.0 472.98650 0.0
M13 ? BHZ i P c 20221015 0436 28.09131050 GAU 0.01714190 0.0 -156.72601 0.0
M13 ? BHE e S ? 20221015 0436 28.87210655 GAU 0.01033311 0.0 -81.63742 0.0
M05 ? BHZ e P c 20221015 0436 28.20571327 GAU 0.02856880 0.0 11.74962 0.0
M05 ? BHN e S ? 20221015 0436 29.05202675 GAU 0.00861153 0.0 305.00598 0.0

M06 ? BHZ i P c 20221022 2022 33.68296814 GAU 0.00399679 0.0 -100.60188 0.0
M06 ? BHN e S ? 20221022 2022 34.22296906 GAU 0.00478385 0.0 -77.59448 0.0
M11 ? BHZ e P c 20221022 2022 33.84095001 GAU 0.00478397 0.0 -212.79674 0.0
M11 ? BHE e S ? 20221022 2022 34.40391922 GAU 0.00826670 0.0 -134.55232 0.0
M09 ? BHZ e P c 20221022 2022 34.00765991 GAU 0.00478394 0.0 -40.47200 0.0
M09 ? BHE e S ? 20221022 2022 34.75774765 GAU 0.01033311 0.0 351.00000 0.0
M05 ? BHZ e P c 20221022 2022 34.93068695 GAU 0.01714190 0.0 125.54475 0.0
M05 ? BHE e S ? 20221022 2022 36.38584137 GAU 0.02142660 0.0 -182.89470 0.0

M06 ? BHZ i P c 20221022 2025  9.71019840 GAU 0.00199326 0.0 2.22248 0.0
M06 ? BHE e S ? 20221022 2025 10.19689751 GAU 0.00276856 0.0 -102.84099 0.0
M14 ? BHZ i P c 20221022 2025  9.75548840 GAU 0.02380697 0.0 -548.75745 0.0
M14 ? BHE e S ? 20221022 2025 10.24118233 GAU 0.00574152 0.0 352.86505 0.0
M11 ? BHZ i P c 20221022 2025  9.87018776 GAU 0.00688858 0.0 -277.24110 0.0
M11 ? BHN e S ? 20221022 2025 10.50427628 GAU 0.00826649 0.0 -137.04048 0.0
M09 ? BHZ i P c 20221022 2025  9.91123009 GAU 0.00495979 0.0 -32.91793 0.0
M09 ? BHE e S ? 20221022 2025 10.54346371 GAU 0.00826649 0.0 317.17700 0.0
M13 ? BHZ i P c 20221022 2025 10.05155087 GAU 0.00688922 0.0 -211.65968 0.0
M13 ? BHN e S ? 20221022 2025 10.79828262 GAU 0.00478385 0.0 -122.36411 0.0
M08 ? BHZ i P d 20221022 2025 10.20150185 GAU 0.00688870 0.0 140.07237 0.0
M08 ? BHN e S ? 20221022 2025 11.08704185 GAU 0.00332210 0.0 274.89423 0.0
M10 ? BHZ i P d 20221022 2025 10.22500515 GAU 0.01028555 0.0 916.14640 0.0
M10 ? BHN e S ? 20221022 2025 11.16191864 GAU 0.01714102 0.0 -1054.90400 0.0
M05 ? BHZ i P c 20221022 2025 10.37300205 GAU 0.01487960 0.0 -10.73347 0.0
M05 ? BHN e S ? 20221022 2025 11.39441013 GAU 0.00496004 0.0 259.90662 0.0
M12 ? BHZ i P c 20221022 2025 10.57787132 GAU 0.01377748 0.0 -467.35680 0.0
M12 ? BHE e S ? 20221022 2025 11.74861431 GAU 0.02380819 0.0 147.98718 0.0

M06 ? BHZ i P c 20221022 2026 35.80583191 GAU 0.00498332 0.0 -203.20203 0.0
M06 ? BHE e S ? 20221022 2026 36.27218246 GAU 0.00332220 0.0 -149.92136 0.0
M14 ? BHZ i P c 20221022 2026 35.87443542 GAU 0.01190458 0.0 29.62533 0.0
M14 ? BHE e S ? 20221022 2026 36.34680176 GAU 0.01239973 0.0 381.76257 0.0
M11 ? BHZ e P c 20221022 2026 35.93777847 GAU 0.01785615 0.0 -448.82648 0.0
M11 ? BHN e S ? 20221022 2026 36.55433655 GAU 0.01033305 0.0 -102.07288 0.0
M09 ? BHZ e P c 20221022 2026 36.02540588 GAU 0.02066530 0.0 83.77148 0.0
M09 ? BHN e S ? 20221022 2026 36.74287415 GAU 0.01033383 0.0 456.23907 0.0
M13 ? BHZ e P c 20221022 2026 36.04916000 GAU 0.01583502 0.0 47.81331 0.0
M13 ? BHN e S ? 20221022 2026 36.80391693 GAU 0.01487909 0.0 -133.00000 0.0
M08 ? BHZ i P d 20221022 2026 36.28171539 GAU 0.01377739 0.0 287.13240 0.0
M08 ? BHN e S ? 20221022 2026 37.18572998 GAU 0.00956836 0.0 290.81192 0.0
M12 ? BHZ i P c 20221022 2026 36.83073044 GAU 0.01680899 0.0 -341.24692 0.0
M12 ? BHN e S ? 20221022 2026 38.04397202 GAU 0.01190458 0.0 -177.12260 0.0

M14 ? BHZ e P c 20221022 2036 11.43815231 GAU 0.00413337 0.0 -443.56833 0.0
M14 ? BHE e S ? 20221022 2036 11.89827538 GAU 0.00332204 0.0 387.68463 0.0
M06 ? BHZ i P c 20221022 2036 11.47141075 GAU 0.00597999 0.0 -228.21292 0.0
M06 ? BHN e S ? 20221022 2036 11.91567612 GAU 0.00332235 0.0 -106.47529 0.0
M11 ? BHZ e P c 20221022 2036 11.57415867 GAU 0.00344450 0.0 -456.06180 0.0
M11 ? BHN e S ? 20221022 2036 12.17104435 GAU 0.00398651 0.0 -107.00000 0.0
M09 ? BHZ i P c 20221022 2036 11.66935349 GAU 0.01240060 0.0 98.21153 0.0
M09 ? BHE e S ? 20221022 2036 12.28434849 GAU 0.00598000 0.0 352.55624 0.0
M13 ? BHZ i P d 20221022 2036 11.83710003 GAU 0.02456946 0.0 162.09570 0.0
M13 ? BHE e S ? 20221022 2036 12.58210850 GAU 0.00688983 0.0 -183.00000 0.0
M08 ? BHZ i P c 20221022 2036 11.99872494 GAU 0.01240021 0.0 128.52025 0.0
M08 ? BHE e S ? 20221022 2036 12.93464375 GAU 0.00332204 0.0 -875.19775 0.0
M05 ? BHZ i P c 20221022 2036 12.16911125 GAU 0.02571251 0.0 56.99023 0.0
M05 ? BHN e S ? 20221022 2036 13.14645195 GAU 0.00991956 0.0 267.13248 0.0
M12 ? BHZ i P c 20221022 2036 12.28438854 GAU 0.00930127 0.0 -531.00000 0.0
M12 ? BHE e S ? 20221022 2036 13.42103291 GAU 0.01984034 0.0 133.78401 0.0

M10 ? BHZ e P c 20221024 1327  2.59468341 GAU 0.03085666 0.0 -3655.35800 0.0
M10 ? BHE e S ? 20221024 1327  2.78751945 GAU 0.00496005 0.0 -21306.60000 0.0
M13 ? BHZ e P c 20221024 1327  3.10386562 GAU 0.00991957 0.0 -285.32700 0.0
M13 ? BHE e S ? 20221024 1327  3.52862883 GAU 0.01722230 0.0 -160.32733 0.0
M05 ? BHZ i P c 20221024 1327  3.33170843 GAU 0.00991973 0.0 146.70370 0.0
M05 ? BHE e S ? 20221024 1327  3.81600714 GAU 0.00991972 0.0 -164.93220 0.0
M09 ? BHZ i P d 20221024 1327  3.53063703 GAU 0.00200266 0.0 180.01497 0.0
M09 ? BHE e S ? 20221024 1327  4.14699459 GAU 0.00287025 0.0 354.43440 0.0
M06 ? BHZ i P c 20221024 1327  4.59504986 GAU 0.01428473 0.0 -306.66638 0.0
M06 ? BHE e S ? 20221024 1327  5.50799274 GAU 0.01984096 0.0 -77.42981 0.0

M10 ? BHZ e P c 20221027 0347  5.16723490 GAU 0.04646772 0.0 -989.68610 0.0
M10 ? BHN e S ? 20221027 0347  5.80102110 GAU 0.02571258 0.0 -125.74325 0.0
M05 ? BHZ e P d 20221027 0347  5.30544853 GAU 0.02142715 0.0 358.43960 0.0
M05 ? BHN e S ? 20221027 0347  6.03695440 GAU 0.01487959 0.0 285.61032 0.0
M13 ? BHZ e P d 20221027 0347  5.35853004 GAU 0.00574068 0.0 -280.62622 0.0
M13 ? BHE e S ? 20221027 0347  6.12780428 GAU 0.01984096 0.0 -41.24108 0.0
M09 ? BHZ e P c 20221027 0347  5.43812132 GAU 0.01033265 0.0 105.43200 0.0
M09 ? BHN e S ? 20221027 0347  6.25923681 GAU 0.00553524 0.0 516.85230 0.0

M13 ? BHZ i P d 20221030 1808 56.31859970 GAU 0.00568315 0.0 -29.91917 0.0
M13 ? BHN e S ? 20221030 1808 56.67458344 GAU 0.00498295 0.0 -124.00000 0.0
M09 ? BHZ e P c 20221030 1808 56.36786652 GAU 0.00489525 0.0 86.83808 0.0
M09 ? BHE e S ? 20221030 1808 56.76288605 GAU 0.00276919 0.0 344.48422 0.0
M05 ? BHZ e P d 20221030 1808 56.39612961 GAU 0.01377739 0.0 268.14500 0.0
M05 ? BHN e S ? 20221030 1808 56.85781860 GAU 0.00867266 0.0 265.77650 0.0
M08 ? BHZ e P d 20221030 1808 56.61746979 GAU 0.01488007 0.0 251.52649 0.0
M08 ? BHN e S ? 20221030 1808 57.24750519 GAU 0.00956552 0.0 308.85754 0.0
M06 ? BHZ e P c 20221030 1808 56.81809998 GAU 0.00413316 0.0 -150.22403 0.0
M06 ? BHN e S ? 20221030 1808 57.54887390 GAU 0.01033338 0.0 -101.20824 0.0

M13 ? BHZ e P d 20221030 1808 58.77841568 GAU 0.00860897 0.0 -116.72768 0.0
M13 ? BHN e S ? 20221030 1808 59.11166382 GAU 0.00830704 0.0 -102.00000 0.0
M10 ? BHZ i P d 20221030 1808 58.78097534 GAU 0.01435199 0.0 -126.25432 0.0
M10 ? BHN e S ? 20221030 1808 59.10456467 GAU 0.00826670 0.0 87.81251 0.0
M09 ? BHZ e P c 20221030 1808 58.84675980 GAU 0.03571122 0.0 43.71762 0.0
M09 ? BHE e S ? 20221030 1808 59.27210617 GAU 0.01435090 0.0 353.68660 0.0
M05 ? BHZ i P c 20221030 1808 58.88797379 GAU 0.00861058 0.0 9.99452 0.0
M05 ? BHN e S ? 20221030 1808 59.34151077 GAU 0.00717600 0.0 271.94710 0.0
M06 ? BHZ e P c 20221030 1808 59.21747208 GAU 0.02975935 0.0 -194.45874 0.0
M06 ? BHE e S ? 20221030 1808 59.94590378 GAU 0.01033311 0.0 -105.48941 0.0

