M06 ? BHZ i P c 20220913 1325 53.37263107 GAU 0.01190410 0.0 -136.21815 0.0
M06 ? BHE e S ? 20220913 1325 54.94484329 GAU 0.02142588 0.0 -107.72948 0.0
M15 ? BHZ i P c 20220913 1325 53.68937683 GAU 0.00688847 0.0 -195.52853 0.0
M15 ? BHE e S ? 20220913 1325 55.41765976 GAU 0.01240006 0.0 -147.81690 0.0
M13 ? BHZ i P c 20220913 1325 53.75121307 GAU 0.00861087 0.0 -211.08052 0.0
M13 ? BHE e S ? 20220913 1325 55.62620544 GAU 0.00991939 0.0 -186.51295 0.0
M09 ? BHZ e P c 20220913 1325 53.75927353 GAU 0.01033289 0.0 -115.29597 0.0
M09 ? BHN e S ? 20220913 1325 55.57936859 GAU 0.02810560 0.0 457.06260 0.0
M08 ? BHZ e P c 20220913 1325 53.86141968 GAU 0.01435182 0.0 -18.09317 0.0
M08 ? BHE e S ? 20220913 1325 55.79648209 GAU 0.00826644 0.0 -880.81630 0.0
M05 ? BHZ i P d 20220913 1325 53.89464951 GAU 0.02142756 0.0 310.77390 0.0
M05 ? BHE e S ? 20220913 1325 55.87064743 GAU 0.01239947 0.0 -173.70535 0.0
M12 ? BHZ i P c 20220913 1325 54.13043213 GAU 0.02380915 0.0 -490.70135 0.0
M12 ? BHE e S ? 20220913 1325 56.23611832 GAU 0.02142824 0.0 45.88949 0.0

M06 ? BHZ i P d 20220913 1929 21.27950859 GAU 0.00574036 0.0 145.48798 0.0
M06 ? BHE e S ? 20220913 1929 21.71208572 GAU 0.00861274 0.0 -164.25519 0.0
M09 ? BHZ i P c 20220913 1929 21.54653931 GAU 0.01033343 0.0 143.07841 0.0
M09 ? BHE e S ? 20220913 1929 22.13828659 GAU 0.01488281 0.0 320.31490 0.0
M08 ? BHZ i P c 20220913 1929 21.85241699 GAU 0.01377845 0.0 -55.83017 0.0
M08 ? BHN e S ? 20220913 1929 22.77496719 GAU 0.01154844 0.0 279.05875 0.0
M05 ? BHZ i P c 20220913 1929 21.86128807 GAU 0.01714184 0.0 21.66433 0.0
M05 ? BHE e S ? 20220913 1929 22.72969627 GAU 0.02583258 0.0 -167.81386 0.0
M12 ? BHZ i P c 20220913 1929 22.10383224 GAU 0.01240060 0.0 -466.49396 0.0
M12 ? BHE e S ? 20220913 1929 23.18387794 GAU 0.01033289 0.0 36.25955 0.0

M06 ? BHZ i P c 20220916 1924 17.72706032 GAU 0.00199331 0.0 1629.59750 0.0
M06 ? BHN e S ? 20220916 1924 18.15416145 GAU 0.00717605 0.0 -52.75183 0.0
M04 ? BHZ e P d 20220916 1924 17.80837822 GAU 0.00717501 0.0 -25.12725 0.0
M04 ? BHN e S ? 20220916 1924 18.21277428 GAU 0.01033359 0.0 677.94855 0.0
M14 ? BHZ i P c 20220916 1924 17.82895470 GAU 0.00166110 0.0 1066.64120 0.0
M14 ? BHE e S ? 20220916 1924 18.27410316 GAU 0.01033265 0.0 488.36520 0.0
M09 ? BHZ i P c 20220916 1924 17.93948746 GAU 0.01148099 0.0 647.87915 0.0
M09 ? BHE e S ? 20220916 1924 18.50719261 GAU 0.00495970 0.0 -8638.08400 0.0
M13 ? BHZ i P c 20220916 1924 18.06114769 GAU 0.00574102 0.0 -4.46301 0.0
M13 ? BHE e S ? 20220916 1924 18.63800240 GAU 0.00717493 0.0 -211.61769 0.0
M08 ? BHZ i P d 20220916 1924 18.16361809 GAU 0.01190458 0.0 157.37839 0.0
M08 ? BHN e S ? 20220916 1924 18.87770081 GAU 0.00992048 0.0 -5822.87800 0.0
M05 ? BHZ i P d 20220916 1924 18.28711700 GAU 0.02380700 0.0 388.10248 0.0
M05 ? BHN e S ? 20220916 1924 19.16164398 GAU 0.01033305 0.0 271.11948 0.0
M15 ? BHZ i P c 20220916 1924 18.29796600 GAU 0.02571192 0.0 124.77267 0.0
M15 ? BHN e S ? 20220916 1924 19.19319344 GAU 0.01240060 0.0 -26.77634 0.0
M01 ? BHZ i P c 20220916 1924 18.37539482 GAU 0.00826665 0.0 -2350.12800 0.0
M01 ? BHE e S ? 20220916 1924 19.27082062 GAU 0.00991998 0.0 264.07846 0.0
M12 ? BHZ i P d 20220916 1924 18.52101707 GAU 0.00992008 0.0 -562.73114 0.0
M12 ? BHN e S ? 20220916 1924 19.49165535 GAU 0.01428418 0.0 -387.60468 0.0

M06 ? BHZ i P c 20220916 1924 22.87907791 GAU 0.00861115 0.0 3084.23240 0.0
M06 ? BHE e S ? 20220916 1924 23.34189606 GAU 0.01983643 0.0 -87.71329 0.0
M14 ? BHZ e P c 20220916 1924 22.92127037 GAU 0.01785561 0.0 -1714.76010 0.0
M14 ? BHE e S ? 20220916 1924 23.42221260 GAU 0.01240012 0.0 215.15994 0.0
M04 ? BHZ e P d 20220916 1924 22.96309662 GAU 0.01827472 0.0 -436.81415 0.0
M04 ? BHN e S ? 20220916 1924 23.45955658 GAU 0.01377435 0.0 708.90170 0.0
M09 ? BHZ i P c 20220916 1924 23.07908821 GAU 0.00861115 0.0 -851.31510 0.0
M09 ? BHE e S ? 20220916 1924 23.75595474 GAU 0.03067120 0.0 5491.07400 0.0
M13 ? BHZ i P c 20220916 1924 23.19388580 GAU 0.00992005 0.0 -185.87424 0.0
M13 ? BHE e S ? 20220916 1924 23.86972809 GAU 0.01240031 0.0 -360.78555 0.0
M08 ? BHZ i P c 20220916 1924 23.37666893 GAU 0.00714220 0.0 -2621.43210 0.0
M08 ? BHN e S ? 20220916 1924 24.24091148 GAU 0.01929038 0.0 -4980.56050 0.0
M05 ? BHZ e P c 20220916 1924 23.43085861 GAU 0.05517627 0.0 -2369.84600 0.0
M05 ? BHN e S ? 20220916 1924 24.35652542 GAU 0.02436889 0.0 200.61375 0.0
M01 ? BHZ e P d 20220916 1924 23.45459366 GAU 0.01428476 0.0 123.23104 0.0
M01 ? BHN e S ? 20220916 1924 24.41193581 GAU 0.02571276 0.0 1690.53150 0.0
M15 ? BHZ e P c 20220916 1924 23.54876137 GAU 0.05142777 0.0 -3727.05200 0.0
M15 ? BHE e S ? 20220916 1924 24.50088692 GAU 0.02142673 0.0 -168.29594 0.0
M12 ? BHZ e P c 20220916 1924 23.81401253 GAU 0.04095017 0.0 -3717.98580 0.0
M12 ? BHN e S ? 20220916 1924 25.03950310 GAU 0.02056922 0.0 -443.39578 0.0

M06 ? BHZ i P c 20220916 1924 32.07138443 GAU 0.00717585 0.0 2627.63940 0.0
M06 ? BHN e S ? 20220916 1924 32.53403091 GAU 0.02066767 0.0 -104.51663 0.0
M04 ? BHZ e P c 20220916 1924 32.07706451 GAU 0.02912492 0.0 -944.87910 0.0
M04 ? BHN e S ? 20220916 1924 32.53355408 GAU 0.00495986 0.0 727.17060 0.0
M14 ? BHZ e P c 20220916 1924 32.16142273 GAU 0.01488012 0.0 337.19553 0.0
M14 ? BHE e S ? 20220916 1924 32.62903214 GAU 0.02142673 0.0 362.63080 0.0
M09 ? BHZ i P c 20220916 1924 32.28371429 GAU 0.01377762 0.0 212.89146 0.0
M09 ? BHE e S ? 20220916 1924 32.83761597 GAU 0.01746053 0.0 -843.43665 0.0
M13 ? BHZ e P c 20220916 1924 32.42607498 GAU 0.03428344 0.0 88.80901 0.0
M13 ? BHN e S ? 20220916 1924 33.15667725 GAU 0.02857098 0.0 -106.25520 0.0
M05 ? BHZ e P c 20220916 1924 32.43455124 GAU 0.04265491 0.0 -261.59933 0.0
M05 ? BHN e S ? 20220916 1924 33.09334564 GAU 0.03554576 0.0 283.66293 0.0
M08 ? BHZ e P c 20220916 1924 32.61080551 GAU 0.07405300 0.0 457.95486 0.0
M08 ? BHN e S ? 20220916 1924 33.47178650 GAU 0.04285429 0.0 -84.39065 0.0
M15 ? BHZ e P c 20220916 1924 32.91959763 GAU 0.03428313 0.0 -252.46735 0.0
M15 ? BHN e S ? 20220916 1924 33.99300766 GAU 0.01983990 0.0 -77.71986 0.0
M12 ? BHZ e P c 20220916 1924 33.04219437 GAU 0.03428208 0.0 -184.86627 0.0
M12 ? BHN e S ? 20220916 1924 34.18172455 GAU 0.04114012 0.0 -96.16836 0.0

M06 ? BHZ i P c 20220916 1924 54.46838760 GAU 0.00478375 0.0 -44.42358 0.0
M06 ? BHN e S ? 20220916 1924 54.91918945 GAU 0.00597978 0.0 -209.80730 0.0
M04 ? BHZ e P c 20220916 1924 54.52163315 GAU 0.01653232 0.0 -1231.67430 0.0
M04 ? BHN e S ? 20220916 1924 54.98826599 GAU 0.00717600 0.0 789.62950 0.0
M14 ? BHZ e P c 20220916 1924 54.53663635 GAU 0.01240060 0.0 101.45970 0.0
M14 ? BHE e S ? 20220916 1924 55.02984619 GAU 0.00199333 0.0 348.97275 0.0
M09 ? BHZ i P c 20220916 1924 54.68388367 GAU 0.01239997 0.0 238.49060 0.0
M09 ? BHE e S ? 20220916 1924 55.27598190 GAU 0.01239918 0.0 -3545.30150 0.0
M13 ? BHZ e P c 20220916 1924 54.80784988 GAU 0.01487909 0.0 -128.04883 0.0
M13 ? BHE e S ? 20220916 1924 55.44779968 GAU 0.01093927 0.0 -273.16284 0.0
M08 ? BHZ i P d 20220916 1924 54.91376495 GAU 0.00992008 0.0 540.21265 0.0
M08 ? BHE e S ? 20220916 1924 55.65978622 GAU 0.01239997 0.0 432.43326 0.0
M05 ? BHZ i P d 20220916 1924 55.06003952 GAU 0.01714157 0.0 271.19077 0.0
M05 ? BHN e S ? 20220916 1924 55.97838974 GAU 0.00826665 0.0 214.87598 0.0
M01 ? BHZ e P c 20220916 1924 55.12060165 GAU 0.02975891 0.0 2601.40060 0.0
M01 ? BHE e S ? 20220916 1924 56.06491852 GAU 0.01785608 0.0 347.57947 0.0
M15 ? BHZ e P c 20220916 1924 55.12922287 GAU 0.05674477 0.0 -2104.96950 0.0
M15 ? BHE e S ? 20220916 1924 56.08236694 GAU 0.01377687 0.0 -183.89973 0.0
M12 ? BHZ i P d 20220916 1924 55.27988434 GAU 0.01428492 0.0 -336.41110 0.0
M12 ? BHE e S ? 20220916 1924 56.33169556 GAU 0.00861153 0.0 19.56641 0.0

M06 ? BHZ i P d 20220916 1926 53.23378754 GAU 0.00861118 0.0 127.23053 0.0
M06 ? BHN e S ? 20220916 1926 53.73915100 GAU 0.00956836 0.0 -128.90742 0.0
M09 ? BHZ i P c 20220916 1926 53.51247406 GAU 0.02009169 0.0 100.82564 0.0
M09 ? BHE e S ? 20220916 1926 54.22219467 GAU 0.03571235 0.0 892.20355 0.0
M05 ? BHZ e P d 20220916 1926 53.94557571 GAU 0.01785598 0.0 25.34896 0.0
M05 ? BHN e S ? 20220916 1926 54.91651535 GAU 0.01190387 0.0 261.14868 0.0
M12 ? BHZ e P c 20220916 1926 54.06481934 GAU 0.02571258 0.0 -212.15740 0.0
M12 ? BHN e S ? 20220916 1926 55.24241638 GAU 0.01428440 0.0 -130.00000 0.0

M06 ? BHZ i P d 20220916 2146  8.64954472 GAU 0.01722230 0.0 -291.77716 0.0
M06 ? BHE e S ? 20220916 2146  9.12125015 GAU 0.02411134 0.0 -107.00000 0.0
M14 ? BHZ e P c 20220916 2146  8.68881416 GAU 0.03967756 0.0 -927.30670 0.0
M14 ? BHE e S ? 20220916 2146  9.19277668 GAU 0.01395354 0.0 382.06107 0.0
M09 ? BHZ i P d 20220916 2146  8.84807682 GAU 0.00861120 0.0 67.88544 0.0
M09 ? BHN e S ? 20220916 2146  9.42601299 GAU 0.02273342 0.0 154.86191 0.0
M13 ? BHZ e P c 20220916 2146  8.96379948 GAU 0.00826673 0.0 -227.78069 0.0
M13 ? BHE e S ? 20220916 2146  9.60174847 GAU 0.02410963 0.0 -189.09332 0.0

M06 ? BHZ i P d 20220927 1915 49.72504044 GAU 0.00717627 0.0 -309.57712 0.0
M06 ? BHN e S ? 20220927 1915 50.17446899 GAU 0.01033338 0.0 -125.56731 0.0
M04 ? BHZ e P c 20220927 1915 49.73156357 GAU 0.01785523 0.0 -1489.53590 0.0
M04 ? BHN e S ? 20220927 1915 50.15939713 GAU 0.00826649 0.0 725.66420 0.0
M14 ? BHZ e P c 20220927 1915 49.75326157 GAU 0.03968018 0.0 884.01290 0.0
M14 ? BHE e S ? 20220927 1915 50.16170502 GAU 0.01722185 0.0 406.26600 0.0
M11 ? BHZ i P c 20220927 1915 49.86914444 GAU 0.00991995 0.0 -258.98706 0.0
M11 ? BHN e S ? 20220927 1915 50.48077393 GAU 0.06494680 0.0 -118.35821 0.0
M09 ? BHZ e P c 20220927 1915 49.97631073 GAU 0.00574049 0.0 141.16077 0.0
M09 ? BHE e S ? 20220927 1915 50.58124161 GAU 0.04285255 0.0 -403.56998 0.0
M13 ? BHZ i P d 20220927 1915 50.06860352 GAU 0.01714102 0.0 -146.52235 0.0
M13 ? BHN e S ? 20220927 1915 50.82748795 GAU 0.01653297 0.0 -119.77860 0.0
M05 ? BHZ i P c 20220927 1915 50.30419540 GAU 0.01714128 0.0 17.52511 0.0
M05 ? BHE e S ? 20220927 1915 51.13766479 GAU 0.02480011 0.0 -173.02074 0.0
M12 ? BHZ e P c 20220927 1915 50.53366470 GAU 0.00495978 0.0 -422.70642 0.0
M12 ? BHE e S ? 20220927 1915 51.58913422 GAU 0.05923937 0.0 51.02552 0.0

M06 ? BHZ i P d 20220927 1916 52.08575439 GAU 0.03636900 0.0 103.28745 0.0
M06 ? BHN e S ? 20220927 1916 52.57718277 GAU 0.00861153 0.0 -204.37326 0.0
M04 ? BHZ e P c 20220927 1916 52.15617752 GAU 0.03571160 0.0 -465.72626 0.0
M04 ? BHE e S ? 20220927 1916 52.73124313 GAU 0.00717611 0.0 324.00000 0.0
M14 ? BHZ i P c 20220927 1916 52.21071243 GAU 0.00965056 0.0 384.33000 0.0
M14 ? BHE e S ? 20220927 1916 52.73818588 GAU 0.02066243 0.0 431.70758 0.0
M11 ? BHZ e P c 20220927 1916 52.28889847 GAU 0.01714128 0.0 -241.76240 0.0
M11 ? BHN e S ? 20220927 1916 52.89339447 GAU 0.04285255 0.0 -136.40779 0.0
M09 ? BHZ i P c 20220927 1916 52.39122009 GAU 0.01033322 0.0 495.34410 0.0
M09 ? BHE e S ? 20220927 1916 53.06681824 GAU 0.04463705 0.0 -2928.24150 0.0
M13 ? BHZ i P c 20220927 1916 52.44226456 GAU 0.02066656 0.0 -312.92100 0.0
M13 ? BHN e S ? 20220927 1916 53.22412872 GAU 0.02479684 0.0 -107.49828 0.0
M05 ? BHZ e P d 20220927 1916 52.44811249 GAU 0.10663633 0.0 152.09930 0.0
M05 ? BHN e S ? 20220927 1916 53.24871826 GAU 0.02112583 0.0 261.90894 0.0
M08 ? BHZ i P d 20220927 1916 52.63187790 GAU 0.02066676 0.0 24.40598 0.0
M08 ? BHN e S ? 20220927 1916 53.54987717 GAU 0.01722306 0.0 -851.20624 0.0

M06 ? BHZ i P d 20220927 1917 35.15793228 GAU 0.00478397 0.0 -638.50670 0.0
M06 ? BHE e S ? 20220927 1917 35.67189407 GAU 0.01488014 0.0 -580.21814 0.0
M04 ? BHZ i P c 20220927 1917 35.22411728 GAU 0.01033311 0.0 -1649.11460 0.0
M04 ? BHE e S ? 20220927 1917 35.71982193 GAU 0.01378000 0.0 -19.76631 0.0
M14 ? BHZ i P c 20220927 1917 35.27048492 GAU 0.01377530 0.0 323.57680 0.0
M14 ? BHN e S ? 20220927 1917 35.70644379 GAU 0.01148153 0.0 116.74130 0.0
M11 ? BHZ e P c 20220927 1917 35.32808685 GAU 0.01148116 0.0 774.75964 0.0
M11 ? BHE e S ? 20220927 1917 35.93241501 GAU 0.00992010 0.0 -207.58392 0.0
M09 ? BHZ i P c 20220927 1917 35.41254425 GAU 0.00574049 0.0 573.15720 0.0
M09 ? BHE e S ? 20220927 1917 36.01425552 GAU 0.03122877 0.0 -947.85406 0.0
M03 ? BHZ i P d 20220927 1917 35.43079376 GAU 0.02856953 0.0 -252.70094 0.0
M03 ? BHE e S ? 20220927 1917 36.03461075 GAU 0.03571122 0.0 -259.22565 0.0
M13 ? BHZ i P c 20220927 1917 35.52588654 GAU 0.00991973 0.0 -34.15724 0.0
M13 ? BHN e S ? 20220927 1917 36.24746323 GAU 0.01377718 0.0 -59.85757 0.0
M10 ? BHZ i P c 20220927 1917 35.56356430 GAU 0.00857051 0.0 -21.52816 0.0
M10 ? BHE e S ? 20220927 1917 36.37292862 GAU 0.01240060 0.0 -7816.17700 0.0
M05 ? BHZ i P d 20220927 1917 35.62018967 GAU 0.01481008 0.0 288.85596 0.0
M05 ? BHE e S ? 20220927 1917 36.58350754 GAU 0.01984096 0.0 -289.44067 0.0
M08 ? BHZ i P d 20220927 1917 35.64788055 GAU 0.00595174 0.0 52.00366 0.0
M08 ? BHN e S ? 20220927 1917 36.59324265 GAU 0.02142673 0.0 -7105.23300 0.0
M01 ? BHZ i P c 20220927 1917 35.73082733 GAU 0.02380697 0.0 -2483.93020 0.0
M01 ? BHE e S ? 20220927 1917 36.68408966 GAU 0.05695045 0.0 343.28600 0.0
M12 ? BHZ i P d 20220927 1917 35.93785095 GAU 0.01623952 0.0 -991.21216 0.0
M12 ? BHE e S ? 20220927 1917 37.17056274 GAU 0.04546656 0.0 86.66835 0.0

M06 ? BHZ i P d 20220927 1918 22.04044914 GAU 0.00199331 0.0 -254.06487 0.0
M06 ? BHN e S ? 20220927 1918 22.51727295 GAU 0.02391872 0.0 -96.28359 0.0
M14 ? BHZ e P c 20220927 1918 22.10850525 GAU 0.01722185 0.0 -736.90150 0.0
M14 ? BHE e S ? 20220927 1918 22.68396187 GAU 0.01195908 0.0 327.55225 0.0
M11 ? BHZ i P d 20220927 1918 22.22598839 GAU 0.00826644 0.0 195.31418 0.0
M11 ? BHN e S ? 20220927 1918 22.85383987 GAU 0.01722306 0.0 -85.50967 0.0
M09 ? BHZ i P c 20220927 1918 22.27008629 GAU 0.01190458 0.0 20.19182 0.0
M09 ? BHE e S ? 20220927 1918 22.86845016 GAU 0.00826616 0.0 -747.60767 0.0
M13 ? BHZ i P c 20220927 1918 22.39585495 GAU 0.00688858 0.0 -246.75404 0.0
M13 ? BHN e S ? 20220927 1918 23.11278915 GAU 0.00664436 0.0 -114.32877 0.0
M12 ? BHZ i P c 20220927 1918 22.87979698 GAU 0.02142673 0.0 -393.15710 0.0
M12 ? BHE e S ? 20220927 1918 24.06475830 GAU 0.00991957 0.0 45.42684 0.0

M06 ? BHZ i P c 20220927 1924 56.97854614 GAU 0.00478374 0.0 -164.06583 0.0
M06 ? BHE e S ? 20220927 1924 57.45269775 GAU 0.00826644 0.0 -133.81001 0.0
M14 ? BHZ i P c 20220927 1924 57.08777237 GAU 0.01148153 0.0 110.74120 0.0
M14 ? BHE e S ? 20220927 1924 57.58909988 GAU 0.00574088 0.0 409.99338 0.0
M04 ? BHZ e P c 20220927 1924 57.09051895 GAU 0.00861087 0.0 769.06800 0.0
M04 ? BHN e S ? 20220927 1924 57.58656693 GAU 0.01722306 0.0 806.61993 0.0
M11 ? BHZ i P c 20220927 1924 57.14157867 GAU 0.00826707 0.0 41.75713 0.0
M11 ? BHN e S ? 20220927 1924 57.69894791 GAU 0.00826707 0.0 -113.66416 0.0
M13 ? BHZ i P d 20220927 1924 57.20376205 GAU 0.03571145 0.0 -76.88829 0.0
M13 ? BHN e S ? 20220927 1924 57.83073425 GAU 0.00612675 0.0 -110.62128 0.0
M09 ? BHZ i P c 20220927 1924 57.21458054 GAU 0.03720093 0.0 114.75154 0.0
M09 ? BHE e S ? 20220927 1924 57.75117493 GAU 0.01377687 0.0 836.49300 0.0
M08 ? BHZ e P c 20220927 1924 57.53399277 GAU 0.00597957 0.0 -8.45255 0.0
M08 ? BHN e S ? 20220927 1924 58.38123703 GAU 0.00597997 0.0 -443.18036 0.0
M05 ? BHZ e P c 20220927 1924 57.67650604 GAU 0.03151172 0.0 137.99080 0.0
M05 ? BHN e S ? 20220927 1924 58.57915497 GAU 0.01033265 0.0 274.72320 0.0
M12 ? BHZ e P c 20220927 1924 58.02078247 GAU 0.02742585 0.0 -227.93643 0.0
M12 ? BHN e S ? 20220927 1924 59.22562790 GAU 0.02975917 0.0 -119.23941 0.0

M06 ? BHZ i P d 20220927 1925 46.66039658 GAU 0.00688881 0.0 4.25191 0.0
M06 ? BHN e S ? 20220927 1925 47.17590332 GAU 0.01195985 0.0 -97.00000 0.0
M14 ? BHZ e P c 20220927 1925 46.69421005 GAU 0.00797316 0.0 -740.82140 0.0
M14 ? BHN e S ? 20220927 1925 47.25990295 GAU 0.01722239 0.0 339.13232 0.0
M11 ? BHZ e P c 20220927 1925 46.80683899 GAU 0.02029783 0.0 -232.03917 0.0
M11 ? BHN e S ? 20220927 1925 47.44606400 GAU 0.02411131 0.0 -106.52744 0.0
M09 ? BHZ i P c 20220927 1925 46.81113052 GAU 0.01033270 0.0 89.17049 0.0
M09 ? BHN e S ? 20220927 1925 47.45670700 GAU 0.01983869 0.0 62.54081 0.0

M06 ? BHZ i P d 20220927 1926 24.57176018 GAU 0.01148117 0.0 -204.97859 0.0
M06 ? BHN e S ? 20220927 1926 25.03594398 GAU 0.01645759 0.0 -105.00000 0.0
M14 ? BHZ e P c 20220927 1926 24.59093475 GAU 0.01190592 0.0 -659.03590 0.0
M14 ? BHE e S ? 20220927 1926 25.05917740 GAU 0.01578888 0.0 425.99646 0.0
M11 ? BHZ e P c 20220927 1926 24.71688652 GAU 0.02388090 0.0 3.10039 0.0
M11 ? BHN e S ? 20220927 1926 25.27583694 GAU 0.01785608 0.0 -98.28775 0.0
M09 ? BHZ e P c 20220927 1926 24.76985741 GAU 0.02066530 0.0 153.52614 0.0
M09 ? BHN e S ? 20220927 1926 25.38337708 GAU 0.01554971 0.0 98.37496 0.0

M06 ? BHZ i P c 20220927 1926 42.41088486 GAU 0.01033594 0.0 -124.98862 0.0
M06 ? BHN e S ? 20220927 1926 42.91181183 GAU 0.00830555 0.0 -113.36865 0.0
M14 ? BHZ e P c 20220927 1926 42.41786194 GAU 0.01983643 0.0 595.12146 0.0
M14 ? BHE e S ? 20220927 1926 42.90705490 GAU 0.00992025 0.0 390.25130 0.0
M11 ? BHZ e P c 20220927 1926 42.55950165 GAU 0.02975935 0.0 -260.18027 0.0
M11 ? BHN e S ? 20220927 1926 43.17135620 GAU 0.02066403 0.0 -105.04032 0.0
M09 ? BHZ i P c 20220927 1926 42.60132980 GAU 0.01377801 0.0 10.17089 0.0
M09 ? BHN e S ? 20220927 1926 43.23397064 GAU 0.01785608 0.0 -22.65480 0.0

