M08 ? BHZ i P c 20220303 0857 46.83170319 GAU 0.0 0.0 514.11774 0.0
M08 ? BHN e S ? 20220303 0857 47.99458694 GAU 0.0 0.0 -15073.53200 0.0
M13 ? BHZ i P d 20220303 0857 46.96678162 GAU 0.0 0.0 -1633.62720 0.0
M13 ? BHN e S ? 20220303 0857 48.20705032 GAU 0.0 0.0 9794.20400 0.0
M11 ? BHZ e P c 20220303 0857 47.03971100 GAU 0.0 0.0 -1199.33150 0.0
M11 ? BHN e S c 20220303 0857 48.38972473 GAU 0.0 0.0 -13041.24100 0.0
M02 ? BHZ e P c 20220303 0857 47.04520035 GAU 0.0 0.0 7397.75050 0.0
M02 ? BHN i S d 20220303 0857 48.39939117 GAU 0.0 0.0 13935.37200 0.0
M06 ? BHZ e P c 20220303 0857 47.05930328 GAU 0.0 0.0 336.02612 0.0
M06 ? BHN i S d 20220303 0857 48.43054581 GAU 0.0 0.0 3937.44120 0.0

M06 ? BHZ e P c 20220304 0249 37.39167023 GAU 0.0 0.0 47.53807 0.0
M06 ? BHN i S c 20220304 0249 38.29697037 GAU 0.0 0.0 -1053.11490 0.0
M11 ? BHZ e P c 20220304 0249 37.57488632 GAU 0.0 0.0 -329.52580 0.0
M11 ? BHN e S c 20220304 0249 38.52526855 GAU 0.0 0.0 -1035.07950 0.0
M04 ? BHZ e P c 20220304 0249 37.70694351 GAU 0.0 0.0 -622.81510 0.0
M04 ? BHN e S ? 20220304 0249 38.88153839 GAU 0.0 0.0 -2911.08960 0.0
M13 ? BHZ i P d 20220304 0249 37.82525635 GAU 0.0 0.0 487.38794 0.0
M13 ? BHN i S c 20220304 0249 39.01959991 GAU 0.0 0.0 636.34590 0.0
M05 ? BHZ e P c 20220304 0249 38.39267731 GAU 0.0 0.0 299.98470 0.0
M05 ? BHN e S ? 20220304 0249 40.05542374 GAU 0.0 0.0 -849.72790 0.0

M06 ? BHZ e P c 20220307 1326 14.01168346 GAU 0.0 0.0 -163.98137 0.0
M06 ? BHN e S c 20220307 1326 14.98397636 GAU 0.0 0.0 -789.67676 0.0
M11 ? BHZ e P c 20220307 1326 13.94487572 GAU 0.0 0.0 175.14610 0.0
M11 ? BHN e S ? 20220307 1326 14.89438343 GAU 0.0 0.0 -335.27905 0.0
M05 ? BHZ e P c 20220307 1326 14.07841587 GAU 0.0 0.0 247.94368 0.0
M05 ? BHN e S c 20220307 1326 15.17541027 GAU 0.0 0.0 -423.68628 0.0
M12 ? BHZ e P c 20220307 1326 14.26760483 GAU 0.0 0.0 -494.80408 0.0
M12 ? BHN i S d 20220307 1326 15.46714115 GAU 0.0 0.0 1108.09450 0.0

M06 ? BHZ i P d 20220308 1814 49.06225204 GAU 0.0 0.0 -274.38320 0.0
M06 ? BHN i S d 20220308 1814 49.63939285 GAU 0.0 0.0 5326.05100 0.0
M14 ? BHZ i P d 20220308 1814 49.08200073 GAU 0.0 0.0 955.98890 0.0
M14 ? BHN e S ? 20220308 1814 49.75360489 GAU 0.0 0.0 -3399.81960 0.0
M04 ? BHZ e P c 20220308 1814 49.13323212 GAU 0.0 0.0 -2049.40970 0.0
M04 ? BHN i S d 20220308 1814 49.66604996 GAU 0.0 0.0 3493.21390 0.0
M02 ? BHZ i P d 20220308 1814 49.17161179 GAU 0.0 0.0 765.27356 0.0
M02 ? BHN e S ? 20220308 1814 49.76552200 GAU 0.0 0.0 -2232.42040 0.0
M11 ? BHZ i P d 20220308 1814 49.19611359 GAU 0.0 0.0 -353.01456 0.0
M11 ? BHN i S c 20220308 1814 49.91100693 GAU 0.0 0.0 -5918.72950 0.0
M13 ? BHZ i P d 20220308 1814 49.43693161 GAU 0.0 0.0 262.59683 0.0
M13 ? BHN i S c 20220308 1814 50.28597641 GAU 0.0 0.0 -1970.22190 0.0
M08 ? BHZ e P d 20220308 1814 49.64559555 GAU 0.0 0.0 -175.95290 0.0
M08 ? BHN i S c 20220308 1814 50.51369095 GAU 0.0 0.0 -1855.35790 0.0
M05 ? BHZ e P d 20220308 1814 49.76898956 GAU 0.0 0.0 440.09250 0.0
M05 ? BHN e S d 20220308 1814 50.86311340 GAU 0.0 0.0 -514.61664 0.0

M06 ? BHZ i P d 20220308 1817 30.96258163 GAU 0.0 0.0 -30.77268 0.0
M06 ? BHN i S d 20220308 1817 31.52772141 GAU 0.0 0.0 4185.05900 0.0
M04 ? BHZ e P c 20220308 1817 31.00221443 GAU 0.0 0.0 -1142.87760 0.0
M04 ? BHN i S d 20220308 1817 31.63963699 GAU 0.0 0.0 1064.85400 0.0
M14 ? BHZ i P d 20220308 1817 31.07298279 GAU 0.0 0.0 13.63765 0.0
M14 ? BHN e S ? 20220308 1817 31.65974045 GAU 0.0 0.0 4677.61200 0.0
M11 ? BHZ i P d 20220308 1817 31.07486343 GAU 0.0 0.0 -91.67812 0.0
M11 ? BHN i S d 20220308 1817 31.71459770 GAU 0.0 0.0 533.98040 0.0
M02 ? BHZ i P d 20220308 1817 31.10671997 GAU 0.0 0.0 141.07034 0.0
M02 ? BHN i S c 20220308 1817 31.80286217 GAU 0.0 0.0 1068.75990 0.0
M13 ? BHZ i P d 20220308 1817 31.33927727 GAU 0.0 0.0 -159.26996 0.0
M13 ? BHN i S c 20220308 1817 32.18340683 GAU 0.0 0.0 -1157.35280 0.0
M08 ? BHZ e P c 20220308 1817 31.52644348 GAU 0.0 0.0 -252.61647 0.0
M08 ? BHN e S ? 20220308 1817 32.47549438 GAU 0.0 0.0 -185.58688 0.0
M05 ? BHZ e P c 20220308 1817 31.70861053 GAU 0.0 0.0 -407.40347 0.0
M05 ? BHN e S ? 20220308 1817 32.79837036 GAU 0.0 0.0 841.80023 0.0
M12 ? BHZ i P d 20220308 1817 31.82482147 GAU 0.0 0.0 0.56115 0.0
M12 ? BHN i S c 20220308 1817 33.08935165 GAU 0.0 0.0 66.09419 0.0

M04 ? BHZ e P c 20220310 1526 55.30255508 GAU 0.0 0.0 -1267.34380 0.0
M04 ? BHN e S c 20220310 1526 55.81671143 GAU 0.0 0.0 -337.60034 0.0
M06 ? BHZ i P c 20220310 1526 55.32236099 GAU 0.0 0.0 170.00000 0.0
M06 ? BHN i S c 20220310 1526 55.88530731 GAU 0.0 0.0 -1222.61720 0.0
M14 ? BHZ e P c 20220310 1526 55.35229111 GAU 0.0 0.0 152.87477 0.0
M14 ? BHN i S d 20220310 1526 55.92045593 GAU 0.0 0.0 3972.30270 0.0
M11 ? BHZ i P c 20220310 1526 55.44058990 GAU 0.0 0.0 -475.09558 0.0
M11 ? BHN i S c 20220310 1526 56.09479904 GAU 0.0 0.0 -632.70966 0.0
M02 ? BHZ e P c 20220310 1526 55.46972275 GAU 0.0 0.0 -773.24725 0.0
M02 ? BHN i S d 20220310 1526 56.15250015 GAU 0.0 0.0 -670.39210 0.0
M13 ? BHZ i P d 20220310 1526 55.69158936 GAU 0.0 0.0 164.16318 0.0
M13 ? BHN e S c 20220310 1526 56.57524109 GAU 0.0 0.0 -1207.81080 0.0
M05 ? BHZ i P d 20220310 1526 55.95650482 GAU 0.0 0.0 322.63830 0.0
M05 ? BHN e S ? 20220310 1526 56.97267532 GAU 0.0 0.0 -688.13280 0.0

M06 ? BHZ e P c 20220313 0223 46.18974686 GAU 0.0 0.0 168.32830 0.0
M06 ? BHN e S c 20220313 0223 47.03316116 GAU 0.0 0.0 -677.22003 0.0
M04 ? BHZ e P c 20220313 0223 46.21910477 GAU 0.0 0.0 2454.70600 0.0
M04 ? BHN e S ? 20220313 0223 47.11333847 GAU 0.0 0.0 -398.06772 0.0
M14 ? BHZ e P c 20220313 0223 46.42635727 GAU 0.0 0.0 -588.00000 0.0
M14 ? BHN e S ? 20220313 0223 47.40134048 GAU 0.0 0.0 -6068.24660 0.0
M02 ? BHZ i P d 20220313 0223 46.48801422 GAU 0.0 0.0 -1592.83200 0.0
M02 ? BHN e S ? 20220313 0223 47.52229691 GAU 0.0 0.0 -16516.21300 0.0
M08 ? BHZ e P c 20220313 0223 46.67434692 GAU 0.0 0.0 79.02753 0.0
M08 ? BHN e S c 20220313 0223 47.91626358 GAU 0.0 0.0 384.99265 0.0

M05 ? BHZ e P c 20220315 0727  5.04991293 GAU 0.0 0.0 225.71384 0.0
M05 ? BHN e S d 20220315 0727  5.17574978 GAU 0.0 0.0 -315.33362 0.0
M01 ? BHZ e P c 20220315 0727  5.10517120 GAU 0.0 0.0 1836.41440 0.0
M01 ? BHN e S ? 20220315 0727  5.22398472 GAU 0.0 0.0 -6795.32280 0.0
M14 ? BHZ e P c 20220315 0727  5.72127056 GAU 0.0 0.0 381.82834 0.0
M14 ? BHN e S c 20220315 0727  5.87694883 GAU 0.0 0.0 1612.65990 0.0
M04 ? BHZ e P c 20220315 0727  6.55766201 GAU 0.0 0.0 -191.14360 0.0
M04 ? BHN e S c 20220315 0727  6.76616716 GAU 0.0 0.0 935.69946 0.0
M06 ? BHZ e P c 20220315 0727  6.76924896 GAU 0.0 0.0 49.01448 0.0
M06 ? BHN e S c 20220315 0727  6.96447611 GAU 0.0 0.0 1102.43870 0.0

M03 ? BHZ e P c 20220316 0643  5.45949125 GAU 0.0 0.0 3570.95170 0.0
M03 ? BHN e S c 20220316 0643  5.57059002 GAU 0.0 0.0 -8764.00000 0.0
M05 ? BHZ e P c 20220316 0643  5.50470114 GAU 0.0 0.0 -2545.71660 0.0
M05 ? BHN e S c 20220316 0643  5.67668438 GAU 0.0 0.0 3453.68680 0.0
M04 ? BHZ e P c 20220316 0643  5.82350874 GAU 0.0 0.0 2332.81450 0.0
M04 ? BHN e S ? 20220316 0643  6.15298128 GAU 0.0 0.0 -74.79296 0.0
M06 ? BHZ e P c 20220316 0643  5.85488224 GAU 0.0 0.0 -1046.58230 0.0
M06 ? BHN e S ? 20220316 0643  6.07879066 GAU 0.0 0.0 4758.21440 0.0

M06 ? BHZ i P d 20220316 1719 34.88282776 GAU 0.0 0.0 -390.66965 0.0
M06 ? BHN i S d 20220316 1719 35.44416046 GAU 0.0 0.0 136.32097 0.0
M11 ? BHZ i P d 20220316 1719 34.97486496 GAU 0.0 0.0 -68.25907 0.0
M11 ? BHN i S c 20220316 1719 35.72876740 GAU 0.0 0.0 -3964.04610 0.0
M13 ? BHZ i P d 20220316 1719 35.23673248 GAU 0.0 0.0 -9.50274 0.0
M13 ? BHN i S c 20220316 1719 36.10664749 GAU 0.0 0.0 -1053.34190 0.0
M05 ? BHZ i P d 20220316 1719 35.63373947 GAU 0.0 0.0 -378.46344 0.0
M05 ? BHN e S c 20220316 1719 36.72651291 GAU 0.0 0.0 -1329.33190 0.0
M08 ? BHZ i P d 20220316 1719 35.45312500 GAU 0.0 0.0 314.92715 0.0
M08 ? BHN i S c 20220316 1719 36.45310211 GAU 0.0 0.0 -1128.17260 0.0

M06 ? BHZ i P c 20220316 2035 16.63427925 GAU 0.0 0.0 -231.75241 0.0
M06 ? BHN i S c 20220316 2035 17.17092705 GAU 0.0 0.0 -529.39970 0.0
M11 ? BHZ e P c 20220316 2035 16.75673866 GAU 0.0 0.0 -171.36760 0.0
M11 ? BHN i S c 20220316 2035 17.43378067 GAU 0.0 0.0 -1161.07360 0.0
M02 ? BHZ e P c 20220316 2035 16.81077957 GAU 0.0 0.0 -624.77936 0.0
M02 ? BHN i S d 20220316 2035 17.49988747 GAU 0.0 0.0 62.16159 0.0
M13 ? BHZ i P d 20220316 2035 17.05910873 GAU 0.0 0.0 -116.05225 0.0
M13 ? BHN e S d 20220316 2035 18.09613228 GAU 0.0 0.0 -563.43250 0.0

M14 ? BHZ e P c 20220321 0148  8.01086330 GAU 0.0 0.0 1397.96420 0.0
M14 ? BHN e S c 20220321 0148  8.35922146 GAU 0.0 0.0 -2648.85060 0.0
M02 ? BHZ e P c 20220321 0148  8.06819057 GAU 0.0 0.0 5275.43300 0.0
M02 ? BHN i S c 20220321 0148  8.42359161 GAU 0.0 0.0 25559.99800 0.0
M04 ? BHZ e P d 20220321 0148  8.15130806 GAU 0.0 0.0 -1109.76500 0.0
M04 ? BHN e S c 20220321 0148  8.61695862 GAU 0.0 0.0 -12164.70000 0.0
M06 ? BHZ e P c 20220321 0148  8.21761131 GAU 0.0 0.0 -1955.77310 0.0
M06 ? BHN e S c 20220321 0148  8.71993065 GAU 0.0 0.0 -4199.75000 0.0
M08 ? BHZ e P c 20220321 0148  8.33217525 GAU 0.0 0.0 570.31420 0.0
M08 ? BHN e S c 20220321 0148  8.95628262 GAU 0.0 0.0 -2148.80050 0.0

M06 ? BHZ e P c 20220330 1445 10.28539181 GAU 0.0 0.0 -196.10092 0.0
M06 ? BHN i S c 20220330 1445 11.45979309 GAU 0.0 0.0 -901.68744 0.0
M11 ? BHZ e P c 20220330 1445 10.71279621 GAU 0.0 0.0 -51.77777 0.0
M11 ? BHN e S c 20220330 1445 12.04341507 GAU 0.0 0.0 -260.72403 0.0
M08 ? BHZ e P c 20220330 1445 10.92408180 GAU 0.0 0.0 182.21594 0.0
M08 ? BHN e S ? 20220330 1445 12.29040337 GAU 0.0 0.0 246.44221 0.0
M05 ? BHZ e P d 20220330 1445 11.00048923 GAU 0.0 0.0 442.44604 0.0
M05 ? BHN i S c 20220330 1445 12.41243076 GAU 0.0 0.0 -639.83466 0.0

M06 ? BHZ e P c 20220331 1453 44.64125824 GAU 0.0 0.0 0.58397 0.0
M06 ? BHN i S c 20220331 1453 45.38326645 GAU 0.0 0.0 -565.36194 0.0
M02 ? BHZ e P c 20220331 1453 44.68397522 GAU 0.0 0.0 371.91876 0.0
M02 ? BHN e S c 20220331 1453 45.45547104 GAU 0.0 0.0 -744.60740 0.0
M04 ? BHZ e P c 20220331 1453 44.72076416 GAU 0.0 0.0 928.62450 0.0
M04 ? BHN i S c 20220331 1453 45.48175049 GAU 0.0 0.0 506.71484 0.0
M05 ? BHZ e P d 20220331 1453 45.54989624 GAU 0.0 0.0 -22.88138 0.0
M05 ? BHN i S d 20220331 1453 46.52751923 GAU 0.0 0.0 -72.01803 0.0

