M06 ? BHZ i P c 20221105 0152 56.44141388 GAU 0.00415277 0.0 -213.89764 0.0
M06 ? BHN e S ? 20221105 0152 56.93521500 GAU 0.00498298 0.0 -95.35407 0.0
M14 ? BHZ i P c 20221105 0152 56.51068497 GAU 0.00688894 0.0 -723.54230 0.0
M14 ? BHN e S ? 20221105 0152 57.03721237 GAU 0.02066621 0.0 364.64096 0.0
M11 ? BHZ e P d 20221105 0152 56.60352325 GAU 0.02380794 0.0 91.86122 0.0
M11 ? BHN e S ? 20221105 0152 57.21287537 GAU 0.00861087 0.0 -80.61968 0.0
M09 ? BHZ i P c 20221105 0152 56.65776443 GAU 0.01033305 0.0 61.35178 0.0
M09 ? BHE e S ? 20221105 0152 57.25968933 GAU 0.00574062 0.0 366.70508 0.0
M13 ? BHZ i P c 20221105 0152 56.76104355 GAU 0.01239994 0.0 -184.45357 0.0
M13 ? BHN e S ? 20221105 0152 57.46003723 GAU 0.00956836 0.0 -65.78804 0.0
M08 ? BHZ e P c 20221105 0152 56.96979523 GAU 0.00797323 0.0 89.98917 0.0
M08 ? BHN e S ? 20221105 0152 57.88851166 GAU 0.00574039 0.0 307.12775 0.0

M06 ? BHZ e P c 20221105 0222 29.14915848 GAU 0.03075911 0.0 -182.74937 0.0
M06 ? BHE e S ? 20221105 0222 29.69870758 GAU 0.01148159 0.0 -75.39556 0.0
M14 ? BHZ e P c 20221105 0222 29.27140617 GAU 0.00956836 0.0 192.19380 0.0
M14 ? BHN e S ? 20221105 0222 29.88460350 GAU 0.01195961 0.0 327.22263 0.0
M11 ? BHZ i P c 20221105 0222 29.30604744 GAU 0.00826631 0.0 -228.35960 0.0
M11 ? BHN e S ? 20221105 0222 29.96123886 GAU 0.00574039 0.0 -98.94955 0.0
M09 ? BHZ i P c 20221105 0222 29.39985275 GAU 0.01377739 0.0 101.90729 0.0
M09 ? BHE e S ? 20221105 0222 30.10540390 GAU 0.01395227 0.0 362.83942 0.0
M13 ? BHZ e P d 20221105 0222 29.54681396 GAU 0.02480042 0.0 256.17154 0.0
M13 ? BHN e S ? 20221105 0222 30.37455177 GAU 0.00574102 0.0 -49.15599 0.0
M08 ? BHZ e P d 20221105 0222 29.69491386 GAU 0.01435121 0.0 76.03243 0.0
M08 ? BHN e S ? 20221105 0222 30.66778374 GAU 0.00996705 0.0 308.35062 0.0

M06 ? BHZ i P c 20221105 2039 59.67491531 GAU 0.00597977 0.0 -99.70835 0.0
M06 ? BHN e S ? 20221105 2039 60.17611313 GAU 0.00239182 0.0 -105.53988 0.0
M11 ? BHZ i P c 20221105 2039 59.84199524 GAU 0.02755424 0.0 -311.42188 0.0
M11 ? BHN e S ? 20221105 2039 60.43271637 GAU 0.00688922 0.0 -114.95924 0.0
M09 ? BHZ i P c 20221105 2039 59.86661148 GAU 0.00287036 0.0 43.34781 0.0
M09 ? BHE e S ? 20221105 2039 60.47465134 GAU 0.00692107 0.0 350.45220 0.0
M05 ? BHZ i P c 20221105 2039 59.95405579 GAU 0.02571308 0.0 65.25288 0.0
M05 ? BHE e S ? 20221105 2039 60.59473801 GAU 0.00553683 0.0 -162.63335 0.0
M13 ? BHZ i P c 20221105 2039 60.00339127 GAU 0.00861107 0.0 -264.48074 0.0
M13 ? BHE e S ? 20221105 2039 60.75396347 GAU 0.00166098 0.0 -193.83119 0.0
M08 ? BHZ i P c 20221105 2039 60.14813995 GAU 0.00413325 0.0 139.11920 0.0
M08 ? BHN e S ? 20221105 2039 61.02659607 GAU 0.00230707 0.0 297.66990 0.0
M12 ? BHZ i P c 20221105 2039 60.43169403 GAU 0.00344443 0.0 -477.96063 0.0
M12 ? BHN e S ? 20221105 2039 61.53423309 GAU 0.00398666 0.0 -121.63814 0.0

M06 ? BHZ e P c 20221105 2041 16.70624733 GAU 0.00911636 0.0 -110.27741 0.0
M06 ? BHE e S ? 20221105 2041 17.24864960 GAU 0.00478382 0.0 -115.73950 0.0
M11 ? BHZ e P c 20221105 2041 16.81278419 GAU 0.01190347 0.0 -94.51452 0.0
M11 ? BHN e S ? 20221105 2041 17.38886070 GAU 0.03428344 0.0 -115.83206 0.0
M09 ? BHZ i P c 20221105 2041 16.92468834 GAU 0.00991939 0.0 131.34601 0.0
M09 ? BHE e S ? 20221105 2041 17.50621796 GAU 0.00199369 0.0 349.21268 0.0
M08 ? BHZ e P c 20221105 2041 17.44559097 GAU 0.01487977 0.0 134.33247 0.0
M08 ? BHN e S ? 20221105 2041 18.18124199 GAU 0.01487960 0.0 301.38270 0.0
M12 ? BHZ e P c 20221105 2041 18.38116455 GAU 0.02380811 0.0 -353.53870 0.0
M12 ? BHE e S ? 20221105 2041 19.72361183 GAU 0.00991978 0.0 30.16764 0.0

M06 ? BHZ i P c 20221105 2041 20.04060555 GAU 0.00199323 0.0 220.76340 0.0
M06 ? BHN e S ? 20221105 2041 20.60112190 GAU 0.00598000 0.0 -166.54700 0.0
M14 ? BHZ i P c 20221105 2041 20.08860970 GAU 0.01148116 0.0 -416.95440 0.0
M14 ? BHN e S ? 20221105 2041 20.66652298 GAU 0.00717596 0.0 336.21960 0.0
M11 ? BHZ e P c 20221105 2041 20.11118317 GAU 0.00574079 0.0 -165.82393 0.0
M11 ? BHN e S ? 20221105 2041 20.75434875 GAU 0.01195936 0.0 -118.94971 0.0
M09 ? BHZ i P c 20221105 2041 20.24909782 GAU 0.01195955 0.0 167.03001 0.0
M09 ? BHE e S ? 20221105 2041 20.98098183 GAU 0.00229625 0.0 366.11160 0.0
M13 ? BHZ e P ? 20221105 2041 20.34444618 GAU 0.01240006 0.0 -84.72148 0.0
M13 ? BHN e S ? 20221105 2041 21.16900826 GAU 0.01435154 0.0 -127.16863 0.0
M08 ? BHZ i P d 20221105 2041 20.48508835 GAU 0.00344444 0.0 222.36012 0.0
M08 ? BHN e S ? 20221105 2041 21.44411469 GAU 0.01033289 0.0 309.17660 0.0
M05 ? BHZ i P d 20221105 2041 20.64258766 GAU 0.01239965 0.0 310.79962 0.0
M05 ? BHE e S ? 20221105 2041 21.67995071 GAU 0.00478418 0.0 -153.38197 0.0
M12 ? BHZ i P c 20221105 2041 20.83784103 GAU 0.00992017 0.0 -428.56018 0.0
M12 ? BHE e S ? 20221105 2041 22.06108093 GAU 0.00688870 0.0 24.14383 0.0

M06 ? BHZ i P c 20221105 2041 28.22425270 GAU 0.00598023 0.0 -32.56313 0.0
M06 ? BHN e S ? 20221105 2041 28.73562431 GAU 0.00797364 0.0 -129.83823 0.0
M14 ? BHZ i P c 20221105 2041 28.26978111 GAU 0.05740484 0.0 570.19196 0.0
M14 ? BHE e S ? 20221105 2041 28.75798607 GAU 0.01395325 0.0 391.11080 0.0
M11 ? BHZ i P c 20221105 2041 28.33275604 GAU 0.01722306 0.0 6.84455 0.0
M11 ? BHN e S ? 20221105 2041 28.95210266 GAU 0.00861115 0.0 -113.56696 0.0
M09 ? BHZ i P c 20221105 2041 28.44048500 GAU 0.00914761 0.0 201.13991 0.0
M09 ? BHN e S ? 20221105 2041 29.19257355 GAU 0.00956763 0.0 462.00000 0.0
M13 ? BHZ i P c 20221105 2041 28.54514694 GAU 0.01435123 0.0 -239.69551 0.0
M13 ? BHE e S ? 20221105 2041 29.42577171 GAU 0.00861115 0.0 -231.32310 0.0
M08 ? BHZ i P d 20221105 2041 28.64778328 GAU 0.01377774 0.0 187.46559 0.0
M08 ? BHN e S ? 20221105 2041 29.56758308 GAU 0.01148116 0.0 286.18805 0.0
M05 ? BHZ i P c 20221105 2041 28.84442902 GAU 0.02975985 0.0 244.86500 0.0
M05 ? BHN e S ? 20221105 2041 29.95455360 GAU 0.01033331 0.0 265.55475 0.0
M12 ? BHZ i P d 20221105 2041 29.00218391 GAU 0.00398662 0.0 -382.25784 0.0
M12 ? BHN e S ? 20221105 2041 30.20953941 GAU 0.02066767 0.0 -109.00000 0.0

M06 ? BHZ i P c 20221105 2041 41.69409561 GAU 0.00276846 0.0 -151.73395 0.0
M06 ? BHN e S ? 20221105 2041 42.25939941 GAU 0.00478393 0.0 -114.20859 0.0
M11 ? BHZ e P d 20221105 2041 41.83913803 GAU 0.02492284 0.0 14.57716 0.0
M11 ? BHN e S ? 20221105 2041 42.44808578 GAU 0.01983945 0.0 -104.52527 0.0
M09 ? BHZ i P c 20221105 2041 41.89709473 GAU 0.00332235 0.0 92.70454 0.0
M09 ? BHE e S ? 20221105 2041 42.54518127 GAU 0.00574080 0.0 364.00000 0.0
M13 ? BHZ i P c 20221105 2041 41.98685074 GAU 0.01033331 0.0 -276.23383 0.0
M13 ? BHE e S ? 20221105 2041 42.74438477 GAU 0.00996590 0.0 -190.00000 0.0
M08 ? BHZ e P c 20221105 2041 42.22796631 GAU 0.01239966 0.0 299.78460 0.0
M08 ? BHN e S ? 20221105 2041 43.15837097 GAU 0.00688894 0.0 308.30438 0.0

M06 ? BHZ i P d 20221105 2041 49.82468033 GAU 0.01377739 0.0 -42.34879 0.0
M06 ? BHN e S ? 20221105 2041 50.40842438 GAU 0.00717709 0.0 -106.58848 0.0
M11 ? BHZ i P c 20221105 2041 49.94462967 GAU 0.01785520 0.0 -284.30990 0.0
M11 ? BHN e S ? 20221105 2041 50.71432495 GAU 0.02066767 0.0 -104.56126 0.0
M09 ? BHZ i P c 20221105 2041 50.10931778 GAU 0.00992017 0.0 132.68689 0.0
M09 ? BHN e S ? 20221105 2041 51.00251770 GAU 0.00478394 0.0 476.27243 0.0
M08 ? BHZ e P c 20221105 2041 50.39092636 GAU 0.01785520 0.0 160.87100 0.0
M08 ? BHN e S ? 20221105 2041 51.38483810 GAU 0.00498327 0.0 299.34720 0.0

M06 ? BHZ i P c 20221105 2043 57.62871170 GAU 0.00861088 0.0 -218.70010 0.0
M06 ? BHN e S ? 20221105 2043 58.21578217 GAU 0.00717591 0.0 -121.59833 0.0
M11 ? BHZ i P c 20221105 2043 57.78170776 GAU 0.01033322 0.0 -466.87924 0.0
M11 ? BHN e S ? 20221105 2043 58.48428726 GAU 0.00498333 0.0 -118.75343 0.0
M09 ? BHZ i P c 20221105 2043 57.90800095 GAU 0.02066662 0.0 147.95279 0.0
M09 ? BHE e S ? 20221105 2043 58.79175949 GAU 0.00598023 0.0 349.15567 0.0
M05 ? BHZ i P c 20221105 2043 58.05047226 GAU 0.00861072 0.0 201.90446 0.0
M05 ? BHE e S ? 20221105 2043 58.97964478 GAU 0.00956769 0.0 -173.77925 0.0
M13 ? BHZ i P d 20221105 2043 58.06541824 GAU 0.01033342 0.0 5.26874 0.0
M13 ? BHE e S ? 20221105 2043 59.08919525 GAU 0.00717573 0.0 -206.89485 0.0
M08 ? BHZ i P c 20221105 2043 58.19878006 GAU 0.00688894 0.0 139.80028 0.0
M08 ? BHE e S ? 20221105 2043 59.21448517 GAU 0.00692493 0.0 -858.50780 0.0
M12 ? BHZ i P d 20221105 2043 58.43049240 GAU 0.01488007 0.0 -334.99564 0.0
M12 ? BHN e S ? 20221105 2043 59.67701721 GAU 0.00861109 0.0 -114.77735 0.0

M06 ? BHZ i P c 20221105 2044  4.28313208 GAU 0.00574039 0.0 -190.19092 0.0
M06 ? BHN e S ? 20221105 2044  4.79543543 GAU 0.01148159 0.0 -117.55970 0.0
M11 ? BHZ i P c 20221105 2044  4.42050600 GAU 0.02755481 0.0 -113.82858 0.0
M11 ? BHN e S ? 20221105 2044  5.00183821 GAU 0.00459345 0.0 -111.00000 0.0
M09 ? BHZ i P c 20221105 2044  4.47971296 GAU 0.00574059 0.0 39.23544 0.0
M09 ? BHE e S ? 20221105 2044  5.18408489 GAU 0.00597992 0.0 350.20710 0.0
M13 ? BHZ i P c 20221105 2044  4.54439163 GAU 0.00991972 0.0 -255.45143 0.0
M13 ? BHN e S ? 20221105 2044  5.30971193 GAU 0.00574039 0.0 -121.00644 0.0
M08 ? BHZ e P c 20221105 2044  4.77919912 GAU 0.01653259 0.0 201.80833 0.0
M08 ? BHN e S ? 20221105 2044  5.64320230 GAU 0.01904444 0.0 293.57138 0.0

M06 ? BHZ i P c 20221105 2044 24.14931870 GAU 0.01428441 0.0 -357.04280 0.0
M06 ? BHN e S ? 20221105 2044 24.77347565 GAU 0.01653413 0.0 -104.75819 0.0
M11 ? BHZ e P c 20221105 2044 24.28358078 GAU 0.04114092 0.0 -221.08528 0.0
M11 ? BHN e S ? 20221105 2044 25.01328278 GAU 0.00688892 0.0 -103.00000 0.0
M09 ? BHZ i P c 20221105 2044 24.37896919 GAU 0.01428464 0.0 29.23271 0.0
M09 ? BHN e S ? 20221105 2044 25.16844559 GAU 0.01722230 0.0 477.86063 0.0
M08 ? BHZ i P c 20221105 2044 24.58958244 GAU 0.00495967 0.0 165.64075 0.0
M08 ? BHN e S ? 20221105 2044 25.57380676 GAU 0.02066676 0.0 302.09360 0.0

M06 ? BHZ i P c 20221105 2044 30.01915169 GAU 0.01487960 0.0 -255.89586 0.0
M06 ? BHN e S ? 20221105 2044 30.59486198 GAU 0.00531576 0.0 -110.04122 0.0
M11 ? BHZ e P c 20221105 2044 30.14838409 GAU 0.01735962 0.0 -138.03802 0.0
M11 ? BHN e S ? 20221105 2044 30.87401581 GAU 0.01240060 0.0 -109.53625 0.0
M09 ? BHZ i P c 20221105 2044 30.30115509 GAU 0.01148072 0.0 92.34165 0.0
M09 ? BHN e S ? 20221105 2044 31.09934425 GAU 0.00576744 0.0 475.21716 0.0
M08 ? BHZ i P c 20221105 2044 30.56362915 GAU 0.01240060 0.0 73.12193 0.0
M08 ? BHN e S ? 20221105 2044 31.56333160 GAU 0.00661394 0.0 298.00000 0.0

M13 ? BHZ e P c 20221116 1937 53.42767334 GAU 0.02571258 0.0 -388.82450 0.0
M13 ? BHN e S ? 20221116 1937 53.85400772 GAU 0.01434986 0.0 -135.74740 0.0
M05 ? BHZ i P c 20221116 1937 53.45132828 GAU 0.03908339 0.0 164.34401 0.0
M05 ? BHN e S ? 20221116 1937 53.91217804 GAU 0.02198857 0.0 318.00000 0.0
M12 ? BHZ e P c 20221116 1937 53.46955109 GAU 0.02057028 0.0 -1017.63420 0.0
M12 ? BHE e S ? 20221116 1937 53.95855331 GAU 0.03571289 0.0 16.36113 0.0
M09 ? BHZ e P c 20221116 1937 53.52668762 GAU 0.01377739 0.0 -150.26347 0.0
M09 ? BHN e S ? 20221116 1937 54.05725861 GAU 0.03940497 0.0 513.41516 0.0

M12 ? BHZ e P c 20221118 1505 31.99348068 GAU 0.01190374 0.0 341.35358 0.0
M12 ? BHN e S ? 20221118 1505 33.47817612 GAU 0.01033311 0.0 -236.82942 0.0
M01 ? BHZ i P d 20221118 1505 32.00796890 GAU 0.01785520 0.0 1786.00050 0.0
M01 ? BHN e S ? 20221118 1505 33.47514343 GAU 0.00714275 0.0 1557.88460 0.0
M05 ? BHZ i P c 20221118 1505 32.05237961 GAU 0.00598004 0.0 -114.57888 0.0
M05 ? BHE e S ? 20221118 1505 33.58103561 GAU 0.01289597 0.0 -172.61380 0.0
M13 ? BHZ i P d 20221118 1505 32.16234589 GAU 0.00597999 0.0 -10.08711 0.0
M13 ? BHE e S ? 20221118 1505 33.73582840 GAU 0.01653329 0.0 -118.95653 0.0
M09 ? BHZ i P d 20221118 1505 32.30637360 GAU 0.01148145 0.0 -372.80090 0.0
M09 ? BHN e S ? 20221118 1505 34.02923965 GAU 0.02976144 0.0 317.79767 0.0
M14 ? BHZ i P d 20221118 1505 32.32127762 GAU 0.00574062 0.0 -43.68910 0.0
M14 ? BHN e S ? 20221118 1505 34.03784180 GAU 0.01190327 0.0 172.55852 0.0
M11 ? BHZ e P c 20221118 1505 32.35507584 GAU 0.00714252 0.0 -147.06836 0.0
M11 ? BHN e S ? 20221118 1505 34.12406540 GAU 0.00898034 0.0 -55.73603 0.0
M06 ? BHZ i P d 20221118 1505 32.52243423 GAU 0.00287039 0.0 -497.80453 0.0
M06 ? BHN e S ? 20221118 1505 34.39200211 GAU 0.01785596 0.0 -144.00000 0.0

M06 ? BHZ i P c 20221122 1840 58.08121872 GAU 0.01488029 0.0 -77.31486 0.0
M06 ? BHN e S ? 20221122 1840 58.93170929 GAU 0.02057111 0.0 -151.36284 0.0
M11 ? BHZ i P d 20221122 1840 58.36484146 GAU 0.02571285 0.0 72.74838 0.0
M11 ? BHE e S ? 20221122 1840 59.46956635 GAU 0.01785490 0.0 -151.66911 0.0
M09 ? BHZ i P d 20221122 1840 58.57476425 GAU 0.00861120 0.0 147.17375 0.0
M09 ? BHN e S ? 20221122 1840 59.86396027 GAU 0.01239973 0.0 477.02805 0.0
M05 ? BHZ i P d 20221122 1840 58.61270523 GAU 0.01428476 0.0 98.16180 0.0
M05 ? BHE e S ? 20221122 1840 59.95330048 GAU 0.01428418 0.0 -158.98273 0.0

M11 ? BHZ e P d 20221126 0705 22.46374893 GAU 0.00574084 0.0 130.61551 0.0
M11 ? BHE e S ? 20221126 0705 22.91742897 GAU 0.00478407 0.0 -140.21046 0.0
M09 ? BHZ e P c 20221126 0705 22.53676033 GAU 0.00717591 0.0 -7.64513 0.0
M09 ? BHN e S ? 20221126 0705 23.05220032 GAU 0.01033305 0.0 484.76996 0.0
M06 ? BHZ e P c 20221126 0705 22.46125412 GAU 0.00346127 0.0 -42.66857 0.0
M06 ? BHN e S ? 20221126 0705 22.99773407 GAU 0.00286978 0.0 -38.06824 0.0
M13 ? BHZ e P c 20221126 0705 22.73468590 GAU 0.00413322 0.0 -304.08298 0.0
M13 ? BHN e S ? 20221126 0705 23.42104530 GAU 0.01190458 0.0 -61.87394 0.0
M05 ? BHZ e P c 20221126 0705 23.02270699 GAU 0.00498327 0.0 69.93987 0.0
M05 ? BHN e S ? 20221126 0705 23.99581528 GAU 0.00969018 0.0 280.55328 0.0
M14 ? BHZ e P c 20221126 0705 22.48442650 GAU 0.00743091 0.0 -265.31662 0.0
M14 ? BHE e S ? 20221126 0705 23.04205132 GAU 0.00498341 0.0 406.99277 0.0
M08 ? BHZ e P d 20221126 0705 22.76976204 GAU 0.00498314 0.0 308.94940 0.0
M08 ? BHE e S ? 20221126 0705 23.50099373 GAU 0.00515079 0.0 -809.40270 0.0

M06 ? BHZ i P c 20221126 0706 35.92437363 GAU 0.00560750 0.0 -78.76859 0.0
M06 ? BHN e S ? 20221126 0706 36.48386765 GAU 0.01418651 0.0 -37.40489 0.0
M14 ? BHZ e P c 20221126 0706 35.91960144 GAU 0.02479946 0.0 -1140.33950 0.0
M14 ? BHE e S ? 20221126 0706 36.53208160 GAU 0.00992010 0.0 384.75150 0.0
M08 ? BHZ e P d 20221126 0706 36.19050980 GAU 0.00830496 0.0 755.08720 0.0
M08 ? BHN e S ? 20221126 0706 36.91807175 GAU 0.02479946 0.0 280.44360 0.0
M09 ? BHZ i P c 20221126 0706 35.95845413 GAU 0.00717627 0.0 -26.41657 0.0
M09 ? BHN e S ? 20221126 0706 36.48511124 GAU 0.01435199 0.0 484.56100 0.0
M13 ? BHZ e P c 20221126 0706 36.10564041 GAU 0.00398682 0.0 -592.90730 0.0
M13 ? BHE e S ? 20221126 0706 36.74405289 GAU 0.00826649 0.0 -134.51510 0.0
M11 ? BHZ i P c 20221126 0706 35.90441513 GAU 0.00478397 0.0 -502.27870 0.0
M11 ? BHE e S ? 20221126 0706 36.52554321 GAU 0.00861092 0.0 -122.94267 0.0
M05 ? BHZ e P d 20221126 0706 36.44519043 GAU 0.01644130 0.0 228.69232 0.0
M05 ? BHN e S ? 20221126 0706 37.41461182 GAU 0.00794131 0.0 285.00000 0.0
