M13 ? BHZ e P c 20221204 0731 59.47459412 GAU 0.04463902 0.0 -239.70473 0.0
M13 ? BHN e S ? 20221204 0731 59.95602417 GAU 0.01239777 0.0 -26.57137 0.0
M05 ? BHZ e P c 20221204 0731 59.34903336 GAU 0.05003481 0.0 -129.74704 0.0
M05 ? BHN e S ? 20221204 0731 59.77975845 GAU 0.05918956 0.0 299.55872 0.0
M06 ? BHZ e P c 20221204 0731 59.66919327 GAU 0.04113845 0.0 -276.62660 0.0
M06 ? BHE e S ? 20221204 0731 60.31969801 GAU 0.02969227 0.0 -16.18474 0.0
M09 ? BHZ e P c 20221204 0731 59.60257721 GAU 0.01653325 0.0 287.78244 0.0
M09 ? BHE e S ? 20221204 0731 60.17013477 GAU 0.02975919 0.0 388.48880 0.0
M10 ? BHZ e P c 20221204 0731 59.39257812 GAU 0.02975993 0.0 751.44720 0.0
M10 ? BHN e S ? 20221204 0731 59.87583542 GAU 0.05412334 0.0 1471.80680 0.0

M05 ? BHZ e P c 20221204 1035  6.62400000 GAU 0.03256949 0.0 184.93730 0.0
M05 ? BHN e S ? 20221204 1035  7.27500000 GAU 0.01428449 0.0 270.29587 0.0
M13 ? BHZ e P c 20221204 1035  6.63300000 GAU 0.04133404 0.0 51.34164 0.0
M13 ? BHE e S ? 20221204 1035  7.30700000 GAU 0.02296335 0.0 -135.53760 0.0
M06 ? BHZ e P d 20221204 1035  7.06000000 GAU 0.01430071 0.0 -24.31838 0.0
M06 ? BHE e S ? 20221204 1035  7.95700000 GAU 0.04434317 0.0 -51.36020 0.0
M04 ? BHZ e P c 20221204 1035  7.27600000 GAU 0.02251821 0.0 1464.96010 0.0
M04 ? BHE e S ? 20221204 1035  8.37900000 GAU 0.06448062 0.0 299.07755 0.0

M13 ? BHZ e P c 20221208 2003 15.45488834 GAU 0.02066662 0.0 -167.66690 0.0
M13 ? BHE e S ? 20221208 2003 16.72591209 GAU 0.03571191 0.0 -172.68204 0.0
M10 ? BHZ e P c 20221208 2003 15.66771030 GAU 0.01190458 0.0 271.60250 0.0
M10 ? BHN e S ? 20221208 2003 17.16355324 GAU 0.09427474 0.0 2083.01930 0.0
M12 ? BHZ e P c 20221208 2003 15.66884708 GAU 0.04461674 0.0 -577.98114 0.0
M12 ? BHN e S ? 20221208 2003 17.12311172 GAU 0.06856687 0.0 -147.10338 0.0
M05 ? BHZ e P c 20221208 2003 15.69016838 GAU 0.03428198 0.0 79.77129 0.0
M05 ? BHN e S ? 20221208 2003 17.16801643 GAU 0.00861072 0.0 277.15470 0.0
M09 ? BHZ e P c 20221208 2003 16.36304474 GAU 0.01848973 0.0 108.81847 0.0
M09 ? BHN e S ? 20221208 2003 18.21921158 GAU 0.03403092 0.0 486.00000 0.0
M06 ? BHZ e P d 20221208 2003 16.49410248 GAU 0.02445674 0.0 -40.97716 0.0
M06 ? BHN e S ? 20221208 2003 18.45557594 GAU 0.04006741 0.0 -101.17597 0.0

M12 ? BHZ i P c 20221212 1037 11.78490829 GAU 0.02066577 0.0 -491.50305 0.0
M12 ? BHE e S ? 20221212 1037 12.86973953 GAU 0.02479893 0.0 70.17085 0.0
M08 ? BHZ i P c 20221212 1037 11.81538296 GAU 0.01377687 0.0 13.59427 0.0
M08 ? BHE e S ? 20221212 1037 12.93798733 GAU 0.01148072 0.0 -849.89860 0.0
M13 ? BHZ e P c 20221212 1037 11.81906414 GAU 0.03380188 0.0 -58.21949 0.0
M13 ? BHE e S ? 20221212 1037 12.95921707 GAU 0.01727090 0.0 -163.51132 0.0
M05 ? BHZ e P d 20221212 1037 11.84006023 GAU 0.03085431 0.0 458.92038 0.0
M05 ? BHN e S ? 20221212 1037 12.97899818 GAU 0.04546780 0.0 265.00000 0.0
M09 ? BHZ i P d 20221212 1037 11.97232533 GAU 0.02066767 0.0 102.68001 0.0
M09 ? BHN e S ? 20221212 1037 13.17919636 GAU 0.03719918 0.0 473.75030 0.0
M11 ? BHZ e P c 20221212 1037 12.02338505 GAU 0.01951764 0.0 -51.08787 0.0
M11 ? BHN e S ? 20221212 1037 13.29448032 GAU 0.04007670 0.0 -83.11884 0.0
M14 ? BHZ e P c 20221212 1037 12.04977417 GAU 0.02066609 0.0 -668.05280 0.0
M14 ? BHE e S ? 20221212 1037 13.32658291 GAU 0.03157560 0.0 367.77243 0.0
M06 ? BHZ e P c 20221212 1037 12.12411213 GAU 0.01435182 0.0 -226.27466 0.0
M06 ? BHE e S ? 20221212 1037 13.48690510 GAU 0.03571373 0.0 -112.00011 0.0

M11 ? BHZ e P c 20221213 2024 27.29695129 GAU 0.02976024 0.0 -354.84128 0.0
M11 ? BHN e S ? 20221213 2024 27.90040970 GAU 0.03306524 0.0 -104.76819 0.0
M14 ? BHZ e P c 20221213 2024 27.19279861 GAU 0.04546671 0.0 -1555.93760 0.0
M14 ? BHN e S ? 20221213 2024 27.71203423 GAU 0.04166287 0.0 378.71982 0.0
M05 ? BHZ e P c 20221213 2024 27.89122009 GAU 0.02794108 0.0 172.79599 0.0
M05 ? BHN e S ? 20221213 2024 28.99106598 GAU 0.01148168 0.0 265.74112 0.0
M06 ? BHZ i P d 20221213 2024 27.23918343 GAU 0.01435182 0.0 -146.61359 0.0
M06 ? BHN e S ? 20221213 2024 27.73069000 GAU 0.03109718 0.0 -86.34778 0.0
M09 ? BHZ e P c 20221213 2024 27.38115692 GAU 0.01653329 0.0 100.52132 0.0
M09 ? BHN e S ? 20221213 2024 28.05616379 GAU 0.01435192 0.0 478.12900 0.0

M11 ? BHZ e P c 20221213 2024 40.63697433 GAU 0.04179404 0.0 179.38455 0.0
M11 ? BHN e S ? 20221213 2024 41.19752121 GAU 0.03306659 0.0 -105.00000 0.0
M05 ? BHZ e P c 20221213 2024 41.44360733 GAU 0.02479972 0.0 159.71742 0.0
M05 ? BHN e S ? 20221213 2024 42.53199768 GAU 0.00804239 0.0 269.00000 0.0
M06 ? BHZ i P d 20221213 2024 40.50234985 GAU 0.01722218 0.0 15.66207 0.0
M06 ? BHN e S ? 20221213 2024 40.92091370 GAU 0.03731252 0.0 -87.21549 0.0
M09 ? BHZ e P c 20221213 2024 40.75328064 GAU 0.01785520 0.0 33.55935 0.0
M09 ? BHN e S ? 20221213 2024 41.28391647 GAU 0.02870363 0.0 477.70280 0.0

M13 ? BHZ e P c 20221213 2025 29.77915573 GAU 0.01328793 0.0 -80.55587 0.0
M13 ? BHE e S ? 20221213 2025 30.51967239 GAU 0.00478366 0.0 -196.74275 0.0
M08 ? BHZ e P c 20221213 2025 30.05880165 GAU 0.02240796 0.0 -237.91132 0.0
M08 ? BHN e S ? 20221213 2025 30.90011978 GAU 0.02391929 0.0 318.05014 0.0
M11 ? BHZ e P d 20221213 2025 29.60028839 GAU 0.01653413 0.0 353.79080 0.0
M11 ? BHN e S ? 20221213 2025 30.17689514 GAU 0.01148078 0.0 -92.00000 0.0
M12 ? BHZ e P c 20221213 2025 30.25620461 GAU 0.01487959 0.0 -668.37634 0.0
M12 ? BHE e S ? 20221213 2025 31.38706970 GAU 0.02479848 0.0 18.46380 0.0
M10 ? BHZ e P c 20221213 2025 29.83841133 GAU 0.03085535 0.0 -90.61232 0.0
M10 ? BHN e S ? 20221213 2025 30.55930138 GAU 0.09285088 0.0 1751.56290 0.0
M14 ? BHZ i P d 20221213 2025 29.59802437 GAU 0.00558491 0.0 1103.78390 0.0
M14 ? BHN e S ? 20221213 2025 30.13687706 GAU 0.00664454 0.0 289.72928 0.0
M05 ? BHZ e P c 20221213 2025 30.14789391 GAU 0.03719896 0.0 424.53168 0.0
M05 ? BHE e S ? 20221213 2025 31.12272453 GAU 0.03444436 0.0 -166.93015 0.0
M06 ? BHZ i P d 20221213 2025 29.50964928 GAU 0.00576774 0.0 -226.17972 0.0
M06 ? BHN e S ? 20221213 2025 29.97791290 GAU 0.01913454 0.0 -57.39951 0.0
M04 ? BHZ e P c 20221213 2025 29.58230782 GAU 0.00688922 0.0 -607.00390 0.0
M04 ? BHN e S ? 20221213 2025 29.99294853 GAU 0.02353559 0.0 683.13630 0.0
M09 ? BHZ e P d 20221213 2025 29.73453522 GAU 0.00991957 0.0 181.44917 0.0
M09 ? BHN e S ? 20221213 2025 30.31838036 GAU 0.02610135 0.0 495.63892 0.0

M13 ? BHZ e P c 20221213 2025 43.49487686 GAU 0.00861153 0.0 -395.10715 0.0
M13 ? BHE e S ? 20221213 2025 44.15943909 GAU 0.02066609 0.0 -173.43869 0.0
M08 ? BHZ e P d 20221213 2025 43.66507721 GAU 0.02479994 0.0 153.71968 0.0
M08 ? BHE e S ? 20221213 2025 44.47088242 GAU 0.02755689 0.0 -856.32780 0.0
M11 ? BHZ e P c 20221213 2025 43.27974701 GAU 0.00996629 0.0 -872.02075 0.0
M11 ? BHN e S ? 20221213 2025 43.83283615 GAU 0.01722174 0.0 -97.59438 0.0
M12 ? BHZ e P c 20221213 2025 44.06359482 GAU 0.02480020 0.0 -827.87460 0.0
M12 ? BHN e S ? 20221213 2025 45.16760254 GAU 0.02287030 0.0 -126.60719 0.0
M10 ? BHZ e P c 20221213 2025 43.49944687 GAU 0.03571103 0.0 -231.35312 0.0
M10 ? BHN e S ? 20221213 2025 44.24407196 GAU 0.02380735 0.0 -1624.66750 0.0
M14 ? BHZ e P c 20221213 2025 43.17083359 GAU 0.01984009 0.0 -170.89432 0.0
M14 ? BHE e S ? 20221213 2025 43.62878036 GAU 0.00498259 0.0 355.34692 0.0
M05 ? BHZ e P c 20221213 2025 43.90308380 GAU 0.01488072 0.0 -12.49120 0.0
M05 ? BHE e S ? 20221213 2025 44.92919159 GAU 0.01239966 0.0 -182.73053 0.0
M06 ? BHZ i P d 20221213 2025 43.13383865 GAU 0.00398645 0.0 -24.63243 0.0
M06 ? BHN e S ? 20221213 2025 43.60466003 GAU 0.00664419 0.0 -143.77336 0.0
M04 ? BHZ e P c 20221213 2025 43.10995865 GAU 0.02755689 0.0 -1647.25330 0.0
M04 ? BHN e S ? 20221213 2025 43.62218857 GAU 0.00861092 0.0 743.60156 0.0
M09 ? BHZ i P d 20221213 2025 43.34367752 GAU 0.02009254 0.0 257.53442 0.0
M09 ? BHE e S ? 20221213 2025 43.93394089 GAU 0.01377774 0.0 369.92810 0.0

M05 ? BHZ e P c 20221227 1822 29.60766411 GAU 0.00991973 0.0 95.49553 0.0
M05 ? BHN e S ? 20221227 1822 30.03507614 GAU 0.01435255 0.0 255.00000 0.0
M08 ? BHZ e P c 20221227 1822 30.00067329 GAU 0.00956794 0.0 52.26176 0.0
M08 ? BHN e S ? 20221227 1822 30.75884819 GAU 0.00477938 0.0 298.06763 0.0
M13 ? BHZ e P c 20221227 1822 29.84776306 GAU 0.00597957 0.0 -177.10995 0.0
M13 ? BHN e S ? 20221227 1822 30.47712326 GAU 0.00332212 0.0 -120.38676 0.0
M12 ? BHZ e P c 20221227 1822 29.87105370 GAU 0.01148145 0.0 -498.90450 0.0
M12 ? BHN e S ? 20221227 1822 30.45550728 GAU 0.00576689 0.0 -126.09977 0.0
M06 ? BHZ i P c 20221227 1822 29.75263023 GAU 0.00574084 0.0 -333.60480 0.0
M06 ? BHE e S ? 20221227 1822 30.29244041 GAU 0.01143805 0.0 -138.73157 0.0
M09 ? BHZ e P c 20221227 1822 29.88038254 GAU 0.00717627 0.0 -29.60058 0.0
M09 ? BHE e S ? 20221227 1822 30.56978226 GAU 0.00744727 0.0 359.22128 0.0
M04 ? BHZ e P c 20221227 1822 29.63758469 GAU 0.01387249 0.0 -177.45059 0.0
M04 ? BHE e S ? 20221227 1822 30.07796860 GAU 0.01435154 0.0 318.07532 0.0

M04 ? BHZ e P c 20221227 1822 38.79487991 GAU 0.01435139 0.0 -1626.68910 0.0
M04 ? BHE e S ? 20221227 1822 39.21189499 GAU 0.01033265 0.0 270.45532 0.0
M13 ? BHZ e P c 20221227 1822 38.80173874 GAU 0.01655913 0.0 -369.42468 0.0
M13 ? BHN e S ? 20221227 1822 39.36202621 GAU 0.01724910 0.0 -123.93569 0.0
M05 ? BHZ e P c 20221227 1822 38.81566238 GAU 0.00995030 0.0 151.20996 0.0
M05 ? BHE e S ? 20221227 1822 39.35663223 GAU 0.00991934 0.0 -172.81808 0.0
M06 ? BHZ e P c 20221227 1822 38.86041260 GAU 0.02139095 0.0 -197.02339 0.0
M06 ? BHN e S ? 20221227 1822 39.35657883 GAU 0.00961286 0.0 -119.34003 0.0
M12 ? BHZ e P c 20221227 1822 39.01501465 GAU 0.01409914 0.0 -634.37683 0.0
M12 ? BHE e S ? 20221227 1822 39.63635635 GAU 0.02857098 0.0 19.29349 0.0
M08 ? BHZ e P d 20221227 1822 39.14292908 GAU 0.01590196 0.0 126.46542 0.0
M08 ? BHN e S ? 20221227 1822 39.84956741 GAU 0.01195914 0.0 309.04910 0.0
M09 ? BHZ e P c 20221227 1822 39.19527817 GAU 0.01435123 0.0 -39.95865 0.0
M09 ? BHN e S ? 20221227 1822 40.05377960 GAU 0.01641368 0.0 491.70420 0.0

M05 ? BHZ e P d 20221227 1926 29.10978508 GAU 0.03702683 0.0 275.93246 0.0
M05 ? BHE e S ? 20221227 1926 29.59158707 GAU 0.02571192 0.0 -179.73965 0.0
M08 ? BHZ e P c 20221227 1926 29.49525833 GAU 0.03428347 0.0 134.56868 0.0
M08 ? BHE e S ? 20221227 1926 30.23560524 GAU 0.00797316 0.0 -876.83460 0.0
M13 ? BHZ e P c 20221227 1926 29.76902580 GAU 0.01239997 0.0 -280.46765 0.0
M13 ? BHN e S ? 20221227 1926 30.71883011 GAU 0.00956763 0.0 -127.27349 0.0
M06 ? BHZ e P c 20221227 1926 29.35608864 GAU 0.01971298 0.0 -314.83090 0.0
M06 ? BHN e S ? 20221227 1926 30.07403755 GAU 0.02057006 0.0 -129.32898 0.0
M09 ? BHZ e P d 20221227 1926 29.79252815 GAU 0.01785580 0.0 90.90038 0.0
M09 ? BHN e S ? 20221227 1926 30.69861794 GAU 0.02479933 0.0 471.00000 0.0

M05 ? BHZ e P c 20221227 2329 59.15342712 GAU 0.00861074 0.0 41.91457 0.0
M05 ? BHN e S ? 20221227 2329 59.52248764 GAU 0.01722306 0.0 271.56274 0.0
M13 ? BHZ e P d 20221227 2329 59.41799927 GAU 0.01722213 0.0 -40.02554 0.0
M13 ? BHE e S ? 20221227 2329 59.93906784 GAU 0.01487933 0.0 -182.26100 0.0
M08 ? BHZ e P c 20221227 2329 59.57078552 GAU 0.01532163 0.0 184.92906 0.0
M08 ? BHE e S ? 20221227 2329 60.19685107 GAU 0.00270160 0.0 -864.46216 0.0
M09 ? BHZ i P c 20221227 2329 59.57629776 GAU 0.02142715 0.0 -5.51138 0.0
M09 ? BHN e S ? 20221227 2329 60.21607208 GAU 0.00574058 0.0 478.00000 0.0
M06 ? BHZ e P c 20221227 2329 59.57780075 GAU 0.01190387 0.0 -295.46948 0.0
M06 ? BHN e S ? 20221227 2329 60.19146347 GAU 0.02460699 0.0 -116.49989 0.0

M14 ? BHZ e P c 20221230 2015  4.28001499 GAU 0.00826707 0.0 118.68736 0.0
M14 ? BHN e S ? 20221230 2015  4.67492628 GAU 0.01103891 0.0 343.40237 0.0
M11 ? BHZ i P c 20221230 2015  4.43082190 GAU 0.00344435 0.0 -21301.72000 0.0
M11 ? BHE e S ? 20221230 2015  4.86841488 GAU 0.00826616 0.0 -8640.99400 0.0
M09 ? BHZ e P c 20221230 2015  4.53239822 GAU 0.00478374 0.0 11.32815 0.0
M09 ? BHN e S ? 20221230 2015  5.08525372 GAU 0.02856973 0.0 519.01843 0.0
M06 ? BHZ i P c 20221230 2015  4.72747707 GAU 0.01488072 0.0 -344.27500 0.0
M06 ? BHE e S ? 20221230 2015  5.35591269 GAU 0.01058736 0.0 -93.50085 0.0
M08 ? BHZ e P c 20221230 2015  4.85925817 GAU 0.00553692 0.0 75.09122 0.0
M08 ? BHN e S ? 20221230 2015  5.57506800 GAU 0.00797316 0.0 296.00890 0.0

