M04 ? BHZ e P c 20220710 0327 25.47276878 GAU 0.02976144 0.0 -258.51850 0.0
M04 ? BHN e S ? 20220710 0327 25.58357430 GAU 0.01190412 0.0 720.28520 0.0
M02 ? BHZ i P d 20220710 0327 25.69093513 GAU 0.01722185 0.0 -886.18054 0.0
M02 ? BHN e S ? 20220710 0327 25.84730148 GAU 0.02893361 0.0 -1780.39550 0.0
M06 ? BHZ i P c 20220710 0327 25.84141159 GAU 0.01871500 0.0 -660.97460 0.0
M06 ? BHN e S ? 20220710 0327 26.10087967 GAU 0.02479848 0.0 -95.00000 0.0
M09 ? BHZ i P c 20220710 0327 25.97119713 GAU 0.00664397 0.0 -26.77256 0.0
M09 ? BHN e S ? 20220710 0327 26.40774727 GAU 0.02479946 0.0 481.35757 0.0

M06 ? BHZ i P c 20220722 1604  5.95653296 GAU 0.00861058 0.0 -106.58402 0.0
M06 ? BHE e S ? 20220722 1604  7.06783867 GAU 0.02066621 0.0 -154.73724 0.0
M04 ? BHZ i P c 20220722 1604  6.01257753 GAU 0.01435154 0.0 -866.35410 0.0
M04 ? BHN e S ? 20220722 1604  7.09067059 GAU 0.01435417 0.0 703.01690 0.0
M02 ? BHZ i P d 20220722 1604  6.07139826 GAU 0.00830587 0.0 -441.71710 0.0
M02 ? BHE e S ? 20220722 1604  7.21676016 GAU 0.02001561 0.0 -611.98566 0.0
M14 ? BHZ e P c 20220722 1604  6.07480383 GAU 0.02975935 0.0 -211.79716 0.0
M14 ? BHE e S ? 20220722 1604  7.26082611 GAU 0.02893365 0.0 -416.23804 0.0
M11 ? BHZ e P c 20220722 1604  6.16154718 GAU 0.04463726 0.0 -36.69914 0.0
M11 ? BHE e S ? 20220722 1604  7.42578506 GAU 0.03333424 0.0 -126.42744 0.0
M09 ? BHZ i P c 20220722 1604  6.27191448 GAU 0.01653232 0.0 102.26161 0.0
M09 ? BHN e S ? 20220722 1604  7.66212130 GAU 0.03471924 0.0 461.25403 0.0
M05 ? BHZ i P d 20220722 1604  6.52431726 GAU 0.02975867 0.0 352.26416 0.0
M05 ? BHN e S ? 20220722 1604  8.26017475 GAU 0.03471850 0.0 306.91794 0.0
M08 ? BHZ e P c 20220722 1604  6.55986786 GAU 0.01722218 0.0 -405.15247 0.0
M08 ? BHE e S ? 20220722 1604  8.34395027 GAU 0.02480120 0.0 -393.17157 0.0
M15 ? BHZ i P d 20220722 1604  6.74219418 GAU 0.02353803 0.0 -731.23500 0.0
M15 ? BHN e S ? 20220722 1604  8.55632019 GAU 0.02066621 0.0 -92.48968 0.0
M12 ? BHZ e P d 20220722 1604  6.76238871 GAU 0.03967889 0.0 -184.01485 0.0
M12 ? BHE e S ? 20220722 1604  8.74296284 GAU 0.02480011 0.0 61.78122 0.0

M05 ? BHZ e P c 20220724 0821 49.12895203 GAU 0.00574077 0.0 -792182.30000 0.0
M05 ? BHE e S ? 20220724 0821 49.35648346 GAU 0.01674172 0.0 6849.81640 0.0
M01 ? BHZ e P c 20220724 0821 49.31254959 GAU 0.03428344 0.0 3303.24660 0.0
M01 ? BHE e S ? 20220724 0821 49.67180252 GAU 0.02745864 0.0 996.48220 0.0
M12 ? BHZ e P c 20220724 0821 49.49586868 GAU 0.01377771 0.0 -411.22736 0.0
M12 ? BHE e S ? 20220724 0821 50.33625412 GAU 0.02571106 0.0 192.46733 0.0
M13 ? BHZ e P d 20220724 0821 49.56123352 GAU 0.04879653 0.0 565.16110 0.0
M13 ? BHE e S ? 20220724 0821 50.52640533 GAU 0.02142824 0.0 -36.08080 0.0
M10 ? BHZ e P c 20220724 0821 49.57027054 GAU 0.05142516 0.0 -3511.32930 0.0
M10 ? BHE e S ? 20220724 0821 50.26945114 GAU 0.01488007 0.0 -11194.84900 0.0
M03 ? BHZ e P c 20220724 0821 49.69409561 GAU 0.04285321 0.0 -1402.04760 0.0
M03 ? BHE e S ? 20220724 0821 50.45151901 GAU 0.05924027 0.0 -8458.60900 0.0
M09 ? BHZ i P c 20220724 0821 49.76420975 GAU 0.01653331 0.0 -60.39740 0.0
M09 ? BHE e S ? 20220724 0821 50.59762573 GAU 0.02975985 0.0 378.03635 0.0
M08 ? BHZ e P c 20220724 0821 49.81891251 GAU 0.05474568 0.0 -401.04898 0.0
M08 ? BHE e S ? 20220724 0821 50.54619598 GAU 0.02754871 0.0 0.15715 0.0
M11 ? BHZ e P c 20220724 0821 50.10837936 GAU 0.05899320 0.0 -196.44666 0.0
M11 ? BHE e S ? 20220724 0821 51.44009399 GAU 0.03085666 0.0 -113.58240 0.0
M06 ? BHZ i P d 20220724 0821 50.35341644 GAU 0.03570964 0.0 -219.58476 0.0
M06 ? BHN e S ? 20220724 0821 51.82725143 GAU 0.10664062 0.0 -56.57594 0.0
M02 ? BHZ e P c 20220724 0821 50.84319305 GAU 0.02114906 0.0 -184.67291 0.0
M02 ? BHN e S ? 20220724 0821 52.27079010 GAU 0.02380697 0.0 -1897.00000 0.0

M08 ? BHZ e P c 20220726 2045 30.37092972 GAU 0.04113770 0.0 16.38453 0.0
M08 ? BHE e S ? 20220726 2045 30.90179825 GAU 0.04285648 0.0 -140.95271 0.0
M13 ? BHZ i P c 20220726 2045 30.45758438 GAU 0.03085501 0.0 148.08658 0.0
M13 ? BHN e S ? 20220726 2045 31.16505432 GAU 0.02479836 0.0 -140.00000 0.0
M05 ? BHZ e P c 20220726 2045 30.48835182 GAU 0.04285321 0.0 -112.76912 0.0
M05 ? BHN e S ? 20220726 2045 31.18973541 GAU 0.06170861 0.0 252.03816 0.0
M10 ? BHZ e P c 20220726 2045 30.66578102 GAU 0.03868650 0.0 1079.89820 0.0
M10 ? BHN e S ? 20220726 2045 31.52230453 GAU 0.03428204 0.0 -2362.47530 0.0
M06 ? BHZ e P c 20220726 2045 30.83590889 GAU 0.07142458 0.0 220.45730 0.0
M06 ? BHE e S ? 20220726 2045 31.73926544 GAU 0.06171019 0.0 -138.49553 0.0

M08 ? BHZ e P d 20220726 2337 54.15983963 GAU 0.01674280 0.0 100.80708 0.0
M08 ? BHN e S ? 20220726 2337 54.54898071 GAU 0.01107169 0.0 -515.85645 0.0
M13 ? BHZ e P c 20220726 2337 54.22446442 GAU 0.02631131 0.0 -55.86192 0.0
M13 ? BHE e S ? 20220726 2337 54.68922806 GAU 0.00956749 0.0 -202.00000 0.0
M09 ? BHZ e P c 20220726 2337 54.23937988 GAU 0.03087845 0.0 14.99242 0.0
M09 ? BHN e S ? 20220726 2337 54.70030975 GAU 0.02410618 0.0 472.82098 0.0
M11 ? BHZ e P c 20220726 2337 54.38069153 GAU 0.02563060 0.0 -190.41171 0.0
M11 ? BHE e S ? 20220726 2337 54.88520813 GAU 0.01983869 0.0 -150.86610 0.0

M06 ? BHZ e P c 20220728 0451 57.59883118 GAU 0.01148153 0.0 1048.54930 0.0
M06 ? BHE e S ? 20220728 0451 58.18247223 GAU 0.02892931 0.0 -34.06596 0.0
M11 ? BHZ e P c 20220728 0451 57.71246719 GAU 0.01162716 0.0 560.54333 0.0
M11 ? BHE e S ? 20220728 0451 58.47659683 GAU 0.03045653 0.0 -50.77213 0.0
M09 ? BHZ e P c 20220728 0451 57.80678177 GAU 0.02008980 0.0 505.55786 0.0
M09 ? BHN e S ? 20220728 0451 58.61780167 GAU 0.02869720 0.0 449.54224 0.0
M04 ? BHZ e P c 20220728 0451 57.85371399 GAU 0.03587998 0.0 -3361.16360 0.0
M04 ? BHE e S ? 20220728 0451 58.61815643 GAU 0.02480401 0.0 245.11113 0.0
M02 ? BHZ e P c 20220728 0451 58.00117111 GAU 0.01785523 0.0 1847.45320 0.0
M02 ? BHN e S ? 20220728 0451 58.98333359 GAU 0.02819946 0.0 -2041.18620 0.0
M08 ? BHZ e P c 20220728 0451 58.08872604 GAU 0.01434927 0.0 212.30954 0.0
M08 ? BHE e S ? 20220728 0451 59.10131073 GAU 0.02480401 0.0 638.78046 0.0

M12 ? BHZ e P c 20220730 0712 58.45352936 GAU 0.00956747 0.0 -1021.65137 0.0
M12 ? BHN e S ? 20220730 0712 59.79768753 GAU 0.02976029 0.0 -43.31801 0.0
M09 ? BHZ e P c 20220730 0712 58.64615631 GAU 0.01435197 0.0 20.66399 0.0
M09 ? BHN e S ? 20220730 0712 60.03471756 GAU 0.02893270 0.0 513.62506 0.0
M11 ? BHZ e P d 20220730 0712 58.75292587 GAU 0.02975872 0.0 -63.08666 0.0
M11 ? BHN e S ? 20220730 0712 60.23625565 GAU 0.02109792 0.0 -55.73242 0.0
M06 ? BHZ e P c 20220730 0712 59.02050400 GAU 0.03472168 0.0 -53.83813 0.0
M06 ? BHE e S ? 20220730 0712 60.54121399 GAU 0.02893155 0.0 34.00000 0.0

