M11 ? BHZ e P d 20221126 0705 22.46374893 GAU 0.00574084 0.0 130.61551 0.0
M11 ? BHE e S ? 20221126 0705 22.91742897 GAU 0.00478407 0.0 -140.21046 0.0
M09 ? BHZ e P c 20221126 0705 22.53676033 GAU 0.00717591 0.0 -7.64513 0.0
M09 ? BHN e S ? 20221126 0705 23.05220032 GAU 0.01033305 0.0 484.76996 0.0
M06 ? BHZ e P c 20221126 0705 22.46125412 GAU 0.00346127 0.0 -42.66857 0.0
M06 ? BHN e S ? 20221126 0705 22.99773407 GAU 0.00286978 0.0 -38.06824 0.0
M13 ? BHZ e P c 20221126 0705 22.73468590 GAU 0.00413322 0.0 -304.08298 0.0
M13 ? BHN e S ? 20221126 0705 23.42104530 GAU 0.01190458 0.0 -61.87394 0.0
M05 ? BHZ e P c 20221126 0705 23.02270699 GAU 0.00498327 0.0 69.93987 0.0
M05 ? BHN e S ? 20221126 0705 23.99581528 GAU 0.00969018 0.0 280.55328 0.0
M14 ? BHZ e P c 20221126 0705 22.48442650 GAU 0.00743091 0.0 -265.31662 0.0
M14 ? BHE e S ? 20221126 0705 23.04205132 GAU 0.00498341 0.0 406.99277 0.0
M08 ? BHZ e P d 20221126 0705 22.76976204 GAU 0.00498314 0.0 308.94940 0.0
M08 ? BHE e S ? 20221126 0705 23.50099373 GAU 0.00515079 0.0 -809.40270 0.0

M06 ? BHZ i P c 20221126 0706 35.92437363 GAU 0.00560750 0.0 -78.76859 0.0
M06 ? BHN e S ? 20221126 0706 36.48386765 GAU 0.01418651 0.0 -37.40489 0.0
M14 ? BHZ e P c 20221126 0706 35.91960144 GAU 0.02479946 0.0 -1140.33950 0.0
M14 ? BHE e S ? 20221126 0706 36.53208160 GAU 0.00992010 0.0 384.75150 0.0
M08 ? BHZ e P d 20221126 0706 36.19050980 GAU 0.00830496 0.0 755.08720 0.0
M08 ? BHN e S ? 20221126 0706 36.91807175 GAU 0.02479946 0.0 280.44360 0.0
M09 ? BHZ i P c 20221126 0706 35.95845413 GAU 0.00717627 0.0 -26.41657 0.0
M09 ? BHN e S ? 20221126 0706 36.48511124 GAU 0.01435199 0.0 484.56100 0.0
M13 ? BHZ e P c 20221126 0706 36.10564041 GAU 0.00398682 0.0 -592.90730 0.0
M13 ? BHE e S ? 20221126 0706 36.74405289 GAU 0.00826649 0.0 -134.51510 0.0
M11 ? BHZ i P c 20221126 0706 35.90441513 GAU 0.00478397 0.0 -502.27870 0.0
M11 ? BHE e S ? 20221126 0706 36.52554321 GAU 0.00861092 0.0 -122.94267 0.0
M05 ? BHZ e P d 20221126 0706 36.44519043 GAU 0.01644130 0.0 228.69232 0.0
M05 ? BHN e S ? 20221126 0706 37.41461182 GAU 0.00794131 0.0 285.00000 0.0

M13 ? BHZ e P c 20221204 0731 59.47459412 GAU 0.04463902 0.0 -239.70473 0.0
M13 ? BHN e S ? 20221204 0731 59.95602417 GAU 0.01239777 0.0 -26.57137 0.0
M05 ? BHZ e P c 20221204 0731 59.34903336 GAU 0.05003481 0.0 -129.74704 0.0
M05 ? BHN e S ? 20221204 0731 59.77975845 GAU 0.05918956 0.0 299.55872 0.0
M06 ? BHZ e P c 20221204 0731 59.66919327 GAU 0.04113845 0.0 -276.62660 0.0
M06 ? BHE e S ? 20221204 0731 60.31969801 GAU 0.02969227 0.0 -16.18474 0.0
M09 ? BHZ e P c 20221204 0731 59.60257721 GAU 0.01653325 0.0 287.78244 0.0
M09 ? BHE e S ? 20221204 0731 60.17013477 GAU 0.02975919 0.0 388.48880 0.0
M10 ? BHZ e P c 20221204 0731 59.39257812 GAU 0.02975993 0.0 751.44720 0.0
M10 ? BHN e S ? 20221204 0731 59.87583542 GAU 0.05412334 0.0 1471.80680 0.0

M04 ? BHZ e P c 20221204 1035  7.34352684 GAU 0.02480011 0.0 -1954.08010 0.0
M04 ? BHE e S ? 20221204 1035  8.37857723 GAU 0.06448062 0.0 299.07755 0.0
M13 ? BHZ e P c 20221204 1035  6.63298368 GAU 0.04133404 0.0 51.34164 0.0
M13 ? BHE e S ? 20221204 1035  7.30654716 GAU 0.02296335 0.0 -135.53760 0.0
M05 ? BHZ e P c 20221204 1035  6.62427044 GAU 0.03256949 0.0 184.93730 0.0
M05 ? BHN e S ? 20221204 1035  7.27495623 GAU 0.01428449 0.0 270.29587 0.0
M06 ? BHZ e P c 20221204 1035  7.09016323 GAU 0.02380693 0.0 -174.55070 0.0
M06 ? BHE e S ? 20221204 1035  7.95697021 GAU 0.04434317 0.0 -51.36020 0.0

M12 ? BHZ e P c 20221208 2003 15.66884708 GAU 0.04461674 0.0 -577.98114 0.0
M12 ? BHN e S ? 20221208 2003 17.12311172 GAU 0.06856687 0.0 -147.10338 0.0
M05 ? BHZ e P c 20221208 2003 15.69016838 GAU 0.03428198 0.0 79.77129 0.0
M05 ? BHN e S ? 20221208 2003 17.16801643 GAU 0.00861072 0.0 277.15470 0.0
M06 ? BHZ e P c 20221208 2003 16.58940887 GAU 0.02975993 0.0 -228.80340 0.0
M06 ? BHN e S ? 20221208 2003 18.41407967 GAU 0.05142385 0.0 -99.80371 0.0
M09 ? BHZ e P c 20221208 2003 16.39248848 GAU 0.01848973 0.0 85.63953 0.0
M09 ? BHN e S ? 20221208 2003 18.18043137 GAU 0.03403092 0.0 491.24780 0.0
M10 ? BHZ e P c 20221208 2003 15.66771030 GAU 0.01190458 0.0 271.60250 0.0
M10 ? BHN e S ? 20221208 2003 17.16355324 GAU 0.09427474 0.0 2083.01930 0.0
M13 ? BHZ e P c 20221208 2003 15.45488834 GAU 0.02066662 0.0 -167.66690 0.0
M13 ? BHE e S ? 20221208 2003 16.89568710 GAU 0.03571191 0.0 -160.78757 0.0

M12 ? BHZ i P c 20221212 1037 11.78490829 GAU 0.02066577 0.0 -491.50305 0.0
M12 ? BHE e S ? 20221212 1037 12.86973953 GAU 0.02479893 0.0 70.17085 0.0
M08 ? BHZ i P c 20221212 1037 11.81538296 GAU 0.01377687 0.0 13.59427 0.0
M08 ? BHE e S ? 20221212 1037 12.93798733 GAU 0.01148072 0.0 -849.89860 0.0
M13 ? BHZ e P c 20221212 1037 11.81906414 GAU 0.03380188 0.0 -58.21949 0.0
M13 ? BHE e S ? 20221212 1037 12.95921707 GAU 0.01727090 0.0 -163.51132 0.0
M05 ? BHZ e P d 20221212 1037 11.84006023 GAU 0.03085431 0.0 458.92038 0.0
M05 ? BHN e S ? 20221212 1037 12.97899818 GAU 0.04546780 0.0 265.00000 0.0
M09 ? BHZ i P d 20221212 1037 11.97232533 GAU 0.02066767 0.0 102.68001 0.0
M09 ? BHN e S ? 20221212 1037 13.17919636 GAU 0.03719918 0.0 473.75030 0.0
M11 ? BHZ e P c 20221212 1037 12.02338505 GAU 0.01951764 0.0 -51.08787 0.0
M11 ? BHN e S ? 20221212 1037 13.29448032 GAU 0.04007670 0.0 -83.11884 0.0
M14 ? BHZ e P c 20221212 1037 12.04977417 GAU 0.02066609 0.0 -668.05280 0.0
M14 ? BHE e S ? 20221212 1037 13.32658291 GAU 0.03157560 0.0 367.77243 0.0
M06 ? BHZ e P c 20221212 1037 12.12411213 GAU 0.01435182 0.0 -226.27466 0.0
M06 ? BHE e S ? 20221212 1037 13.48690510 GAU 0.03571373 0.0 -112.00011 0.0

M11 ? BHZ e P c 20221213 2024 27.29695129 GAU 0.02976024 0.0 -354.84128 0.0
M11 ? BHN e S ? 20221213 2024 27.90040970 GAU 0.03306524 0.0 -104.76819 0.0
M14 ? BHZ e P c 20221213 2024 27.19279861 GAU 0.04546671 0.0 -1555.93760 0.0
M14 ? BHN e S ? 20221213 2024 27.71203423 GAU 0.04166287 0.0 378.71982 0.0
M05 ? BHZ e P c 20221213 2024 27.89122009 GAU 0.02794108 0.0 172.79599 0.0
M05 ? BHN e S ? 20221213 2024 28.99106598 GAU 0.01148168 0.0 265.74112 0.0
M06 ? BHZ i P d 20221213 2024 27.23918343 GAU 0.01435182 0.0 -146.61359 0.0
M06 ? BHN e S ? 20221213 2024 27.73069000 GAU 0.03109718 0.0 -86.34778 0.0
M09 ? BHZ e P c 20221213 2024 27.38115692 GAU 0.01653329 0.0 100.52132 0.0
M09 ? BHN e S ? 20221213 2024 28.05616379 GAU 0.01435192 0.0 478.12900 0.0

M11 ? BHZ e P c 20221213 2024 40.63697433 GAU 0.04179404 0.0 179.38455 0.0
M11 ? BHN e S ? 20221213 2024 41.19752121 GAU 0.03306659 0.0 -105.00000 0.0
M05 ? BHZ e P c 20221213 2024 41.44360733 GAU 0.02479972 0.0 159.71742 0.0
M05 ? BHN e S ? 20221213 2024 42.53199768 GAU 0.00804239 0.0 269.00000 0.0
M06 ? BHZ i P d 20221213 2024 40.50234985 GAU 0.01722218 0.0 15.66207 0.0
M06 ? BHN e S ? 20221213 2024 40.92091370 GAU 0.03731252 0.0 -87.21549 0.0
M09 ? BHZ e P c 20221213 2024 40.75328064 GAU 0.01785520 0.0 33.55935 0.0
M09 ? BHN e S ? 20221213 2024 41.28391647 GAU 0.02870363 0.0 477.70280 0.0

M13 ? BHZ e P c 20221213 2025 29.77915573 GAU 0.01328793 0.0 -80.55587 0.0
M13 ? BHE e S ? 20221213 2025 30.51967239 GAU 0.00478366 0.0 -196.74275 0.0
M08 ? BHZ e P c 20221213 2025 30.05880165 GAU 0.02240796 0.0 -237.91132 0.0
M08 ? BHN e S ? 20221213 2025 30.90011978 GAU 0.02391929 0.0 318.05014 0.0
M11 ? BHZ e P d 20221213 2025 29.60028839 GAU 0.01653413 0.0 353.79080 0.0
M11 ? BHN e S ? 20221213 2025 30.17689514 GAU 0.01148078 0.0 -92.00000 0.0
M12 ? BHZ e P c 20221213 2025 30.25620461 GAU 0.01487959 0.0 -668.37634 0.0
M12 ? BHE e S ? 20221213 2025 31.38706970 GAU 0.02479848 0.0 18.46380 0.0
M10 ? BHZ e P c 20221213 2025 29.83841133 GAU 0.03085535 0.0 -90.61232 0.0
M10 ? BHN e S ? 20221213 2025 30.55930138 GAU 0.09285088 0.0 1751.56290 0.0
M14 ? BHZ i P d 20221213 2025 29.59802437 GAU 0.00558491 0.0 1103.78390 0.0
M14 ? BHN e S ? 20221213 2025 30.13687706 GAU 0.00664454 0.0 289.72928 0.0
M05 ? BHZ e P c 20221213 2025 30.14789391 GAU 0.03719896 0.0 424.53168 0.0
M05 ? BHE e S ? 20221213 2025 31.12272453 GAU 0.03444436 0.0 -166.93015 0.0
M06 ? BHZ i P d 20221213 2025 29.50964928 GAU 0.00576774 0.0 -226.17972 0.0
M06 ? BHN e S ? 20221213 2025 29.97791290 GAU 0.01913454 0.0 -57.39951 0.0
M04 ? BHZ e P c 20221213 2025 29.58230782 GAU 0.00688922 0.0 -607.00390 0.0
M04 ? BHN e S ? 20221213 2025 29.99294853 GAU 0.02353559 0.0 683.13630 0.0
M09 ? BHZ e P d 20221213 2025 29.73453522 GAU 0.00991957 0.0 181.44917 0.0
M09 ? BHN e S ? 20221213 2025 30.31838036 GAU 0.02610135 0.0 495.63892 0.0

M13 ? BHZ e P c 20221213 2025 43.49487686 GAU 0.00861153 0.0 -395.10715 0.0
M13 ? BHE e S ? 20221213 2025 44.15943909 GAU 0.02066609 0.0 -173.43869 0.0
M08 ? BHZ e P d 20221213 2025 43.66507721 GAU 0.02479994 0.0 153.71968 0.0
M08 ? BHE e S ? 20221213 2025 44.47088242 GAU 0.02755689 0.0 -856.32780 0.0
M11 ? BHZ e P c 20221213 2025 43.27974701 GAU 0.00996629 0.0 -872.02075 0.0
M11 ? BHN e S ? 20221213 2025 43.83283615 GAU 0.01722174 0.0 -97.59438 0.0
M12 ? BHZ e P c 20221213 2025 44.06359482 GAU 0.02480020 0.0 -827.87460 0.0
M12 ? BHN e S ? 20221213 2025 45.16760254 GAU 0.02287030 0.0 -126.60719 0.0
M10 ? BHZ e P c 20221213 2025 43.49944687 GAU 0.03571103 0.0 -231.35312 0.0
M10 ? BHN e S ? 20221213 2025 44.24407196 GAU 0.02380735 0.0 -1624.66750 0.0
M14 ? BHZ e P c 20221213 2025 43.17083359 GAU 0.01984009 0.0 -170.89432 0.0
M14 ? BHE e S ? 20221213 2025 43.62878036 GAU 0.00498259 0.0 355.34692 0.0
M05 ? BHZ e P c 20221213 2025 43.90308380 GAU 0.01488072 0.0 -12.49120 0.0
M05 ? BHE e S ? 20221213 2025 44.92919159 GAU 0.01239966 0.0 -182.73053 0.0
M06 ? BHZ i P d 20221213 2025 43.13383865 GAU 0.00398645 0.0 -24.63243 0.0
M06 ? BHN e S ? 20221213 2025 43.60466003 GAU 0.00664419 0.0 -143.77336 0.0
M04 ? BHZ e P c 20221213 2025 43.10995865 GAU 0.02755689 0.0 -1647.25330 0.0
M04 ? BHN e S ? 20221213 2025 43.62218857 GAU 0.00861092 0.0 743.60156 0.0
M09 ? BHZ i P d 20221213 2025 43.34367752 GAU 0.02009254 0.0 257.53442 0.0
M09 ? BHE e S ? 20221213 2025 43.93394089 GAU 0.01377774 0.0 369.92810 0.0
