M06 ? BHZ e P d 20230602 1752 28.35801315 GAU 0.00733512 0.0 110.25803 0.0
M06 ? BHE e S ? 20230602 1752 29.66679764 GAU 0.00085589 0.0 -78.29285 0.0
M04 ? BHZ e P d 20230602 1752 28.45603561 GAU 0.00197661 0.0 1096.65990 0.0
M04 ? BHN e S ? 20230602 1752 29.70639610 GAU 0.00216010 0.0 853.56213 0.0
M02 ? BHZ e P d 20230602 1752 28.56160927 GAU 0.00170701 0.0 1142.18270 0.0
M02 ? BHE e S ? 20230602 1752 29.72490120 GAU 0.00124785 0.0 989.64514 0.0
M14 ? BHZ e P c 20230602 1752 28.69215584 GAU 0.00374603 0.0 -626.05963 0.0
M14 ? BHN e S ? 20230602 1752 29.88567352 GAU 0.00254838 0.0 337.79874 0.0
M10 ? BHZ e P d 20230602 1752 28.80898094 GAU 0.00708539 0.0 1815.65800 0.0
M10 ? BHN e S ? 20230602 1752 30.40724754 GAU 0.00176845 0.0 -29.02659 0.0
M09 ? BHZ i P d 20230602 1752 28.84015274 GAU 0.00380057 0.0 146.29993 0.0
M09 ? BHE e S ? 20230602 1752 30.38848305 GAU 0.00085674 0.0 399.96378 0.0
M11 ? BHZ e P d 20230602 1752 28.84401321 GAU 0.00348749 0.0 246.57098 0.0
M11 ? BHN e S ? 20230602 1752 30.24700165 GAU 0.00067387 0.0 -74.04826 0.0
M13 ? BHZ e P c 20230602 1752 28.96434975 GAU 0.00042124 0.0 -391.61636 0.0
M13 ? BHN i S ? 20230602 1752 30.71029472 GAU 0.00179685 0.0 -139.00000 0.0
M08 ? BHZ e P c 20230602 1752 28.99615479 GAU 0.00018659 0.0 -310.90390 0.0
M08 ? BHN i S ? 20230602 1752 30.56139565 GAU 0.00023377 0.0 341.55870 0.0
M05 ? BHZ e P d 20230602 1752 29.26982880 GAU 0.00208304 0.0 375.40924 0.0
M05 ? BHE e S ? 20230602 1752 30.95043755 GAU 0.00147889 0.0 -158.07538 0.0
M12 ? BHZ e P d 20230602 1752 29.31906319 GAU 0.00146506 0.0 -254.96367 0.0
M12 ? BHE i S ? 20230602 1752 31.14168167 GAU 0.00206638 0.0 37.77208 0.0

M02 ? BHZ e P d 20230606 0140 44.71085358 GAU 0.00054153 0.0 111.41534 0.0
M02 ? BHN e S ? 20230606 0140 45.20893478 GAU 0.00380010 0.0 -1641.38150 0.0
M06 ? BHZ i P c 20230606 0140 44.87815094 GAU 0.00383481 0.0 -92.14181 0.0
M06 ? BHN e S ? 20230606 0140 45.49858475 GAU 0.00052315 0.0 -98.83340 0.0
M11 ? BHZ e P c 20230606 0140 45.02191925 GAU 0.00276820 0.0 -306.11190 0.0
M11 ? BHN e S ? 20230606 0140 45.74867249 GAU 0.00067384 0.0 -105.79682 0.0
M09 ? BHZ e P c 20230606 0140 45.10562134 GAU 0.00349308 0.0 43.92393 0.0
M09 ? BHE e S ? 20230606 0140 45.90475082 GAU 0.00048140 0.0 357.84146 0.0

M06 ? BHZ i P d 20230606 0142 25.32894516 GAU 0.00121321 0.0 -186.03615 0.0
M06 ? BHN e S ? 20230606 0142 25.75937271 GAU 0.00148743 0.0 -107.68597 0.0
M14 ? BHZ e P d 20230606 0142 25.33777428 GAU 0.00149744 0.0 455.07990 0.0
M14 ? BHE e S ? 20230606 0142 25.76980591 GAU 0.00077646 0.0 385.85284 0.0
M11 ? BHZ e P d 20230606 0142 25.50406456 GAU 0.00778579 0.0 2.24952 0.0
M11 ? BHE i S ? 20230606 0142 26.03400230 GAU 0.00290317 0.0 -107.78119 0.0
M09 ? BHZ e P c 20230606 0142 25.53994942 GAU 0.00271684 0.0 30.20106 0.0
M09 ? BHE e S ? 20230606 0142 26.13203430 GAU 0.00143779 0.0 354.25723 0.0

M06 ? BHZ i P d 20230606 0148 22.99907875 GAU 0.00063184 0.0 -392.31714 0.0
M06 ? BHN e S ? 20230606 0148 23.51763344 GAU 0.00114415 0.0 -88.27401 0.0
M14 ? BHZ e P c 20230606 0148 23.02339745 GAU 0.00219951 0.0 -148.46504 0.0
M14 ? BHE e S ? 20230606 0148 23.59428406 GAU 0.00086520 0.0 394.17590 0.0
M11 ? BHZ e P d 20230606 0148 23.16428757 GAU 0.00377332 0.0 -13.83314 0.0
M11 ? BHN i S ? 20230606 0148 23.81671906 GAU 0.00112303 0.0 -84.42281 0.0
M09 ? BHZ i P c 20230606 0148 23.21590614 GAU 0.00064990 0.0 96.02629 0.0
M09 ? BHE e S ? 20230606 0148 23.90551186 GAU 0.00045270 0.0 348.01514 0.0
M05 ? BHZ e P c 20230606 0148 23.50085068 GAU 0.00086044 0.0 131.28845 0.0
M05 ? BHN e S ? 20230606 0148 24.38560486 GAU 0.00041791 0.0 267.19820 0.0

M06 ? BHZ i P d 20230606 0148 43.78165054 GAU 0.00284509 0.0 226.16716 0.0
M06 ? BHN e S ? 20230606 0148 44.27230835 GAU 0.00064995 0.0 -71.13852 0.0
M11 ? BHZ e P c 20230606 0148 43.92278671 GAU 0.00444280 0.0 -449.14040 0.0
M11 ? BHN e S ? 20230606 0148 44.56751633 GAU 0.00335344 0.0 -88.00000 0.0
M09 ? BHZ e P c 20230606 0148 44.00014496 GAU 0.00067380 0.0 73.87167 0.0
M09 ? BHE e S ? 20230606 0148 44.60823441 GAU 0.00063090 0.0 378.46378 0.0
M13 ? BHZ e P d 20230606 0148 44.03313828 GAU 0.00064989 0.0 332.72000 0.0
M13 ? BHN e S ? 20230606 0148 44.75932693 GAU 0.00015115 0.0 -89.99662 0.0
M05 ? BHZ e P d 20230606 0148 44.49239349 GAU 0.00087250 0.0 356.27423 0.0
M05 ? BHE e S ? 20230606 0148 45.52079010 GAU 0.00031111 0.0 -144.17029 0.0

M06 ? BHZ i P c 20230606 0151 13.32769012 GAU 0.00290624 0.0 -193.70279 0.0
M06 ? BHE e S ? 20230606 0151 13.85695267 GAU 0.00062393 0.0 -55.12829 0.0
M14 ? BHZ e P c 20230606 0151 13.45423222 GAU 0.00279105 0.0 139.16423 0.0
M14 ? BHN e S ? 20230606 0151 14.07689762 GAU 0.00069621 0.0 308.91920 0.0
M11 ? BHZ e P c 20230606 0151 13.48312473 GAU 0.00560775 0.0 -503.62580 0.0
M11 ? BHN e S ? 20230606 0151 14.12557220 GAU 0.00204907 0.0 -108.26184 0.0
M09 ? BHZ i P c 20230606 0151 13.58729744 GAU 0.00057768 0.0 63.69598 0.0
M09 ? BHN e S ? 20230606 0151 14.30081177 GAU 0.00089868 0.0 518.81915 0.0

M06 ? BHZ i P c 20230606 0151 16.73555374 GAU 0.00647192 0.0 -222.24770 0.0
M06 ? BHE e S ? 20230606 0151 17.31647301 GAU 0.00540277 0.0 -105.00000 0.0
M14 ? BHZ e P c 20230606 0151 16.80625534 GAU 0.00158416 0.0 -624.14215 0.0
M14 ? BHN e S ? 20230606 0151 17.48585129 GAU 0.00200081 0.0 337.74194 0.0
M11 ? BHZ i P d 20230606 0151 16.87596321 GAU 0.00375078 0.0 -463.66333 0.0
M11 ? BHE e S ? 20230606 0151 17.49045753 GAU 0.00155231 0.0 -135.79295 0.0
M09 ? BHZ i P c 20230606 0151 16.98975563 GAU 0.00164724 0.0 68.32394 0.0
M09 ? BHE e S ? 20230606 0151 17.78811455 GAU 0.00033595 0.0 346.14905 0.0

M06 ? BHZ i P c 20230606 0151 31.01364899 GAU 0.00145343 0.0 -114.03003 0.0
M06 ? BHN i S ? 20230606 0151 31.56544304 GAU 0.00031632 0.0 -97.49522 0.0
M02 ? BHZ e P c 20230606 0151 31.06450081 GAU 0.00086658 0.0 -1594.79470 0.0
M02 ? BHE e S ? 20230606 0151 31.57303429 GAU 0.00047611 0.0 1148.51810 0.0
M14 ? BHZ i P c 20230606 0151 31.06643486 GAU 0.00435256 0.0 -821.57825 0.0
M14 ? BHE e S ? 20230606 0151 31.67811394 GAU 0.00072217 0.0 338.14188 0.0
M11 ? BHZ i P c 20230606 0151 31.16916656 GAU 0.00894260 0.0 -232.65677 0.0
M11 ? BHN e S ? 20230606 0151 31.82752991 GAU 0.00052656 0.0 -83.09274 0.0
M09 ? BHZ i P c 20230606 0151 31.23448563 GAU 0.00201830 0.0 128.45528 0.0
M09 ? BHE e S ? 20230606 0151 31.93465233 GAU 0.00055623 0.0 334.08673 0.0
M05 ? BHZ e P c 20230606 0151 31.69891739 GAU 0.00215630 0.0 92.99749 0.0
M05 ? BHN e S ? 20230606 0151 32.73025894 GAU 0.00059123 0.0 263.11172 0.0

M06 ? BHZ i P c 20230606 0152 19.92521858 GAU 0.00097332 0.0 72.37674 0.0
M06 ? BHE i S ? 20230606 0152 20.49763298 GAU 0.00567877 0.0 8.12391 0.0
M14 ? BHZ i P c 20230606 0152 20.01304245 GAU 0.00278584 0.0 -725.52496 0.0
M14 ? BHE e S ? 20230606 0152 20.69030190 GAU 0.00161729 0.0 346.34604 0.0
M02 ? BHZ i P d 20230606 0152 20.03112221 GAU 0.00273790 0.0 -366.73950 0.0
M02 ? BHE e S ? 20230606 0152 20.62244987 GAU 0.00342143 0.0 -4293.28030 0.0
M11 ? BHZ i P c 20230606 0152 20.06726265 GAU 0.00760128 0.0 -370.39620 0.0
M11 ? BHN e S ? 20230606 0152 20.78293419 GAU 0.00643868 0.0 -67.09471 0.0
M09 ? BHZ i P c 20230606 0152 20.15985870 GAU 0.00294978 0.0 -15.38909 0.0
M09 ? BHE e S ? 20230606 0152 20.91972351 GAU 0.00181105 0.0 476.33322 0.0
M13 ? BHZ i P c 20230606 0152 20.26955986 GAU 0.00259961 0.0 -263.52295 0.0
M13 ? BHE e S ? 20230606 0152 21.09851837 GAU 0.00081110 0.0 -76.46328 0.0
M10 ? BHZ e P d 20230606 0152 20.37323952 GAU 0.00676048 0.0 1371.06090 0.0
M10 ? BHN e S ? 20230606 0152 21.32205009 GAU 0.00167665 0.0 -4.34845 0.0
M08 ? BHZ e P d 20230606 0152 20.40574455 GAU 0.00112305 0.0 426.45514 0.0
M08 ? BHN e S ? 20230606 0152 21.33314323 GAU 0.00156323 0.0 221.97620 0.0
M05 ? BHZ e P c 20230606 0152 20.60960579 GAU 0.00320112 0.0 -229.56624 0.0
M05 ? BHE e S ? 20230606 0152 21.73028755 GAU 0.00172502 0.0 -139.24805 0.0
M12 ? BHZ e P c 20230606 0152 20.75231934 GAU 0.00140873 0.0 -656.58670 0.0
M12 ? BHE e S ? 20230606 0152 21.93939972 GAU 0.00144142 0.0 -52.76935 0.0

M06 ? BHZ i P c 20230606 0152 41.10656357 GAU 0.00134769 0.0 -30.19524 0.0
M06 ? BHE i S ? 20230606 0152 41.69853210 GAU 0.00380047 0.0 8.07115 0.0
M02 ? BHZ i P c 20230606 0152 41.16383743 GAU 0.00107557 0.0 -3596.99000 0.0
M02 ? BHN e S ? 20230606 0152 41.72737503 GAU 0.00278241 0.0 4543.48600 0.0
M14 ? BHZ i P c 20230606 0152 41.19465256 GAU 0.00215630 0.0 -789.69324 0.0
M14 ? BHE e S ? 20230606 0152 41.70375443 GAU 0.00077624 0.0 469.42383 0.0
M11 ? BHZ i P c 20230606 0152 41.26107788 GAU 0.00160210 0.0 59.79430 0.0
M11 ? BHN i S ? 20230606 0152 41.97321320 GAU 0.00772613 0.0 -177.54637 0.0
M03 ? BHZ e P c 20230606 0152 41.30976486 GAU 0.00181126 0.0 -2753.41200 0.0
M03 ? BHN e S ? 20230606 0152 42.04315948 GAU 0.00279459 0.0 -71.42763 0.0
M09 ? BHZ i P c 20230606 0152 41.33744049 GAU 0.00103314 0.0 280.90750 0.0
M09 ? BHE e S ? 20230606 0152 41.97096252 GAU 0.00178843 0.0 408.32090 0.0
M13 ? BHZ e P c 20230606 0152 41.37693405 GAU 0.00186312 0.0 -906.92810 0.0
M13 ? BHN e S ? 20230606 0152 42.17576218 GAU 0.00512429 0.0 -139.87381 0.0
M08 ? BHZ i P c 20230606 0152 41.62216187 GAU 0.00289737 0.0 -546.21560 0.0
M08 ? BHE e S ? 20230606 0152 42.56257629 GAU 0.00105186 0.0 -905.64960 0.0
M10 ? BHZ e P c 20230606 0152 41.64714813 GAU 0.00231794 0.0 -1616.47490 0.0
M10 ? BHN e S ? 20230606 0152 42.60521317 GAU 0.00166024 0.0 -118.52424 0.0
M05 ? BHZ i P c 20230606 0152 41.78753662 GAU 0.00178852 0.0 25.11920 0.0
M05 ? BHE e S ? 20230606 0152 42.79404831 GAU 0.00212660 0.0 -171.00000 0.0
M12 ? BHZ i P c 20230606 0152 41.92932129 GAU 0.00333776 0.0 -241.38373 0.0
M12 ? BHE e S ? 20230606 0152 43.08403397 GAU 0.00279422 0.0 44.47381 0.0

M06 ? BHZ i P c 20230606 0152 51.17733002 GAU 0.00129378 0.0 -8.82390 0.0
M06 ? BHE i S ? 20230606 0152 51.77634430 GAU 0.00181117 0.0 -14.08325 0.0
M02 ? BHZ i P d 20230606 0152 51.25963974 GAU 0.00086249 0.0 404.75270 0.0
M02 ? BHE e S ? 20230606 0152 51.87467194 GAU 0.00046224 0.0 -8314.62400 0.0
M14 ? BHZ i P c 20230606 0152 51.27370071 GAU 0.00130406 0.0 -21.72526 0.0
M14 ? BHE e S ? 20230606 0152 51.98011398 GAU 0.00221384 0.0 650.88610 0.0
M03 ? BHZ e P d 20230606 0152 51.31421661 GAU 0.00214116 0.0 1759.68800 0.0
M03 ? BHN e S ? 20230606 0152 52.02787018 GAU 0.00293000 0.0 -264.51855 0.0
M11 ? BHZ i P c 20230606 0152 51.32610703 GAU 0.00178850 0.0 19.90133 0.0
M11 ? BHN i S ? 20230606 0152 51.95026779 GAU 0.00150936 0.0 -228.57472 0.0
M09 ? BHZ i P c 20230606 0152 51.40154648 GAU 0.00108672 0.0 96.48587 0.0
M09 ? BHE e S ? 20230606 0152 52.04725647 GAU 0.00369081 0.0 478.60782 0.0
M13 ? BHZ i P c 20230606 0152 51.50613022 GAU 0.00186312 0.0 -425.68380 0.0
M13 ? BHE e S ? 20230606 0152 52.37397003 GAU 0.00062391 0.0 -62.63543 0.0
M08 ? BHZ i P d 20230606 0152 51.64968109 GAU 0.00119795 0.0 374.01163 0.0
M08 ? BHE e S ? 20230606 0152 52.62720108 GAU 0.00152167 0.0 -943.86774 0.0
M10 ? BHZ i P d 20230606 0152 51.68373108 GAU 0.00321922 0.0 -80.02938 0.0
M10 ? BHN e S ? 20230606 0152 52.63462448 GAU 0.00366424 0.0 -17.00000 0.0
M05 ? BHZ e P c 20230606 0152 51.69078827 GAU 0.00487944 0.0 -322.06244 0.0
M05 ? BHN e S ? 20230606 0152 52.64834213 GAU 0.00273322 0.0 303.62230 0.0
M12 ? BHZ e P c 20230606 0152 51.91747284 GAU 0.00463404 0.0 -600.50100 0.0
M12 ? BHE e S ? 20230606 0152 53.00912094 GAU 0.00399677 0.0 -27.69660 0.0

M06 ? BHZ i P c 20230606 0153 28.82550812 GAU 0.00124208 0.0 -107.54559 0.0
M06 ? BHE e S ? 20230606 0153 29.42041779 GAU 0.00037611 0.0 -75.25434 0.0
M14 ? BHZ e P c 20230606 0153 28.89770699 GAU 0.00148490 0.0 -418.19785 0.0
M14 ? BHE e S ? 20230606 0153 29.50122643 GAU 0.00170710 0.0 378.34150 0.0
M11 ? BHZ e P c 20230606 0153 29.02667809 GAU 0.00240335 0.0 -458.01077 0.0
M11 ? BHN e S ? 20230606 0153 29.73221397 GAU 0.00015040 0.0 -100.87099 0.0
M09 ? BHZ e P c 20230606 0153 29.05227280 GAU 0.00064992 0.0 -59.04351 0.0
M09 ? BHN e S ? 20230606 0153 29.81389046 GAU 0.00014511 0.0 478.02600 0.0

M06 ? BHZ i P c 20230606 0154  6.09616041 GAU 0.00116798 0.0 -200.39507 0.0
M06 ? BHE i S ? 20230606 0154  6.69450378 GAU 0.00042123 0.0 -69.05162 0.0
M14 ? BHZ e P d 20230606 0154  6.10814524 GAU 0.00112312 0.0 298.31340 0.0
M14 ? BHE e S ? 20230606 0154  6.72662544 GAU 0.00090353 0.0 379.03160 0.0
M11 ? BHZ e P c 20230606 0154  6.22230625 GAU 0.00318187 0.0 -393.72202 0.0
M11 ? BHE i S ? 20230606 0154  6.97187328 GAU 0.00035403 0.0 -116.20664 0.0
M09 ? BHZ e P c 20230606 0154  6.32864332 GAU 0.00083049 0.0 83.70440 0.0
M09 ? BHN e S ? 20230606 0154  7.10014439 GAU 0.00019677 0.0 480.03030 0.0
M05 ? BHZ e P c 20230606 0154  6.89345074 GAU 0.00088390 0.0 147.00064 0.0
M05 ? BHN e S ? 20230606 0154  8.08812714 GAU 0.00035339 0.0 265.20210 0.0

M06 ? BHZ i P c 20230606 0154 29.61982155 GAU 0.00074870 0.0 6.45350 0.0
M06 ? BHE i S ? 20230606 0154 30.21196747 GAU 0.00242179 0.0 44.00000 0.0
M14 ? BHZ i P c 20230606 0154 29.66024017 GAU 0.01024663 0.0 -773.78656 0.0
M14 ? BHE e S ? 20230606 0154 30.22097206 GAU 0.00059900 0.0 449.87497 0.0
M02 ? BHZ e P d 20230606 0154 29.72822952 GAU 0.00099829 0.0 -1309.40750 0.0
M02 ? BHE e S ? 20230606 0154 30.23554611 GAU 0.00109008 0.0 -5833.80220 0.0
M11 ? BHZ i P c 20230606 0154 29.77283859 GAU 0.00140165 0.0 -82.62241 0.0
M11 ? BHN e S ? 20230606 0154 30.41595650 GAU 0.00280318 0.0 32.20370 0.0
M09 ? BHZ i P c 20230606 0154 29.85095215 GAU 0.00108678 0.0 296.97665 0.0
M09 ? BHE e S ? 20230606 0154 30.64352036 GAU 0.00137548 0.0 241.33610 0.0
M13 ? BHZ i P d 20230606 0154 29.99869156 GAU 0.00204833 0.0 411.87344 0.0
M13 ? BHN e S ? 20230606 0154 30.90150642 GAU 0.00185864 0.0 14.59610 0.0
M08 ? BHZ e P d 20230606 0154 30.10744476 GAU 0.00074869 0.0 304.65204 0.0
M08 ? BHE e S ? 20230606 0154 31.07419777 GAU 0.00161710 0.0 -934.46130 0.0
M10 ? BHZ e P d 20230606 0154 30.11850739 GAU 0.00354122 0.0 -689.92930 0.0
M10 ? BHN e S ? 20230606 0154 31.09370804 GAU 0.00193087 0.0 -33.77381 0.0
M05 ? BHZ e P c 20230606 0154 30.28730774 GAU 0.00115890 0.0 -377.49536 0.0
M05 ? BHN e S ? 20230606 0154 31.35680389 GAU 0.00384497 0.0 350.62100 0.0
M12 ? BHZ i P c 20230606 0154 30.43991852 GAU 0.00323445 0.0 -375.02283 0.0
M12 ? BHE e S ? 20230606 0154 31.61997795 GAU 0.00502179 0.0 -12.46049 0.0

M14 ? BHZ e P c 20230606 0154 38.41297531 GAU 0.00142088 0.0 -451.86752 0.0
M14 ? BHE e S ? 20230606 0154 39.01123428 GAU 0.00279331 0.0 424.93018 0.0
M06 ? BHZ i P c 20230606 0154 38.41589355 GAU 0.00168526 0.0 221.67677 0.0
M06 ? BHE e S ? 20230606 0154 39.02148056 GAU 0.00199706 0.0 -91.71725 0.0
M13 ? BHZ e P c 20230606 0154 38.53084564 GAU 0.00074875 0.0 -862.65393 0.0
M13 ? BHN e S ? 20230606 0154 39.19879150 GAU 0.00162497 0.0 -19.45866 0.0
M11 ? BHZ e P c 20230606 0154 38.54618454 GAU 0.00649018 0.0 -400.05490 0.0
M11 ? BHN e S ? 20230606 0154 39.25169754 GAU 0.00429262 0.0 -86.61019 0.0
M09 ? BHZ i P c 20230606 0154 38.63856506 GAU 0.00082347 0.0 -38.70448 0.0
M09 ? BHE e S ? 20230606 0154 39.41830826 GAU 0.00049229 0.0 381.63412 0.0

M06 ? BHZ i P c 20230606 0154 45.05265808 GAU 0.00124202 0.0 -139.92589 0.0
M06 ? BHE e S ? 20230606 0154 45.64557266 GAU 0.00097485 0.0 -71.33813 0.0
M11 ? BHZ e P c 20230606 0154 45.16966629 GAU 0.00312969 0.0 -353.36813 0.0
M11 ? BHN e S ? 20230606 0154 45.88745499 GAU 0.00030088 0.0 -103.87928 0.0
M09 ? BHZ i P c 20230606 0154 45.30350876 GAU 0.00057172 0.0 145.11957 0.0
M09 ? BHE e S ? 20230606 0154 46.10693741 GAU 0.00072548 0.0 338.00000 0.0
M13 ? BHZ e P d 20230606 0154 45.43255234 GAU 0.00108672 0.0 -92.69410 0.0
M13 ? BHN e S ? 20230606 0154 46.30868912 GAU 0.00047658 0.0 -82.40411 0.0
M05 ? BHZ e P c 20230606 0154 45.74879837 GAU 0.00224710 0.0 161.49920 0.0
M05 ? BHE e S ? 20230606 0154 46.91464615 GAU 0.00069613 0.0 -169.74112 0.0
M12 ? BHZ e P c 20230606 0154 45.89223480 GAU 0.00107807 0.0 -270.86710 0.0
M12 ? BHN e S ? 20230606 0154 47.15355682 GAU 0.00402397 0.0 -122.00000 0.0

M06 ? BHZ i P c 20230606 0154 53.97791290 GAU 0.00043124 0.0 17.50680 0.0
M06 ? BHE e S ? 20230606 0154 54.53629684 GAU 0.00042136 0.0 -92.70844 0.0
M11 ? BHZ e P d 20230606 0154 54.06767654 GAU 0.00569714 0.0 104.58591 0.0
M11 ? BHE e S ? 20230606 0154 54.68768692 GAU 0.00116804 0.0 -124.00000 0.0
M09 ? BHZ e P c 20230606 0154 54.17972183 GAU 0.00067762 0.0 -22.47840 0.0
M09 ? BHN e S ? 20230606 0154 54.83855438 GAU 0.00016802 0.0 481.29276 0.0
M13 ? BHZ e P c 20230606 0154 54.67271805 GAU 0.00063197 0.0 -315.18048 0.0
M13 ? BHE e S ? 20230606 0154 55.66848755 GAU 0.00024163 0.0 -129.45532 0.0

M02 ? BHZ e P c 20230606 0155 12.73533630 GAU 0.00099826 0.0 -974.23975 0.0
M02 ? BHN e S ? 20230606 0155 13.10398483 GAU 0.00127890 0.0 -1078.44190 0.0
M14 ? BHZ e P c 20230606 0155 12.80892372 GAU 0.00298084 0.0 -643.42285 0.0
M14 ? BHE e S ? 20230606 0155 13.27688408 GAU 0.00098827 0.0 384.07890 0.0
M06 ? BHZ i P c 20230606 0155 12.89391804 GAU 0.01159008 0.0 -168.41174 0.0
M06 ? BHN e S ? 20230606 0155 13.39067364 GAU 0.00030089 0.0 -56.10300 0.0
M11 ? BHZ e P c 20230606 0155 13.06447411 GAU 0.00491828 0.0 -364.91867 0.0
M11 ? BHN i S ? 20230606 0155 13.77168179 GAU 0.00083188 0.0 -91.09180 0.0
M09 ? BHZ i P c 20230606 0155 13.14330292 GAU 0.00112299 0.0 30.37822 0.0
M09 ? BHE e S ? 20230606 0155 13.80715370 GAU 0.00119794 0.0 370.35144 0.0
M05 ? BHZ e P c 20230606 0155 13.35532951 GAU 0.00540832 0.0 161.00000 0.0
M05 ? BHE e S ? 20230606 0155 14.17988777 GAU 0.00010448 0.0 -152.08237 0.0
M12 ? BHZ e P c 20230606 0155 13.72766781 GAU 0.00161077 0.0 -263.94030 0.0
M12 ? BHE e S ? 20230606 0155 14.88793564 GAU 0.00039943 0.0 55.98996 0.0

M06 ? BHZ i P c 20230606 0155 26.62174416 GAU 0.00049915 0.0 -108.03359 0.0
M06 ? BHN i S ? 20230606 0155 27.15341759 GAU 0.00298084 0.0 -52.63603 0.0
M02 ? BHZ e P c 20230606 0155 26.62739372 GAU 0.00241447 0.0 -1054.71450 0.0
M02 ? BHE e S ? 20230606 0155 27.19493866 GAU 0.00139728 0.0 665.46550 0.0
M14 ? BHZ i P c 20230606 0155 26.71282196 GAU 0.00063542 0.0 -452.53784 0.0
M14 ? BHN e S ? 20230606 0155 27.35210037 GAU 0.00093156 0.0 218.65897 0.0
M11 ? BHZ i P c 20230606 0155 26.77188110 GAU 0.00231784 0.0 -83.42905 0.0
M11 ? BHN i S ? 20230606 0155 27.43114471 GAU 0.00186312 0.0 -42.26815 0.0
M13 ? BHZ e P c 20230606 0155 26.78348732 GAU 0.00165569 0.0 -352.38232 0.0
M13 ? BHE e S ? 20230606 0155 27.52910423 GAU 0.00079128 0.0 -149.62497 0.0
M10 ? BHZ e P d 20230606 0155 26.78947449 GAU 0.00090030 0.0 277.39914 0.0
M10 ? BHN e S ? 20230606 0155 27.53165817 GAU 0.00243376 0.0 2.62094 0.0
M09 ? BHZ i P c 20230606 0155 26.81753731 GAU 0.00246887 0.0 15.56194 0.0
M09 ? BHE e S ? 20230606 0155 27.44289780 GAU 0.00056152 0.0 346.32780 0.0
M08 ? BHZ e P d 20230606 0155 27.10346985 GAU 0.00060213 0.0 902.56880 0.0
M08 ? BHN e S ? 20230606 0155 28.02013206 GAU 0.00054062 0.0 302.22067 0.0
M05 ? BHZ e P d 20230606 0155 27.10759926 GAU 0.00278148 0.0 177.67786 0.0
M05 ? BHN e S ? 20230606 0155 28.06692314 GAU 0.00166466 0.0 256.71408 0.0
M12 ? BHZ e P c 20230606 0155 27.44759560 GAU 0.00349655 0.0 -210.74998 0.0
M12 ? BHE e S ? 20230606 0155 28.59364510 GAU 0.00128184 0.0 71.58141 0.0

M06 ? BHZ i P c 20230606 0155 45.24570084 GAU 0.00126651 0.0 -27.29049 0.0
M06 ? BHE e S ? 20230606 0155 45.73450851 GAU 0.00059152 0.0 -82.87227 0.0
M14 ? BHZ e P c 20230606 0155 45.33080292 GAU 0.00289730 0.0 -447.06380 0.0
M14 ? BHN e S ? 20230606 0155 45.89400482 GAU 0.00134132 0.0 376.64710 0.0
M11 ? BHZ e P d 20230606 0155 45.42179489 GAU 0.00131566 0.0 -7.87920 0.0
M11 ? BHE e S ? 20230606 0155 46.06147385 GAU 0.00097230 0.0 -104.10307 0.0
M09 ? BHZ e P d 20230606 0155 45.50560379 GAU 0.00051899 0.0 249.03227 0.0
M09 ? BHE e S ? 20230606 0155 46.19848251 GAU 0.00026801 0.0 355.51074 0.0

M06 ? BHZ i P c 20230606 0155 53.29386902 GAU 0.00077623 0.0 -164.77444 0.0
