M06 ? BHZ i P c 20230103 0343 21.84657478 GAU 0.00576762 0.0 -279.73425 0.0
M06 ? BHE e S ? 20230103 0343 22.40001488 GAU 0.00398654 0.0 -66.00000 0.0
M11 ? BHZ e P c 20230103 0343 21.96038437 GAU 0.00478394 0.0 -113.69941 0.0
M11 ? BHE e S ? 20230103 0343 22.64528465 GAU 0.00514024 0.0 -112.57297 0.0
M09 ? BHZ e P c 20230103 0343 22.06061554 GAU 0.00826707 0.0 159.83856 0.0
M09 ? BHN e S ? 20230103 0343 22.82424164 GAU 0.00692080 0.0 494.56660 0.0
M13 ? BHZ e P c 20230103 0343 22.15597534 GAU 0.01785550 0.0 -334.00000 0.0
M13 ? BHE e S ? 20230103 0343 22.95395088 GAU 0.00498330 0.0 -114.99395 0.0

M06 ? BHZ i P c 20230103 0352  6.59656143 GAU 0.00276854 0.0 -76.33691 0.0
M06 ? BHN e S ? 20230103 0352  7.16041899 GAU 0.00795783 0.0 -63.96886 0.0
M11 ? BHZ e P c 20230103 0352  6.64814758 GAU 0.01487983 0.0 -244.54572 0.0
M11 ? BHN e S ? 20230103 0352  7.33341885 GAU 0.00698861 0.0 -87.00000 0.0
M09 ? BHZ e P c 20230103 0352  6.73594570 GAU 0.01148097 0.0 148.00424 0.0
M09 ? BHE e S ? 20230103 0352  7.41367292 GAU 0.01239973 0.0 355.48868 0.0
M13 ? BHZ e P c 20230103 0352  6.91048765 GAU 0.02066662 0.0 -17.11661 0.0
M13 ? BHN e S ? 20230103 0352  7.76003885 GAU 0.01435255 0.0 -59.06732 0.0
M05 ? BHZ e P c 20230103 0352  7.11662054 GAU 0.03428410 0.0 -148.99200 0.0
M05 ? BHN e S ? 20230103 0352  8.09294605 GAU 0.01418988 0.0 277.27658 0.0

M04 ? BHZ e P c 20230103 0352 21.70335388 GAU 0.00498314 0.0 3270.88670 0.0
M04 ? BHE e S ? 20230103 0352 22.20707703 GAU 0.00398654 0.0 259.41272 0.0
M06 ? BHZ i P c 20230103 0352 21.71221542 GAU 0.00519757 0.0 -2727.00050 0.0
M06 ? BHN e S ? 20230103 0352 22.19369125 GAU 0.00956763 0.0 -233.99290 0.0
M11 ? BHZ e P c 20230103 0352 21.74905586 GAU 0.01902352 0.0 -1202.08810 0.0
M11 ? BHE e S ? 20230103 0352 22.25348854 GAU 0.00996705 0.0 -254.61124 0.0
M09 ? BHZ e P c 20230103 0352 21.77184486 GAU 0.00826644 0.0 130.73860 0.0
M09 ? BHN e S ? 20230103 0352 22.27609444 GAU 0.00996635 0.0 414.80725 0.0
M13 ? BHZ e P c 20230103 0352 21.90292168 GAU 0.00598023 0.0 -246.68779 0.0
M13 ? BHN e S ? 20230103 0352 22.53166962 GAU 0.00664444 0.0 -53.92263 0.0
M10 ? BHZ e P c 20230103 0352 21.92859268 GAU 0.00805615 0.0 -1420.58450 0.0
M10 ? BHN e S ? 20230103 0352 22.57532692 GAU 0.02066621 0.0 -1018.03060 0.0
M05 ? BHZ e P d 20230103 0352 22.37262154 GAU 0.02871824 0.0 42.78429 0.0
M05 ? BHE e S ? 20230103 0352 23.27804947 GAU 0.00956763 0.0 -120.47441 0.0

M06 ? BHZ i P c 20230103 0352 35.44628906 GAU 0.00320423 0.0 83.74404 0.0
M06 ? BHN e S ? 20230103 0352 35.93566895 GAU 0.00230697 0.0 -74.15224 0.0
M11 ? BHZ i P c 20230103 0352 35.56779861 GAU 0.00476897 0.0 -106.61519 0.0
M11 ? BHN e S ? 20230103 0352 36.17008209 GAU 0.01722213 0.0 -75.00000 0.0
M09 ? BHZ i P c 20230103 0352 35.65933228 GAU 0.00688894 0.0 237.33604 0.0
M09 ? BHE e S ? 20230103 0352 36.33716583 GAU 0.01148099 0.0 351.82437 0.0
M13 ? BHZ e P c 20230103 0352 35.71319962 GAU 0.02471466 0.0 -251.15378 0.0
M13 ? BHE e S ? 20230103 0352 36.38549042 GAU 0.02563115 0.0 -91.23574 0.0

M06 ? BHZ i P c 20230103 0402 21.12150192 GAU 0.01055520 0.0 -225.03006 0.0
M06 ? BHE e S ? 20230103 0402 21.60784531 GAU 0.01136226 0.0 -25.33285 0.0
M11 ? BHZ e P c 20230103 0402 21.20773506 GAU 0.01148135 0.0 -445.74622 0.0
M11 ? BHE e S ? 20230103 0402 21.74941063 GAU 0.01722185 0.0 -80.00000 0.0
M09 ? BHZ e P c 20230103 0402 21.21150017 GAU 0.01094566 0.0 125.10313 0.0
M09 ? BHN e S ? 20230103 0402 21.76063347 GAU 0.00398638 0.0 498.29083 0.0
M13 ? BHZ e P d 20230103 0402 21.45982170 GAU 0.00498323 0.0 -110.29876 0.0
M13 ? BHN e S ? 20230103 0402 22.16780281 GAU 0.01195999 0.0 -56.00000 0.0

M06 ? BHZ i P c 20230104 2011 39.99559402 GAU 0.00498307 0.0 -122.89620 0.0
M06 ? BHE e S ? 20230104 2011 40.44658279 GAU 0.02491529 0.0 -109.83179 0.0
M14 ? BHZ e P c 20230104 2011 40.06145096 GAU 0.01195954 0.0 -123.87360 0.0
M14 ? BHE e S ? 20230104 2011 40.60739136 GAU 0.01913589 0.0 423.00000 0.0
M11 ? BHZ i P c 20230104 2011 40.06430817 GAU 0.00861118 0.0 -260.06960 0.0
M11 ? BHE e S ? 20230104 2011 40.52129745 GAU 0.01435192 0.0 -122.40538 0.0
M09 ? BHZ e P c 20230104 2011 40.14344025 GAU 0.02537798 0.0 171.79788 0.0
M09 ? BHE e S ? 20230104 2011 40.73629379 GAU 0.01148003 0.0 351.54358 0.0
M13 ? BHZ e P c 20230104 2011 40.32078934 GAU 0.00797316 0.0 -159.46893 0.0
M13 ? BHE e S ? 20230104 2011 41.02621460 GAU 0.00717589 0.0 -185.95389 0.0
M08 ? BHZ e P d 20230104 2011 40.39792633 GAU 0.01435169 0.0 263.97726 0.0
M08 ? BHE e S ? 20230104 2011 41.16129684 GAU 0.01674653 0.0 -877.62590 0.0
M05 ? BHZ e P c 20230104 2011 40.52835846 GAU 0.03571103 0.0 139.12991 0.0
M05 ? BHN e S ? 20230104 2011 41.36614990 GAU 0.00991978 0.0 273.64777 0.0

M04 ? BHZ e P c 20230104 2016 16.23865700 GAU 0.00797303 0.0 -2856.40160 0.0
M04 ? BHN e S ? 20230104 2016 16.75426674 GAU 0.00664397 0.0 690.50360 0.0
M06 ? BHZ i P c 20230104 2016 16.25103951 GAU 0.00267022 0.0 95.32409 0.0
M06 ? BHE e S ? 20230104 2016 16.77334595 GAU 0.00692129 0.0 -96.48898 0.0
M14 ? BHZ e P c 20230104 2016 16.26157570 GAU 0.00956836 0.0 366.10806 0.0
M14 ? BHE e S ? 20230104 2016 16.77008438 GAU 0.00688847 0.0 289.53522 0.0
M11 ? BHZ i P c 20230104 2016 16.32229042 GAU 0.00664470 0.0 -363.01575 0.0
M11 ? BHN e S ? 20230104 2016 16.93387604 GAU 0.00881345 0.0 -139.14941 0.0
M09 ? BHZ i P c 20230104 2016 16.40008926 GAU 0.00996654 0.0 -24.14411 0.0
M09 ? BHN e S ? 20230104 2016 17.07537079 GAU 0.00310871 0.0 429.92398 0.0
M10 ? BHZ e P c 20230104 2016 16.51254654 GAU 0.01279299 0.0 -1472.85640 0.0
M10 ? BHE e S ? 20230104 2016 17.20862389 GAU 0.01322539 0.0 -2066.40040 0.0
M13 ? BHZ i P c 20230104 2016 16.58658981 GAU 0.00673664 0.0 -209.51524 0.0
M13 ? BHN e S ? 20230104 2016 17.38546371 GAU 0.00598000 0.0 -153.00000 0.0
M08 ? BHZ e P d 20230104 2016 16.64025688 GAU 0.01913596 0.0 349.11658 0.0
M08 ? BHN e S ? 20230104 2016 17.50024414 GAU 0.00770836 0.0 280.65100 0.0
M05 ? BHZ e P d 20230104 2016 16.81931114 GAU 0.01653325 0.0 195.94130 0.0
M05 ? BHE e S ? 20230104 2016 17.77268410 GAU 0.00861054 0.0 -174.00000 0.0

M14 ? BHZ e P c 20230104 2017 10.37232876 GAU 0.01069864 0.0 240.29517 0.0
M14 ? BHE e S ? 20230104 2017 10.81718063 GAU 0.00574080 0.0 415.15090 0.0
M06 ? BHZ i P c 20230104 2017 10.38152981 GAU 0.00415269 0.0 -124.27066 0.0
M06 ? BHN e S ? 20230104 2017 10.88881493 GAU 0.00332217 0.0 -93.21730 0.0
M11 ? BHZ i P c 20230104 2017 10.53215313 GAU 0.01195934 0.0 -46.42948 0.0
M11 ? BHN e S ? 20230104 2017 11.14621162 GAU 0.00956836 0.0 -129.61829 0.0
M09 ? BHZ i P c 20230104 2017 10.63515663 GAU 0.00276837 0.0 141.22978 0.0
M09 ? BHN e S ? 20230104 2017 11.33660698 GAU 0.01196046 0.0 496.34357 0.0
M13 ? BHZ i P c 20230104 2017 10.76075554 GAU 0.00861088 0.0 -322.34506 0.0
M13 ? BHE e S ? 20230104 2017 11.47864342 GAU 0.00717573 0.0 -185.20291 0.0
M08 ? BHZ e P d 20230104 2017 10.85918427 GAU 0.02009254 0.0 231.94225 0.0
M08 ? BHE e S ? 20230104 2017 11.68410301 GAU 0.00614825 0.0 -852.66200 0.0
M05 ? BHZ e P c 20230104 2017 10.95220280 GAU 0.01661001 0.0 138.96771 0.0
M05 ? BHN e S ? 20230104 2017 11.85147190 GAU 0.01138530 0.0 277.36108 0.0

M14 ? BHZ e P c 20230104 2018 23.36383438 GAU 0.00245877 0.0 -564.90750 0.0
M14 ? BHN e S ? 20230104 2018 23.82382965 GAU 0.02066718 0.0 328.00000 0.0
M06 ? BHZ e P c 20230104 2018 23.56810379 GAU 0.02411003 0.0 24.49637 0.0
M06 ? BHE e S ? 20230104 2018 24.14721298 GAU 0.01102964 0.0 -96.47507 0.0
M11 ? BHZ e P c 20230104 2018 23.70929337 GAU 0.01195936 0.0 -224.57010 0.0
M11 ? BHE e S ? 20230104 2018 24.45405006 GAU 0.00996635 0.0 -106.04202 0.0
M09 ? BHZ i P c 20230104 2018 23.79464340 GAU 0.01281549 0.0 89.61214 0.0
M09 ? BHN e S ? 20230104 2018 24.52397346 GAU 0.00839931 0.0 488.10278 0.0
M13 ? BHZ e P c 20230104 2018 23.95480537 GAU 0.00193132 0.0 -136.51880 0.0
M13 ? BHE e S ? 20230104 2018 24.79456902 GAU 0.00775439 0.0 -192.71716 0.0

M08 ? BHZ e P d 20230107 0145 59.58514404 GAU 0.01475366 0.0 143.87863 0.0
M08 ? BHN e S ? 20230107 0145 61.08310664 GAU 0.00717591 0.0 256.67374 0.0
M13 ? BHZ e P d 20230107 0145 59.58304977 GAU 0.01377774 0.0 -120.56100 0.0
M13 ? BHN e S ? 20230107 0145 61.10289645 GAU 0.00956769 0.0 -103.95663 0.0
M10 ? BHZ e P c 20230107 0145 59.34425735 GAU 0.02157838 0.0 1553.70870 0.0
M10 ? BHE e S ? 20230107 0145 60.66150367 GAU 0.01653262 0.0 692.55597 0.0
M11 ? BHZ e S ? 20230107 0145 59.77790451 GAU 0.00826630 0.0 -20.70614 0.0
M11 ? BHN e S ? 20230107 0145 61.46058691 GAU 0.04841351 0.0 -76.73274 0.0
M14 ? BHZ e P d 20230107 0145 59.69784546 GAU 0.02142628 0.0 363.25635 0.0
M14 ? BHE e S ? 20230107 0145 61.23222661 GAU 0.00476099 0.0 428.96240 0.0
M05 ? BHZ e P c 20230107 0145 59.41578674 GAU 0.00574102 0.0 300.68527 0.0
M05 ? BHN e S ? 20230107 0145 60.81814480 GAU 0.00660568 0.0 254.60173 0.0
M09 ? BHZ e P d 20230107 0145 59.70195007 GAU 0.01033289 0.0 48.12119 0.0
M09 ? BHE e S ? 20230107 0145 61.33966279 GAU 0.01785523 0.0 374.62330 0.0
M04 ? BHZ e P c 20230107 0145 59.74348831 GAU 0.00897034 0.0 -291.96786 0.0
M04 ? BHE e S ? 20230107 0145 61.29642379 GAU 0.01148153 0.0 374.54315 0.0
M06 ? BHZ i P d 20230107 0145 59.89531708 GAU 0.01239965 0.0 -8.52757 0.0
M06 ? BHE e S ? 20230107 0145 61.64694893 GAU 0.01984009 0.0 -60.83436 0.0

M06 ? BHZ i P c 20230111 1328 51.48976517 GAU 0.00797303 0.0 -58.83948 0.0
M06 ? BHE e S ? 20230111 1328 52.20014572 GAU 0.01162977 0.0 -102.59851 0.0
M14 ? BHZ e P c 20230111 1328 51.57569122 GAU 0.01377771 0.0 -161.70181 0.0
M14 ? BHE e S ? 20230111 1328 52.39167404 GAU 0.01377774 0.0 475.05405 0.0
M11 ? BHZ e P c 20230111 1328 51.70656586 GAU 0.00992008 0.0 -113.64178 0.0
M11 ? BHE e S ? 20230111 1328 52.61761093 GAU 0.00991972 0.0 -123.56137 0.0
M09 ? BHZ e P c 20230111 1328 51.86319351 GAU 0.01660954 0.0 43.99316 0.0
M09 ? BHE e S ? 20230111 1328 52.84468460 GAU 0.00574102 0.0 340.46564 0.0

M09 ? BHZ e P c 20230113 1101 29.23433876 GAU 0.00667510 0.0 39.48595 0.0
M09 ? BHN e S ? 20230113 1101 29.78766251 GAU 0.00598000 0.0 491.03820 0.0
M13 ? BHZ e P d 20230113 1101 29.69213867 GAU 0.00757814 0.0 -174.17426 0.0
M13 ? BHN e S ? 20230113 1101 30.32508087 GAU 0.00276850 0.0 -96.78715 0.0
M05 ? BHZ e P c 20230113 1101 29.92261124 GAU 0.00825048 0.0 -121.95267 0.0
M05 ? BHN e S ? 20230113 1101 31.07585144 GAU 0.00677578 0.0 266.25070 0.0

M06 ? BHZ i P c 20230114 0346 51.10464859 GAU 0.01785615 0.0 94.15607 0.0
M06 ? BHE e S ? 20230114 0346 52.72226334 GAU 0.01033287 0.0 35.01925 0.0
M11 ? BHZ e P c 20230114 0346 51.60567474 GAU 0.01653287 0.0 -122.22639 0.0
M11 ? BHN e S ? 20230114 0346 53.66341400 GAU 0.01714259 0.0 -77.43515 0.0
M14 ? BHZ e P c 20230114 0346 51.63420486 GAU 0.01653329 0.0 -341.44230 0.0
M14 ? BHN e S ? 20230114 0346 53.61183548 GAU 0.00991998 0.0 352.82278 0.0
M08 ? BHZ e P d 20230114 0346 51.70955658 GAU 0.00992048 0.0 193.64682 0.0
M08 ? BHN e S ? 20230114 0346 53.79669189 GAU 0.01664321 0.0 308.15955 0.0
M09 ? BHZ e P c 20230114 0346 51.71305084 GAU 0.01653224 0.0 58.94078 0.0
M09 ? BHE e S ? 20230114 0346 53.74016190 GAU 0.02066609 0.0 403.19630 0.0
M13 ? BHZ i P d 20230114 0346 51.96146011 GAU 0.01722174 0.0 111.37804 0.0
M13 ? BHN e S ? 20230114 0346 54.15710068 GAU 0.00826644 0.0 -14.00000 0.0
M12 ? BHZ e P c 20230114 0346 52.07452011 GAU 0.01632058 0.0 -1093.55320 0.0
M12 ? BHN e S ? 20230114 0346 54.35651016 GAU 0.02056955 0.0 -99.89120 0.0
M05 ? BHZ e P d 20230114 0346 52.17322159 GAU 0.01239994 0.0 179.59160 0.0
M05 ? BHE e S ? 20230114 0346 54.46775818 GAU 0.02056954 0.0 -149.77335 0.0

M06 ? BHZ e P c 20230116 1617 37.54146957 GAU 0.02057111 0.0 -209.27296 0.0
M06 ? BHE e S ? 20230116 1617 38.85846710 GAU 0.02479848 0.0 -103.00000 0.0
M09 ? BHZ e P c 20230116 1617 38.21147919 GAU 0.01148145 0.0 23.30649 0.0
M09 ? BHN e S ? 20230116 1617 40.00157547 GAU 0.01240060 0.0 472.92123 0.0
M13 ? BHZ e P c 20230116 1617 38.22193146 GAU 0.01148072 0.0 -222.91972 0.0
M13 ? BHN e S ? 20230116 1617 40.14300156 GAU 0.00797434 0.0 -122.95970 0.0
M05 ? BHZ e P d 20230116 1617 38.58018494 GAU 0.01033305 0.0 193.22366 0.0
M05 ? BHE e S ? 20230116 1617 40.73183060 GAU 0.01148158 0.0 -173.68736 0.0

M06 ? BHZ e P d 20230120 1329 11.86258888 GAU 0.01026873 0.0 -254.31836 0.0
M06 ? BHN e S ? 20230120 1329 12.42456722 GAU 0.00770154 0.0 -91.03024 0.0
M11 ? BHZ e P c 20230120 1329 11.89333534 GAU 0.01377748 0.0 -384.24152 0.0
M11 ? BHN e P c 20230120 1329 12.47462654 GAU 0.00826670 0.0 -110.33115 0.0
M09 ? BHZ e P d 20230120 1329 12.08446407 GAU 0.00597997 0.0 153.55528 0.0
M09 ? BHN e S ? 20230120 1329 12.76571751 GAU 0.00480643 0.0 481.00000 0.0
M13 ? BHZ e P c 20230120 1329 12.16014481 GAU 0.00830554 0.0 -255.20264 0.0
M13 ? BHN e S ? 20230120 1329 12.92536831 GAU 0.00797162 0.0 -118.89896 0.0

M06 ? BHZ e P c 20230120 1830  1.09283566 GAU 0.00230719 0.0 -116.38310 0.0
M06 ? BHN e S ? 20230120 1830  1.58805442 GAU 0.00861153 0.0 -90.08462 0.0
M14 ? BHZ e P d 20230120 1830  1.12875199 GAU 0.01148116 0.0 798.24115 0.0
M14 ? BHN e P c 20230120 1830  1.67313087 GAU 0.00717548 0.0 334.07614 0.0
M11 ? BHZ e P c 20230120 1830  1.25632012 GAU 0.00413353 0.0 -389.32790 0.0
M11 ? BHE e S ? 20230120 1830  1.92332256 GAU 0.01722148 0.0 -122.67902 0.0
M09 ? BHZ e P c 20230120 1830  1.29828691 GAU 0.01377845 0.0 71.98213 0.0
M09 ? BHE e S ? 20230120 1830  2.01654625 GAU 0.00956794 0.0 348.55970 0.0
M13 ? BHZ e P d 20230120 1830  1.43523049 GAU 0.00742981 0.0 6.10682 0.0
M13 ? BHN e S ? 20230120 1830  2.15169144 GAU 0.01435199 0.0 -118.85548 0.0
M08 ? BHZ e P c 20230120 1830  1.57673585 GAU 0.00459194 0.0 -67.73411 0.0
M08 ? BHE e S ? 20230120 1830  2.43360019 GAU 0.00717573 0.0 -861.04300 0.0
M05 ? BHZ e P c 20230120 1830  1.74552441 GAU 0.01478686 0.0 104.92899 0.0
M05 ? BHE e S ? 20230120 1830  2.75485992 GAU 0.01148072 0.0 -168.00000 0.0
M12 ? BHZ e P c 20230120 1830  1.76611030 GAU 0.00634626 0.0 -493.57925 0.0
M12 ? BHN e S ? 20230120 1830  2.80691314 GAU 0.00664273 0.0 -129.06166 0.0

M04 ? BHZ e P c 20230120 1910 26.22413063 GAU 0.00941840 0.0 -851.59220 0.0
M04 ? BHN e S ? 20230120 1910 26.75346756 GAU 0.00304700 0.0 722.21326 0.0
M06 ? BHZ i P c 20230120 1910 26.28218460 GAU 0.00464749 0.0 -192.01198 0.0
M06 ? BHE e S ? 20230120 1910 26.87770462 GAU 0.00498295 0.0 -120.00000 0.0
M13 ? BHZ e P c 20230120 1910 26.48255539 GAU 0.00473577 0.0 -230.84464 0.0
M13 ? BHE e S ? 20230120 1910 27.18800354 GAU 0.00934517 0.0 -186.04309 0.0
M09 ? BHZ e P c 20230120 1910 26.46999168 GAU 0.00199323 0.0 66.28895 0.0
M09 ? BHE e S ? 20230120 1910 27.20494652 GAU 0.00278130 0.0 351.46545 0.0

M06 ? BHZ i P c 20230120 1910 37.01254654 GAU 0.00288377 0.0 18779.01000 0.0
M06 ? BHE e S ? 20230120 1910 37.47294235 GAU 0.01239973 0.0 -4031.23140 0.0
M14 ? BHZ i P c 20230120 1910 37.10346603 GAU 0.00166112 0.0 5241.36900 0.0
M14 ? BHN e S ? 20230120 1910 37.59227753 GAU 0.00688874 0.0 -7658.72000 0.0
M04 ? BHZ e P d 20230120 1910 37.11354065 GAU 0.00346038 0.0 -1917.82580 0.0
M04 ? BHE e S ? 20230120 1910 37.59226227 GAU 0.00717611 0.0 -2884.52170 0.0
M11 ? BHZ i P c 20230120 1910 37.11698914 GAU 0.00688200 0.0 19489.35500 0.0
M11 ? BHN e S ? 20230120 1910 37.60721207 GAU 0.01488072 0.0 -3512.53930 0.0
M09 ? BHZ i P c 20230120 1910 37.20281982 GAU 0.00398666 0.0 2622.02440 0.0
M09 ? BHN e S ? 20230120 1910 37.78256226 GAU 0.00826616 0.0 -8857.30500 0.0
M03 ? BHZ i P d 20230120 1910 37.30583572 GAU 0.00826665 0.0 -15850.35500 0.0
M03 ? BHE e S ? 20230120 1910 38.03138733 GAU 0.01377739 0.0 -4900.82860 0.0
M13 ? BHZ i P c 20230120 1910 37.34767914 GAU 0.00553697 0.0 12176.53000 0.0
M13 ? BHE e S ? 20230120 1910 37.93773651 GAU 0.01913673 0.0 -1335.45460 0.0
M08 ? BHZ i P d 20230120 1910 37.43329239 GAU 0.00398645 0.0 -2883.05320 0.0
M08 ? BHN e S ? 20230120 1910 38.14432526 GAU 0.00498352 0.0 -3077.57700 0.0
M10 ? BHZ i P c 20230120 1910 37.44860840 GAU 0.00413308 0.0 18953.74600 0.0
M10 ? BHN e S ? 20230120 1910 38.19327545 GAU 0.01033338 0.0 -465981.38000 0.0
M05 ? BHZ e P d 20230120 1910 37.62913895 GAU 0.02066530 0.0 -2271.04570 0.0
M05 ? BHE e S ? 20230120 1910 38.55717850 GAU 0.01722230 0.0 -2706.88130 0.0
M01 ? BHZ e P c 20230120 1910 37.64731216 GAU 0.00398662 0.0 8959.59200 0.0
M01 ? BHE e S ? 20230120 1910 38.46997070 GAU 0.00830660 0.0 170.62260 0.0
M12 ? BHZ i P d 20230120 1910 37.77714539 GAU 0.00688887 0.0 -5866.11130 0.0
M12 ? BHE e S ? 20230120 1910 38.83848953 GAU 0.00861074 0.0 -5254.48730 0.0

M06 ? BHZ i P c 20230120 1911 19.98486710 GAU 0.00333764 0.0 -448.69710 0.0
M06 ? BHE e S ? 20230120 1911 20.38646507 GAU 0.00398654 0.0 -154.57747 0.0
M04 ? BHZ e P c 20230120 1911 20.07493591 GAU 0.00747553 0.0 -638.64954 0.0
M04 ? BHE e S ? 20230120 1911 20.52927971 GAU 0.00288325 0.0 278.44247 0.0
M14 ? BHZ i P c 20230120 1911 20.08647156 GAU 0.00861118 0.0 -201.06642 0.0
M14 ? BHE e S ? 20230120 1911 20.55304337 GAU 0.00956971 0.0 466.15988 0.0
M11 ? BHZ e P c 20230120 1911 20.08832741 GAU 0.00288380 0.0 -156.32448 0.0
M11 ? BHN e S ? 20230120 1911 20.59178734 GAU 0.00952278 0.0 -85.61173 0.0
M09 ? BHZ e P c 20230120 1911 20.18981934 GAU 0.00478390 0.0 190.87727 0.0
M09 ? BHE e S ? 20230120 1911 20.73751450 GAU 0.01196017 0.0 330.00000 0.0

M06 ? BHZ i P c 20230120 1911 39.21411514 GAU 0.00332210 0.0 -293.28906 0.0
M06 ? BHE e S ? 20230120 1911 39.72209549 GAU 0.00400538 0.0 -93.81616 0.0
M14 ? BHZ e S ? 20230120 1911 39.25644684 GAU 0.00550454 0.0 -541.77640 0.0
M14 ? BHE e S ? 20230120 1911 39.80291367 GAU 0.00478399 0.0 349.20245 0.0
M11 ? BHZ e P d 20230120 1911 39.30554199 GAU 0.01033342 0.0 211.30983 0.0
M11 ? BHE e S ? 20230120 1911 39.88283157 GAU 0.00826707 0.0 -113.39654 0.0
M09 ? BHZ e P c 20230120 1911 39.34528732 GAU 0.00826644 0.0 111.99651 0.0
M09 ? BHN e S ? 20230120 1911 39.96056747 GAU 0.00714275 0.0 486.82498 0.0

M06 ? BHZ i P c 20230120 1911 47.41574860 GAU 0.00553725 0.0 -195.06746 0.0
M06 ? BHN e S ? 20230120 1911 47.86064529 GAU 0.00830704 0.0 -150.11111 0.0
M14 ? BHZ i P d 20230120 1911 47.46125793 GAU 0.00574059 0.0 965.16400 0.0
M14 ? BHE e S ? 20230120 1911 47.93302155 GAU 0.01145171 0.0 381.96606 0.0
M11 ? BHZ e P c 20230120 1911 47.48715973 GAU 0.00766328 0.0 -975.31335 0.0
M11 ? BHN e S ? 20230120 1911 48.05871964 GAU 0.00664353 0.0 -124.00000 0.0
M04 ? BHZ e P c 20230120 1911 47.52141190 GAU 0.00717585 0.0 -1358.74700 0.0
M04 ? BHE e S ? 20230120 1911 47.99048615 GAU 0.00576878 0.0 285.97140 0.0
M09 ? BHZ i P c 20230120 1911 47.61460876 GAU 0.00797329 0.0 12.16462 0.0
M09 ? BHN e S ? 20230120 1911 48.31613159 GAU 0.00717577 0.0 512.00000 0.0
M13 ? BHZ e P c 20230120 1911 47.69689560 GAU 0.01033322 0.0 -272.14035 0.0
M13 ? BHE e S ? 20230120 1911 48.30806351 GAU 0.00830704 0.0 -207.88664 0.0
M08 ? BHZ e P c 20230120 1911 47.76992416 GAU 0.00717585 0.0 -44.56522 0.0
M08 ? BHE e S ? 20230120 1911 48.54036331 GAU 0.00333787 0.0 -869.69980 0.0
M10 ? BHZ e P c 20230120 1911 47.79087830 GAU 0.00688881 0.0 -142.30334 0.0
M10 ? BHN e S ? 20230120 1911 48.58771515 GAU 0.00574059 0.0 -2375.66670 0.0
M05 ? BHZ e P d 20230120 1911 47.99613953 GAU 0.00991998 0.0 175.46507 0.0
M05 ? BHE e S ? 20230120 1911 48.93494034 GAU 0.00398645 0.0 -173.24630 0.0
M15 ? BHZ e P d 20230120 1911 48.06362915 GAU 0.01239986 0.0 -452.38640 0.0
M15 ? BHE e S ? 20230120 1911 49.00646591 GAU 0.00664436 0.0 -155.76490 0.0
M12 ? BHZ e P d 20230120 1911 48.16547394 GAU 0.00574084 0.0 -355.00890 0.0
M12 ? BHE e S ? 20230120 1911 49.23530197 GAU 0.00826665 0.0 -10.03942 0.0

M04 ? BHZ e P c 20230120 1912  2.64107800 GAU 0.00498333 0.0 885.33710 0.0
M04 ? BHN e S ? 20230120 1912  3.07632136 GAU 0.00623631 0.0 717.47986 0.0
M06 ? BHZ i P c 20230120 1912  2.65772009 GAU 0.00431160 0.0 -4294.84600 0.0
M06 ? BHE e S ? 20230120 1912  3.17439890 GAU 0.00461916 0.0 -8.57986 0.0
