M06 ? BHZ e P c 20230308 0453 44.65188980 GAU 0.00236170 0.0 -233.45042 0.0
M06 ? BHN e S ? 20230308 0453 45.11584854 GAU 0.00288387 0.0 -35.35649 0.0
M04 ? BHZ e P c 20230308 0453 44.70650864 GAU 0.00384531 0.0 -3331.37960 0.0
M04 ? BHN e S ? 20230308 0453 45.13908768 GAU 0.00107308 0.0 684.28280 0.0
M14 ? BHZ i P c 20230308 0453 44.74559784 GAU 0.00139068 0.0 -129.86626 0.0
M14 ? BHE e S ? 20230308 0453 45.17020416 GAU 0.00139078 0.0 356.99023 0.0
M11 ? BHZ i P d 20230308 0453 44.77454376 GAU 0.00498314 0.0 -9.61734 0.0
M11 ? BHN i S ? 20230308 0453 45.28371429 GAU 0.00498352 0.0 -94.60209 0.0
M09 ? BHZ i P c 20230308 0453 44.85483170 GAU 0.00222513 0.0 140.09947 0.0
M09 ? BHN e S ? 20230308 0453 45.44070053 GAU 0.00717596 0.0 507.00000 0.0
M13 ? BHZ i P c 20230308 0453 44.97506332 GAU 0.00200261 0.0 -257.93015 0.0
M13 ? BHN e S ? 20230308 0453 45.69668579 GAU 0.00608943 0.0 -73.92736 0.0
M05 ? BHZ i P c 20230308 0453 45.21469498 GAU 0.00332217 0.0 -9.74205 0.0
M05 ? BHN e S ? 20230308 0453 46.03817749 GAU 0.00036071 0.0 285.53513 0.0
M12 ? BHZ i P c 20230308 0453 45.47640610 GAU 0.00192254 0.0 -380.68740 0.0
M12 ? BHN e S ? 20230308 0453 46.57882690 GAU 0.00156795 0.0 -137.65671 0.0

M06 ? BHZ i P d 20230312 2329 24.81742859 GAU 0.00111255 0.0 -107.00146 0.0
M06 ? BHN e S ? 20230312 2329 25.32029533 GAU 0.00180320 0.0 -87.92976 0.0
M14 ? BHZ i P c 20230312 2329 24.92196465 GAU 0.00158678 0.0 -882.83960 0.0
M14 ? BHN e S ? 20230312 2329 25.46427536 GAU 0.00288387 0.0 335.00000 0.0
M11 ? BHZ i P c 20230312 2329 24.99989700 GAU 0.00299355 0.0 -449.35330 0.0
M11 ? BHN e S ? 20230312 2329 25.65177727 GAU 0.00305320 0.0 -119.92598 0.0
M09 ? BHZ i P c 20230312 2329 25.02758598 GAU 0.00093584 0.0 38.11902 0.0
M09 ? BHE e S ? 20230312 2329 25.68157005 GAU 0.00126926 0.0 355.00000 0.0

M04 ? BHZ e P c 20230319 1458 27.51290321 GAU 0.00353974 0.0 -940.81586 0.0
M04 ? BHE e S ? 20230319 1458 28.02837944 GAU 0.00111253 0.0 332.57150 0.0
M06 ? BHZ i P c 20230319 1458 27.53013420 GAU 0.00525667 0.0 -172.79897 0.0
M06 ? BHN e S ? 20230319 1458 28.05790329 GAU 0.00154507 0.0 -117.87258 0.0
M14 ? BHZ e P c 20230319 1458 27.59481812 GAU 0.00245922 0.0 -848.56010 0.0
M14 ? BHN e S ? 20230319 1458 28.19735527 GAU 0.00300771 0.0 321.92072 0.0
M11 ? BHZ e P d 20230319 1458 27.67214394 GAU 0.01045098 0.0 120.52119 0.0
M11 ? BHN e S ? 20230319 1458 28.29487610 GAU 0.00147727 0.0 -91.50363 0.0
M09 ? BHZ i P c 20230319 1458 27.70675087 GAU 0.00276841 0.0 -88.94614 0.0
M09 ? BHN e S ? 20230319 1458 28.36948013 GAU 0.01096979 0.0 488.28394 0.0

M06 ? BHZ i P c 20230319 1458 28.10048485 GAU 0.00525667 0.0 -325.28336 0.0
M06 ? BHN i S ? 20230319 1458 28.64286232 GAU 0.00154507 0.0 -138.29922 0.0
M04 ? BHZ e P c 20230319 1458 28.12902069 GAU 0.00222514 0.0 -1608.62510 0.0
M04 ? BHN e S ? 20230319 1458 28.67842674 GAU 0.00103317 0.0 769.50104 0.0
M11 ? BHZ i P d 20230319 1458 28.20484924 GAU 0.00160904 0.0 -857.02980 0.0
M11 ? BHN i S ? 20230319 1458 28.90151596 GAU 0.00302250 0.0 -143.61081 0.0
M14 ? BHZ i P c 20230319 1458 28.21238708 GAU 0.00245922 0.0 -1085.36820 0.0
M14 ? BHN e S ? 20230319 1458 28.79974747 GAU 0.00106375 0.0 228.53470 0.0
M02 ? BHZ e P c 20230319 1458 28.21977997 GAU 0.00096584 0.0 -1862.71220 0.0
M02 ? BHN e S ? 20230319 1458 28.80775833 GAU 0.00160973 0.0 -1365.91590 0.0
M09 ? BHZ i P c 20230319 1458 28.32812119 GAU 0.00155526 0.0 -341.83264 0.0
M09 ? BHN e S ? 20230319 1458 28.99160957 GAU 0.00176296 0.0 433.29680 0.0
M13 ? BHZ e P c 20230319 1458 28.43562317 GAU 0.00278131 0.0 -1114.57080 0.0
M13 ? BHE e S ? 20230319 1458 29.26399612 GAU 0.00205914 0.0 -141.63454 0.0
M05 ? BHZ i P c 20230319 1458 28.78173256 GAU 0.00255273 0.0 -106.22922 0.0
M05 ? BHE i S ? 20230319 1458 29.93942261 GAU 0.00115893 0.0 -154.00000 0.0
M12 ? BHZ i P c 20230319 1458 28.96221733 GAU 0.00231789 0.0 -763.88000 0.0
M12 ? BHE e S ? 20230319 1458 30.10208893 GAU 0.00225347 0.0 23.69480 0.0

M04 ? BHZ e P c 20230319 1458 42.12143326 GAU 0.00129105 0.0 -1568.30360 0.0
M04 ? BHE e S ? 20230319 1458 42.69303513 GAU 0.00231775 0.0 304.00000 0.0
M06 ? BHZ i P c 20230319 1458 42.12265778 GAU 0.00385752 0.0 -103.42950 0.0
M06 ? BHN e S ? 20230319 1458 42.64174652 GAU 0.00183210 0.0 -117.23441 0.0
M11 ? BHZ e P c 20230319 1458 42.25431061 GAU 0.00074519 0.0 -171.67888 0.0
M11 ? BHE e S ? 20230319 1458 42.82682037 GAU 0.00201255 0.0 -141.76573 0.0
M02 ? BHZ e P c 20230319 1458 42.27563858 GAU 0.00031195 0.0 -1272.24350 0.0
M02 ? BHE e S ? 20230319 1458 42.89920044 GAU 0.00115901 0.0 -2025.75150 0.0
M09 ? BHZ i P c 20230319 1458 42.30794525 GAU 0.00564470 0.0 24.28591 0.0
M09 ? BHE e S ? 20230319 1458 43.00560379 GAU 0.00223540 0.0 363.94077 0.0
M13 ? BHZ e P d 20230319 1458 42.51606750 GAU 0.00172496 0.0 69.41454 0.0
M13 ? BHE e S ? 20230319 1458 43.33959198 GAU 0.00104725 0.0 -202.91821 0.0

M06 ? BHZ i P c 20230319 1459  5.82830048 GAU 0.00547629 0.0 -68.81870 0.0
M06 ? BHE e S ? 20230319 1459  6.33292961 GAU 0.00222513 0.0 -89.35874 0.0
M04 ? BHZ e P c 20230319 1459  5.86826372 GAU 0.00247333 0.0 -865.95800 0.0
M04 ? BHE e S ? 20230319 1459  6.40190840 GAU 0.00160213 0.0 314.10290 0.0
M14 ? BHZ e P c 20230319 1459  5.92414665 GAU 0.00278142 0.0 -384.74805 0.0
M14 ? BHN e S ? 20230319 1459  6.48940945 GAU 0.00096580 0.0 314.34440 0.0
M11 ? BHZ i P c 20230319 1459  5.95555353 GAU 0.00093151 0.0 -239.50851 0.0
M11 ? BHN e S ? 20230319 1459  6.52487087 GAU 0.00185441 0.0 -98.24702 0.0
M09 ? BHZ i P c 20230319 1459  6.08757496 GAU 0.00193151 0.0 164.77356 0.0
M09 ? BHE e S ? 20230319 1459  6.80860424 GAU 0.00160221 0.0 369.20810 0.0
M05 ? BHZ e P c 20230319 1459  6.24934626 GAU 0.00346052 0.0 -19.46987 0.0
M05 ? BHN e S ? 20230319 1459  7.06196356 GAU 0.00441120 0.0 262.95540 0.0

M14 ? BHZ e P c 20230319 1500 57.10665894 GAU 0.00139070 0.0 -312.31824 0.0
M14 ? BHE e S ? 20230319 1500 57.66769791 GAU 0.00107306 0.0 435.00000 0.0
M06 ? BHZ i P c 20230319 1500 57.10961914 GAU 0.00039098 0.0 -253.57507 0.0
M06 ? BHN e S ? 20230319 1500 57.65393066 GAU 0.00066583 0.0 -111.81681 0.0
M11 ? BHZ e P c 20230319 1500 57.23338699 GAU 0.00226023 0.0 -522.81060 0.0
M11 ? BHN e S ? 20230319 1500 57.85171127 GAU 0.00231834 0.0 -112.74088 0.0
M09 ? BHZ i P c 20230319 1500 57.30007553 GAU 0.00267045 0.0 105.31375 0.0
M09 ? BHN e S ? 20230319 1500 57.98004150 GAU 0.00201682 0.0 476.18230 0.0

M06 ? BHZ i P c 20230319 1507 49.31739426 GAU 0.00053907 0.0 -110.60092 0.0
M06 ? BHN e S ? 20230319 1507 49.80889893 GAU 0.00128765 0.0 -142.58880 0.0
M04 ? BHZ e P c 20230319 1507 49.37491608 GAU 0.00333777 0.0 -3095.42400 0.0
M04 ? BHE e S ? 20230319 1507 49.86112976 GAU 0.00095626 0.0 270.27002 0.0
M11 ? BHZ i P c 20230319 1507 49.41242981 GAU 0.00219081 0.0 -531.97660 0.0
M11 ? BHN e S ? 20230319 1507 50.02814865 GAU 0.00192256 0.0 -138.68024 0.0
M14 ? BHZ i P c 20230319 1507 49.41646194 GAU 0.00200268 0.0 -223.63920 0.0
M14 ? BHE e S ? 20230319 1507 49.92785645 GAU 0.00320369 0.0 349.31204 0.0
M02 ? BHZ e P c 20230319 1507 49.49914932 GAU 0.00139081 0.0 -1805.12200 0.0
M02 ? BHN e S ? 20230319 1507 50.09094238 GAU 0.00195598 0.0 2478.68500 0.0
M09 ? BHZ i P c 20230319 1507 49.50240707 GAU 0.00333794 0.0 106.07230 0.0
M09 ? BHE e S ? 20230319 1507 50.21835709 GAU 0.00198846 0.0 309.33752 0.0
M13 ? BHZ i P c 20230319 1507 49.65747452 GAU 0.00074525 0.0 -426.07750 0.0
M13 ? BHE e S ? 20230319 1507 50.43387985 GAU 0.00442238 0.0 -189.96840 0.0
M08 ? BHZ i P d 20230319 1507 49.77122116 GAU 0.00333756 0.0 235.19019 0.0
M08 ? BHN e S ? 20230319 1507 50.71275711 GAU 0.00060583 0.0 265.60022 0.0
M10 ? BHZ i P d 20230319 1507 49.81318283 GAU 0.00576767 0.0 608.76917 0.0
M10 ? BHE e S ? 20230319 1507 50.76602936 GAU 0.00114636 0.0 806.87463 0.0
M05 ? BHZ e P d 20230319 1507 49.94810867 GAU 0.00437779 0.0 350.37927 0.0
M05 ? BHN e S ? 20230319 1507 50.92858887 GAU 0.00415278 0.0 244.00000 0.0
M12 ? BHZ e P d 20230319 1507 50.05983353 GAU 0.00664441 0.0 -449.97812 0.0
M12 ? BHE e S ? 20230319 1507 51.06177139 GAU 0.00233633 0.0 -22.97389 0.0

M06 ? BHZ i P c 20230319 1508  6.81225157 GAU 0.00154528 0.0 89.83364 0.0
M06 ? BHN e S ? 20230319 1508  7.36881638 GAU 0.00101144 0.0 -146.86676 0.0
M14 ? BHZ i P c 20230319 1508  6.89492893 GAU 0.00338154 0.0 -610.17413 0.0
M14 ? BHE e S ? 20230319 1508  7.43237686 GAU 0.00231796 0.0 353.10654 0.0
M11 ? BHZ i P c 20230319 1508  6.92748070 GAU 0.00234624 0.0 -436.00000 0.0
M11 ? BHN e S ? 20230319 1508  7.61642361 GAU 0.00166890 0.0 -130.76434 0.0
M02 ? BHZ e P c 20230319 1508  6.97241259 GAU 0.00097002 0.0 -1529.68760 0.0
M02 ? BHN e S ? 20230319 1508  7.57927513 GAU 0.00788016 0.0 1389.34720 0.0
M09 ? BHZ i P c 20230319 1508  7.04047012 GAU 0.00163055 0.0 75.07982 0.0
M09 ? BHE e S ? 20230319 1508  7.71843052 GAU 0.00278151 0.0 319.00000 0.0
M13 ? BHZ i P c 20230319 1508  7.14825392 GAU 0.00267011 0.0 -776.93180 0.0
M13 ? BHE e S ? 20230319 1508  7.96865225 GAU 0.00598023 0.0 -145.73033 0.0
M10 ? BHZ e P c 20230319 1508  7.23480749 GAU 0.00277550 0.0 -756.25520 0.0
M10 ? BHN e S ? 20230319 1508  8.05904770 GAU 0.00303665 0.0 -2706.83860 0.0
M08 ? BHZ i P d 20230319 1508  7.25151491 GAU 0.00245878 0.0 480.04312 0.0
M08 ? BHE e S ? 20230319 1508  8.02236748 GAU 0.00072983 0.0 -863.52783 0.0
M05 ? BHZ i P c 20230319 1508  7.38930607 GAU 0.00283302 0.0 26.29303 0.0
M05 ? BHN e S ? 20230319 1508  8.34631348 GAU 0.00127419 0.0 279.85464 0.0
M12 ? BHZ e P c 20230319 1508  7.53911495 GAU 0.00382734 0.0 -589.92896 0.0
M12 ? BHN e S ? 20230319 1508  8.72148132 GAU 0.00188301 0.0 -146.49382 0.0

M06 ? BHZ i P c 20230319 1508 46.37975693 GAU 0.00198370 0.0 140.17084 0.0
M06 ? BHN i S ? 20230319 1508 46.93079758 GAU 0.00134144 0.0 -127.02930 0.0
M14 ? BHZ i P c 20230319 1508 46.46910477 GAU 0.00187785 0.0 -995.67710 0.0
M14 ? BHE e S ? 20230319 1508 46.99117661 GAU 0.00148179 0.0 381.00000 0.0
M04 ? BHZ e P c 20230319 1508 46.47018051 GAU 0.00159554 0.0 -1605.31370 0.0
M04 ? BHN e S ? 20230319 1508 46.98006058 GAU 0.00264647 0.0 779.27060 0.0
M11 ? BHZ i P c 20230319 1508 46.48904419 GAU 0.00480609 0.0 -552.00340 0.0
M11 ? BHE e S ? 20230319 1508 47.04986191 GAU 0.00154520 0.0 -163.12433 0.0
M09 ? BHZ i P c 20230319 1508 46.57963943 GAU 0.00267015 0.0 -49.40000 0.0
M09 ? BHE e S ? 20230319 1508 47.27384949 GAU 0.00239569 0.0 327.91920 0.0
M13 ? BHZ e P c 20230319 1508 46.70464706 GAU 0.00103727 0.0 -1250.03080 0.0
M13 ? BHE e S ? 20230319 1508 47.36934662 GAU 0.00193163 0.0 -192.54282 0.0
M08 ? BHZ i P c 20230319 1508 46.94124985 GAU 0.00106908 0.0 220.43180 0.0
M08 ? BHN e S ? 20230319 1508 47.89480209 GAU 0.00445010 0.0 287.80090 0.0
M05 ? BHZ i P c 20230319 1508 47.05086136 GAU 0.00248849 0.0 250.02612 0.0
M05 ? BHN e S ? 20230319 1508 48.02465057 GAU 0.00244355 0.0 257.68362 0.0
M12 ? BHZ i P c 20230319 1508 47.20867538 GAU 0.00167040 0.0 -820.55457 0.0
M12 ? BHE e S ? 20230319 1508 48.37181091 GAU 0.00354193 0.0 -5.00000 0.0

M06 ? BHZ i P c 20230319 1510  2.50300455 GAU 0.00137268 0.0 -291.06793 0.0
M06 ? BHN e S ? 20230319 1510  3.07049799 GAU 0.00131017 0.0 -159.98578 0.0
M11 ? BHZ i P c 20230319 1510  2.57210255 GAU 0.00222530 0.0 -486.69214 0.0
M11 ? BHE e S ? 20230319 1510  3.03017473 GAU 0.00096584 0.0 -174.48656 0.0
M14 ? BHZ i P c 20230319 1510  2.61510539 GAU 0.00185424 0.0 -48.95262 0.0
M14 ? BHE e S ? 20230319 1510  3.12327743 GAU 0.00080483 0.0 346.66003 0.0
M04 ? BHZ i P c 20230319 1510  2.61744213 GAU 0.00058743 0.0 -856.26830 0.0
M04 ? BHE e S ? 20230319 1510  3.07011986 GAU 0.00200269 0.0 277.00000 0.0
M02 ? BHZ e P c 20230319 1510  2.65818381 GAU 0.00115895 0.0 -1184.92860 0.0
M02 ? BHN e S ? 20230319 1510  3.27206492 GAU 0.00308479 0.0 3173.47600 0.0
M09 ? BHZ i P c 20230319 1510  2.71604156 GAU 0.00351565 0.0 139.36539 0.0
M09 ? BHE e S ? 20230319 1510  3.40351272 GAU 0.00193160 0.0 304.61420 0.0
M13 ? BHZ i P c 20230319 1510  2.80035496 GAU 0.00278148 0.0 -927.18317 0.0
M13 ? BHE e S ? 20230319 1510  3.62896705 GAU 0.00107304 0.0 -199.70836 0.0
M08 ? BHZ e P c 20230319 1510  3.07503057 GAU 0.10309375 0.0 598.52750 0.0
M08 ? BHE i S ? 20230319 1510  4.15137005 GAU 0.00080481 0.0 -861.06360 0.0
M05 ? BHZ i P c 20230319 1510  3.17891216 GAU 0.00111259 0.0 -213.65538 0.0
M05 ? BHN e S ? 20230319 1510  4.15391207 GAU 0.00231802 0.0 247.49709 0.0
M10 ? BHZ e P c 20230319 1510  3.18263435 GAU 0.00221692 0.0 -292.14966 0.0
M10 ? BHE e S ? 20230319 1510  4.07503319 GAU 0.00226462 0.0 -521.45800 0.0
M12 ? BHZ i P c 20230319 1510  3.33783340 GAU 0.00264655 0.0 -752.47284 0.0
M12 ? BHN e S ? 20230319 1510  4.46918535 GAU 0.00205008 0.0 -151.24078 0.0

M06 ? BHZ i P c 20230319 1510 17.82760429 GAU 0.00080481 0.0 -176.81235 0.0
M06 ? BHN e S ? 20230319 1510 18.37848282 GAU 0.00200266 0.0 -107.00000 0.0
M14 ? BHZ i P c 20230319 1510 17.88879776 GAU 0.00333769 0.0 -419.82275 0.0
M14 ? BHN e S ? 20230319 1510 18.47012329 GAU 0.00164095 0.0 324.57810 0.0
M11 ? BHZ i P c 20230319 1510 17.91372871 GAU 0.00365297 0.0 -405.65765 0.0
M11 ? BHN e S ? 20230319 1510 18.50423431 GAU 0.00461427 0.0 -108.23537 0.0
M09 ? BHZ i P c 20230319 1510 18.01762772 GAU 0.00384531 0.0 -60.10518 0.0
M09 ? BHE e S ? 20230319 1510 18.70812225 GAU 0.00384504 0.0 337.15080 0.0

M06 ? BHZ i P d 20230319 1510 43.26875305 GAU 0.00252264 0.0 9.22527 0.0
M06 ? BHE e S ? 20230319 1510 43.86583328 GAU 0.00278826 0.0 -94.88291 0.0
M14 ? BHZ e P d 20230319 1510 43.35088348 GAU 0.00231775 0.0 365.54680 0.0
M14 ? BHE e S ? 20230319 1510 44.00312805 GAU 0.00086234 0.0 379.00000 0.0
M11 ? BHZ e P c 20230319 1510 43.42615509 GAU 0.00222513 0.0 -418.14160 0.0
M11 ? BHE e S ? 20230319 1510 44.12879562 GAU 0.00324508 0.0 -136.00000 0.0
M09 ? BHZ i P c 20230319 1510 43.55865860 GAU 0.00055891 0.0 -51.68319 0.0
M09 ? BHE e S ? 20230319 1510 44.39501190 GAU 0.00513582 0.0 363.16028 0.0

M06 ? BHZ i P d 20230319 1512  8.81147861 GAU 0.00225353 0.0 -262.38434 0.0
M06 ? BHN e S ? 20230319 1512  9.41443062 GAU 0.00164272 0.0 -111.36421 0.0
M11 ? BHZ e P c 20230319 1512  8.94061470 GAU 0.00231802 0.0 -264.02980 0.0
M11 ? BHE e S ? 20230319 1512  9.67360306 GAU 0.00111260 0.0 -135.45837 0.0
M14 ? BHZ e P c 20230319 1512  8.96337509 GAU 0.00134139 0.0 -552.80030 0.0
M14 ? BHE e S ? 20230319 1512  9.68590641 GAU 0.00200272 0.0 389.78480 0.0
M09 ? BHZ e P c 20230319 1512  8.98495102 GAU 0.00115888 0.0 -108.10535 0.0
M09 ? BHN e S ? 20230319 1512  9.69524384 GAU 0.00496676 0.0 475.43830 0.0

M06 ? BHZ i P d 20230319 1512 42.44859314 GAU 0.00115896 0.0 -179.25331 0.0
M06 ? BHN e S ? 20230319 1512 43.01777267 GAU 0.00154499 0.0 -93.64735 0.0
M14 ? BHZ e P d 20230319 1512 42.50779724 GAU 0.00142811 0.0 130.54622 0.0
M14 ? BHN e S ? 20230319 1512 43.07810974 GAU 0.00415246 0.0 318.10324 0.0
M11 ? BHZ e P c 20230319 1512 42.57330322 GAU 0.00415278 0.0 -302.70273 0.0
M11 ? BHN e S ? 20230319 1512 43.22422791 GAU 0.00333787 0.0 -103.40480 0.0
M09 ? BHZ e P d 20230319 1512 42.71871567 GAU 0.00077740 0.0 128.18718 0.0
M09 ? BHE e S ? 20230319 1512 43.46979523 GAU 0.00223066 0.0 359.00000 0.0

M06 ? BHZ i P d 20230319 1513  3.75061345 GAU 0.00195909 0.0 -163.70323 0.0
M06 ? BHN e S ? 20230319 1513  4.29076862 GAU 0.00580476 0.0 -98.41933 0.0
M14 ? BHZ e P c 20230319 1513  3.86073065 GAU 0.00136284 0.0 -477.14517 0.0
M14 ? BHN e S ? 20230319 1513  4.43831444 GAU 0.00192244 0.0 322.28705 0.0
M02 ? BHZ e P c 20230319 1513  3.88531876 GAU 0.00323371 0.0 -1108.08010 0.0
M02 ? BHN e S ? 20230319 1513  4.47126913 GAU 0.00300407 0.0 -1272.80470 0.0
M11 ? BHZ i P c 20230319 1513  3.89184451 GAU 0.00160215 0.0 -240.80264 0.0
M11 ? BHE e S ? 20230319 1513  4.51839876 GAU 0.00267015 0.0 -123.14887 0.0
M09 ? BHZ e P c 20230319 1513  4.00057840 GAU 0.00166897 0.0 10.27478 0.0
M09 ? BHN e S ? 20230319 1513  4.71010637 GAU 0.00768135 0.0 493.43225 0.0

M06 ? BHZ i P d 20230319 1513 30.02733231 GAU 0.00134144 0.0 23.23860 0.0
M06 ? BHN e S ? 20230319 1513 30.59364891 GAU 0.00108256 0.0 -100.22778 0.0
M14 ? BHZ e P c 20230319 1513 30.14259911 GAU 0.00299290 0.0 -196.99573 0.0
M14 ? BHN e S ? 20230319 1513 30.76803207 GAU 0.00166866 0.0 328.45776 0.0
M11 ? BHZ e P c 20230319 1513 30.20068550 GAU 0.00121754 0.0 -414.13934 0.0
M11 ? BHN e S ? 20230319 1513 30.90735054 GAU 0.00614738 0.0 -121.82616 0.0
M09 ? BHZ e P c 20230319 1513 30.27533340 GAU 0.00461414 0.0 -117.19076 0.0
M09 ? BHE e S ? 20230319 1513 31.03191566 GAU 0.00278162 0.0 344.37445 0.0

M06 ? BHZ i P d 20230319 1514 15.40822315 GAU 0.00508939 0.0 -9.66177 0.0
M06 ? BHN e S ? 20230319 1514 16.00417709 GAU 0.00275038 0.0 -105.03665 0.0
M14 ? BHZ e P d 20230319 1514 15.42427158 GAU 0.00654831 0.0 367.11185 0.0
M14 ? BHN e S ? 20230319 1514 16.02827835 GAU 0.00267226 0.0 322.55508 0.0
M11 ? BHZ e P c 20230319 1514 15.46986580 GAU 0.00415271 0.0 -337.00000 0.0
M11 ? BHN e S ? 20230319 1514 16.15379143 GAU 0.00692103 0.0 -109.37163 0.0
M09 ? BHZ e P c 20230319 1514 15.73542881 GAU 0.00384496 0.0 -18.80859 0.0
M09 ? BHN e S ? 20230319 1514 16.58553314 GAU 0.00520167 0.0 474.00000 0.0

M06 ? BHZ i P d 20230319 1514 24.40448380 GAU 0.00209895 0.0 -78.99665 0.0
M06 ? BHE e S ? 20230319 1514 24.90726089 GAU 0.00467259 0.0 -127.84170 0.0
M14 ? BHZ e P d 20230319 1514 24.43706703 GAU 0.00256889 0.0 435.79385 0.0
M14 ? BHE e S ? 20230319 1514 24.93478203 GAU 0.00231849 0.0 382.94620 0.0
M11 ? BHZ e P d 20230319 1514 24.59832954 GAU 0.00467292 0.0 484.54300 0.0
M11 ? BHN e S ? 20230319 1514 25.24142838 GAU 0.00480630 0.0 -114.89691 0.0
M09 ? BHZ e P d 20230319 1514 24.61064148 GAU 0.00956799 0.0 180.00986 0.0
M09 ? BHN e S ? 20230319 1514 25.25750160 GAU 0.00312982 0.0 472.99826 0.0

M06 ? BHZ i P d 20230319 1517  1.56020677 GAU 0.00333794 0.0 -370.19550 0.0
M06 ? BHE e S ? 20230319 1517  2.03522015 GAU 0.00395447 0.0 -160.18602 0.0
M14 ? BHZ e P d 20230319 1517  1.68880296 GAU 0.00274516 0.0 1228.99650 0.0
M14 ? BHN e S ? 20230319 1517  2.19633794 GAU 0.00400599 0.0 316.29526 0.0
M11 ? BHZ e P d 20230319 1517  1.77603519 GAU 0.00333763 0.0 214.54561 0.0
M11 ? BHE e S ? 20230319 1517  2.33106875 GAU 0.00322534 0.0 -103.23099 0.0
M09 ? BHZ e P d 20230319 1517  1.81353295 GAU 0.00720922 0.0 223.21501 0.0
M09 ? BHE e S ? 20230319 1517  2.47679472 GAU 0.00372480 0.0 344.81580 0.0

M06 ? BHZ i P d 20230319 1517 16.09234047 GAU 0.00185432 0.0 -784.64470 0.0
M06 ? BHN i S ? 20230319 1517 16.65130806 GAU 0.00664441 0.0 -51.30590 0.0
M11 ? BHZ e P d 20230319 1517 16.18226433 GAU 0.00664409 0.0 383.32242 0.0
M11 ? BHE i S ? 20230319 1517 16.86447334 GAU 0.00793621 0.0 -121.11213 0.0
M04 ? BHZ e P d 20230319 1517 16.18360519 GAU 0.00247950 0.0 2860.79000 0.0
M04 ? BHN e S ? 20230319 1517 16.61446953 GAU 0.00717222 0.0 752.95560 0.0
M02 ? BHZ i P d 20230319 1517 16.18641281 GAU 0.00092334 0.0 134.70921 0.0
M02 ? BHE e S ? 20230319 1517 16.89817238 GAU 0.00278150 0.0 124.84935 0.0
M14 ? BHZ e P d 20230319 1517 16.21513176 GAU 0.00400544 0.0 2606.14010 0.0
M14 ? BHE i S ? 20230319 1517 16.70106697 GAU 0.00326381 0.0 461.34440 0.0
M09 ? BHZ i P d 20230319 1517 16.35339928 GAU 0.00620798 0.0 694.76010 0.0
M09 ? BHE i S ? 20230319 1517 17.06534386 GAU 0.00244735 0.0 309.20367 0.0
M13 ? BHZ i P c 20230319 1517 16.42641068 GAU 0.00154523 0.0 -825.23780 0.0
M13 ? BHN e S ? 20230319 1517 17.27427101 GAU 0.00240728 0.0 -105.91612 0.0
M10 ? BHZ e P d 20230319 1517 16.52504349 GAU 0.00428127 0.0 1158.18120 0.0
M10 ? BHN e S ? 20230319 1517 17.36564445 GAU 0.00459273 0.0 1210.50940 0.0
M08 ? BHZ i P d 20230319 1517 16.70121384 GAU 0.00560732 0.0 343.01007 0.0
M08 ? BHN e S ? 20230319 1517 17.72375298 GAU 0.00225351 0.0 253.68759 0.0
M05 ? BHZ i P d 20230319 1517 16.81077576 GAU 0.00586751 0.0 187.65285 0.0
M05 ? BHN e S ? 20230319 1517 17.89815712 GAU 0.00449180 0.0 307.79114 0.0
