M06 ? BHZ i P d 20230218 2235 11.44042969 GAU 0.00122495 0.0 -241.72987 0.0
M06 ? BHN e S ? 20230218 2235 11.98301315 GAU 0.00320420 0.0 -70.78009 0.0
M14 ? BHZ e P c 20230218 2235 11.45177269 GAU 0.00346647 0.0 -686.09010 0.0
M14 ? BHE e S ? 20230218 2235 12.00571728 GAU 0.00096582 0.0 375.61526 0.0
M11 ? BHZ i P c 20230218 2235 11.61332893 GAU 0.00160961 0.0 -534.26590 0.0
M11 ? BHN i S ? 20230218 2235 12.17017937 GAU 0.00276832 0.0 -96.22613 0.0
M09 ? BHZ i P c 20230218 2235 11.66075706 GAU 0.00166319 0.0 123.33907 0.0
M09 ? BHE e S ? 20230218 2235 12.43808079 GAU 0.00096566 0.0 342.36980 0.0
M05 ? BHZ i P c 20230218 2235 11.76738930 GAU 0.00333769 0.0 109.18967 0.0
M05 ? BHN e S ? 20230218 2235 12.50395393 GAU 0.00107307 0.0 263.20596 0.0
M13 ? BHZ i P c 20230218 2235 11.77311516 GAU 0.00278162 0.0 -234.43091 0.0
M13 ? BHE e S ? 20230218 2235 12.53379822 GAU 0.00185433 0.0 -191.88057 0.0
M08 ? BHZ i P d 20230218 2235 12.07258034 GAU 0.00139081 0.0 236.66768 0.0
M08 ? BHN e S ? 20230218 2235 13.00605679 GAU 0.00142492 0.0 312.37164 0.0

M06 ? BHZ i P d 20230218 2238 26.73440552 GAU 0.00072959 0.0 -251.11423 0.0
M06 ? BHN i S ? 20230218 2238 27.27019501 GAU 0.00339127 0.0 -97.96690 0.0
M11 ? BHZ i P c 20230218 2238 26.88323212 GAU 0.00560745 0.0 -292.82895 0.0
M11 ? BHE i S ? 20230218 2238 27.43297386 GAU 0.00292980 0.0 -118.04491 0.0
M09 ? BHZ i P c 20230218 2238 26.95232010 GAU 0.00133511 0.0 19.13704 0.0
M09 ? BHE i S ? 20230218 2238 27.72504234 GAU 0.00096129 0.0 346.32834 0.0
M13 ? BHZ i P c 20230218 2238 27.07356644 GAU 0.00160211 0.0 -178.64560 0.0
M13 ? BHN e S ? 20230218 2238 27.92916107 GAU 0.00200265 0.0 -129.48994 0.0
M08 ? BHZ e P d 20230218 2238 27.37644768 GAU 0.00230706 0.0 280.07355 0.0
M08 ? BHN e S ? 20230218 2238 28.30231476 GAU 0.00166882 0.0 310.51743 0.0

M06 ? BHZ i P d 20230218 2238 34.09167099 GAU 0.00077263 0.0 -142.76884 0.0
M06 ? BHN e S ? 20230218 2238 34.62887192 GAU 0.00145428 0.0 -77.01917 0.0
M14 ? BHZ i P c 20230218 2238 34.14913559 GAU 0.00222520 0.0 -776.57880 0.0
M14 ? BHN e S ? 20230218 2238 34.76314163 GAU 0.00105654 0.0 263.00000 0.0
M11 ? BHZ i P c 20230218 2238 34.27052689 GAU 0.00160965 0.0 -315.93643 0.0
M11 ? BHN e S ? 20230218 2238 34.88801575 GAU 0.00426472 0.0 -103.88907 0.0
M09 ? BHZ i P d 20230218 2238 34.36288071 GAU 0.00163552 0.0 254.97891 0.0
M09 ? BHN e S ? 20230218 2238 34.98653412 GAU 0.00057048 0.0 446.00000 0.0
M13 ? BHZ i P d 20230218 2238 34.48337936 GAU 0.00319414 0.0 86.64376 0.0
M13 ? BHN e S ? 20230218 2238 35.19628525 GAU 0.00107310 0.0 -131.82324 0.0
M08 ? BHZ i P d 20230218 2238 34.74470901 GAU 0.00111259 0.0 232.93480 0.0
M08 ? BHN e S ? 20230218 2238 35.74490738 GAU 0.00089783 0.0 282.05194 0.0

M06 ? BHZ i P d 20230218 2239  6.17949390 GAU 0.00115894 0.0 -261.63354 0.0
M06 ? BHN i S ? 20230218 2239  6.71858215 GAU 0.00267015 0.0 -99.00000 0.0
M14 ? BHZ e P c 20230218 2239  6.20676517 GAU 0.00313231 0.0 -1554.00000 0.0
M14 ? BHN e S ? 20230218 2239  6.71906328 GAU 0.00185427 0.0 327.68134 0.0
M11 ? BHZ i P c 20230218 2239  6.36026621 GAU 0.00107309 0.0 -433.82343 0.0
M11 ? BHN i S ? 20230218 2239  6.97152376 GAU 0.00240322 0.0 -99.46989 0.0
M09 ? BHZ i P c 20230218 2239  6.40018177 GAU 0.00296516 0.0 79.92834 0.0
M09 ? BHE e S ? 20230218 2239  7.16136074 GAU 0.00276832 0.0 379.58530 0.0
M13 ? BHZ i P c 20230218 2239  6.53176785 GAU 0.00185424 0.0 -286.76790 0.0
M13 ? BHN e S ? 20230218 2239  7.31353235 GAU 0.00278162 0.0 -119.15945 0.0
M08 ? BHZ i P d 20230218 2239  6.82800341 GAU 0.00155237 0.0 248.27020 0.0
M08 ? BHN e S ? 20230218 2239  7.75749826 GAU 0.00333794 0.0 327.47125 0.0
M05 ? BHZ i P c 20230218 2239  6.84956551 GAU 0.00480628 0.0 110.00000 0.0
M05 ? BHE e S ? 20230218 2239  7.92413807 GAU 0.00580040 0.0 -176.57523 0.0

M06 ? BHZ i P c 20230226 1514 58.38685226 GAU 0.00199322 0.0 -150.00508 0.0
M06 ? BHN e S ? 20230226 1514 58.86583328 GAU 0.00187788 0.0 -99.61021 0.0
M14 ? BHZ e P c 20230226 1514 58.41457748 GAU 0.00333764 0.0 -646.60340 0.0
M14 ? BHE e S ? 20230226 1514 58.88665009 GAU 0.00398645 0.0 423.33926 0.0
M11 ? BHZ e P d 20230226 1514 58.52737808 GAU 0.00280969 0.0 -12.00000 0.0
M11 ? BHN e S ? 20230226 1514 59.12481308 GAU 0.00107316 0.0 -112.00000 0.0
M09 ? BHZ e P d 20230226 1514 58.63582611 GAU 0.00578711 0.0 304.32370 0.0
M09 ? BHN e S ? 20230226 1514 59.28510284 GAU 0.00134139 0.0 473.53170 0.0

M06 ? BHZ i P d 20230227 2234 12.60230827 GAU 0.00201198 0.0 -81.92507 0.0
M06 ? BHN i S ? 20230227 2234 13.09804821 GAU 0.00398669 0.0 -91.21730 0.0
M14 ? BHZ i P c 20230227 2234 12.67086411 GAU 0.00127613 0.0 -776.52950 0.0
M14 ? BHE e S ? 20230227 2234 13.22826672 GAU 0.00193168 0.0 379.54547 0.0
M11 ? BHZ e P c 20230227 2234 12.83815193 GAU 0.00111256 0.0 -554.09235 0.0
M11 ? BHN i S ? 20230227 2234 13.49943542 GAU 0.00153162 0.0 -126.60303 0.0
M09 ? BHZ i P d 20230227 2234 12.92151546 GAU 0.00287474 0.0 370.59818 0.0
M09 ? BHN e S ? 20230227 2234 13.65407467 GAU 0.00288384 0.0 478.03700 0.0

M06 ? BHZ e P d 20230227 2234 18.65887833 GAU 0.00231728 0.0 -7.04596 0.0
M06 ? BHN i S ? 20230227 2234 19.14274788 GAU 0.00305804 0.0 -80.57441 0.0
M14 ? BHZ e P c 20230227 2234 18.76952744 GAU 0.00273610 0.0 -886.95154 0.0
M14 ? BHE e S ? 20230227 2234 19.33248138 GAU 0.00133533 0.0 380.37924 0.0
M11 ? BHZ e P c 20230227 2234 18.81143188 GAU 0.00503851 0.0 -184.32979 0.0
M11 ? BHN e S ? 20230227 2234 19.42177391 GAU 0.00230705 0.0 -117.51370 0.0
M09 ? BHZ i P c 20230227 2234 18.89780617 GAU 0.00267015 0.0 -53.48105 0.0
M09 ? BHE e S ? 20230227 2234 19.53694725 GAU 0.00239810 0.0 351.00000 0.0

M06 ? BHZ e P c 20230227 2234 40.03232193 GAU 0.00267022 0.0 -539.37480 0.0
M06 ? BHN e S ? 20230227 2234 40.56992340 GAU 0.00288376 0.0 -97.31873 0.0
M14 ? BHZ e P c 20230227 2234 40.10611725 GAU 0.00142017 0.0 -1244.12930 0.0
M14 ? BHN e S ? 20230227 2234 40.67395401 GAU 0.00150215 0.0 338.36325 0.0
M11 ? BHZ e P c 20230227 2234 40.26399231 GAU 0.00401690 0.0 -319.74698 0.0
M11 ? BHN e S ? 20230227 2234 40.93367386 GAU 0.00807515 0.0 -117.45315 0.0
M09 ? BHZ i P d 20230227 2234 40.39200211 GAU 0.00254850 0.0 253.93591 0.0
M09 ? BHN e S ? 20230227 2234 41.19554520 GAU 0.00097151 0.0 493.84080 0.0

M06 ? BHZ i P d 20230227 2234 42.90179443 GAU 0.00415294 0.0 -347.81897 0.0
M06 ? BHE i S ? 20230227 2234 43.42012787 GAU 0.00193168 0.0 -128.58655 0.0
M14 ? BHZ i P c 20230227 2234 42.98531342 GAU 0.00132888 0.0 -829.46080 0.0
M14 ? BHE i S ? 20230227 2234 43.53412247 GAU 0.00480630 0.0 431.95870 0.0
M11 ? BHZ i P d 20230227 2234 43.11309814 GAU 0.00335183 0.0 216.87228 0.0
M11 ? BHE i S ? 20230227 2234 43.76613235 GAU 0.00340188 0.0 -127.83128 0.0
M09 ? BHZ i P c 20230227 2234 43.16345215 GAU 0.01121257 0.0 218.71269 0.0
M09 ? BHN e S ? 20230227 2234 43.85160828 GAU 0.00579471 0.0 469.49643 0.0

