M02 ? BHZ i P c 20230928 0847 20.63533020 GAU 0.0023162602 0.0 -1340.7844 0.0
M03 ? BHZ i P c 20230928 0847 20.84286499 GAU 6.239292E-4 0.0 -5508.855 0.0
M01 ? BHZ i P c 20230928 0847 21.06505585 GAU 0.0014974142 0.0 -1934.2102 0.0
