ML06 ? BHZ i P d 20230914 1723 02.23322368 GAU 3.7433146E-4 0.0 -793.7255 0.0
ML06 ? BHE e S ? 20230914 1723 02.71552444 GAU 0.001676688 0.0 -69.171005 0.0
ML04 ? BHZ e P d 20230914 1723 02.29843569 GAU 0.0024838839 0.0 1986.5837 0.0
ML04 ? BHN e S ? 20230914 1723 02.79323697 GAU 8.0858794E-4 0.0 921.2598 0.0
ML02 ? BHZ i P d 20230914 1723 02.31387568 GAU 0.0016768059 0.0 565.91064 0.0
ML02 ? BHN e S ? 20230914 1723 02.86648560 GAU 0.0011679141 0.0 -944.7495 0.0
ML14 ? BHZ i P c 20230914 1723 02.36231017 GAU 6.4691587E-4 0.0 -530.1693 0.0
ML14 ? BHN e S ? 20230914 1723 02.82308102 GAU 7.7621004E-4 0.0 334.40823 0.0
ML11 ? BHZ i P c 20230914 1723 02.42254066 GAU 0.0018542433 0.0 57.659744 0.0
ML11 ? BHE i S ? 20230914 1723 03.00491929 GAU 0.0024144307 0.0 -62.57312 0.0
ML09 ? BHZ i P c 20230914 1723 02.51329160 GAU 0.0014543005 0.0 101.51167 0.0
ML09 ? BHN e S ? 20230914 1723 03.13774323 GAU 0.001503613 0.0 545.0 0.0
ML10 ? BHZ e P c 20230914 1723 02.57239175 GAU 0.0031300376 0.0 -575.80914 0.0
ML10 ? BHN e S ? 20230914 1723 03.22641206 GAU 0.0016768059 0.0 -31.463984 0.0
ML13 ? BHZ i P c 20230914 1723 02.63494325 GAU 0.002414418 0.0 -161.58409 0.0
ML13 ? BHN e S ? 20230914 1723 03.36794090 GAU 4.2231384E-4 0.0 -121.568924 0.0
ML05 ? BHZ i P c 20230914 1723 02.84127116 GAU 0.004635679 0.0 -14.152578 0.0
ML05 ? BHN e S ? 20230914 1723 03.78721929 GAU 3.7691457E-4 0.0 234.19925 0.0
ML07 ? BHZ i P d 20230914 1723 02.94513416 GAU 7.187164E-4 0.0 -477.99017 0.0
ML07 ? BHE e S ? 20230914 1723 03.97553134 GAU 0.0012215294 0.0 -92.011086 0.0
ML01 ? BHZ i P d 20230914 1723 03.01256990 GAU 3.032957E-4 0.0 330.55243 0.0
ML01 ? BHN e S ? 20230914 1723 04.07276154 GAU 0.0029062417 0.0 1631.9668 0.0
ML12 ? BHZ i P c 20230914 1723 03.07137942 GAU 0.0011643419 0.0 -902.1844 0.0
ML12 ? BHE e S ? 20230914 1723 04.20159721 GAU 8.085412E-4 0.0 87.35296 0.0

