M15 ? BHZ e P c 20201213 1457 48.20298767 GAU 0.0 0.0 -29.93799 0.0
M15 ? BHN e S d 20201213 1457 48.46274948 GAU 0.1 0.0 478.80054 0.0
M08 ? BHZ e P c 20201213 1457 48.60634613 GAU 0.0 0.0 119.37695 0.0
M08 ? BHN e S d 20201213 1457 49.08691406 GAU 0.1 0.0 390.81800 0.0
M06 ? BHZ e P c 20201213 1457 49.13101196 GAU 0.0 0.0 -356.80908 0.0
M06 ? BHN e S d 20201213 1457 49.90094376 GAU 0.1 0.0 787.69400 0.0
M11 ? BHZ e P c 20201213 1457 48.80483627 GAU 0.0 0.0 -409.03772 0.0
M11 ? BHN e S c 20201213 1457 49.55496979 GAU 0.1 0.0 -1117.18600 0.0
M09 ? BHZ e P c 20201213 1457 52.94099426 GAU 0.0 0.0 -47.11719 0.0

M15 ? BHZ e P c 20201215 1240 21.71492004 GAU 0.0 0.0 -675.51685 0.0
M15 ? BHN e S c 20201215 1240 22.78299522 GAU 0.1 0.0 -5118.34300 0.0
M06 ? BHZ e P c 20201215 1240 21.60672760 GAU 0.0 0.0 -834.61940 0.0
M06 ? BHE e S d 20201215 1240 22.40689850 GAU 0.1 0.0 420.09230 0.0
M11 ? BHZ e P c 20201215 1240 21.53484344 GAU 0.0 0.0 -781.19480 0.0
M11 ? BHE e S d 20201215 1240 22.34500313 GAU 0.1 0.0 -1911.59230 0.0
M09 ? BHZ e P c 20201215 1240 21.59865952 GAU 0.0 0.0 -53.19531 0.0
M09 ? BHE e S c 20201215 1240 22.40884590 GAU 0.1 0.0 -1857.27100 0.0
M02 ? BHZ e P c 20201215 1240 21.27097893 GAU 0.0 0.0 -4863.47850 0.0
M02 ? BHE e S d 20201215 1240 21.57899475 GAU 0.1 0.0 11617.26300 0.0

M06 ? BHZ e P c 20201218 2142 18.52297783 GAU 0.0 0.0 -202.70874 0.0
M06 ? BHE e S c 20201218 2142 19.29882431 GAU 0.0 0.0 -526.76270 0.0
M11 ? BHZ e P d 20201218 2142 18.38281250 GAU 0.0 0.0 -58.90210 0.0
M11 ? BHN e S d 20201218 2142 18.85692978 GAU 0.1 0.0 835.78723 0.0
M13 ? BHZ e P d 20201218 2142 18.14492416 GAU 0.0 0.0 40.86987 0.0
M13 ? BHE e S c 20201218 2142 18.46697235 GAU 0.0 0.0 -1647.67880 0.0
M15 ? BHZ e P c 20201218 2142 18.62850189 GAU 0.0 0.0 -375.21912 0.0
M15 ? BHN e S d 20201218 2142 19.55043411 GAU 0.0 0.0 394.04260 0.0

M05 ? BHZ e P c 20201222 1954 28.56097984 GAU 0.0 0.0 10.82202 0.0
M05 ? BHE e S d 20201222 1954 29.70100403 GAU 0.2 0.0 1425.44380 0.0
M13 ? BHZ e P c 20201222 1954 28.98300171 GAU 0.0 0.0 -367.44177 0.0
M13 ? BHN e S d 20201222 1954 30.23701096 GAU 0.1 0.0 799.82570 0.0
M06 ? BHZ e P d 20201222 1954 29.20898056 GAU 0.0 0.0 -193.27258 0.0
M06 ? BHE e S d 20201222 1954 30.42102051 GAU 0.1 0.0 181.48120 0.0
M11 ? BHZ e P d 20201222 1954 29.35448837 GAU 0.0 0.0 -41.58789 0.0
M11 ? BHE e S d 20201222 1954 30.67285538 GAU 0.1 0.0 643.58716 0.0
M09 ? BHZ e P d 20201222 1954 33.20094681 GAU 0.0 0.0 310.58545 0.0
M09 ? BHN e S c 20201222 1954 35.89690399 GAU 0.1 0.0 -273.13318 0.0

M13 ? BHZ e P c 20201223 1720 55.64450455 GAU 0.0 0.0 48.59546 0.0
M13 ? BHE e S d 20201223 1720 56.41099930 GAU 0.0 0.0 239.49463 0.0
M06 ? BHZ e P c 20201223 1720 55.22449493 GAU 0.0 0.0 -67.53674 0.0
M06 ? BHN e S d 20201223 1720 55.72100067 GAU 0.0 0.0 2770.99440 0.0
M11 ? BHZ e P c 20201223 1720 55.33494568 GAU 0.0 0.0 -239.10352 0.0
M11 ? BHN e S c 20201223 1720 55.94100189 GAU 0.1 0.0 -1313.47130 0.0
M14 ? BHZ e P c 20201223 1720 55.38098145 GAU 0.0 0.0 176.98145 0.0
M14 ? BHE e S c 20201223 1720 55.90846634 GAU 0.1 0.0 -4908.19700 0.0

M05 ? BHZ e P c 20201224 1057 40.72698212 GAU 0.0 0.0 532.66260 0.0
M05 ? BHE e S c 20201224 1057 41.81102753 GAU 0.1 0.0 -4274.78200 0.0
M13 ? BHZ e P c 20201224 1057 40.48302078 GAU 0.0 0.0 389.00928 0.0
M13 ? BHE e S c 20201224 1057 41.35699844 GAU 0.1 0.0 -18284.41800 0.0
M06 ? BHZ e P c 20201224 1057 40.12500000 GAU 0.0 0.0 -1495.78590 0.0
M06 ? BHN e S c 20201224 1057 40.64698792 GAU 0.1 0.0 -12782.27200 0.0
M11 ? BHZ e P c 20201224 1057 40.27900314 GAU 0.0 0.0 35.35889 0.0
M11 ? BHN e S c 20201224 1057 40.92493057 GAU 0.1 0.0 -11785.98100 0.0
M14 ? BHZ e P c 20201224 1057 40.24497604 GAU 0.0 0.0 -256.06763 0.0
M14 ? BHE e S d 20201224 1057 40.78299713 GAU 0.1 0.0 21121.83800 0.0
M08 ? BHZ e P c 20201224 1057 40.61698151 GAU 0.0 0.0 -995.30396 0.0
M08 ? BHE e S c 20201224 1057 41.62497330 GAU 0.1 0.0 -954.17800 0.0

M05 ? BHZ e P c 20201226 1624 32.55685425 GAU 0.0 0.0 269.83008 0.0
M05 ? BHN e S d 20201226 1624 32.96093750 GAU 0.0 0.0 430.03333 0.0
M06 ? BHZ e P c 20201226 1624 32.57872391 GAU 0.0 0.0 -665.95154 0.0
M06 ? BHE e S d 20201226 1624 32.99898148 GAU 0.1 0.0 297.25293 0.0
M11 ? BHZ e P c 20201226 1624 32.76086426 GAU 0.0 0.0 30.18701 0.0
M11 ? BHN e S c 20201226 1624 33.40093231 GAU 0.1 0.0 -901.12060 0.0
M09 ? BHZ e P c 20201226 1624 32.74299622 GAU 0.0 0.0 48.46887 0.0
M09 ? BHE e S c 20201226 1624 33.41299820 GAU 0.1 0.0 -249.51343 0.0
M14 ? BHZ e P c 20201226 1624 32.60100174 GAU 0.0 0.0 -110.92481 0.0
M14 ? BHE e S c 20201226 1624 33.04691696 GAU 0.1 0.0 -1564.81840 0.0
M08 ? BHZ e P c 20201226 1624 32.88247299 GAU 0.0 0.0 -58.96924 0.0
M08 ? BHE e S c 20201226 1624 33.67845154 GAU 0.1 0.0 -396.66882 0.0

M12 ? BHZ e P c 20201226 1624 44.06897354 GAU 0.0 0.0 -124.72412 0.0
M12 ? BHN e S c 20201226 1624 44.61497498 GAU 0.0 0.0 -729.82886 0.0
M05 ? BHZ e P c 20201226 1624 43.62299728 GAU 0.0 0.0 -165.50928 0.0
M05 ? BHE e S c 20201226 1624 44.06060410 GAU 0.1 0.0 -1506.88770 0.0
M06 ? BHZ e P c 20201226 1624 43.67492294 GAU 0.0 0.0 -264.16406 0.0
M06 ? BHN e S d 20201226 1624 44.10094452 GAU 0.1 0.0 -239.92578 0.0
M11 ? BHZ e P c 20201226 1624 43.79891205 GAU 0.0 0.0 -168.89770 0.0
M11 ? BHN e S d 20201226 1624 44.24496460 GAU 0.1 0.0 697.32300 0.0
M09 ? BHZ e P d 20201226 1624 44.10095596 GAU 0.0 0.0 -29.11401 0.0
M09 ? BHE e S d 20201226 1624 44.50299835 GAU 0.1 0.0 861.49790 0.0
M08 ? BHZ e P c 20201226 1624 44.03649902 GAU 0.0 0.0 102.21118 0.0
M08 ? BHE e S c 20201226 1624 44.52445221 GAU 0.1 0.0 -670.48440 0.0
M07 ? BHZ e P c 20201226 1624 46.85696411 GAU 0.0 0.0 -550.95776 0.0
M07 ? BHN e S c 20201226 1624 47.62678909 GAU 0.1 0.0 -1053.70970 0.0

M05 ? BHZ e P d 20201227 0012 56.73099899 GAU 0.0 0.0 249.51208 0.0
M05 ? BHN e S d 20201227 0012 58.02839279 GAU 0.1 0.0 1651.68870 0.0
M11 ? BHZ e P d 20201227 0012 56.84296036 GAU 0.0 0.0 -117.25732 0.0
M11 ? BHE e S c 20201227 0012 58.31298447 GAU 0.1 0.0 -2594.17330 0.0
M09 ? BHZ e P c 20201227 0012 57.06299973 GAU 0.0 0.0 -482.46887 0.0
M09 ? BHN e S c 20201227 0012 58.82300186 GAU 0.1 0.0 -2598.38430 0.0
M08 ? BHZ e P c 20201227 0012 56.99224854 GAU 0.0 0.0 -7.51599 0.0
M08 ? BHE e S d 20201227 0012 58.70424652 GAU 0.0 0.0 1191.06040 0.0
M15 ? BHZ e P c 20201227 0012 56.95490646 GAU 0.0 0.0 -421.01245 0.0
M15 ? BHN e S c 20201227 0012 58.56695938 GAU 0.1 0.0 -348.06128 0.0

M12 ? BHZ e P c 20201228 1415 27.85096550 GAU 0.0 0.0 -223.41895 0.0
M12 ? BHN e S c 20201228 1415 28.50296783 GAU 0.1 0.0 -5529.81250 0.0
M06 ? BHZ e P c 20201228 1415 27.74291801 GAU 0.0 0.0 88.46851 0.0
M06 ? BHN e S c 20201228 1415 28.20843506 GAU 0.2 0.0 -2706.31150 0.0
M11 ? BHZ e P d 20201228 1415 27.74098969 GAU 0.0 0.0 138.08789 0.0
M11 ? BHE e S c 20201228 1415 28.27627945 GAU 0.1 0.0 -2002.27880 0.0
M01 ? BHZ e P c 20201228 1415 27.81044006 GAU 0.0 0.0 0.60327 0.0
M01 ? BHN e S d 20201228 1415 28.41092873 GAU 0.1 0.0 693.14810 0.0
M03 ? BHZ e P d 20201228 1415 27.95698357 GAU 0.0 0.0 -679.30444 0.0
M03 ? BHN e S d 20201228 1415 28.79289055 GAU 0.2 0.0 7812.74850 0.0

M13 ? BHZ e P c 20201230 0445 37.85219574 GAU 0.0 0.0 -26.80054 0.0
M13 ? BHN e S d 20201230 0445 38.48091888 GAU 0.0 0.0 2610.24760 0.0
M06 ? BHZ e P c 20201230 0445 37.40700531 GAU 0.0 0.0 -85.46704 0.0
M06 ? BHE e S c 20201230 0445 37.98495483 GAU 0.0 0.0 -9785.99100 0.0
M11 ? BHZ e P c 20201230 0445 37.53051758 GAU 0.0 0.0 -144.63098 0.0
M11 ? BHN e S c 20201230 0445 38.20897293 GAU 0.1 0.0 652.44727 0.0
M09 ? BHZ e P c 20201230 0445 41.70298386 GAU 0.0 0.0 673.67530 0.0
M14 ? BHZ e P c 20201230 0445 37.54295731 GAU 0.0 0.0 -167.30078 0.0
M14 ? BHN e S d 20201230 0445 38.05098343 GAU 0.1 0.0 26838.85500 0.0
M07 ? BHZ e P c 20201230 0445 41.18098831 GAU 0.0 0.0 -479.14355 0.0
M07 ? BHE e S d 20201230 0445 42.27297974 GAU 0.1 0.0 4052.11330 0.0

M05 ? BHZ e P d 20201230 1415 27.27088928 GAU 0.0 0.0 -203.43799 0.0
M05 ? BHN e S d 20201230 1415 28.37276268 GAU 0.1 0.0 10152.97500 0.0
M13 ? BHZ e P c 20201230 1415 26.20281601 GAU 0.0 0.0 -366.62695 0.0
M13 ? BHE e S d 20201230 1415 27.76509285 GAU 0.1 0.0 7546.93750 0.0
M06 ? BHZ i P c 20201230 1415 25.87503052 GAU 0.0 0.0 1005.35500 0.0
M06 ? BHN e S c 20201230 1415 27.16480827 GAU 0.0 0.0 -5904.11230 0.0
M11 ? BHZ i P c 20201230 1415 25.95641518 GAU 0.0 0.0 -36.53809 0.0
M11 ? BHN e S c 20201230 1415 27.38293839 GAU 0.1 0.0 -8572.74300 0.0
M14 ? BHZ e P c 20201230 1415 25.95117188 GAU 0.0 0.0 -257.91100 0.0
M14 ? BHE e S d 20201230 1415 27.24484634 GAU 0.1 0.0 24328.34400 0.0
M08 ? BHZ e P c 20201230 1415 27.08233643 GAU 0.0 0.0 398.35900 0.0
M08 ? BHE e S d 20201230 1415 28.12903214 GAU 0.1 0.0 6067.25300 0.0
M01 ? BHZ i P d 20201230 1415 27.27513885 GAU 0.0 0.0 -224.87500 0.0
M01 ? BHN e S d 20201230 1415 28.49288177 GAU 0.1 0.0 6272.05200 0.0
M03 ? BHZ e P c 20201230 1415 26.85896492 GAU 0.0 0.0 396.99512 0.0
M03 ? BHN e S c 20201230 1415 27.85688591 GAU 0.0 0.0 -1563.43440 0.0

M06 ? BHZ e P c 20201230 1418  9.36434269 GAU 0.0 0.0 -1924.98960 0.0
M06 ? BHN e S c 20201230 1418  9.91681385 GAU 0.0 0.0 -22178.14600 0.0
M14 ? BHZ e P c 20201230 1418  9.47698879 GAU 0.0 0.0 1375.19850 0.0
M14 ? BHE e S d 20201230 1418 10.01499176 GAU 0.0 0.0 41833.95000 0.0
M11 ? BHZ e P c 20201230 1418  9.48075199 GAU 0.0 0.0 1072.23020 0.0
M11 ? BHN e S c 20201230 1418 10.11096668 GAU 0.1 0.0 -46569.61700 0.0
M13 ? BHZ e P c 20201230 1418  9.64690685 GAU 0.0 0.0 -766.97656 0.0
M13 ? BHE e S d 20201230 1418 10.48097134 GAU 0.1 0.0 8571.50700 0.0
M03 ? BHZ e P d 20201230 1418  9.67291927 GAU 0.0 0.0 -2626.92020 0.0
M03 ? BHN e S d 20201230 1418 10.45695782 GAU 0.1 0.0 21636.22700 0.0
M08 ? BHZ e P d 20201230 1418  9.82297611 GAU 0.0 0.0 -1779.74650 0.0
M08 ? BHN e S c 20201230 1418 10.84291363 GAU 0.1 0.0 -31069.64800 0.0
M15 ? BHZ e P c 20201230 1418  9.88840103 GAU 0.0 0.0 -537.35034 0.0
M15 ? BHE e S d 20201230 1418 11.12294102 GAU 0.1 0.0 10769.56400 0.0
M05 ? BHZ e P d 20201230 1418  9.97090340 GAU 0.0 0.0 727.09375 0.0
M05 ? BHN e S c 20201230 1418 11.02493286 GAU 0.1 0.0 -14947.37900 0.0
M01 ? BHZ e P c 20201230 1418 10.02817249 GAU 0.0 0.0 75.18774 0.0
M01 ? BHN e S c 20201230 1418 11.30698109 GAU 0.0 0.0 -16945.56200 0.0
M12 ? BHZ e P d 20201230 1418 10.10091400 GAU 0.0 0.0 -217.44922 0.0
M12 ? BHE e S c 20201230 1418 11.53873444 GAU 0.1 0.0 -44061.16000 0.0

M06 ? BHZ e P d 20201230 1503 33.08682251 GAU 0.0 0.0 -455.17798 0.0
M06 ? BHN e S d 20201230 1503 34.72900009 GAU 0.1 0.0 1965.96780 0.0
M11 ? BHZ e P c 20201230 1503 32.90032959 GAU 0.0 0.0 -233.19043 0.0
M11 ? BHE e S c 20201230 1503 34.47884750 GAU 0.1 0.0 -1191.58150 0.0
M13 ? BHZ e P c 20201230 1503 32.76891327 GAU 0.0 0.0 -59.48364 0.0
M13 ? BHE e S c 20201230 1503 34.17290115 GAU 0.1 0.0 -3390.36670 0.0
M15 ? BHZ e P c 20201230 1503 32.50098038 GAU 0.0 0.0 -266.33594 0.0
M15 ? BHN e S d 20201230 1503 33.74089050 GAU 0.1 0.0 -197.50903 0.0
M05 ? BHZ e P d 20201230 1503 32.57248306 GAU 0.0 0.0 235.69995 0.0
M05 ? BHN e S c 20201230 1503 33.94096756 GAU 0.1 0.0 -462.99573 0.0
M01 ? BHZ e P d 20201230 1503 32.76025391 GAU 0.0 0.0 -341.44226 0.0
M01 ? BHN e S c 20201230 1503 34.32290649 GAU 0.0 0.0 -1010.14185 0.0

M06 ? BHZ i P c 20210101 0714 49.13098145 GAU 0.0 0.0 437.64587 0.0
M06 ? BHN e S d 20210101 0714 49.69294739 GAU 0.0 0.0 9701.63200 0.0
M11 ? BHZ i P c 20210101 0714 49.21896362 GAU 0.0 0.0 -227.70142 0.0
M11 ? BHN e S c 20210101 0714 49.91098785 GAU 0.1 0.0 -4232.01760 0.0
M14 ? BHZ i P c 20210101 0714 49.23698807 GAU 0.0 0.0 69.29944 0.0
M14 ? BHE e S d 20210101 0714 49.78096771 GAU 0.0 0.0 5696.60500 0.0
M13 ? BHZ e P c 20210101 0714 49.51422119 GAU 0.0 0.0 834.43994 0.0
M13 ? BHN e S d 20210101 0714 50.32643509 GAU 0.1 0.0 2118.17850 0.0
M05 ? BHZ e P c 20210101 0714 49.66498184 GAU 0.0 0.0 210.41101 0.0
M05 ? BHN e S c 20210101 0714 50.78897858 GAU 0.1 0.0 -1207.39980 0.0

M14 ? BHZ e P c 20210102 1252  4.63774586 GAU 0.0 0.0 306.85632 0.0
M14 ? BHN e S c 20210102 1252  5.19899702 GAU 0.1 0.0 -23046.84800 0.0
M06 ? BHZ i P d 20210102 1252  4.51099253 GAU 0.0 0.0 -110.37183 0.0
M06 ? BHN e S c 20210102 1252  5.07696915 GAU 0.0 0.0 10469.57500 0.0
M11 ? BHZ e P c 20210102 1252  4.68299484 GAU 0.0 0.0 -87.12817 0.0
M11 ? BHN e S c 20210102 1252  5.41494370 GAU 0.1 0.0 -7767.60550 0.0
M13 ? BHZ e P d 20210102 1252  4.88697910 GAU 0.0 0.0 -159.52270 0.0
M13 ? BHN e S d 20210102 1252  5.87697268 GAU 0.0 0.0 1946.49800 0.0
M15 ? BHZ e P c 20210102 1252  5.30898809 GAU 0.0 0.0 326.09570 0.0
M15 ? BHN e S c 20210102 1252  6.44098473 GAU 0.1 0.0 -2002.84610 0.0
M12 ? BHZ e P c 20210102 1252  5.42031384 GAU 0.0 0.0 298.30884 0.0
M12 ? BHE e S c 20210102 1252  6.65498447 GAU 0.1 0.0 -2194.99220 0.0

M14 ? BHZ i P c 20210105 1546 18.61503983 GAU 0.0 0.0 483.33740 0.0
M14 ? BHE e S d 20210105 1546 19.16095352 GAU 0.1 0.0 16338.52000 0.0
M06 ? BHZ i P c 20210105 1546 18.50300217 GAU 0.0 0.0 323.27100 0.0
M06 ? BHN e S c 20210105 1546 19.02294540 GAU 0.1 0.0 -18780.20000 0.0
M11 ? BHZ i P c 20210105 1546 18.65097046 GAU 0.0 0.0 -36.92603 0.0
M11 ? BHE e S d 20210105 1546 19.28699875 GAU 0.1 0.0 17705.55900 0.0
M13 ? BHZ e P c 20210105 1546 18.87052155 GAU 0.0 0.0 -39.05469 0.0
M13 ? BHE e S d 20210105 1546 19.67097855 GAU 0.1 0.0 13299.03800 0.0
M15 ? BHZ e P c 20210105 1546 19.13898277 GAU 0.0 0.0 -205.17627 0.0
M15 ? BHN e S c 20210105 1546 20.37697792 GAU 0.1 0.0 -5976.43400 0.0
M12 ? BHZ i P d 20210105 1546 19.28698730 GAU 0.0 0.0 -43.24475 0.0
M12 ? BHE e S c 20210105 1546 20.88697815 GAU 0.1 0.0 -18367.65400 0.0
M05 ? BHZ e P c 20210105 1546 19.04302597 GAU 0.0 0.0 192.72205 0.0
M05 ? BHN e S c 20210105 1546 20.15488625 GAU 0.1 0.0 -6586.12100 0.0
M03 ? BHZ e P c 20210105 1546 18.82899475 GAU 0.0 0.0 -1271.29740 0.0
M03 ? BHN e S c 20210105 1546 19.72297478 GAU 0.0 0.0 -13117.89600 0.0
M08 ? BHZ e P c 20210105 1546 18.96899223 GAU 0.0 0.0 182.31885 0.0
M08 ? BHE e S c 20210105 1546 20.22698593 GAU 0.0 0.0 2709.47800 0.0
M01 ? BHZ i P c 20210105 1546 19.21698570 GAU 0.0 0.0 -3.22339 0.0
M01 ? BHE e S c 20210105 1546 20.88899612 GAU 0.1 0.0 -10619.70700 0.0

M14 ? BHZ i P c 20210105 1608 45.83900452 GAU 0.0 0.0 536.55640 0.0
M14 ? BHN e S c 20210105 1608 46.28298569 GAU 0.1 0.0 -7908.51560 0.0
M06 ? BHZ i P c 20210105 1608 45.71899796 GAU 0.0 0.0 -105.02271 0.0
M06 ? BHN e S c 20210105 1608 46.21897125 GAU 0.1 0.0 -2626.83370 0.0
M11 ? BHZ i P c 20210105 1608 45.83292389 GAU 0.0 0.0 -229.53821 0.0
M11 ? BHN e S c 20210105 1608 46.47898865 GAU 0.1 0.0 -5534.20560 0.0
M13 ? BHZ e P c 20210105 1608 46.09224701 GAU 0.0 0.0 -179.12695 0.0
M13 ? BHE e S d 20210105 1608 46.84498596 GAU 0.1 0.0 908.39355 0.0
M15 ? BHZ e P c 20210105 1608 46.35698318 GAU 0.0 0.0 -139.22217 0.0
M15 ? BHN e S c 20210105 1608 47.42500687 GAU 0.1 0.0 -1792.81840 0.0
M12 ? BHZ e P c 20210105 1608 46.57701111 GAU 0.0 0.0 -414.85060 0.0
M12 ? BHE e S c 20210105 1608 48.12700272 GAU 0.1 0.0 -2950.42480 0.0
M05 ? BHZ e P c 20210105 1608 46.26699448 GAU 0.0 0.0 194.46106 0.0
M05 ? BHN e S c 20210105 1608 47.41250229 GAU 0.1 0.0 -993.70300 0.0
M08 ? BHZ e P c 20210105 1608 46.20033646 GAU 0.0 0.0 14.83594 0.0
M08 ? BHN e S c 20210105 1608 47.45899200 GAU 0.1 0.0 -3668.16600 0.0

M14 ? BHZ i P c 20210105 1608 58.44299316 GAU 0.0 0.0 745.49220 0.0
M14 ? BHN e S d 20210105 1608 58.92249298 GAU 0.1 0.0 8579.18700 0.0
M06 ? BHZ i P c 20210105 1608 58.30698013 GAU 0.0 0.0 -57.12598 0.0
M06 ? BHN e S c 20210105 1608 58.81699753 GAU 0.1 0.0 -2042.55810 0.0
M11 ? BHZ e P d 20210105 1608 58.43212128 GAU 0.0 0.0 -43.85425 0.0
M11 ? BHN e S c 20210105 1608 59.07496262 GAU 0.1 0.0 -2891.22560 0.0
M13 ? BHZ e P c 20210105 1608 58.68248749 GAU 0.0 0.0 -354.42676 0.0
M13 ? BHE e S d 20210105 1608 59.45898438 GAU 0.1 0.0 951.36330 0.0
M05 ? BHZ e P d 20210105 1608 58.99032974 GAU 0.0 0.0 89.02393 0.0
M05 ? BHN e S c 20210105 1609  0.00299878 GAU 0.1 0.0 -598.50550 0.0

M14 ? BHZ i P c 20210105 1610 58.96894836 GAU 0.0 0.0 622.93360 0.0
M14 ? BHN e S d 20210105 1610 59.44300079 GAU 0.1 0.0 16814.86000 0.0
M06 ? BHZ i P c 20210105 1610 58.83898163 GAU 0.0 0.0 -6.64746 0.0
M06 ? BHE e S d 20210105 1610 59.35849762 GAU 0.0 0.0 3289.00590 0.0
M11 ? BHZ e P c 20210105 1610 58.95298767 GAU 0.0 0.0 -606.02734 0.0
M11 ? BHN e S c 20210105 1610 59.58499908 GAU 0.1 0.0 -3827.49460 0.0
M13 ? BHZ e P c 20210105 1610 59.22249222 GAU 0.0 0.0 -152.90332 0.0
M13 ? BHE e S c 20210105 1610 59.94099808 GAU 0.0 0.0 -783.01465 0.0
M12 ? BHZ e P c 20210105 1610 59.71100235 GAU 0.0 0.0 -290.99658 0.0
M12 ? BHE e S d 20210105 1611  0.95497781 GAU 0.2 0.0 683.59973 0.0
M05 ? BHZ e P d 20210105 1610 59.47897720 GAU 0.0 0.0 214.13037 0.0
M05 ? BHN e S c 20210105 1611  0.55899513 GAU 0.1 0.0 -1230.11230 0.0
M08 ? BHZ e P c 20210105 1610 59.36232758 GAU 0.0 0.0 -192.45837 0.0
M08 ? BHN e S c 20210105 1611  0.35499561 GAU 0.1 0.0 -3754.22400 0.0

M14 ? BHZ e P c 20210105 1620 48.23499298 GAU 0.0 0.0 791.05910 0.0
M14 ? BHN e S d 20210105 1620 48.72499466 GAU 0.1 0.0 13436.01100 0.0
M06 ? BHZ i P c 20210105 1620 48.12698746 GAU 0.0 0.0 208.03699 0.0
M06 ? BHN e S c 20210105 1620 48.65044022 GAU 0.0 0.0 -2638.47660 0.0
M11 ? BHZ i P c 20210105 1620 48.22472000 GAU 0.0 0.0 -189.88440 0.0
M11 ? BHN e S c 20210105 1620 48.86098099 GAU 0.1 0.0 -6443.59960 0.0
M13 ? BHZ e P c 20210105 1620 48.48647308 GAU 0.0 0.0 441.20898 0.0
M13 ? BHE e S d 20210105 1620 49.23897934 GAU 0.1 0.0 3449.99150 0.0
M15 ? BHZ e P c 20210105 1620 48.77301788 GAU 0.0 0.0 -324.48730 0.0
M15 ? BHE e S c 20210105 1620 49.82452011 GAU 0.1 0.0 -2637.36230 0.0
M12 ? BHZ e P c 20210105 1620 48.97649384 GAU 0.0 0.0 -357.34973 0.0
M12 ? BHN e S c 20210105 1620 50.37292862 GAU 0.1 0.0 -6931.39300 0.0
M05 ? BHZ i P d 20210105 1620 48.73899841 GAU 0.0 0.0 228.50305 0.0
M05 ? BHN e S c 20210105 1620 49.82296371 GAU 0.1 0.0 -1611.63920 0.0

M14 ? BHZ i P c 20210105 1621  2.24900103 GAU 0.0 0.0 81.06641 0.0
M14 ? BHN e S d 20210105 1621  2.73100758 GAU 0.1 0.0 32095.31800 0.0
M06 ? BHZ i P c 20210105 1621  2.12648916 GAU 0.0 0.0 116.68604 0.0
M06 ? BHN e S c 20210105 1621  2.64649415 GAU 0.0 0.0 3047.00680 0.0
M11 ? BHZ i P c 20210105 1621  2.22699237 GAU 0.0 0.0 -220.57947 0.0
M11 ? BHN e S c 20210105 1621  2.85900927 GAU 0.1 0.0 -4000.96460 0.0
M13 ? BHZ e P c 20210105 1621  2.47449327 GAU 0.0 0.0 -312.71143 0.0
M13 ? BHE e S d 20210105 1621  3.24650431 GAU 0.1 0.0 5521.61040 0.0
M12 ? BHZ e P c 20210105 1621  2.99097824 GAU 0.0 0.0 -264.41284 0.0
M12 ? BHE e S c 20210105 1621  4.34501028 GAU 0.2 0.0 -11508.14200 0.0
M05 ? BHZ e P c 20210105 1621  2.72498155 GAU 0.0 0.0 199.39795 0.0
M05 ? BHN e S d 20210105 1621  4.02098703 GAU 0.1 0.0 2000.69310 0.0
M08 ? BHZ e P d 20210105 1621  2.56899881 GAU 0.0 0.0 143.00732 0.0
M08 ? BHE e S d 20210105 1621  3.61891317 GAU 0.1 0.0 3184.66850 0.0
M01 ? BHZ e P c 20210105 1621  2.81650138 GAU 0.0 0.0 -637.90040 0.0
M01 ? BHN e S c 20210105 1621  4.07292747 GAU 0.1 0.0 -5273.92200 0.0

M14 ? BHZ i P c 20210105 1621 15.71496105 GAU 0.0 0.0 -398.17798 0.0
M14 ? BHN e S d 20210105 1621 16.21100235 GAU 0.1 0.0 38692.28000 0.0
M06 ? BHZ i P c 20210105 1621 15.60700703 GAU 0.0 0.0 -79.38318 0.0
M06 ? BHN e S c 20210105 1621 16.09897423 GAU 0.0 0.0 -4861.86130 0.0
M11 ? BHZ i P c 20210105 1621 15.73100281 GAU 0.0 0.0 -44.90723 0.0
M11 ? BHN e S c 20210105 1621 16.35898781 GAU 0.1 0.0 -7414.76860 0.0
M13 ? BHZ e P c 20210105 1621 15.96300793 GAU 0.0 0.0 -102.12891 0.0
M13 ? BHE e S d 20210105 1621 16.74249268 GAU 0.1 0.0 6318.37100 0.0
M15 ? BHZ e P c 20210105 1621 16.22908592 GAU 0.0 0.0 56.78381 0.0
M15 ? BHE e S c 20210105 1621 17.33897018 GAU 0.1 0.0 -2112.19140 0.0
M12 ? BHZ i P c 20210105 1621 16.49505424 GAU 0.0 0.0 -170.42969 0.0
M12 ? BHE e S d 20210105 1621 18.14299583 GAU 0.1 0.0 6039.84670 0.0
M05 ? BHZ e P d 20210105 1621 16.23301125 GAU 0.0 0.0 187.92651 0.0
M05 ? BHE e S c 20210105 1621 17.31700134 GAU 0.1 0.0 -3563.32670 0.0
M03 ? BHZ e P c 20210105 1621 15.98849297 GAU 0.0 0.0 -1904.78920 0.0
