M15 ? BHZ e P c 20201213 1457 48.20298767 GAU 0.00194763 0.0 -29.93799 0.0
M15 ? BHN e S d 20201213 1457 48.46274948 GAU 0.05646417 0.0 478.80054 0.0
M08 ? BHZ e P c 20201213 1457 48.60634613 GAU 0.00062620 0.0 119.37695 0.0
M08 ? BHN e S d 20201213 1457 49.08691406 GAU 0.06333044 0.0 390.81800 0.0
M06 ? BHZ e P c 20201213 1457 49.13101196 GAU 0.00726621 0.0 -356.80908 0.0
M06 ? BHN e S d 20201213 1457 49.90094376 GAU 0.11050635 0.0 787.69400 0.0
M11 ? BHZ e P c 20201213 1457 48.80483627 GAU 0.00336409 0.0 -409.03772 0.0
M11 ? BHN e S c 20201213 1457 49.55496979 GAU 0.10841878 0.0 -1117.18600 0.0

M13 ? BHZ e P c 20201223 1720 55.64450455 GAU 0.00099931 0.0 48.59546 0.0
M13 ? BHE e S d 20201223 1720 56.41099930 GAU 0.03566822 0.0 239.49463 0.0
M06 ? BHZ e P c 20201223 1720 55.22449493 GAU 0.00085334 0.0 -67.53674 0.0
M06 ? BHN e S d 20201223 1720 55.72100067 GAU 0.02207975 0.0 2770.99440 0.0
M11 ? BHZ e P c 20201223 1720 55.33494568 GAU 0.00464492 0.0 -239.10352 0.0
M11 ? BHN e S c 20201223 1720 55.94100189 GAU 0.08416420 0.0 -1313.47130 0.0
M14 ? BHZ e P c 20201223 1720 55.38098145 GAU 0.00359617 0.0 176.98145 0.0
M14 ? BHE e S c 20201223 1720 55.90846634 GAU 0.06269650 0.0 -4908.19700 0.0

M05 ? BHZ e P c 20201224 1057 40.72698212 GAU 0.00323953 0.0 532.66260 0.0
M05 ? BHE e S c 20201224 1057 41.81102753 GAU 0.12083435 0.0 -4274.78200 0.0
M13 ? BHZ e P c 20201224 1057 40.48302078 GAU 0.01537275 0.0 389.00928 0.0
M13 ? BHE e S c 20201224 1057 41.35699844 GAU 0.06309020 0.0 -18284.41800 0.0
M06 ? BHZ e P c 20201224 1057 40.12500000 GAU 0.00212122 0.0 -1495.78590 0.0
M06 ? BHN e S c 20201224 1057 40.64698792 GAU 0.05723295 0.0 -12782.27200 0.0
M11 ? BHZ e P c 20201224 1057 40.27900314 GAU 0.00330261 0.0 35.35889 0.0
M11 ? BHN e S c 20201224 1057 40.92493057 GAU 0.10680798 0.0 -11785.98100 0.0
M14 ? BHZ e P c 20201224 1057 40.24497604 GAU 0.00198035 0.0 -256.06763 0.0
M14 ? BHE e S d 20201224 1057 40.78299713 GAU 0.07090676 0.0 21121.83800 0.0
M08 ? BHZ e P c 20201224 1057 40.61698151 GAU 0.00503811 0.0 -995.30396 0.0
M08 ? BHE e S c 20201224 1057 41.62497330 GAU 0.07590755 0.0 -954.17800 0.0

M05 ? BHZ e P c 20201226 1624 32.55685425 GAU 0.00578909 0.0 269.83008 0.0
M05 ? BHN e S d 20201226 1624 32.96093750 GAU 0.04738064 0.0 430.03333 0.0
M06 ? BHZ e P c 20201226 1624 32.57872391 GAU 0.00832205 0.0 -665.95154 0.0
M06 ? BHE e S d 20201226 1624 32.99898148 GAU 0.08444367 0.0 297.25293 0.0
M11 ? BHZ e P c 20201226 1624 32.76086426 GAU 0.00596098 0.0 30.18701 0.0
M11 ? BHN e S c 20201226 1624 33.40093231 GAU 0.09903989 0.0 -901.12060 0.0
M09 ? BHZ e P c 20201226 1624 32.74299622 GAU 0.00356638 0.0 48.46887 0.0
M09 ? BHE e S c 20201226 1624 33.41299820 GAU 0.11800145 0.0 -249.51343 0.0
M14 ? BHZ e P c 20201226 1624 32.60100174 GAU 0.00319398 0.0 -110.92481 0.0
M14 ? BHE e S c 20201226 1624 33.04691696 GAU 0.06366058 0.0 -1564.81840 0.0
M08 ? BHZ e P c 20201226 1624 32.88247299 GAU 0.00094395 0.0 -58.96924 0.0
M08 ? BHE e S c 20201226 1624 33.67845154 GAU 0.05707723 0.0 -396.66882 0.0

M12 ? BHZ e P c 20201228 1415 27.85096550 GAU 0.00201663 0.0 -223.41895 0.0
M12 ? BHN e S c 20201228 1415 28.50296783 GAU 0.14088054 0.0 -5529.81250 0.0
M06 ? BHZ e P c 20201228 1415 27.74291801 GAU 0.00968784 0.0 88.46851 0.0
M06 ? BHN e S c 20201228 1415 28.20843506 GAU 0.20742449 0.0 -2706.31150 0.0
M11 ? BHZ e P d 20201228 1415 27.74098969 GAU 0.00217618 0.0 138.08789 0.0
M11 ? BHE e S c 20201228 1415 28.27627945 GAU 0.12671442 0.0 -2002.27880 0.0
M01 ? BHZ e P c 20201228 1415 27.81044006 GAU 0.00099888 0.0 0.60327 0.0
M01 ? BHN e S d 20201228 1415 28.41092873 GAU 0.09451744 0.0 693.14810 0.0

M06 ? BHZ e P c 20201230 1418  9.36434269 GAU 0.01557616 0.0 -1924.98960 0.0
M06 ? BHN e S c 20201230 1418  9.91681385 GAU 0.04485935 0.0 -22178.14600 0.0
M14 ? BHZ e P c 20201230 1418  9.47698879 GAU 0.00391232 0.0 1375.19850 0.0
M14 ? BHE e S d 20201230 1418 10.01499176 GAU 0.04587474 0.0 41833.95000 0.0
M11 ? BHZ e P c 20201230 1418  9.48075199 GAU 0.00602649 0.0 1072.23020 0.0
M11 ? BHN e S c 20201230 1418 10.11096668 GAU 0.09966467 0.0 -46569.61700 0.0
M13 ? BHZ e P c 20201230 1418  9.64690685 GAU 0.00208875 0.0 -766.97656 0.0
M13 ? BHE e S d 20201230 1418 10.48097134 GAU 0.08166966 0.0 8571.50700 0.0
M03 ? BHZ e P d 20201230 1418  9.67291927 GAU 0.00145430 0.0 -2626.92020 0.0
M03 ? BHN e S d 20201230 1418 10.45695782 GAU 0.05640778 0.0 21636.22700 0.0
M08 ? BHZ e P d 20201230 1418  9.82297611 GAU 0.00156493 0.0 -1779.74650 0.0
M08 ? BHN e S c 20201230 1418 10.84291363 GAU 0.10757761 0.0 -31069.64800 0.0
M15 ? BHZ e P c 20201230 1418  9.88840103 GAU 0.01602120 0.0 -537.35034 0.0
M15 ? BHE e S d 20201230 1418 11.12294102 GAU 0.09644350 0.0 10769.56400 0.0
M05 ? BHZ e P d 20201230 1418  9.97090340 GAU 0.00930864 0.0 727.09375 0.0
M05 ? BHN e S c 20201230 1418 11.02493286 GAU 0.12400667 0.0 -14947.37900 0.0
M01 ? BHZ e P c 20201230 1418 10.02817249 GAU 0.00834437 0.0 75.18774 0.0
M01 ? BHN e S c 20201230 1418 11.30698109 GAU 0.00398908 0.0 -16945.56200 0.0
M12 ? BHZ e P d 20201230 1418 10.10091400 GAU 0.03137485 0.0 -217.44922 0.0
M12 ? BHE e S c 20201230 1418 11.53873444 GAU 0.14879856 0.0 -44061.16000 0.0

M06 ? BHZ e P d 20201230 1503 33.08682251 GAU 0.00447124 0.0 -455.17798 0.0
M06 ? BHN e S d 20201230 1503 34.72900009 GAU 0.09987597 0.0 1965.96780 0.0
M11 ? BHZ e P c 20201230 1503 32.90032959 GAU 0.00062696 0.0 -233.19043 0.0
M11 ? BHE e S c 20201230 1503 34.47884750 GAU 0.11247037 0.0 -1191.58150 0.0
M13 ? BHZ e P c 20201230 1503 32.76891327 GAU 0.00146729 0.0 -59.48364 0.0
M13 ? BHE e S c 20201230 1503 34.17290115 GAU 0.07686112 0.0 -3390.36670 0.0
M15 ? BHZ e P c 20201230 1503 32.50098038 GAU 0.00133343 0.0 -266.33594 0.0
M15 ? BHN e S d 20201230 1503 33.74089050 GAU 0.07474850 0.0 -197.50903 0.0
M05 ? BHZ e P d 20201230 1503 32.57248306 GAU 0.00083493 0.0 235.69995 0.0
M05 ? BHN e S c 20201230 1503 33.94096756 GAU 0.11902998 0.0 -462.99573 0.0
M01 ? BHZ e P d 20201230 1503 32.76025391 GAU 0.00060783 0.0 -341.44226 0.0
M01 ? BHN e S c 20201230 1503 34.32290649 GAU 0.03566792 0.0 -1010.14185 0.0

M06 ? BHZ i P c 20210101 0714 49.13098145 GAU 0.00083249 0.0 437.64587 0.0
M06 ? BHN e S d 20210101 0714 49.69294739 GAU 0.04808897 0.0 9701.63200 0.0
M11 ? BHZ i P c 20210101 0714 49.21896362 GAU 0.00399942 0.0 -227.70142 0.0
M11 ? BHN e S c 20210101 0714 49.91098785 GAU 0.08896933 0.0 -4232.01760 0.0
M14 ? BHZ i P c 20210101 0714 49.23698807 GAU 0.00208303 0.0 69.29944 0.0
M14 ? BHE e S d 20210101 0714 49.78096771 GAU 0.04872414 0.0 5696.60500 0.0
M13 ? BHZ e P c 20210101 0714 49.51422119 GAU 0.00053886 0.0 834.43994 0.0
M13 ? BHN e S d 20210101 0714 50.32643509 GAU 0.05459682 0.0 2118.17850 0.0
M05 ? BHZ e P c 20210101 0714 49.66498184 GAU 0.00431937 0.0 210.41101 0.0
M05 ? BHN e S c 20210101 0714 50.78897858 GAU 0.12195444 0.0 -1207.39980 0.0

M14 ? BHZ e P c 20210102 1252  4.63774586 GAU 0.00598871 0.0 306.85632 0.0
M14 ? BHN e S c 20210102 1252  5.19899702 GAU 0.08216508 0.0 -23046.84800 0.0
M06 ? BHZ i P d 20210102 1252  4.51099253 GAU 0.00141205 0.0 -110.37183 0.0
M06 ? BHN e S c 20210102 1252  5.07696915 GAU 0.03952547 0.0 10469.57500 0.0
M11 ? BHZ e P c 20210102 1252  4.68299484 GAU 0.00211792 0.0 -87.12817 0.0
M11 ? BHN e S c 20210102 1252  5.41494370 GAU 0.06994811 0.0 -7767.60550 0.0
M13 ? BHZ e P d 20210102 1252  4.88697910 GAU 0.00120336 0.0 -159.52270 0.0
M13 ? BHN e S d 20210102 1252  5.87697268 GAU 0.04078855 0.0 1946.49800 0.0
M15 ? BHZ e P c 20210102 1252  5.30898809 GAU 0.00152776 0.0 326.09570 0.0
M15 ? BHN e S c 20210102 1252  6.44098473 GAU 0.05442182 0.0 -2002.84610 0.0
M12 ? BHZ e P c 20210102 1252  5.42031384 GAU 0.00073853 0.0 298.30884 0.0
M12 ? BHE e S c 20210102 1252  6.65498447 GAU 0.12360168 0.0 -2194.99220 0.0

M14 ? BHZ i P c 20210105 1546 18.61503983 GAU 0.00630632 0.0 483.33740 0.0
M14 ? BHE e S d 20210105 1546 19.16095352 GAU 0.05674929 0.0 16338.52000 0.0
M06 ? BHZ i P c 20210105 1546 18.50300217 GAU 0.00196545 0.0 323.27100 0.0
M06 ? BHN e S c 20210105 1546 19.02294540 GAU 0.06438465 0.0 -18780.20000 0.0
M11 ? BHZ i P c 20210105 1546 18.65097046 GAU 0.00401819 0.0 -36.92603 0.0
M11 ? BHE e S d 20210105 1546 19.28699875 GAU 0.05797310 0.0 17705.55900 0.0
M13 ? BHZ e P c 20210105 1546 18.87052155 GAU 0.00094874 0.0 -39.05469 0.0
M13 ? BHE e S d 20210105 1546 19.67097855 GAU 0.08151262 0.0 13299.03800 0.0
M15 ? BHZ e P c 20210105 1546 19.13898277 GAU 0.00200238 0.0 -205.17627 0.0
M15 ? BHN e S c 20210105 1546 20.37697792 GAU 0.06986182 0.0 -5976.43400 0.0
M05 ? BHZ e P c 20210105 1546 19.04302597 GAU 0.00694322 0.0 192.72205 0.0
M05 ? BHN e S c 20210105 1546 20.15488625 GAU 0.12691206 0.0 -6586.12100 0.0
M03 ? BHZ e P c 20210105 1546 18.82899475 GAU 0.00166642 0.0 -1271.29740 0.0
M03 ? BHN e S c 20210105 1546 19.72297478 GAU 0.04872414 0.0 -13117.89600 0.0

M14 ? BHZ i P c 20210105 1608 45.83900452 GAU 0.00226407 0.0 536.55640 0.0
M14 ? BHN e S c 20210105 1608 46.28298569 GAU 0.06782734 0.0 -7908.51560 0.0
M06 ? BHZ i P c 20210105 1608 45.71899796 GAU 0.00197657 0.0 -105.02271 0.0
M06 ? BHN e S c 20210105 1608 46.21897125 GAU 0.05060708 0.0 -2626.83370 0.0
M11 ? BHZ i P c 20210105 1608 45.83292389 GAU 0.00482892 0.0 -229.53821 0.0
M11 ? BHN e S c 20210105 1608 46.47898865 GAU 0.08205301 0.0 -5534.20560 0.0
M13 ? BHZ e P c 20210105 1608 46.09224701 GAU 0.00063399 0.0 -179.12695 0.0
M13 ? BHE e S d 20210105 1608 46.84498596 GAU 0.08812034 0.0 908.39355 0.0
M15 ? BHZ e P c 20210105 1608 46.35698318 GAU 0.00230850 0.0 -139.22217 0.0
M15 ? BHN e S c 20210105 1608 47.42500687 GAU 0.10333233 0.0 -1792.81840 0.0
M05 ? BHZ e P c 20210105 1608 46.26699448 GAU 0.00207973 0.0 194.46106 0.0
M05 ? BHN e S c 20210105 1608 47.41250229 GAU 0.09767138 0.0 -993.70300 0.0

M14 ? BHZ i P c 20210105 1608 58.44299316 GAU 0.00194974 0.0 745.49220 0.0
M14 ? BHN e S d 20210105 1608 58.92249298 GAU 0.05946726 0.0 8579.18700 0.0
M06 ? BHZ i P c 20210105 1608 58.30698013 GAU 0.00202364 0.0 -57.12598 0.0
M06 ? BHN e S c 20210105 1608 58.81699753 GAU 0.08898061 0.0 -2042.55810 0.0
M11 ? BHZ e P d 20210105 1608 58.43212128 GAU 0.00032648 0.0 -43.85425 0.0
M11 ? BHN e S c 20210105 1608 59.07496262 GAU 0.07497921 0.0 -2891.22560 0.0
M13 ? BHZ e P c 20210105 1608 58.68248749 GAU 0.00127279 0.0 -354.42676 0.0
M13 ? BHE e S d 20210105 1608 59.45898438 GAU 0.07120532 0.0 951.36330 0.0
M05 ? BHZ e P d 20210105 1608 58.99032974 GAU 0.00067622 0.0 89.02393 0.0
M05 ? BHN e S c 20210105 1608 60.00299878 GAU 0.10662255 0.0 -598.50550 0.0

M14 ? BHZ i P c 20210105 1610 58.96894836 GAU 0.00372602 0.0 622.93360 0.0
M14 ? BHN e S d 20210105 1610 59.44300079 GAU 0.05982500 0.0 16814.86000 0.0
M06 ? BHZ i P c 20210105 1610 58.83898163 GAU 0.00202196 0.0 -6.64746 0.0
M06 ? BHE e S d 20210105 1610 59.35849762 GAU 0.04775265 0.0 3289.00590 0.0
M11 ? BHZ e P c 20210105 1610 58.95298767 GAU 0.00201132 0.0 -606.02734 0.0
M11 ? BHN e S c 20210105 1610 59.58499908 GAU 0.05927843 0.0 -3827.49460 0.0
M13 ? BHZ e P c 20210105 1610 59.22249222 GAU 0.00098787 0.0 -152.90332 0.0
M13 ? BHE e S c 20210105 1610 59.94099808 GAU 0.04739604 0.0 -783.01465 0.0
M12 ? BHZ e P c 20210105 1610 59.71100235 GAU 0.00206642 0.0 -290.99658 0.0
M12 ? BHE e S d 20210105 1610 60.95497781 GAU 0.17448448 0.0 683.59973 0.0
M05 ? BHZ e P d 20210105 1610 59.47897720 GAU 0.00186088 0.0 214.13037 0.0
M05 ? BHN e S c 20210105 1610 60.55899513 GAU 0.05767631 0.0 -1230.11230 0.0
M08 ? BHZ e P c 20210105 1610 59.36232758 GAU 0.00059372 0.0 -192.45837 0.0
M08 ? BHN e S c 20210105 1610 60.35499561 GAU 0.11765967 0.0 -3754.22400 0.0

M14 ? BHZ e P c 20210105 1620 48.23499298 GAU 0.00187766 0.0 791.05910 0.0
M14 ? BHN e S d 20210105 1620 48.72499466 GAU 0.05674174 0.0 13436.01100 0.0
M06 ? BHZ i P c 20210105 1620 48.12698746 GAU 0.00149740 0.0 208.03699 0.0
M06 ? BHN e S c 20210105 1620 48.65044022 GAU 0.02465359 0.0 -2638.47660 0.0
M11 ? BHZ i P c 20210105 1620 48.22472000 GAU 0.00652053 0.0 -189.88440 0.0
M11 ? BHN e S c 20210105 1620 48.86098099 GAU 0.06744093 0.0 -6443.59960 0.0
M13 ? BHZ e P c 20210105 1620 48.48647308 GAU 0.00098662 0.0 441.20898 0.0
M13 ? BHE e S d 20210105 1620 49.23897934 GAU 0.06213210 0.0 3449.99150 0.0
M15 ? BHZ e P c 20210105 1620 48.77301788 GAU 0.00377346 0.0 -324.48730 0.0
M15 ? BHE e S c 20210105 1620 49.82452011 GAU 0.09638415 0.0 -2637.36230 0.0
M12 ? BHZ e P c 20210105 1620 48.97649384 GAU 0.00096966 0.0 -357.34973 0.0
M12 ? BHN e S c 20210105 1620 50.37292862 GAU 0.11765967 0.0 -6931.39300 0.0
M05 ? BHZ i P d 20210105 1620 48.73899841 GAU 0.00178849 0.0 228.50305 0.0
M05 ? BHN e S c 20210105 1620 49.82296371 GAU 0.07983814 0.0 -1611.63920 0.0

M14 ? BHZ i P c 20210105 1621  2.24900103 GAU 0.00138648 0.0 81.06641 0.0
M14 ? BHN e S d 20210105 1621  2.73100758 GAU 0.05476006 0.0 32095.31800 0.0
M06 ? BHZ i P c 20210105 1621  2.12648916 GAU 0.00096429 0.0 116.68604 0.0
M06 ? BHN e S c 20210105 1621  2.64649415 GAU 0.03019763 0.0 3047.00680 0.0
M11 ? BHZ i P c 20210105 1621  2.22699237 GAU 0.00823572 0.0 -220.57947 0.0
M11 ? BHN e S c 20210105 1621  2.85900927 GAU 0.06331251 0.0 -4000.96460 0.0
M13 ? BHZ e P c 20210105 1621  2.47449327 GAU 0.00094204 0.0 -312.71143 0.0
M13 ? BHE e S d 20210105 1621  3.24650431 GAU 0.05453651 0.0 5521.61040 0.0
M12 ? BHZ e P c 20210105 1621  2.99097824 GAU 0.00202149 0.0 -264.41284 0.0
M12 ? BHE e S c 20210105 1621  4.34501028 GAU 0.15220138 0.0 -11508.14200 0.0
M05 ? BHZ e P c 20210105 1621  2.72498155 GAU 0.00983047 0.0 199.39795 0.0
M05 ? BHN e S d 20210105 1621  4.02098703 GAU 0.08028542 0.0 2000.69310 0.0
M08 ? BHZ e P d 20210105 1621  2.56899881 GAU 0.00197574 0.0 143.00732 0.0
M08 ? BHE e S d 20210105 1621  3.61891317 GAU 0.09826950 0.0 3184.66850 0.0
M01 ? BHZ e P c 20210105 1621  2.81650138 GAU 0.00064810 0.0 -637.90040 0.0
M01 ? BHN e S c 20210105 1621  4.07292747 GAU 0.08715235 0.0 -5273.92200 0.0

M12 RT_130 Z e P c 20211101 0520 53.01819992 GAU 0.00000000 0.0 567.78380 0.0
M12 RT_130 Z e S ? 20211101 0520 53.16159821 GAU 0.00000000 0.0 -244.97504 0.0
M13 RT_130 Z e P c 20211101 0520 53.26570129 GAU 0.00000000 0.0 -1912.05370 0.0
M13 RT_130 Z e S ? 20211101 0520 53.40050125 GAU 0.00000000 0.0 -880.01100 0.0
M09 RT_130 Z e P d 20211101 0520 54.37705231 GAU 0.00000000 0.0 -671.14264 0.0
M09 RT_130 Z e S d 20211101 0520 55.04414368 GAU 0.00000000 0.0 -685.01514 0.0
M07 RT_130 Z e P c 20211101 0520 54.93768311 GAU 0.00000000 0.0 1147.35020 0.0
M07 RT_130 Z e S ? 20211101 0520 55.79330063 GAU 0.00000000 0.0 -1810.56630 0.0

M15 RT_130 Z e P d 20211101 0532 18.50919914 GAU 0.00000000 0.0 -1239.77140 0.0
M15 RT_130 Z e S ? 20211101 0532 18.67490005 GAU 0.00000000 0.0 -1981.03560 0.0
M01 RT_130 Z e P c 20211101 0532 19.04394722 GAU 0.00000000 0.0 -954.15857 0.0
M01 RT_130 Z e S ? 20211101 0532 19.27668953 GAU 0.00000000 0.0 3110.02000 0.0
M12 RT_130 Z e P c 20211101 0532 19.39082718 GAU 0.00000000 0.0 3211.23730 0.0
M12 RT_130 Z e S d 20211101 0532 19.61210442 GAU 0.00000000 0.0 -4968.25100 0.0
M09 RT_130 Z e P d 20211101 0532 19.77735138 GAU 0.00000000 0.0 -2053.64430 0.0
M09 RT_130 Z e S ? 20211101 0532 20.12100029 GAU 0.00000000 0.0 772.56683 0.0

M13 RT_130 Z e S ? 20211101 0534 54.26881790 GAU 0.00000000 0.0 403.07236 0.0
M13 RT_130 Z e S ? 20211101 0534 54.66582108 GAU 0.00000000 0.0 -1918.60170 0.0
M05 RT_130 Z e P c 20211101 0534 55.49341583 GAU 0.00000000 0.0 -977.70130 0.0
M05 RT_130 Z e S c 20211101 0534 55.90267944 GAU 0.00000000 0.0 692.47890 0.0
M01 RT_130 Z e P c 20211101 0534 56.26472855 GAU 0.00000000 0.0 196.47067 0.0
M01 RT_130 Z e S ? 20211101 0534 57.00028229 GAU 0.00000000 0.0 -3472.34620 0.0
M09 RT_130 Z e P c 20211101 0534 56.62350082 GAU 0.00000000 0.0 2879.12960 0.0
M09 RT_130 Z e S d 20211101 0534 57.24242783 GAU 0.00000000 0.0 -2954.06300 0.0

M13 RT_130 Z i P c 20211101 0539  2.30351925 GAU 0.00000000 0.0 3469.23540 0.0
M13 RT_130 Z e S ? 20211101 0539  2.73798561 GAU 0.00000000 0.0 -110.38097 0.0
M05 RT_130 Z e P c 20211101 0539  3.34940958 GAU 0.00000000 0.0 -173.67070 0.0
M05 RT_130 Z e S ? 20211101 0539  4.12488174 GAU 0.00000000 0.0 -703.16080 0.0
M01 RT_130 Z e P d 20211101 0539  3.40129995 GAU 0.00000000 0.0 -412.12800 0.0
M01 RT_130 Z e S ? 20211101 0539  3.86509991 GAU 0.00000000 0.0 -140.15613 0.0
M09 RT_130 Z e P c 20211101 0539  4.17831230 GAU 0.00000000 0.0 230.22972 0.0
M09 RT_130 Z e S d 20211101 0539  4.84199047 GAU 0.00000000 0.0 -5738.73000 0.0
M12 RT_130 Z e P c 20211101 0539  4.63145065 GAU 0.00000000 0.0 1354.98570 0.0
M12 RT_130 Z e S c 20211101 0539  5.49033403 GAU 0.00000000 0.0 3115.22340 0.0

M08 RT_130 Z i P c 20211101 0544  4.18230009 GAU 0.00000000 0.0 1934.61130 0.0
M08 RT_130 Z e S ? 20211101 0544  4.39087009 GAU 0.00000000 0.0 909.95450 0.0
M15 RT_130 Z i P d 20211101 0544  5.01149988 GAU 0.00000000 0.0 -5844.70100 0.0
M15 RT_130 Z e S ? 20211101 0544  5.57779980 GAU 0.00000000 0.0 -3112.10350 0.0
M03 RT_130 Z e P c 20211101 0544  5.25691557 GAU 0.00000000 0.0 -5342.45360 0.0
M03 RT_130 Z e S c 20211101 0544  5.93297482 GAU 0.00000000 0.0 9021.36900 0.0
M13 RT_130 Z e P c 20211101 0544  5.37526321 GAU 0.00000000 0.0 -149.51721 0.0
M13 RT_130 Z e S ? 20211101 0544  5.75500011 GAU 0.00000000 0.0 292.16708 0.0
M09 RT_130 Z i P d 20211101 0544  6.30459976 GAU 0.00000000 0.0 -2451.97730 0.0
M09 RT_130 Z e S ? 20211101 0544  6.95389986 GAU 0.00344453 0.0 -5756.64650 0.0
M02 RT_130 Z e P c 20211101 0544  6.35300016 GAU 0.00000000 0.0 -5906.76950 0.0
M02 RT_130 Z e S ? 20211101 0544  7.38999987 GAU 0.00000000 0.0 -2159.72730 0.0
M10 RT_130 Z e P d 20211101 0544  7.23699999 GAU 0.00000000 0.0 332.02814 0.0
M10 RT_130 Z e S ? 20211101 0544  8.45849991 GAU 0.00000000 0.0 279.67334 0.0

M02 RT_130 Z e P c 20211102 0335 36.31439970 GAU 0.00000000 0.0 2573.16550 0.0
M02 RT_130 Z e S ? 20211102 0335 37.50159840 GAU 0.00000000 0.0 -1078.07180 0.0
M15 RT_130 Z e P c 20211102 0335 37.16490170 GAU 0.00000000 0.0 -504.99692 0.0
M15 RT_130 Z e S ? 20211102 0335 38.74819950 GAU 0.00000000 0.0 710.52080 0.0
M10 RT_130 Z e P c 20211102 0335 35.94910050 GAU 0.00000000 0.0 3031.44800 0.0
M10 RT_130 Z i S ? 20211102 0335 36.95489880 GAU 0.00000000 0.0 2055.30050 0.0
M12 RT_130 Z i P c 20211102 0335 36.63240050 GAU 0.00000000 0.0 1552.44500 0.0
M12 RT_130 Z e S ? 20211102 0335 37.90629960 GAU 0.00000000 0.0 -1019.35187 0.0

M05 RT_130 Z e P c 20211104 0349 54.04500580 GAU 0.00000000 0.0 706.11664 0.0
M05 RT_130 Z e S d 20211104 0349 54.38978577 GAU 0.00000000 0.0 -1186.83960 0.0
M08 RT_130 Z e P c 20211104 0349 55.69082642 GAU 0.00000000 0.0 452.66922 0.0
M08 RT_130 Z e S c 20211104 0349 56.49642181 GAU 0.00000000 0.0 1452.95010 0.0
M07 RT_130 Z e P d 20211104 0349 55.88109589 GAU 0.00000000 0.0 -647.06460 0.0
M07 RT_130 Z e S d 20211104 0349 56.55363846 GAU 0.00000000 0.0 -1314.31850 0.0
M15 RT_130 Z e P c 20211104 0349 56.08599854 GAU 0.00000000 0.0 679.35060 0.0
M15 RT_130 Z e S ? 20211104 0349 57.22375488 GAU 0.00000000 0.0 3000.37840 0.0

M08 RT_130 Z e P c 20211104 0423 42.82352829 GAU 0.00000000 0.0 89.41702 0.0
M08 RT_130 Z e S c 20211104 0423 43.22275162 GAU 0.00000000 0.0 2931.89180 0.0
M12 RT_130 Z e P c 20211104 0423 43.64970398 GAU 0.00000000 0.0 14.98239 0.0
M12 RT_130 Z i S d 20211104 0423 44.33764267 GAU 0.00000000 0.0 -3459.95780 0.0
M11 RT_130 Z e P d 20211104 0423 44.62419128 GAU 0.00000000 0.0 -861.52880 0.0
M11 RT_130 Z e S ? 20211104 0423 45.72697067 GAU 0.00000000 0.0 184.72070 0.0
M07 RT_130 Z e P c 20211104 0423 45.63360977 GAU 0.00000000 0.0 -128.16237 0.0
M07 RT_130 Z e S ? 20211104 0423 47.01132202 GAU 0.00000000 0.0 213.17970 0.0

M07 RT_130 Z e P c 20211106 0505  1.47080469 GAU 0.00000000 0.0 847.01110 0.0
M07 RT_130 Z e S ? 20211106 0505  1.92780006 GAU 0.00000000 0.0 -2293.38530 0.0
M05 RT_130 Z e P c 20211106 0505  1.97409999 GAU 0.00000000 0.0 -1489.50770 0.0
M05 RT_130 Z e S ? 20211106 0505  2.41999388 GAU 0.00000000 0.0 -1813.37340 0.0
M10 RT_130 Z e P c 20211106 0505  2.61996984 GAU 0.00000000 0.0 2075.75510 0.0
