M04 ? BHZ i P c 20200424 1235 39.68890381 GAU 0.0 0.0 50.23669 0.0
M04 ? BHE e S ? 20200424 1235 40.37656784 GAU 0.0 0.0 -69.60938 0.0
M09 ? BHZ i P d 20200424 1235 38.94215012 GAU 0.0 0.0 56.72461 0.0
M09 ? BHE e S ? 20200424 1235 39.50416183 GAU 0.0 0.0 -57.00977 0.0
M03 ? BHZ i P d 20200424 1235 42.93848038 GAU 0.0 0.0 -154.79565 0.0
M03 ? BHN e S ? 20200424 1235 43.72407913 GAU 0.0 0.0 -761.63416 0.0
M05 ? BHZ i P c 20200424 1235 45.70697784 GAU 0.0 0.0 396.27344 0.0
M05 ? BHN e S ? 20200424 1235 46.70273590 GAU 0.0 0.0 -179.45264 0.0

M04 ? BHZ e P c 20200424 1438  4.53812408 GAU 0.0 0.0 26.54883 0.0
M04 ? BHN e S d 20200424 1438  5.21300745 GAU 0.0 0.0 4310.70700 0.0
M06 ? BHZ i P d 20200424 1438  4.57699919 GAU 0.0 0.0 -54.97559 0.0
M06 ? BHE e S d 20200424 1438  5.32705021 GAU 0.0 0.0 5628.12350 0.0
M09 ? BHZ i P c 20200424 1438  4.67698479 GAU 0.0 0.0 11.15393 0.0
M09 ? BHE e S c 20200424 1438  5.44464779 GAU 0.0 0.0 -2225.27340 0.0
M11 ? BHZ e P d 20200424 1438  5.16699028 GAU 0.0 0.0 143.18555 0.0
M11 ? BHE e S c 20200424 1438  6.02880955 GAU 0.0 0.0 -4096.95000 0.0

M04 ? BHZ e P c 20200424 1438 11.67892551 GAU 0.0 0.0 276.91504 0.0
M04 ? BHN e S d 20200424 1438 12.47100639 GAU 0.0 0.0 6469.43360 0.0
M06 ? BHZ i P d 20200424 1438 11.82294273 GAU 0.0 0.0 -533.27540 0.0
M06 ? BHE e S d 20200424 1438 12.64691353 GAU 0.0 0.0 5727.22360 0.0
M09 ? BHZ e P c 20200424 1438 12.01093483 GAU 0.0 0.0 173.75684 0.0
M09 ? BHN e S c 20200424 1438 12.97688389 GAU 0.0 0.0 -3302.02780 0.0
M11 ? BHZ e P c 20200424 1438 11.91480827 GAU 0.0 0.0 -950.09390 0.0
M11 ? BHN e S d 20200424 1438 12.77499676 GAU 0.0 0.0 6065.67600 0.0

M11 ? BHZ i P c 20200424 1524 53.34299850 GAU 0.0 0.0 -205.56775 0.0
M11 ? BHE e S ? 20200424 1524 54.16693115 GAU 0.0 0.0 -1406.90060 0.0
M04 ? BHZ i P d 20200424 1524 53.06096268 GAU 0.0 0.0 -57.14514 0.0
M04 ? BHN e S ? 20200424 1524 53.86283493 GAU 0.0 0.0 1879.70410 0.0
M09 ? BHZ i P c 20200424 1524 52.92694092 GAU 0.0 0.0 -56.91797 0.0
M09 ? BHE e S ? 20200424 1524 53.55298996 GAU 0.1 0.0 194.81201 0.0
M03 ? BHZ i P c 20200424 1524 53.63449097 GAU 0.0 0.0 -1259.60940 0.0
M03 ? BHE e S ? 20200424 1524 54.80899811 GAU 0.0 0.0 -554.54285 0.0
M06 ? BHZ i P d 20200424 1524 52.72698212 GAU 0.0 0.0 -128.90430 0.0
M06 ? BHE e S ? 20200424 1524 53.22890472 GAU 0.0 0.0 -1436.35060 0.0

M11 ? BHZ e P c 20200424 1640  2.55889750 GAU 0.0 0.0 -307.57666 0.0
M11 ? BHN e S c 20200424 1640  3.26837754 GAU 0.0 0.0 -2650.26250 0.0
M04 ? BHZ e P d 20200424 1640  2.37450552 GAU 0.0 0.0 554.82030 0.0
M04 ? BHN e S c 20200424 1640  2.92298985 GAU 0.0 0.0 -1880.18460 0.0
M06 ? BHZ e P d 20200424 1640  2.37699366 GAU 0.0 0.0 -170.79053 0.0
M06 ? BHN e S c 20200424 1640  2.95892024 GAU 0.0 0.0 -1874.41810 0.0
M09 ? BHZ e P d 20200424 1640  2.54096580 GAU 0.0 0.0 149.13232 0.0
M09 ? BHE e S d 20200424 1640  3.31687045 GAU 0.0 0.0 851.94460 0.0

M11 ? BHZ i P d 20200424 2016 19.71698189 GAU 0.0 0.0 -557.26074 0.0
M11 ? BHN e S ? 20200424 2016 20.35889053 GAU 0.1 0.0 1720.83840 0.0
M04 ? BHZ i P d 20200424 2016 19.65492439 GAU 0.0 0.0 1223.94130 0.0
M04 ? BHN e S ? 20200424 2016 20.11284065 GAU 0.1 0.0 -548.58640 0.0
M09 ? BHZ i P d 20200424 2016 19.82253647 GAU 0.1 0.0 -231.16406 0.0
M09 ? BHE e S ? 20200424 2016 20.53691673 GAU 0.0 0.0 -3833.21400 0.0
M14 ? BHZ i P c 20200424 2016 19.71277618 GAU 0.0 0.0 492.07617 0.0
M14 ? BHN e S ? 20200424 2016 20.20453644 GAU 0.0 0.0 -2809.99700 0.0
M02 ? BHZ i P c 20200424 2016 19.73096085 GAU 0.0 0.0 -1128.63820 0.0
M02 ? BHE e S ? 20200424 2016 20.33673477 GAU 0.0 0.0 1175.74150 0.0
M10 ? BHZ i P d 20200424 2016 20.02501678 GAU 0.0 0.0 -79.54688 0.0
M10 ? BHN e S ? 20200424 2016 21.00898170 GAU 0.0 0.0 635.70337 0.0
M01 ? BHZ i P c 20200424 2016 20.25100708 GAU 0.0 0.0 -870.33984 0.0
M01 ? BHN e S ? 20200424 2016 21.51300049 GAU 0.0 0.0 4098.43900 0.0

M11 ? BHZ i P d 20200424 2345 42.83454132 GAU 0.0 0.0 -262.98352 0.0
M11 ? BHE e S ? 20200424 2345 43.45669174 GAU 0.1 0.0 -4107.50900 0.0
M04 ? BHZ i P d 20200424 2345 42.77882004 GAU 0.0 0.0 697.93994 0.0
M04 ? BHE e S ? 20200424 2345 43.31496429 GAU 0.0 0.0 9153.90300 0.0
M09 ? BHZ i P c 20200424 2345 42.95698166 GAU 0.0 0.0 -155.67310 0.0
M09 ? BHE e S ? 20200424 2345 43.66091156 GAU 0.0 0.0 -2487.08640 0.0
M06 ? BHZ i P d 20200424 2345 42.75899887 GAU 0.0 0.0 -137.82275 0.0
M06 ? BHE e S ? 20200424 2345 43.27250671 GAU 0.0 0.0 -6083.97850 0.0
M14 ? BHZ i P c 20200424 2345 42.83897400 GAU 0.0 0.0 830.00085 0.0
M14 ? BHE e S ? 20200424 2345 43.35679245 GAU 0.0 0.0 4785.23600 0.0
M01 ? BHZ i P c 20200424 2345 43.38109207 GAU 0.0 0.0 144.64575 0.0
M01 ? BHN e S ? 20200424 2345 44.54683304 GAU 0.1 0.0 -2276.65230 0.0
M13 ? BHZ i P c 20200424 2345 43.02669144 GAU 0.0 0.0 -418.22900 0.0
M13 ? BHN e S ? 20200424 2345 43.83293533 GAU 0.0 0.0 -2354.68730 0.0

M11 ? BHZ e P c 20200425 0444 59.91078949 GAU 0.0 0.0 -147.11182 0.0
M11 ? BHN e S c 20200425 0445  1.47648633 GAU 0.1 0.0 -2112.67770 0.0
M04 ? BHZ e P c 20200425 0445  0.57300562 GAU 0.0 0.0 288.60388 0.0
M04 ? BHE e S d 20200425 0445  3.34100938 GAU 0.0 0.0 2223.84230 0.0
M06 ? BHZ e P c 20200425 0444 59.82276154 GAU 0.0 0.0 -342.52270 0.0
M06 ? BHN e S c 20200425 0445  1.18481815 GAU 0.0 0.0 -3113.95560 0.0
M05 ? BHZ e P d 20200425 0445  0.51899904 GAU 0.0 0.0 -104.47900 0.0
M05 ? BHE e S c 20200425 0445  3.07897520 GAU 0.0 0.0 -3653.13500 0.0
M03 ? BHZ e P d 20200425 0445  0.31897706 GAU 0.0 0.0 -52.49512 0.0
M03 ? BHE e S d 20200425 0445  2.44287944 GAU 0.0 0.0 2709.98750 0.0

M11 ? BHZ e P c 20200425 0843 55.99649429 GAU 0.0 0.0 -689.63280 0.0
M11 ? BHN e S c 20200425 0843 56.46208191 GAU 0.0 0.0 -9836.85400 0.0
M06 ? BHZ i P d 20200425 0843 57.37207794 GAU 0.0 0.0 -1163.13960 0.0
M09 ? BHZ e P c 20200425 0843 53.94700241 GAU 0.0 0.0 -0.36157 0.0
M09 ? BHE e S d 20200425 0843 54.28602982 GAU 0.0 0.0 3669.66300 0.0
M05 ? BHZ e P c 20200425 0843 45.46100616 GAU 0.0 0.0 260.48547 0.0
M05 ? BHN e S c 20200425 0843 45.60403824 GAU 0.0 0.0 -7382.13570 0.0
M03 ? BHZ i P c 20200425 0843 50.54610825 GAU 0.0 0.0 -1232.84280 0.0
M01 ? BHZ i P c 20200425 0843 48.65299988 GAU 0.0 0.0 -449.71448 0.0
M01 ? BHE e S d 20200425 0843 48.95810699 GAU 0.0 0.0 5720.41650 0.0
M14 ? BHZ e P d 20200425 0843 54.24433136 GAU 0.0 0.0 387.34180 0.0
M14 ? BHE e S d 20200425 0843 54.65630341 GAU 0.0 0.0 5925.27640 0.0

M11 ? BHZ e P d 20200425 1108 21.33695602 GAU 0.0 0.0 -304.84668 0.0
M11 ? BHE e S c 20200425 1108 22.02698135 GAU 0.0 0.0 -7382.88200 0.0
M04 ? BHZ i P c 20200425 1108 21.20895958 GAU 0.0 0.0 395.42188 0.0
M04 ? BHN e S d 20200425 1108 21.77094650 GAU 0.0 0.0 11908.68400 0.0
M06 ? BHZ i P d 20200425 1108 21.18503380 GAU 0.0 0.0 55.10974 0.0
M06 ? BHN e S c 20200425 1108 21.75688171 GAU 0.0 0.0 -7318.34130 0.0
M09 ? BHZ i P c 20200425 1108 21.39297676 GAU 0.0 0.0 -45.73840 0.0
M09 ? BHE e S c 20200425 1108 22.13699532 GAU 0.0 0.0 -2525.07890 0.0

M11 ? BHZ i P c 20200425 1108 21.30299950 GAU 0.1 0.0 167.99219 0.0
M11 ? BHE e S ? 20200425 1108 21.86289024 GAU 0.0 0.0 852.72390 0.0
M04 ? BHZ i P c 20200425 1108 21.20898819 GAU 0.0 0.0 397.26562 0.0
M04 ? BHN e S ? 20200425 1108 21.60271072 GAU 0.0 0.0 -1342.97900 0.0
M09 ? BHZ i P c 20200425 1108 21.39097595 GAU 0.0 0.0 -63.16406 0.0
M09 ? BHE e S ? 20200425 1108 22.05891991 GAU 0.0 0.0 396.63037 0.0
M14 ? BHZ i P c 20200425 1108 21.26442719 GAU 0.0 0.0 -511.88232 0.0
M14 ? BHE e S ? 20200425 1108 21.79106331 GAU 0.0 0.0 -346.02660 0.0

M11 ? BHZ i P c 20200425 1638 21.06301117 GAU 0.0 0.0 -188.41394 0.0
M11 ? BHN e S ? 20200425 1638 21.81092644 GAU 0.0 0.0 -113.16443 0.0
M04 ? BHZ i P c 20200425 1638 20.94287109 GAU 0.0 0.0 63.90649 0.0
M04 ? BHN e S ? 20200425 1638 21.50290489 GAU 0.0 0.0 -455.20996 0.0
M09 ? BHZ i P c 20200425 1638 20.58900261 GAU 0.0 0.0 -39.45752 0.0
M09 ? BHE e S ? 20200425 1638 20.98834991 GAU 0.0 0.0 -325.39648 0.0
M06 ? BHZ i P c 20200425 1638 20.98106766 GAU 0.0 0.0 145.82825 0.0
M06 ? BHN e S ? 20200425 1638 21.61061287 GAU 0.1 0.0 843.93994 0.0

M11 ? BHZ i P c 20200425 1649 41.94296646 GAU 0.0 0.0 -600.90150 0.0
M11 ? BHN e S ? 20200425 1649 42.52099228 GAU 0.0 0.0 -790.53860 0.0
M06 ? BHZ i P d 20200425 1649 41.81697083 GAU 0.0 0.0 -96.10449 0.0
M06 ? BHN e S ? 20200425 1649 42.34897995 GAU 0.0 0.0 -770.58716 0.0
M04 ? BHZ i P c 20200425 1649 41.84893036 GAU 0.0 0.0 265.90503 0.0
M04 ? BHE e S ? 20200425 1649 42.39623642 GAU 0.0 0.0 -1159.16500 0.0
M14 ? BHZ i P c 20200425 1649 41.95259094 GAU 0.0 0.0 294.21484 0.0
M14 ? BHN e S ? 20200425 1649 42.51896286 GAU 0.0 0.0 -1464.44620 0.0

M12 ? BHZ e P c 20200425 1722 38.44700623 GAU 0.0 0.0 -28.89746 0.0
M12 ? BHN e S c 20200425 1722 39.75649643 GAU 0.0 0.0 -2754.09500 0.0
M05 ? BHZ e P c 20200425 1722 35.90896988 GAU 0.0 0.0 159.68420 0.0
M05 ? BHN e S c 20200425 1722 36.59624863 GAU 0.0 0.0 -3485.25400 0.0
M03 ? BHZ i P c 20200425 1722 35.08499146 GAU 0.0 0.0 -263.70850 0.0
M03 ? BHE e S d 20200425 1722 35.62812805 GAU 0.0 0.0 1860.92180 0.0
M13 ? BHZ e P d 20200425 1722 34.01896667 GAU 0.0 0.0 39.84375 0.0
M13 ? BHN e S d 20200425 1722 34.32249832 GAU 0.0 0.0 1342.50000 0.0

M04 ? BHZ e P c 20200425 1730 16.03409386 GAU 0.0 0.0 348.82373 0.0
M04 ? BHE e S d 20200425 1730 18.43033028 GAU 0.0 0.0 2023.44560 0.0
M09 ? BHZ e P c 20200425 1730 10.04299641 GAU 0.0 0.0 -4.56665 0.0
M09 ? BHN e S d 20200425 1730 11.26231956 GAU 0.0 0.0 1690.52400 0.0
M05 ? BHZ e P d 20200425 1730 11.06231308 GAU 0.0 0.0 -206.71460 0.0
M05 ? BHN e S d 20200425 1730 12.63222980 GAU 0.0 0.0 4987.04900 0.0
M03 ? BHZ e P c 20200425 1730 12.28498936 GAU 0.0 0.0 -291.76270 0.0
M03 ? BHE e S d 20200425 1730 14.33009434 GAU 0.0 0.0 5400.33740 0.0

M06 ? BHZ i P d 20200425 1808 41.33099747 GAU 0.0 0.0 -236.97437 0.0
M06 ? BHN e S ? 20200425 1808 41.91899490 GAU 0.0 0.0 -353.67285 0.0
M04 ? BHZ i P c 20200425 1808 41.29423904 GAU 0.0 0.0 114.51123 0.0
M04 ? BHN e S ? 20200425 1808 41.84410477 GAU 0.0 0.0 -553.45900 0.0
M09 ? BHZ i P c 20200425 1808 41.38497543 GAU 0.0 0.0 -30.74224 0.0
M09 ? BHN e S ? 20200425 1808 42.10294724 GAU 0.0 0.0 -167.17587 0.0
M11 ? BHZ i P c 20200425 1808 41.35493469 GAU 0.0 0.0 -67.20128 0.0
M11 ? BHN e S ? 20200425 1808 41.98297501 GAU 0.0 0.0 -121.44160 0.0

M09 ? BHZ e P c 20200426 1226 14.41450024 GAU 0.0 0.0 247.27075 0.0
M09 ? BHN e S d 20200426 1226 14.55206966 GAU 0.0 0.0 1786.88060 0.0
M03 ? BHZ e P c 20200426 1226 15.62011051 GAU 0.0 0.0 1239.16160 0.0
M03 ? BHE e S d 20200426 1226 15.81615639 GAU 0.0 0.0 6942.73900 0.0
M12 ? BHZ e P c 20200426 1226 15.29699898 GAU 0.0 0.0 362.48193 0.0
M02 ? BHZ e P d 20200426 1226 16.77415657 GAU 0.0 0.0 -1012.29690 0.0
M02 ? BHE e S d 20200426 1226 17.03633499 GAU 0.0 0.0 2445.86430 0.0
M06 ? BHZ e P d 20200426 1226 17.36299706 GAU 0.0 0.0 -609.39624 0.0
M04 ? BHZ e P d 20200426 1226 17.40579605 GAU 0.0 0.0 115.23731 0.0
M04 ? BHE e S c 20200426 1226 17.72208214 GAU 0.0 0.0 -4075.70170 0.0

M11 ? BHZ i P c 20200426 1432 16.42099571 GAU 0.0 0.0 -258.44310 0.0
M11 ? BHE e S ? 20200426 1432 16.82299614 GAU 0.0 0.0 380.33690 0.0
M09 ? BHZ i P c 20200426 1432 17.19699478 GAU 0.0 0.0 -31.02539 0.0
M09 ? BHN e S ? 20200426 1432 17.76014519 GAU 0.0 0.0 793.64650 0.0
M13 ? BHZ i P d 20200426 1432 18.37104797 GAU 0.0 0.0 112.60498 0.0
M13 ? BHN e S ? 20200426 1432 19.11223602 GAU 0.0 0.0 -113.75244 0.0
M02 ? BHZ i P c 20200426 1432 25.54297066 GAU 0.0 0.0 -6.90674 0.0
M02 ? BHN e S ? 20200426 1432 26.50413895 GAU 0.0 0.0 -2151.65620 0.0

M06 ? BHZ i P c 20200426 1926 59.68899155 GAU 0.0 0.0 -204.12378 0.0
M06 ? BHN e S ? 20200426 1927  0.18699463 GAU 0.0 0.0 -182.93555 0.0
M04 ? BHZ i P c 20200426 1926 59.95898438 GAU 0.0 0.0 144.18103 0.0
M04 ? BHN e S ? 20200426 1927  0.50048167 GAU 0.0 0.0 -204.19434 0.0
M11 ? BHZ i P c 20200426 1927  0.19275904 GAU 0.0 0.0 -241.78918 0.0
M11 ? BHN e S ? 20200426 1927  0.81087428 GAU 0.0 0.0 -127.25732 0.0
M09 ? BHZ i P c 20200426 1927  0.29300025 GAU 0.0 0.0 59.00122 0.0
M09 ? BHE e S ? 20200426 1927  0.87691993 GAU 0.0 0.0 -128.04102 0.0

M06 ? BHZ i P d 20200426 1941 30.27899742 GAU 0.0 0.0 22.50598 0.0
M06 ? BHN e S ? 20200426 1941 30.78487396 GAU 0.0 0.0 -152.88623 0.0
M04 ? BHZ i P c 20200426 1941 30.25899315 GAU 0.0 0.0 205.79858 0.0
M04 ? BHN e S ? 20200426 1941 30.68250084 GAU 0.1 0.0 -296.73413 0.0
M11 ? BHZ i P c 20200426 1941 30.42899323 GAU 0.0 0.0 -197.52051 0.0
M11 ? BHN e S ? 20200426 1941 31.09498787 GAU 0.0 0.0 101.57300 0.0
M09 ? BHZ i P c 20200426 1941 30.53489304 GAU 0.0 0.0 -86.53223 0.0
M09 ? BHN e S ? 20200426 1941 31.21494102 GAU 0.0 0.0 354.92334 0.0

M06 ? BHZ i P d 20200427 1655 55.76897049 GAU 0.0 0.0 -289.04590 0.0
M06 ? BHN e S ? 20200427 1655 57.29832458 GAU 0.2 0.0 1595.25440 0.0
M04 ? BHZ i P c 20200427 1655 56.02086258 GAU 0.0 0.0 127.39453 0.0
M04 ? BHN e S ? 20200427 1655 58.26099777 GAU 0.0 0.0 -1651.53720 0.0
M11 ? BHZ i P c 20200427 1655 55.85499191 GAU 0.0 0.0 -240.58582 0.0
M11 ? BHE e S ? 20200427 1655 57.72895813 GAU 0.1 0.0 -651.91260 0.0
M15 ? BHZ i P c 20200427 1655 55.80899811 GAU 0.0 0.0 -353.81857 0.0
M15 ? BHN e S ? 20200427 1655 57.51293945 GAU 0.1 0.0 -988.20230 0.0
M12 ? BHZ i P c 20200427 1655 56.14298630 GAU 0.0 0.0 -119.09082 0.0
M12 ? BHE e S ? 20200427 1655 58.12906647 GAU 0.3 0.0 -1771.94140 0.0
M05 ? BHZ i P d 20200427 1655 56.22299957 GAU 0.0 0.0 323.52502 0.0
M05 ? BHN e S ? 20200427 1655 58.09700394 GAU 0.0 0.0 1533.59050 0.0

M09 ? BHZ e P c 20200428 0404 51.64698792 GAU 0.0 0.0 5.81909 0.0
M09 ? BHE e S d 20200428 0404 52.64297867 GAU 0.0 0.0 1269.98190 0.0
M03 ? BHZ e P c 20200428 0404 51.17900085 GAU 0.0 0.0 -548.47730 0.0
M03 ? BHE e S d 20200428 0404 51.64641571 GAU 0.1 0.0 2197.96400 0.0
M12 ? BHZ e P c 20200428 0404 51.34499359 GAU 0.0 0.0 271.93164 0.0
M12 ? BHE e S d 20200428 0404 52.08495331 GAU 0.0 0.0 1531.84240 0.0
M06 ? BHZ e P c 20200428 0404 51.32295609 GAU 0.0 0.0 -215.25635 0.0
M06 ? BHE e S d 20200428 0404 51.98693848 GAU 0.1 0.0 880.58093 0.0
M04 ? BHZ e P c 20200428 0404 51.32295609 GAU 0.0 0.0 252.32251 0.0
M04 ? BHN e S c 20200428 0404 52.07299423 GAU 0.1 0.0 -2156.09280 0.0
M11 ? BHZ e P c 20200428 0404 52.01097107 GAU 0.0 0.0 -373.31420 0.0
M11 ? BHE e S d 20200428 0404 53.25697708 GAU 0.0 0.0 2631.71340 0.0

M05 ? BHZ e P c 20200428 1123 48.64486694 GAU 0.0 0.0 375.12207 0.0
M05 ? BHN e S c 20200428 1123 49.68091965 GAU 0.0 0.0 -720.89160 0.0
M09 ? BHZ e P c 20200428 1123 48.83306122 GAU 0.0 0.0 53.12293 0.0
M09 ? BHN e S c 20200428 1123 50.32287216 GAU 0.0 0.0 -71.81982 0.0
M06 ? BHZ i P d 20200428 1123 48.91439819 GAU 0.0 0.0 -112.39709 0.0
M06 ? BHN e S c 20200428 1123 50.90900040 GAU 0.0 0.0 -1959.00590 0.0
M03 ? BHZ e P d 20200428 1123 48.95481873 GAU 0.0 0.0 -404.99316 0.0
M11 ? BHZ i P d 20200428 1123 49.13099289 GAU 0.0 0.0 -274.93945 0.0
M11 ? BHE e S c 20200428 1123 52.44652176 GAU 0.1 0.0 -849.13450 0.0

M09 ? BHZ e P c 20200428 1145 22.64289665 GAU 0.0 0.0 47.03088 0.0
M09 ? BHN e S c 20200428 1145 23.22679138 GAU 0.0 0.0 -482.46118 0.0
M03 ? BHZ i P c 20200428 1145 22.34701729 GAU 0.0 0.0 -124.28943 0.0
M03 ? BHE e S d 20200428 1145 22.84915733 GAU 0.0 0.0 855.65990 0.0
M11 ? BHZ e P d 20200428 1145 23.20487976 GAU 0.0 0.0 -183.23620 0.0
M11 ? BHN e S c 20200428 1145 24.13442230 GAU 0.0 0.0 -910.40784 0.0
M15 ? BHZ e P d 20200428 1145 23.14243317 GAU 0.0 0.0 -376.29248 0.0
M15 ? BHN e S c 20200428 1145 23.80219841 GAU 0.1 0.0 -1960.57510 0.0

M05 ? BHZ i P c 20200429 0818 39.79944992 GAU 0.0 0.0 -368.88477 0.0
M05 ? BHE e ? c 20200429 0818 42.18617249 GAU 0.0 0.0 -7072.65230 0.0
M06 ? BHZ i P d 20200429 0818 39.60234070 GAU 0.0 0.0 -252.90490 0.0
M06 ? BHE e S d 20200429 0818 41.94649124 GAU 0.1 0.0 19405.64300 0.0
M04 ? BHZ i P d 20200429 0818 39.50137711 GAU 0.0 0.0 248.60962 0.0
M04 ? BHE e S d 20200429 0818 41.15823364 GAU 0.0 0.0 2542.16800 0.0
M15 ? BHZ e P c 20200429 0818 40.45051575 GAU 0.0 0.0 -46.49609 0.0
M15 ? BHN e S c 20200429 0818 43.41494370 GAU 0.0 0.0 -2986.54080 0.0
M08 ? BHZ e P d 20200429 0818 40.58244324 GAU 0.0 0.0 761.57227 0.0
M08 ? BHE e S c 20200429 0818 44.64425659 GAU 0.5 0.0 -2212.18600 0.0

M03 ? BHZ e P c 20200429 0932 12.53297329 GAU 0.0 0.0 171.81519 0.0
M03 ? BHE e S d 20200429 0932 14.40005875 GAU 0.0 0.0 6314.77050 0.0
M06 ? BHZ e P c 20200429 0932 13.16300297 GAU 0.0 0.0 -93.42651 0.0
M06 ? BHN e S c 20200429 0932 15.10248661 GAU 0.0 0.0 -879.78040 0.0
M05 ? BHZ e P c 20200429 0932 13.52449036 GAU 0.0 0.0 420.21924 0.0
M05 ? BHN e S d 20200429 0932 15.56412411 GAU 0.0 0.0 6787.87500 0.0
M08 ? BHZ e P d 20200429 0932  5.97699928 GAU 0.0 0.0 572.04150 0.0
M08 ? BHN e S c 20200429 0932  6.62806559 GAU 0.0 0.0 -5748.81600 0.0

M05 ? BHZ e P c 20200430 0539 17.35477829 GAU 0.0 0.0 182.33496 0.0
M05 ? BHN e S c 20200430 0539 17.43803787 GAU 0.0 0.0 -8698.55800 0.0
M09 ? BHZ e P d 20200430 0539 12.24094963 GAU 0.0 0.0 349.30176 0.0
M09 ? BHE e S c 20200430 0539 12.29413795 GAU 0.0 0.0 -2656.77600 0.0
M03 ? BHZ i P d 20200430 0539 14.43099403 GAU 0.0 0.0 -245.94507 0.0
M03 ? BHN e P c 20200430 0539 14.50002861 GAU 0.0 0.0 -5488.18160 0.0
M13 ? BHZ e P c 20200430 0539 10.87699223 GAU 0.0 0.0 -1329.22270 0.0
M13 ? BHE e S d 20200430 0539 10.93008327 GAU 0.0 0.0 8816.82000 0.0
M01 ? BHZ e P c 20200430 0539 13.75049686 GAU 0.0 0.0 -805.84520 0.0
M01 ? BHE e S d 20200430 0539 13.80816650 GAU 0.0 0.0 5158.72200 0.0

M03 ? BHZ e P d 20200430 0725 34.17499924 GAU 0.0 0.0 -923.95020 0.0
M03 ? BHZ e S c 20200430 0725 35.52205658 GAU 0.0 0.0 -1997.81800 0.0
M12 ? BHZ i P c 20200430 0725 34.77049637 GAU 0.0 0.0 152.22852 0.0
M12 ? BHN e S d 20200430 0725 36.49625015 GAU 0.1 0.0 640.25073 0.0
M06 ? BHZ e P c 20200430 0725 31.81449699 GAU 0.0 0.0 -373.81934 0.0
M06 ? BHN e S c 20200430 0725 32.10018158 GAU 0.0 0.0 -2705.94100 0.0
M08 ? BHZ e P c 20200430 0725 31.46412086 GAU 0.0 0.0 37.09216 0.0
M08 ? BHN e S d 20200430 0725 31.65603447 GAU 0.0 0.0 1821.72560 0.0

M03 ? BHZ i P d 20200502 0845 31.64301872 GAU 0.0 0.0 552.71580 0.0
M03 ? BHN e S ? 20200502 0845 32.13100433 GAU 0.0 0.0 1097.03910 0.0
M01 ? BHZ i P d 20200502 0845 31.64894485 GAU 0.0 0.0 153.68628 0.0
M01 ? BHN e S ? 20200502 0845 32.12896729 GAU 0.1 0.0 -427.63110 0.0
M12 ? BHZ i P c 20200502 0845 31.91897011 GAU 0.0 0.0 23.90015 0.0
M12 ? BHN e S ? 20200502 0845 32.46449661 GAU 0.0 0.0 10.04248 0.0
M13 ? BHZ i P c 20200502 0845 31.54466057 GAU 0.0 0.0 -1349.79630 0.0
M13 ? BHN e S ? 20200502 0845 31.92309761 GAU 0.1 0.0 -2585.93700 0.0

M03 ? BHZ i P c 20200502 1551  7.79645300 GAU 0.0 0.0 -265.78125 0.0
M03 ? BHN e S ? 20200502 1551  8.74449062 GAU 0.1 0.0 -1258.51370 0.0
M01 ? BHZ i P c 20200502 1551  7.74299812 GAU 0.0 0.0 -140.56152 0.0
M01 ? BHE e S ? 20200502 1551  8.57484436 GAU 0.0 0.0 215.38379 0.0
M10 ? BHZ i P d 20200502 1551  7.69897175 GAU 0.0 0.0 931.56570 0.0
M10 ? BHE e S ? 20200502 1551  8.07881355 GAU 0.0 0.0 1496.86620 0.0
M13 ? BHZ i P d 20200502 1551  7.67695665 GAU 0.0 0.0 -38.98120 0.0
M13 ? BHE e S ? 20200502 1551  8.00300121 GAU 0.0 0.0 -370.27478 0.0

M03 ? BHZ i P c 20200502 1646 47.46889114 GAU 0.0 0.0 493.35913 0.0
M03 ? BHE e S ? 20200502 1646 47.87432861 GAU 0.0 0.0 -3010.97560 0.0
M06 ? BHZ i P c 20200502 1646 47.76497269 GAU 0.0 0.0 -758.29810 0.0
M06 ? BHN e S ? 20200502 1646 48.54430008 GAU 0.4 0.0 -2665.42970 0.0
M04 ? BHZ i P c 20200502 1646 47.76092148 GAU 0.0 0.0 1.89917 0.0
M04 ? BHE e S ? 20200502 1646 48.64399338 GAU 0.1 0.0 915.90870 0.0
M11 ? BHZ i P d 20200502 1646 47.53665161 GAU 0.0 0.0 83.17920 0.0
M11 ? BHE e S ? 20200502 1646 48.21088028 GAU 0.0 0.0 -1396.79880 0.0
M09 ? BHZ i P c 20200502 1646 47.44693375 GAU 0.0 0.0 1131.41300 0.0
M09 ? BHE e S ? 20200502 1646 47.84283066 GAU 0.0 0.0 -1132.76660 0.0
M01 ? BHZ i P d 20200502 1646 47.55699921 GAU 0.0 0.0 -582.13184 0.0
M01 ? BHN e S ? 20200502 1646 48.26097488 GAU 0.0 0.0 -2225.18070 0.0
M12 ? BHZ i P d 20200502 1646 47.74507141 GAU 0.0 0.0 -325.14600 0.0
M12 ? BHE e S ? 20200502 1646 48.71679306 GAU 0.1 0.0 -270.20117 0.0
M05 ? BHZ i P c 20200502 1646 47.61693573 GAU 0.0 0.0 -93.79102 0.0
