#  2023  10  5  7 35  44.907713  -1.639953303  101.141763587   1.70383  0  0  0  0.02637390  3270
M06  0.59248700  1.000  P
M06  1.07778700  1.000  S
M04  0.63998700  1.000  P
M04  1.11848700  1.000  S
M14  0.64828700  1.000  P
M14  1.13938700  1.000  S
M02  0.72308700  1.000  P
M02  1.24768700  1.000  S
M11  0.68478700  1.000  P
M11  1.18988700  1.000  S
M09  0.74088700  1.000  P
M09  1.29368700  1.000  S
M03  0.74448700  1.000  P
M03  1.30458700  1.000  S
M13  0.91498700  1.000  P
M13  1.63348700  1.000  S
M10  0.98278700  1.000  P
M10  1.75508700  1.000  S
M08  1.04258700  1.000  P
M08  1.85998700  1.000  S
M05  1.08168700  1.000  P
M05  1.92148700  1.000  S
M07  1.19858700  1.000  P
M07  2.11588700  1.000  S
#  2023  10  8  0 46   1.739098  -1.619042821  101.132316283   1.45526  0  0  0  0.02173210  3271
M03  0.42430200  1.000  P
M03  0.78130200  1.000  S
M13  0.38720200  1.000  P
M13  0.70180200  1.000  S
M09  0.42500200  1.000  P
M09  0.75980200  1.000  S
M10  0.45120200  1.000  P
M10  0.83330200  1.000  S
M14  0.50070200  1.000  P
M14  0.88030200  1.000  S
M11  0.53220200  1.000  P
M11  0.93080200  1.000  S
M05  0.52840200  1.000  P
M05  0.95670200  1.000  S
M08  0.58150200  1.000  P
M08  1.03930200  1.000  S
M02  0.52170200  1.000  P
M02  0.91490200  1.000  S
M04  0.64650200  1.000  P
M04  1.15140200  1.000  S
M07  0.66150200  1.000  P
M07  1.18170200  1.000  S
M06  0.73820200  1.000  P
M06  1.31820200  1.000  S
#  2023  10  8  0 46  50.840993  -1.621537930  101.126503307   2.15128  0  0  0  0.04566600  3272
M03  0.31510700  1.000  P
M03  0.59440700  1.000  S
M10  0.58640700  1.000  P
M10  1.01320700  1.000  S
M13  0.57000700  1.000  P
M13  0.91110700  1.000  S
M14  0.67910700  1.000  P
M14  1.15150700  1.000  S
M02  0.64280700  1.000  P
M02  1.14480700  1.000  S
M09  0.51720700  1.000  P
M09  0.83620700  1.000  S
M05  0.71930700  1.000  P
M05  1.16850700  1.000  S
M04  0.78310700  1.000  P
M04  1.34010700  1.000  S
M11  0.75180700  1.000  P
M11  1.20230700  1.000  S
M08  0.81790700  1.000  P
M08  1.38700700  1.000  S
M06  0.93130700  1.000  P
M06  1.55380700  1.000  S
M07  0.80260700  1.000  P
M07  1.36740700  1.000  S
#  2023  10  9 12  0  57.302048  -1.641313042  101.128395783   0.83736  0  0  0  0.02312180  3273
M04  0.68385200  1.000  S
M02  0.74355200  1.000  P
M02  1.30215200  1.000  S
M06  0.61715200  1.000  P
M06  1.13355200  1.000  S
M14  0.67465200  1.000  P
M14  1.20475200  1.000  S
M11  0.75395200  1.000  P
M11  1.31385200  1.000  S
M09  0.76375200  1.000  P
M09  1.36155200  1.000  S
M10  0.82155200  1.000  P
M10  1.41785200  1.000  S
M05  1.00195200  1.000  P
M05  1.79305200  1.000  S
M08  1.09555200  1.000  P
M08  1.92235200  1.000  S
M07  1.20375200  1.000  P
M07  2.10405200  1.000  S
M12  1.32055200  1.000  P
M12  2.34075200  1.000  S
#  2023  10  9 13 10  28.751000  -1.635122445  101.161377565   1.67898  0  0  0  0.03290160  3274
M06  0.75170000  1.000  P
M06  1.32930000  1.000  S
M11  0.78670000  1.000  P
M11  1.38370000  1.000  S
M09  0.90620000  1.000  P
M09  1.62730000  1.000  S
M13  1.05440000  1.000  P
M13  1.88580000  1.000  S
M07  1.34930000  1.000  P
M07  2.33660000  1.000  S
M05  1.37720000  1.000  P
M05  2.41290000  1.000  S
M12  1.51290000  1.000  P
M12  2.63440000  1.000  S
#  2023  10 10  8 52  47.481850  -1.643481032  101.145343607   1.25284  0  0  0  0.02468710  3275
M14  0.67265000  1.000  P
M14  1.19125000  1.000  S
M11  0.71565000  1.000  P
M11  1.24425000  1.000  S
M13  0.92705000  1.000  P
M13  1.60235000  1.000  S
M05  1.28655000  1.000  P
M05  2.26335000  1.000  S
M07  1.27365000  1.000  P
M07  2.22825000  1.000  S
#  2023  10 12  2  8  51.738842  -1.648935486  101.140068588   2.58097  0  0  0  0.02444070  3276
M06  0.82215800  1.000  P
M06  1.37545800  1.000  S
M04  0.87255800  1.000  P
M04  1.43755800  1.000  S
M02  0.96335800  1.000  P
M02  1.64465800  1.000  S
M11  0.86435800  1.000  P
M11  1.45705800  1.000  S
M09  1.09335800  1.000  P
M09  1.87845800  1.000  S
M13  1.22395800  1.000  P
M13  2.10655800  1.000  S
M05  1.38475800  1.000  P
M05  2.35525800  1.000  S
M07  1.56065800  1.000  P
M07  2.69835800  1.000  S
#  2023  10 12  2 25  53.890545  -1.646177257  101.140266178   1.79261  0  0  0  0.04024590  3277
M06  0.60545500  1.000  P
M06  1.05535500  1.000  S
M04  0.75835500  1.000  P
M04  1.36385500  1.000  S
M02  0.79225500  1.000  P
M02  1.35425500  1.000  S
M14  0.71385500  1.000  P
M14  1.28375500  1.000  S
M11  0.72425500  1.000  P
M11  1.21515500  1.000  S
M09  0.94785500  1.000  P
M09  1.68065500  1.000  S
M13  1.08385500  1.000  P
M13  1.96655500  1.000  S
M08  1.30665500  1.000  P
M08  2.30635500  1.000  S
M05  1.19965500  1.000  P
M05  2.11165500  1.000  S
M07  1.35245500  1.000  P
M07  2.36635500  1.000  S
#  2023  10 12  2 26  44.378257  -1.647516842  101.145615306   2.16193  0  0  0  0.04136710  3278
M06  0.73744300  1.000  P
M06  1.21574300  1.000  S
M04  0.73264300  1.000  P
M04  1.22014300  1.000  S
M14  0.89774300  1.000  P
M14  1.64944300  1.000  S
M11  0.89404300  1.000  P
M11  1.59714300  1.000  S
M09  1.05064300  1.000  P
M09  1.80054300  1.000  S
M13  1.32654300  1.000  P
M13  2.30814300  1.000  S
M08  1.41694300  1.000  P
M08  2.50504300  1.000  S
M05  1.39604300  1.000  P
M05  2.38694300  1.000  S
M07  1.46174300  1.000  P
M07  2.55264300  1.000  S
#  2023  10 12  7 33  35.722850  -1.644290855  101.142938009   2.13352  0  0  0  0.02958420  3279
M06  0.66335000  1.000  P
M06  1.12295000  1.000  S
M11  0.78835000  1.000  P
M11  1.43375000  1.000  S
M13  1.07175000  1.000  P
M13  1.92135000  1.000  S
M05  1.27555000  1.000  P
M05  2.16275000  1.000  S
M07  1.37795000  1.000  P
M07  2.36165000  1.000  S
#  2023  10 12  7 35  26.728042  -1.635208406  101.144064730   2.60938  0  0  0  0.01720710  3280
M06  0.71515800  1.000  P
M06  1.23365800  1.000  S
M14  0.65875800  1.000  P
M14  1.13545800  1.000  S
M11  0.78205800  1.000  P
M11  1.33515800  1.000  S
M13  0.96785800  1.000  P
M13  1.62765800  1.000  S
M05  1.17295800  1.000  P
M05  2.03895800  1.000  S
M07  1.38195800  1.000  P
M07  2.40975800  1.000  S
#  2023  10 12  7 44  21.162094  -1.635749275  101.141525158   2.55256  0  0  0  0.01883660  3281
M06  0.69870600  1.000  P
M06  1.19410600  1.000  S
M04  0.71190600  1.000  P
M04  1.26110600  1.000  S
M14  0.77190600  1.000  P
M14  1.31350600  1.000  S
M11  0.78430600  1.000  P
M11  1.32480600  1.000  S
M09  0.80590600  1.000  P
M09  1.41940600  1.000  S
M13  0.95310600  1.000  P
M13  1.63430600  1.000  S
M05  1.22520600  1.000  P
M05  2.14210600  1.000  S
#  2023  10 14  8 24  30.547172  -1.636549448  101.148076887   2.59517  0  0  0  0.01418960  3282
M06  0.73652800  1.000  P
M06  1.23102800  1.000  S
M11  0.80182800  1.000  P
M11  1.37212800  1.000  S
M14  0.85152800  1.000  P
M14  1.45812800  1.000  S
M09  0.90572800  1.000  P
M09  1.54142800  1.000  S
M13  1.00912800  1.000  P
M13  1.69642800  1.000  S
M10  1.10182800  1.000  P
M10  1.87772800  1.000  S
M05  1.23212800  1.000  P
M05  2.11632800  1.000  S
#  2023  10 14 10 32  46.230963  -1.639445229  101.145071920   2.70171  0  0  0  0.02015860  3283
M06  0.76333700  1.000  P
M06  1.29213700  1.000  S
M14  0.84063700  1.000  P
M14  1.45193700  1.000  S
M11  0.83143700  1.000  P
M11  1.45163700  1.000  S
M13  1.10363700  1.000  P
M13  1.84613700  1.000  S
M08  1.13233700  1.000  P
M08  1.96123700  1.000  S
M05  1.26153700  1.000  P
M05  2.14253700  1.000  S
M07  1.25153700  1.000  P
M07  2.15343700  1.000  S
#  2023  10 14 16 31  41.023009  -1.640597932  101.136583702   2.04119  0  0  0  0.02602550  3284
M06  0.62319100  1.000  P
M06  1.07019100  1.000  S
M11  0.77459100  1.000  P
M11  1.35579100  1.000  S
M09  0.83279100  1.000  P
M09  1.46629100  1.000  S
M13  0.89789100  1.000  P
M13  1.51589100  1.000  S
M08  1.09799100  1.000  P
M08  1.86499100  1.000  S
M05  1.27739100  1.000  P
M05  2.23419100  1.000  S
M07  1.12309100  1.000  P
M07  1.92869100  1.000  S
M12  1.38129100  1.000  P
M12  2.36269100  1.000  S
#  2023  10 17  8 13  56.770850  -1.644298930  101.135451248   2.50284  0  0  0  0.05282710  3285
M04  0.91615000  1.000  P
M04  1.56075000  1.000  S
M06  0.83725000  1.000  P
M06  1.42685000  1.000  S
M02  0.83715000  1.000  P
M02  1.43095000  1.000  S
M14  0.83375000  1.000  P
M14  1.45785000  1.000  S
M11  0.92565000  1.000  P
M11  1.54515000  1.000  S
M09  1.00585000  1.000  P
M09  1.68015000  1.000  S
M10  1.18775000  1.000  P
M10  2.06155000  1.000  S
M13  1.09945000  1.000  P
M13  1.88165000  1.000  S
M08  1.26395000  1.000  P
M08  2.16705000  1.000  S
M05  1.22475000  1.000  P
M05  2.12155000  1.000  S
M01  1.26395000  1.000  P
M01  2.14475000  1.000  S
M07  1.37245000  1.000  P
M07  2.35525000  1.000  S
M12  1.56355000  1.000  P
M12  2.65955000  1.000  S
#  2023  10 17  9  1  32.410646  -1.643233821  101.125022058   1.90625  0  0  0  0.02215310  3286
M06  0.77465400  1.000  P
M06  1.34665400  1.000  S
M14  0.77455400  1.000  P
M14  1.36315400  1.000  S
M09  0.95065400  1.000  P
M09  1.62315400  1.000  S
M13  0.94745400  1.000  P
M13  1.63785400  1.000  S
M08  1.24585400  1.000  P
M08  2.11275400  1.000  S
M07  1.33125400  1.000  P
M07  2.28925400  1.000  S
#  2023  10 18  0 33  19.668341  -1.631969821  101.121634442   1.46236  0  0  0  0.00978638  3287
M02  0.47975900  1.000  P
M02  0.84275900  1.000  S
M06  0.75835900  1.000  P
M06  1.31705900  1.000  S
M13  0.89225900  1.000  P
M13  1.58445900  1.000  S
M09  0.73415900  1.000  P
M09  1.30165900  1.000  S
M05  0.78105900  1.000  P
M05  1.41185900  1.000  S
M11  1.37745900  1.000  P
M11  2.40625900  1.000  S
