NLLOC "./loc/SEML.20231018.142135.grid0" "LOCATED" "Location completed."
PUBLIC_ID None
SIGNATURE "Arham Zakki Edelo - edelo.17034@mhs.its.ac.id   obs:./obs/2023_10.obs   NLLoc:v7.00.10(30Aug2020)   run:28Dec2023 20h15m45"
COMMENT "SEML"
GRID  2001 2001 1001  727 9811 -2  0.01 0.01 0.01 PROB_DENSITY
SEARCH OCTREE nInitial 4851 nEvaluated 20011 smallestNodeSide 0.003720/0.003720/0.003551 oct_tree_integral 4.297303e-04 scatter_volume 4.297303e-04
HYPOCENTER  x 737.605 y 9819.84 z -1.53658  OT 34.9511  ix -1 iy -1 iz -1 MAXIMUM_LIKELIHOOD
GEOGRAPHIC  OT 2023 10 18  14 21 34.951095  Lat 9819.841146 Long 737.604539 Depth -1.536577
QUALITY  Pmax 1.32119e+78 MFmin 134.858 MFmax 145.45 RMS 0.217816 Nphs 26 Gap 165.211 Dist 0.177501 Mamp -9.90 0 Mdur -9.90 0
VPVSRATIO  VpVsRatio 1.82171  Npair 13  Diff 0.851337
STATISTICS  ExpectX 737.845443 Y 9819.366594 Z -0.179929  CovXX 0.139171 XY -0.235057 XZ 0.236377 YY 0.591658 YZ -0.492388 ZZ 0.964174 EllAz1  249.464 Dip1  3.00482 Len1  0.365607 Az2  341.799 Dip2  37.8234 Len2  0.97002 Len3  2.215570e+00
STAT_GEOG  ExpectLat 9819.366594 Long 737.845443 Depth -0.179929
TRANSFORM  NONE
QML_OriginQuality  assocPhCt 26  usedPhCt 26  assocStaCt -1  usedStaCt 13  depthPhCt -1  stdErr 0.217816  azGap 165.211  secAzGap 165.211  gtLevel -  minDist 0.177501 maxDist 3.61798 medDist 1.75255
QML_OriginUncertainty  horUnc -1  minHorUnc 0.300139  maxHorUnc 1.26128  azMaxHorUnc 156.953
QML_ConfidenceEllipsoid  semiMajorAxisLength 2.21557  semiMinorAxisLength 0.365607  semiIntermediateAxisLength 0.97002  majorAxisPlunge 52.0142  majorAxisAzimuth 155.609  majorAxisRotation 340.575
FOCALMECH  Hyp  9819.841146 737.604539 -1.536577 Mech  0 0 0 mf  0 nObs -1
PHASE ID Ins Cmp On Pha  FM Date     HrMn   Sec     Err  ErrMag    Coda      Amp       Per       PriorWt  >   TTpred    Res       Weight    StaLoc(X  Y         Z)        SDist    SAzim  RAz  RDip RQual    Tcorr       TTerr
M14          ?    BHZ  e P      c 20231018 1421   35.0128 GAU  2.47e-03 -1.00e+00 -1.00e+00 -1.00e+00    1.0000 >    0.0619   -0.0002    3.2264  737.5530 9820.0110   -1.3980    0.1775 343.12 343.1  52.0  9     0.0000    0.0020
M14          ?    BHN  e S      ? 20231018 1421   35.5233 GAU  2.42e-03 -1.00e+00  4.18e+02 -1.00e+00    1.0000 >    0.1067    0.4655    0.5647  737.5530 9820.0110   -1.3980    0.1775 343.12 343.1  52.0  9     0.0000    0.0021
M04          ?    BHZ  i P      c 20231018 1421   35.1578 GAU  3.25e-03 -1.00e+00 -1.00e+00 -1.00e+00    1.0000 >    0.2064    0.0003    3.0957  737.1400 9819.2520   -1.5710    0.7503 218.26 218.3  92.7  9     0.0000    0.0041
M04          ?    BHE  e S      ? 20231018 1421   35.7286 GAU  3.26e-03 -1.00e+00  3.11e+02 -1.00e+00    1.0000 >    0.3560    0.4215    1.2951  737.1400 9819.2520   -1.5710    0.7503 218.26 218.3  92.7  9     0.0000    0.0071
M11          ?    BHZ  e P      c 20231018 1421   35.2557 GAU  2.68e-03 -1.00e+00 -1.00e+00 -1.00e+00    1.0000 >    0.3031    0.0015    2.8582  738.4670 9820.4900   -1.3120    1.0793  53.04  53.0  78.1 10     0.0000    0.0061
M11          ?    BHE  e S      ? 20231018 1421   35.9295 GAU  2.78e-03 -1.00e+00 -1.00e+00 -1.00e+00    1.0000 >    0.5229    0.4555    0.6910  738.4670 9820.4900   -1.3120    1.0793  53.04  53.0  78.1 10     0.0000    0.0105
M02          ?    BHZ  i P      c 20231018 1421   35.3169 GAU  1.37e-03 -1.00e+00 -1.00e+00 -1.00e+00    1.0000 >    0.3018    0.0641    1.7432  736.5970 9819.4060   -1.4960    1.0975 246.64 246.6  87.7  9     0.0000    0.0060
M02          ?    BHN  e S      ? 20231018 1421   36.0735 GAU  4.01e-03 -1.00e+00 -1.00e+00 -1.00e+00    1.0000 >    0.5206    0.6018    0.0073  736.5970 9819.4060   -1.4960    1.0975 246.64 246.6  87.7  9     0.0000    0.0104
M09          ?    BHZ  i P      c 20231018 1421   35.3468 GAU  2.78e-03 -1.00e+00  1.17e+02 -1.00e+00    1.0000 >    0.3319    0.0638    1.7323  737.8820 9820.9850   -1.2700    1.1770  13.63  13.6  77.1 10     0.0000    0.0066
M09          ?    BHN  e S      ? 20231018 1421   36.0782 GAU  2.63e-03 -1.00e+00  5.13e+02 -1.00e+00    1.0000 >    0.5725    0.5546    0.0073  737.8820 9820.9850   -1.2700    1.1770  13.63  13.6  77.1 10     0.0000    0.0115
M03          ?    BHZ  e P      c 20231018 1421   35.7163 GAU  3.09e-03 -1.00e+00 -1.00e+00 -1.00e+00    1.0000 >    0.3468    0.4184    1.3076  736.8800 9820.8540   -1.3350    1.2453 324.42 324.4  80.6  9     0.0000    0.0069
M03          ?    BHN  e S      ? 20231018 1421   36.6404 GAU  6.21e-04 -1.00e+00 -1.00e+00 -1.00e+00    1.0000 >    0.5983    1.0910    0.3024  736.8800 9820.8540   -1.3350    1.2453 324.42 324.4  80.6  9     0.0000    0.0120
M13          ?    BHZ  i P      c 20231018 1421   35.2619 GAU  1.67e-03 -1.00e+00 -1.00e+00 -1.00e+00    1.0000 >    0.4896   -0.1788    0.5653  737.1780 9821.5410   -1.2220    1.7526 345.91 345.9  79.6 10     0.0000    0.0098
M13          ?    BHE  e S      ? 20231018 1421   35.8626 GAU  5.20e-04 -1.00e+00 -1.00e+00 -1.00e+00    1.0000 >    0.8446    0.0670    1.2549  737.1780 9821.5410   -1.2220    1.7526 345.91 345.9  79.6 10     0.0000    0.0169
M10          ?    BHZ  e P      d 20231018 1421   35.2856 GAU  3.74e-04 -1.00e+00  2.56e+03 -1.00e+00    1.0000 >    0.5170   -0.1826    0.5631  736.5490 9821.3650   -1.2200    1.8537 325.29 325.3  80.1 10     0.0000    0.0103
M10          ?    BHN  e S      ? 20231018 1421   35.8992 GAU  5.39e-04 -1.00e+00 -1.00e+00 -1.00e+00    1.0000 >    0.8919    0.0561    1.2510  736.5490 9821.3650   -1.2200    1.8537 325.29 325.3  80.1 10     0.0000    0.0178
M08          ?    BHZ  e P      d 20231018 1421   35.9819 GAU  8.40e-05 -1.00e+00  6.53e+02 -1.00e+00    1.0000 >    0.6700    0.3607    0.1462  738.2480 9822.1600   -1.1510    2.4065  15.51  15.5  80.7 10     0.0000    0.0134
M08          ?    BHE  e S      ? 20231018 1421   37.1902 GAU  2.04e-03 -1.00e+00 -1.00e+00 -1.00e+00    1.0000 >    1.1559    1.0832    0.3024  738.2480 9822.1600   -1.1510    2.4065  15.51  15.5  80.7 10     0.0000    0.0231
M05          ?    BHZ  i P      c 20231018 1421   35.6793 GAU  2.95e-03 -1.00e+00  1.27e+02 -1.00e+00    1.0000 >    0.7256    0.0026    1.8772  736.2660 9822.0830   -1.1500    2.6111 329.16 329.2  81.4 10     0.0000    0.0145
M05          ?    BHN  e S      ? 20231018 1421   36.6136 GAU  2.90e-03 -1.00e+00  2.03e+02 -1.00e+00    1.0000 >    1.2518    0.4108    0.9816  736.2660 9822.0830   -1.1500    2.6111 329.16 329.2  81.4 10     0.0000    0.0250
M01          ?    BHZ  e P      d 20231018 1421   35.7835 GAU  3.20e-03 -1.00e+00  6.21e+02 -1.00e+00    1.0000 >    0.8130    0.0194    1.2664  736.4090 9822.5140   -1.1200    2.9280 335.90 335.9  81.7 10     0.0000    0.0163
M01          ?    BHE  e S      ? 20231018 1421   36.7618 GAU  2.24e-03 -1.00e+00  5.35e+02 -1.00e+00    1.0000 >    1.4025    0.4082    0.9408  736.4090 9822.5140   -1.1200    2.9280 335.90 335.9  81.7 10     0.0000    0.0281
M07          ?    BHZ  i P      d 20231018 1421   35.5175 GAU  2.60e-04 -1.00e+00  7.86e+02 -1.00e+00    1.0000 >    0.8237   -0.2574    0.0004  737.4430 9822.8030   -1.1120    2.9663 356.88 356.9  81.7 10     0.0000    0.0165
M07          ?    BHE  e S      ? 20231018 1421   36.2725 GAU  2.78e-03 -1.00e+00 -1.00e+00 -1.00e+00    1.0000 >    1.4210   -0.0996    0.0197  737.4430 9822.8030   -1.1120    2.9663 356.88 356.9  81.7 10     0.0000    0.0284
M12          ?    BHZ  e P      c 20231018 1421   36.1701 GAU  2.82e-03 -1.00e+00 -1.00e+00 -1.00e+00    1.0000 >    1.0055    0.2135    0.0000  736.8520 9823.3800   -0.9890    3.6180 347.99 348.0  80.8 10     0.0000    0.0201
M12          ?    BHN  e S      ? 20231018 1421   37.5320 GAU  2.74e-03 -1.00e+00 -1.00e+00 -1.00e+00    1.0000 >    1.7351    0.8458    0.0000  736.8520 9823.3800   -0.9890    3.6180 347.99 348.0  81.0 10     0.0000    0.0347
END_PHASE
END_NLLOC

