NLLOC "./loc/SEML.20231012.022554.grid0" "LOCATED" "Location completed."
PUBLIC_ID None
SIGNATURE "Arham Zakki Edelo - edelo.17034@mhs.its.ac.id   obs:./obs/2023_10.obs   NLLoc:v7.00.10(30Aug2020)   run:28Dec2023 20h15m39"
COMMENT "SEML"
GRID  2001 2001 1001  727 9811 -2  0.01 0.01 0.01 PROB_DENSITY
SEARCH OCTREE nInitial 4851 nEvaluated 20011 smallestNodeSide 0.029762/0.029762/0.028409 oct_tree_integral 9.749654e-02 scatter_volume 9.749654e-02
HYPOCENTER  x 738.116 y 9817.92 z 0.542614  OT 53.8905  ix -1 iy -1 iz -1 MAXIMUM_LIKELIHOOD
GEOGRAPHIC  OT 2023 10 12  02 25 53.890545  Lat 9817.919643 Long 738.116071 Depth 0.542614
QUALITY  Pmax 4.63142e+62 MFmin 72.6153 MFmax 89.5379 RMS 0.0402459 Nphs 20 Gap 305.176 Dist 1.21296 Mamp -9.90 0 Mdur -9.90 0
VPVSRATIO  VpVsRatio 1.78338  Npair 10  Diff 0.564014
STATISTICS  ExpectX 738.124653 Y 9817.792470 Z 0.667962  CovXX 0.234267 XY 0.0144467 XZ 0.108098 YY 0.0362539 YZ -0.00270571 ZZ 0.124017 EllAz1  166.805 Dip1  -16.5376 Len1  0.336313 Az2  233.043 Dip2  53.6131 Len2  0.46617 Len3  1.030678e+00
STAT_GEOG  ExpectLat 9817.792470 Long 738.124653 Depth 0.667962
TRANSFORM  NONE
QML_OriginQuality  assocPhCt 20  usedPhCt 20  assocStaCt -1  usedStaCt 10  depthPhCt -1  stdErr 0.0402459  azGap 305.176  secAzGap 305.176  gtLevel -  minDist 1.21296 maxDist 4.92952 medDist 2.83424
QML_OriginUncertainty  horUnc -1  minHorUnc 0.284557  maxHorUnc 0.73568  azMaxHorUnc 85.8491
QML_ConfidenceEllipsoid  semiMajorAxisLength 1.03068  semiMinorAxisLength 0.336313  semiIntermediateAxisLength 0.46617  majorAxisPlunge 31.3648  majorAxisAzimuth 87.2323  majorAxisRotation 322.343
FOCALMECH  Hyp  9817.919643 738.116071 0.542614 Mech  0 0 0 mf  0 nObs -1
PHASE ID Ins Cmp On Pha  FM Date     HrMn   Sec     Err  ErrMag    Coda      Amp       Per       PriorWt  >   TTpred    Res       Weight    StaLoc(X  Y         Z)        SDist    SAzim  RAz  RDip RQual    Tcorr       TTerr
M06          ?    BHZ  i P      c 20231012 0225   54.4960 GAU  2.87e-03 -1.00e+00 -1.00e+00 -1.00e+00    1.0000 >    0.6073   -0.0019    1.8510  738.3100 9819.1170   -1.3960    1.2130   9.20   9.2 146.8 10     0.0000    0.0121
M06          ?    BHE  e S      ? 20231012 0225   54.9459 GAU  2.62e-03 -1.00e+00 -1.00e+00 -1.00e+00    1.0000 >    1.0570   -0.0017    1.7312  738.3100 9819.1170   -1.3960    1.2130   9.20   9.2 143.5 10     0.0000    0.0211
M04          ?    BHZ  e P      c 20231012 0225   54.6489 GAU  2.12e-03 -1.00e+00 -1.00e+00 -1.00e+00    1.0000 >    0.7142    0.0442    0.7923  737.1400 9819.2520   -1.5710    1.6516 323.77 323.8 140.3 10     0.0000    0.0143
M04          ?    BHE  e S      ? 20231012 0225   55.2544 GAU  2.19e-03 -1.00e+00  3.40e+02 -1.00e+00    1.0000 >    1.2420    0.1219    0.2868  737.1400 9819.2520   -1.5710    1.6516 323.77 323.8 136.1 10     0.0000    0.0248
M02          ?    BHZ  i P      c 20231012 0225   54.6828 GAU  2.94e-03 -1.00e+00 -1.00e+00 -1.00e+00    1.0000 >    0.7829    0.0094    1.7419  736.5970 9819.4060   -1.4960    2.1253 314.38 314.4 131.4 10     0.0000    0.0157
M02          ?    BHE  e S      ? 20231012 0225   55.2448 GAU  2.96e-03 -1.00e+00 -1.00e+00 -1.00e+00    1.0000 >    1.3618   -0.0076    1.6145  736.5970 9819.4060   -1.4960    2.1253 314.38 314.4 125.6 10     0.0000    0.0272
M14          ?    BHZ  e P      c 20231012 0225   54.6044 GAU  2.99e-03 -1.00e+00 -1.00e+00 -1.00e+00    1.0000 >    0.7718   -0.0579    0.7824  737.5530 9820.0110   -1.3980    2.1658 344.93 344.9 129.4 10     0.0000    0.0154
M14          ?    BHN  e S      ? 20231012 0225   55.1743 GAU  2.41e-03 -1.00e+00  3.45e+02 -1.00e+00    1.0000 >    1.3430   -0.0593    0.9251  737.5530 9820.0110   -1.3980    2.1658 344.93 344.9 123.1 10     0.0000    0.0269
M11          ?    BHZ  e P      c 20231012 0225   54.6148 GAU  2.45e-03 -1.00e+00 -1.00e+00 -1.00e+00    1.0000 >    0.8450   -0.1207    0.2792  738.4670 9820.4900   -1.3120    2.5942   7.77   7.8 122.7 10     0.0000    0.0169
M11          ?    BHE  e S      ? 20231012 0225   55.1057 GAU  2.51e-03 -1.00e+00 -1.00e+00 -1.00e+00    1.0000 >    1.4708   -0.2556    0.0025  738.4670 9820.4900   -1.3120    2.5942   7.77   7.8 114.1 10     0.0000    0.0294
M09          ?    BHZ  i P      c 20231012 0225   54.8384 GAU  3.33e-03 -1.00e+00  1.44e+02 -1.00e+00    1.0000 >    0.9447    0.0031    1.7634  737.8820 9820.9850   -1.2700    3.0743 355.63 355.6 117.2 10     0.0000    0.0189
M09          ?    BHN  e S      ? 20231012 0225   55.5712 GAU  2.04e-03 -1.00e+00  4.80e+02 -1.00e+00    1.0000 >    1.6442    0.0364    1.1984  737.8820 9820.9850   -1.2700    3.0743 355.63 355.6 105.8 10     0.0000    0.0329
M13          ?    BHZ  i P      d 20231012 0225   54.9744 GAU  2.68e-03 -1.00e+00  1.77e+02 -1.00e+00    1.0000 >    1.0933   -0.0094    1.6678  737.1780 9821.5410   -1.2220    3.7409 345.48 345.5 111.3 10     0.0000    0.0219
M13          ?    BHN  e S      ? 20231012 0225   55.8571 GAU  2.36e-03 -1.00e+00 -1.00e+00 -1.00e+00    1.0000 >    1.9010    0.0656    0.8181  737.1780 9821.5410   -1.2220    3.7409 345.48 345.5  95.6  9     0.0000    0.0380
M08          ?    BHZ  i P      c 20231012 0225   55.1972 GAU  2.37e-03 -1.00e+00 -1.00e+00 -1.00e+00    1.0000 >    1.2051    0.1015    0.3837  738.2480 9822.1600   -1.1510    4.2424   1.78   1.8 107.5 10     0.0000    0.0241
M08          ?    BHE  e S      ? 20231012 0225   56.1969 GAU  2.00e-03 -1.00e+00 -1.00e+00 -1.00e+00    1.0000 >    2.0892    0.2172    0.0320  738.2480 9822.1600   -1.1510    4.2424   1.78   1.8  92.9  9     0.0000    0.0418
M05          ?    BHZ  i P      d 20231012 0225   55.0902 GAU  2.43e-03 -1.00e+00  3.02e+02 -1.00e+00    1.0000 >    1.2818   -0.0821    0.6680  736.2660 9822.0830   -1.1500    4.5559 336.04 336.0 105.9 10     0.0000    0.0256
M05          ?    BHN  e S      ? 20231012 0225   56.0022 GAU  2.12e-03 -1.00e+00  2.90e+02 -1.00e+00    1.0000 >    2.2173   -0.1056    0.5700  736.2660 9822.0830   -1.1500    4.5559 336.04 336.0  92.3  9     0.0000    0.0443
M07          ?    BHZ  i P      d 20231012 0225   55.2430 GAU  2.30e-03 -1.00e+00  4.61e+02 -1.00e+00    1.0000 >    1.3697   -0.0172    1.5314  737.4430 9822.8030   -1.1120    4.9295 352.15 352.2 103.9 10     0.0000    0.0274
M07          ?    BHN  e S      ? 20231012 0225   56.2569 GAU  3.73e-03 -1.00e+00 -1.00e+00 -1.00e+00    1.0000 >    2.3614    0.0050    1.3603  737.4430 9822.8030   -1.1120    4.9295 352.15 352.2  91.8  9     0.0000    0.0472
END_PHASE
END_NLLOC

