NLLOC "./loc/SEML.20231009.131029.grid0" "LOCATED" "Location completed."
PUBLIC_ID None
SIGNATURE "Arham Zakki Edelo - edelo.17034@mhs.its.ac.id   obs:./obs/2023_10.obs   NLLoc:v7.00.10(30Aug2020)   run:28Dec2023 20h15m38"
COMMENT "SEML"
GRID  2001 2001 1001  727 9811 -2  0.01 0.01 0.01 PROB_DENSITY
SEARCH OCTREE nInitial 4851 nEvaluated 20019 smallestNodeSide 0.029762/0.029762/0.028409 oct_tree_integral 1.473995e-01 scatter_volume 1.467659e-01
HYPOCENTER  x 740.467 y 9819.14 z 0.428977  OT 28.751  ix -1 iy -1 iz -1 MAXIMUM_LIKELIHOOD
GEOGRAPHIC  OT 2023 10 09  13 10 28.751000  Lat 9819.139881 Long 740.467262 Depth 0.428977
QUALITY  Pmax 1.16558e+42 MFmin 46.2696 MFmax 55.8047 RMS 0.0329016 Nphs 14 Gap 308.935 Dist 2.15738 Mamp -9.90 0 Mdur -9.90 0
VPVSRATIO  VpVsRatio 1.66879  Npair 7  Diff 0.543749
STATISTICS  ExpectX 739.845736 Y 9818.687765 Z 0.555051  CovXX 0.514191 XY 0.306789 XZ 0.0409769 YY 0.224073 YZ 0.0152886 ZZ 0.0688439 EllAz1  146.81 Dip1  -13.1729 Len1  0.312522 Az2  343.525 Dip2  -76.2676 Len2  0.490303 Len3  1.584621e+00
STAT_GEOG  ExpectLat 9818.687765 Long 739.845736 Depth 0.555051
TRANSFORM  NONE
QML_OriginQuality  assocPhCt 14  usedPhCt 14  assocStaCt -1  usedStaCt 7  depthPhCt -1  stdErr 0.0329016  azGap 308.935  secAzGap 308.935  gtLevel -  minDist 2.15738 maxDist 5.57214 medDist 4.07242
QML_OriginUncertainty  horUnc -1  minHorUnc 0.261701  maxHorUnc 1.27653  azMaxHorUnc 57.6531
QML_ConfidenceEllipsoid  semiMajorAxisLength 1.58462  semiMinorAxisLength 0.312522  semiIntermediateAxisLength 0.490303  majorAxisPlunge 3.8117  majorAxisAzimuth 57.7035  majorAxisRotation 346.684
FOCALMECH  Hyp  9819.139881 740.467262 0.428977 Mech  0 0 0 mf  0 nObs -1
PHASE ID Ins Cmp On Pha  FM Date     HrMn   Sec     Err  ErrMag    Coda      Amp       Per       PriorWt  >   TTpred    Res       Weight    StaLoc(X  Y         Z)        SDist    SAzim  RAz  RDip RQual    Tcorr       TTerr
M06          ?    BHZ  i P      d 20231009 1310   29.5027 GAU  2.38e-03 -1.00e+00 -1.00e+00 -1.00e+00    1.0000 >    0.7513    0.0003    1.4886  738.3100 9819.1170   -1.3960    2.1574 269.39 269.4 128.2 10     0.0000    0.0150
M06          ?    BHN  e S      ? 20231009 1310   30.0803 GAU  2.17e-03 -1.00e+00 -1.00e+00 -1.00e+00    1.0000 >    1.3107    0.0186    1.2211  738.3100 9819.1170   -1.3960    2.1574 269.39 269.4 127.2 10     0.0000    0.0262
M11          ?    BHZ  i P      d 20231009 1310   29.5377 GAU  2.33e-03 -1.00e+00  1.05e+02 -1.00e+00    1.0000 >    0.7900   -0.0033    1.4826  738.4670 9820.4900   -1.3120    2.4133 304.02 304.0 123.6 10     0.0000    0.0158
M11          ?    BHE  e S      ? 20231009 1310   30.1347 GAU  2.49e-03 -1.00e+00 -1.00e+00 -1.00e+00    1.0000 >    1.3789    0.0048    1.3467  738.4670 9820.4900   -1.3120    2.4133 304.02 304.0 122.3 10     0.0000    0.0276
M09          ?    BHZ  i P      d 20231009 1310   29.6572 GAU  2.89e-03 -1.00e+00  2.28e+02 -1.00e+00    1.0000 >    0.9551   -0.0489    0.8237  737.8820 9820.9850   -1.2700    3.1762 305.52 305.5 115.5 10     0.0000    0.0191
M09          ?    BHE  i S      ? 20231009 1310   30.3783 GAU  2.61e-03 -1.00e+00  3.70e+02 -1.00e+00    1.0000 >    1.6677   -0.0404    1.0485  737.8820 9820.9850   -1.2700    3.1762 305.52 305.5 113.7 10     0.0000    0.0334
M13          ?    BHZ  i P      c 20231009 1310   29.8054 GAU  6.47e-04 -1.00e+00  6.40e+01 -1.00e+00    1.0000 >    1.1632   -0.1088    0.2809  737.1780 9821.5410   -1.2220    4.0724 306.13 306.1 109.2 10     0.0000    0.0233
M13          ?    BHN  i S      ? 20231009 1310   30.6368 GAU  4.99e-04 -1.00e+00 -1.00e+00 -1.00e+00    1.0000 >    2.0314   -0.1456    0.1887  737.1780 9821.5410   -1.2220    4.0724 306.13 306.1 106.6 10     0.0000    0.0406
M07          ?    BHZ  i P      c 20231009 1310   30.1003 GAU  2.47e-03 -1.00e+00 -1.00e+00 -1.00e+00    1.0000 >    1.3176    0.0317    0.9966  737.4430 9822.8030   -1.1120    4.7502 320.46 320.5 105.1 10     0.0000    0.0264
M07          ?    BHE  e S      ? 20231009 1310   31.0876 GAU  3.56e-03 -1.00e+00 -1.00e+00 -1.00e+00    1.0000 >    2.2997    0.0369    0.8805  737.4430 9822.8030   -1.1120    4.7502 320.46 320.5  70.8  9     0.0000    0.0460
M05          ?    BHZ  e P      d 20231009 1310   30.1282 GAU  2.55e-03 -1.00e+00  2.35e+02 -1.00e+00    1.0000 >    1.4168   -0.0395    1.0507  736.2660 9822.0830   -1.1500    5.1296 305.01 305.0 104.1 10     0.0000    0.0283
M05          ?    BHN  e S      ? 20231009 1310   31.1639 GAU  1.60e-04 -1.00e+00  2.60e+02 -1.00e+00    1.0000 >    2.4642   -0.0512    0.9230  736.2660 9822.0830   -1.1500    5.1296 305.01 305.0  67.2 10     0.0000    0.0493
M12          ?    BHZ  i P      d 20231009 1310   30.2639 GAU  2.47e-03 -1.00e+00 -1.00e+00 -1.00e+00    1.0000 >    1.5111    0.0019    1.3265  736.8520 9823.3800   -0.9890    5.5721 319.55 319.5 101.7 10     0.0000    0.0302
M12          ?    BHE  e S      ? 20231009 1310   31.3854 GAU  2.18e-03 -1.00e+00  7.34e+01 -1.00e+00    1.0000 >    2.6078    0.0265    0.9418  736.8520 9823.3800   -0.9890    5.5721 319.55 319.5  67.2 10     0.0000    0.0522
END_PHASE
END_NLLOC

