NLLOC "./loc/SEML.20231008.004651.grid0" "LOCATED" "Location completed."
PUBLIC_ID None
SIGNATURE "Arham Zakki Edelo - edelo.17034@mhs.its.ac.id   obs:./obs/2023_10.obs   NLLoc:v7.00.10(30Aug2020)   run:28Dec2023 20h15m36"
COMMENT "SEML"
GRID  2001 2001 1001  727 9811 -2  0.01 0.01 0.01 PROB_DENSITY
SEARCH OCTREE nInitial 4851 nEvaluated 20003 smallestNodeSide 0.007440/0.007440/0.007102 oct_tree_integral 7.251202e-03 scatter_volume 7.241998e-03
HYPOCENTER  x 736.587 y 9820.65 z 0.901278  OT 50.841  ix -1 iy -1 iz -1 MAXIMUM_LIKELIHOOD
GEOGRAPHIC  OT 2023 10 08  00 46 50.840993  Lat 9820.646577 Long 736.587054 Depth 0.901278
QUALITY  Pmax 5.35247e+78 MFmin 101.156 MFmax 140.317 RMS 0.045666 Nphs 24 Gap 167.86 Dist 0.358945 Mamp -9.90 0 Mdur -9.90 0
VPVSRATIO  VpVsRatio 1.88249  Npair 12  Diff 0.34314
STATISTICS  ExpectX 736.616072 Y 9820.643867 Z 0.857815  CovXX 0.0241055 XY 0.00355983 XZ -0.0152065 YY 0.00413411 YZ -0.00380832 ZZ 0.0220893 EllAz1  356.8 Dip1  8.94911 Len1  0.108492 Az2  276.183 Dip2  -45.9951 Len2  0.16682 Len3  3.715663e-01
STAT_GEOG  ExpectLat 9820.643867 Long 736.616072 Depth 0.857815
TRANSFORM  NONE
QML_OriginQuality  assocPhCt 24  usedPhCt 24  assocStaCt -1  usedStaCt 12  depthPhCt -1  stdErr 0.045666  azGap 167.86  secAzGap 167.86  gtLevel -  minDist 0.358945 maxDist 2.32009 medDist 1.40515
QML_OriginUncertainty  horUnc -1  minHorUnc 0.0899594  maxHorUnc 0.23845  azMaxHorUnc 80.1896
QML_ConfidenceEllipsoid  semiMajorAxisLength 0.371566  semiMinorAxisLength 0.108492  semiIntermediateAxisLength 0.16682  majorAxisPlunge -42.6159  majorAxisAzimuth 78.4689  majorAxisRotation 111.024
FOCALMECH  Hyp  9820.646577 736.587054 0.901278 Mech  0 0 0 mf  0 nObs -1
PHASE ID Ins Cmp On Pha  FM Date     HrMn   Sec     Err  ErrMag    Coda      Amp       Per       PriorWt  >   TTpred    Res       Weight    StaLoc(X  Y         Z)        SDist    SAzim  RAz  RDip RQual    Tcorr       TTerr
M03          ?    BHZ  e P      d 20231008 0046   51.1561 GAU  2.28e-03 -1.00e+00  8.11e+01 -1.00e+00    1.0000 >    0.5975   -0.2824    0.0746  736.8800 9820.8540   -1.3350    0.3589  54.70  54.7 170.4 10     0.0000    0.0120
M03          ?    BHN  e S      ? 20231008 0046   51.4354 GAU  2.73e-03 -1.00e+00 -1.00e+00 -1.00e+00    1.0000 >    1.0274   -0.4330    0.0002  736.8800 9820.8540   -1.3350    0.3589  54.70  54.7 169.7 10     0.0000    0.0205
M10          ?    BHZ  i P      c 20231008 0046   51.4274 GAU  3.34e-03 -1.00e+00 -1.00e+00 -1.00e+00    1.0000 >    0.5898   -0.0034    1.9244  736.5490 9821.3650   -1.2200    0.7194 356.97 357.0 160.7 10     0.0000    0.0118
M10          ?    BHN  e S      ? 20231008 0046   51.8542 GAU  3.00e-03 -1.00e+00  1.24e+02 -1.00e+00    1.0000 >    1.0139   -0.0007    1.7745  736.5490 9821.3650   -1.2200    0.7194 356.97 357.0 159.2 10     0.0000    0.0203
M13          ?    BHZ  i P      d 20231008 0046   51.4110 GAU  2.62e-03 -1.00e+00  2.01e+02 -1.00e+00    1.0000 >    0.6263   -0.0563    0.5477  737.1780 9821.5410   -1.2220    1.0720  33.45  33.5 152.5 10     0.0000    0.0125
M13          ?    BHN  e S      ? 20231008 0046   51.7521 GAU  2.87e-03 -1.00e+00 -1.00e+00 -1.00e+00    1.0000 >    1.0764   -0.1653    0.2391  737.1780 9821.5410   -1.2220    1.0720  33.45  33.5 150.4 10     0.0000    0.0215
M14          ?    BHZ  i P      d 20231008 0046   51.5201 GAU  1.86e-03 -1.00e+00  7.74e+02 -1.00e+00    1.0000 >    0.6797   -0.0006    1.9346  737.5530 9820.0110   -1.3980    1.1563 123.34 123.3 152.5 10     0.0000    0.0136
M14          ?    BHN  e S      ? 20231008 0046   51.9925 GAU  8.63e-04 -1.00e+00  4.17e+02 -1.00e+00    1.0000 >    1.1686   -0.0171    1.4701  737.5530 9820.0110   -1.3980    1.1563 123.34 123.3 150.4 10     0.0000    0.0234
M02          ?    BHZ  i P      d 20231008 0046   51.4838 GAU  8.73e-04 -1.00e+00 -1.00e+00 -1.00e+00    1.0000 >    0.7140   -0.0712    0.4987  736.5970 9819.4060   -1.4960    1.2406 179.54 179.5 151.7 10     0.0000    0.0143
M02          ?    BHE  e S      ? 20231008 0046   51.9858 GAU  2.94e-03 -1.00e+00  1.24e+03 -1.00e+00    1.0000 >    1.2277   -0.0829    0.4746  736.5970 9819.4060   -1.4960    1.2406 179.54 179.5 149.5 10     0.0000    0.0246
M09          ?    BHZ  e P      c 20231008 0046   51.3582 GAU  2.23e-03 -1.00e+00 -1.00e+00 -1.00e+00    1.0000 >    0.6720   -0.1548    0.2580  737.8820 9820.9850   -1.2700    1.3384  75.35  75.4 147.4 10     0.0000    0.0134
M09          ?    BHN  e S      ? 20231008 0046   51.6772 GAU  3.33e-03 -1.00e+00  4.93e+02 -1.00e+00    1.0000 >    1.1550   -0.3188    0.0748  737.8820 9820.9850   -1.2700    1.3384  75.35  75.4 144.9 10     0.0000    0.0231
M05          ?    BHZ  i P      d 20231008 0046   51.5603 GAU  4.33e-04 -1.00e+00  2.68e+02 -1.00e+00    1.0000 >    0.6635    0.0559    0.7029  736.2660 9822.0830   -1.1500    1.4719 347.40 347.4 143.5 10     0.0000    0.0133
M05          ?    BHN  e S      ? 20231008 0046   52.0095 GAU  5.62e-04 -1.00e+00  2.78e+02 -1.00e+00    1.0000 >    1.1399    0.0286    1.4166  736.2660 9822.0830   -1.1500    1.4719 347.40 347.4 140.5 10     0.0000    0.0228
M04          ?    BHZ  e P      c 20231008 0046   51.6241 GAU  3.04e-03 -1.00e+00 -1.00e+00 -1.00e+00    1.0000 >    0.7657    0.0174    1.6815  737.1400 9819.2520   -1.5710    1.5002 158.37 158.4 147.6 10     0.0000    0.0153
M04          ?    BHE  e S      ? 20231008 0046   52.1811 GAU  2.86e-03 -1.00e+00  4.09e+02 -1.00e+00    1.0000 >    1.3166    0.0235    1.4954  737.1400 9819.2520   -1.5710    1.5002 158.37 158.4 145.0 10     0.0000    0.0263
M11          ?    BHZ  i P      d 20231008 0046   51.5928 GAU  2.53e-03 -1.00e+00  3.64e+02 -1.00e+00    1.0000 >    0.7664   -0.0146    1.5701  738.4670 9820.4900   -1.3120    1.8865  94.76  94.8 138.3 10     0.0000    0.0153
M11          ?    BHN  e S      ? 20231008 0046   52.0433 GAU  2.05e-03 -1.00e+00 -1.00e+00 -1.00e+00    1.0000 >    1.3168   -0.1145    0.3084  738.4670 9820.4900   -1.3120    1.8865  94.76  94.8 134.7 10     0.0000    0.0263
M08          ?    BHZ  i P      c 20231008 0046   51.6589 GAU  4.33e-04 -1.00e+00 -1.00e+00 -1.00e+00    1.0000 >    0.7991    0.0188    1.6456  738.2480 9822.1600   -1.1510    2.2470  47.66  47.7 130.7 10     0.0000    0.0160
M08          ?    BHN  e S      ? 20231008 0046   52.2280 GAU  6.76e-04 -1.00e+00  3.33e+02 -1.00e+00    1.0000 >    1.3718    0.0152    1.5857  738.2480 9822.1600   -1.1510    2.2470  47.66  47.7 126.2 10     0.0000    0.0274
M06          ?    BHZ  i P      c 20231008 0046   51.7723 GAU  2.17e-03 -1.00e+00 -1.00e+00 -1.00e+00    1.0000 >    0.8585    0.0728    0.4943  738.3100 9819.1170   -1.3960    2.3039 131.60 131.6 133.2 10     0.0000    0.0172
M06          ?    BHE  e S      ? 20231008 0046   52.3948 GAU  2.03e-03 -1.00e+00 -1.00e+00 -1.00e+00    1.0000 >    1.4749    0.0789    0.5169  738.3100 9819.1170   -1.3960    2.3039 131.60 131.6 128.9 10     0.0000    0.0295
M07          ?    BHZ  i P      c 20231008 0046   51.6436 GAU  1.24e-03 -1.00e+00 -1.00e+00 -1.00e+00    1.0000 >    0.8060   -0.0034    1.8490  737.4430 9822.8030   -1.1120    2.3201  21.65  21.6 129.1 10     0.0000    0.0161
M07          ?    BHN  e S      ? 20231008 0046   52.2084 GAU  5.24e-04 -1.00e+00 -1.00e+00 -1.00e+00    1.0000 >    1.3832   -0.0158    1.4622  737.4430 9822.8030   -1.1120    2.3201  21.65  21.6 124.3 10     0.0000    0.0277
END_PHASE
END_NLLOC

