NLLOC "./loc/SEML.20231012.073527.grid0" "LOCATED" "Location completed."
PUBLIC_ID None
SIGNATURE "Arham Zakki Edelo - edelo.17034@mhs.its.ac.id   obs:./obs/2023_10.obs   NLLoc:v7.00.10(30Aug2020)   run:28Dec2023 20h15m40"
COMMENT "SEML"
GRID  2001 2001 1001  727 9811 -2  0.01 0.01 0.01 PROB_DENSITY
SEARCH OCTREE nInitial 4851 nEvaluated 20011 smallestNodeSide 0.014881/0.014881/0.014205 oct_tree_integral 3.474517e-02 scatter_volume 3.474517e-02
HYPOCENTER  x 738.54 y 9819.13 z 1.35938  OT 26.728  ix -1 iy -1 iz -1 MAXIMUM_LIKELIHOOD
GEOGRAPHIC  OT 2023 10 12  07 35 26.728042  Lat 9819.132440 Long 738.540179 Depth 1.359375
QUALITY  Pmax 1.51056e+33 MFmin 43.4076 MFmax 51.9195 RMS 0.0172071 Nphs 12 Gap 269.248 Dist 0.230696 Mamp -9.90 0 Mdur -9.90 0
VPVSRATIO  VpVsRatio 1.79466  Npair 6  Diff 0.551126
STATISTICS  ExpectX 738.251258 Y 9818.857912 Z 0.926895  CovXX 0.405331 XY 0.228379 XZ 0.450123 YY 0.202293 YZ 0.293658 ZZ 0.576987 EllAz1  234.903 Dip1  44.3625 Len1  0.313132 Az2  325.894 Dip2  1.01279 Len2  0.436208 Len3  1.973156e+00
STAT_GEOG  ExpectLat 9818.857912 Long 738.251258 Depth 0.926895
TRANSFORM  NONE
QML_OriginQuality  assocPhCt 12  usedPhCt 12  assocStaCt -1  usedStaCt 6  depthPhCt -1  stdErr 0.0172071  azGap 269.248  secAzGap 269.248  gtLevel -  minDist 0.230696 maxDist 3.83103 medDist 2.0633
QML_OriginUncertainty  horUnc -1  minHorUnc 0.352048  maxHorUnc 1.12854  azMaxHorUnc 56.983
QML_ConfidenceEllipsoid  semiMajorAxisLength 1.97316  semiMinorAxisLength 0.313132  semiIntermediateAxisLength 0.436208  majorAxisPlunge 45.6196  majorAxisAzimuth 56.929  majorAxisRotation 270.031
FOCALMECH  Hyp  9819.132440 738.540179 1.359375 Mech  0 0 0 mf  0 nObs -1
PHASE ID Ins Cmp On Pha  FM Date     HrMn   Sec     Err  ErrMag    Coda      Amp       Per       PriorWt  >   TTpred    Res       Weight    StaLoc(X  Y         Z)        SDist    SAzim  RAz  RDip RQual    Tcorr       TTerr
M06          ?    BHZ  i P      c 20231012 0735   27.4432 GAU  4.49e-04 -1.00e+00 -1.00e+00 -1.00e+00    1.0000 >    0.7189   -0.0037    1.9691  738.3100 9819.1170   -1.3960    0.2307 266.16 266.2 174.6 10     0.0000    0.0144
M06          ?    BHE  e S      ? 20231012 0735   27.9617 GAU  2.97e-03 -1.00e+00 -1.00e+00 -1.00e+00    1.0000 >    1.2266    0.0071    1.7049  738.3100 9819.1170   -1.3960    0.2307 266.16 266.2 174.4 10     0.0000    0.0245
M14          ?    BHZ  e P      d 20231012 0735   27.3868 GAU  2.01e-03 -1.00e+00  5.83e+02 -1.00e+00    1.0000 >    0.7951   -0.1363    0.0167  737.5530 9820.0110   -1.3980    1.3215 311.67 311.7 151.7 10     0.0000    0.0159
M14          ?    BHE  e S      ? 20231012 0735   27.8635 GAU  2.76e-03 -1.00e+00  4.06e+02 -1.00e+00    1.0000 >    1.3561   -0.2207    0.0090  737.5530 9820.0110   -1.3980    1.3215 311.67 311.7 150.6 10     0.0000    0.0271
M11          ?    BHZ  e P      c 20231012 0735   27.5101 GAU  3.09e-03 -1.00e+00 -1.00e+00 -1.00e+00    1.0000 >    0.7780    0.0041    1.9594  738.4670 9820.4900   -1.3120    1.3595 356.91 356.9 150.2 10     0.0000    0.0156
M11          ?    BHN  e S      ? 20231012 0735   28.0632 GAU  1.93e-04 -1.00e+00 -1.00e+00 -1.00e+00    1.0000 >    1.3265    0.0087    1.6417  738.4670 9820.4900   -1.3120    1.3595 356.91 356.9 149.0 10     0.0000    0.0265
M13          ?    BHZ  i P      c 20231012 0735   27.6959 GAU  2.06e-03 -1.00e+00 -1.00e+00 -1.00e+00    1.0000 >    0.9787   -0.0108    1.7167  737.1780 9821.5410   -1.2220    2.7671 330.51 330.5 126.9 10     0.0000    0.0196
M13          ?    BHN  e S      ? 20231012 0735   28.3557 GAU  2.12e-03 -1.00e+00 -1.00e+00 -1.00e+00    1.0000 >    1.6653   -0.0376    0.9216  737.1780 9821.5410   -1.2220    2.7671 330.51 330.5 124.7 10     0.0000    0.0333
M05          ?    BHZ  e P      c 20231012 0735   27.9010 GAU  2.39e-03 -1.00e+00  1.08e+02 -1.00e+00    1.0000 >    1.1586    0.0144    1.6252  736.2660 9822.0830   -1.1500    3.7253 322.38 322.4 115.5 10     0.0000    0.0232
M05          ?    BHN  e S      ? 20231012 0735   28.7670 GAU  2.22e-03 -1.00e+00  2.73e+02 -1.00e+00    1.0000 >    1.9665    0.0724    0.4328  736.2660 9822.0830   -1.1500    3.7253 322.38 322.4 112.7 10     0.0000    0.0393
M07          ?    BHZ  i P      c 20231012 0735   28.1100 GAU  4.47e-04 -1.00e+00  5.56e+01 -1.00e+00    1.0000 >    1.1746    0.2073    0.0029  737.4430 9822.8030   -1.1120    3.8310 343.36 343.4 114.1 10     0.0000    0.0235
M07          ?    BHN  e S      ? 20231012 0735   29.1378 GAU  5.63e-04 -1.00e+00 -1.00e+00 -1.00e+00    1.0000 >    1.9926    0.4171    0.0000  737.4430 9822.8030   -1.1120    3.8310 343.36 343.4 111.4 10     0.0000    0.0399
END_PHASE
END_NLLOC

