NLLOC "./loc/SEML.20231014.103246.grid0" "LOCATED" "Location completed."
PUBLIC_ID None
SIGNATURE "Arham Zakki Edelo - edelo.17034@mhs.its.ac.id   obs:./obs/2023_10.obs   NLLoc:v7.00.10(30Aug2020)   run:28Dec2023 20h15m42"
COMMENT "SEML"
GRID  2001 2001 1001  727 9811 -2  0.01 0.01 0.01 PROB_DENSITY
SEARCH OCTREE nInitial 4851 nEvaluated 20019 smallestNodeSide 0.014881/0.014881/0.014205 oct_tree_integral 3.526759e-02 scatter_volume 3.526759e-02
HYPOCENTER  x 738.652 y 9818.66 z 1.4517  OT 46.231  ix -1 iy -1 iz -1 MAXIMUM_LIKELIHOOD
GEOGRAPHIC  OT 2023 10 14  10 32 46.230963  Lat 9818.663690 Long 738.651786 Depth 1.451705
QUALITY  Pmax 1.56885e+45 MFmin 48.4558 MFmax 57.93 RMS 0.0201586 Nphs 14 Gap 326.579 Dist 0.567721 Mamp -9.90 0 Mdur -9.90 0
VPVSRATIO  VpVsRatio 1.65617  Npair 7  Diff 0.373165
STATISTICS  ExpectX 738.648429 Y 9818.643587 Z 1.458844  CovXX 0.0416217 XY 0.0116597 XZ -4.41383e-05 YY 0.0199826 YZ -0.00587441 ZZ 0.0141222 EllAz1  340.385 Dip1  47.3953 Len1  0.178703 Az2  331.799 Dip2  -42.2831 Len2  0.264323 Len3  4.068335e-01
STAT_GEOG  ExpectLat 9818.643587 Long 738.648429 Depth 1.458844
TRANSFORM  NONE
QML_OriginQuality  assocPhCt 14  usedPhCt 14  assocStaCt -1  usedStaCt 7  depthPhCt -1  stdErr 0.0201586  azGap 326.579  secAzGap 326.579  gtLevel -  minDist 0.567721 maxDist 4.3122 medDist 3.23279
QML_OriginUncertainty  horUnc -1  minHorUnc 0.185096  maxHorUnc 0.327764  azMaxHorUnc 66.4298
QML_ConfidenceEllipsoid  semiMajorAxisLength 0.406834  semiMinorAxisLength 0.178703  semiIntermediateAxisLength 0.264323  majorAxisPlunge -4.28807  majorAxisAzimuth 65.7091  majorAxisRotation 132.109
FOCALMECH  Hyp  9818.663690 738.651786 1.451705 Mech  0 0 0 mf  0 nObs -1
PHASE ID Ins Cmp On Pha  FM Date     HrMn   Sec     Err  ErrMag    Coda      Amp       Per       PriorWt  >   TTpred    Res       Weight    StaLoc(X  Y         Z)        SDist    SAzim  RAz  RDip RQual    Tcorr       TTerr
M06          ?    BHZ  i P      c 20231014 1032   46.9943 GAU  2.94e-03 -1.00e+00 -1.00e+00 -1.00e+00    1.0000 >    0.7528    0.0106    1.1695  738.3100 9819.1170   -1.3960    0.5677 322.98 323.0 167.5 10     0.0000    0.0151
M06          ?    BHN  e S      ? 20231014 1032   47.5231 GAU  2.81e-03 -1.00e+00 -1.00e+00 -1.00e+00    1.0000 >    1.2829    0.0092    1.1087  738.3100 9819.1170   -1.3960    0.5677 322.98 323.0 167.0 10     0.0000    0.0257
M14          ?    BHZ  e P      c 20231014 1032   47.0716 GAU  2.02e-03 -1.00e+00 -1.00e+00 -1.00e+00    1.0000 >    0.8651   -0.0244    1.0846  737.5530 9820.0110   -1.3980    1.7386 320.80 320.8 145.2 10     0.0000    0.0173
M14          ?    BHE  e S      ? 20231014 1032   47.6829 GAU  2.99e-03 -1.00e+00  4.55e+02 -1.00e+00    1.0000 >    1.4734   -0.0215    1.0304  737.5530 9820.0110   -1.3980    1.7386 320.80 320.8 143.9 10     0.0000    0.0295
M11          ?    BHZ  e P      c 20231014 1032   47.0624 GAU  3.83e-03 -1.00e+00 -1.00e+00 -1.00e+00    1.0000 >    0.8581   -0.0267    1.0458  738.4670 9820.4900   -1.3120    1.8356 354.22 354.2 142.8 10     0.0000    0.0172
M11          ?    BHN  e S      ? 20231014 1032   47.6826 GAU  9.06e-04 -1.00e+00 -1.00e+00 -1.00e+00    1.0000 >    1.4608   -0.0092    1.1138  738.4670 9820.4900   -1.3120    1.8356 354.22 354.2 141.4 10     0.0000    0.0292
M13          ?    BHZ  e P      d 20231014 1032   47.3346 GAU  2.01e-03 -1.00e+00  2.38e+02 -1.00e+00    1.0000 >    1.0811    0.0225    0.9614  737.1780 9821.5410   -1.2220    3.2328 332.88 332.9 122.9 10     0.0000    0.0216
M13          ?    BHN  e S      ? 20231014 1032   48.0771 GAU  2.34e-03 -1.00e+00 -1.00e+00 -1.00e+00    1.0000 >    1.8360    0.0101    0.9742  737.1780 9821.5410   -1.2220    3.2328 332.88 332.9 120.7 10     0.0000    0.0367
M08          ?    BHZ  e P      d 20231014 1032   47.3633 GAU  2.66e-03 -1.00e+00  4.50e+02 -1.00e+00    1.0000 >    1.1257    0.0067    1.1637  738.2480 9822.1600   -1.1510    3.5195 353.41 353.4 119.1 10     0.0000    0.0225
M08          ?    BHN  e S      ? 20231014 1032   48.1922 GAU  2.05e-03 -1.00e+00  3.19e+02 -1.00e+00    1.0000 >    1.9096    0.0516    0.5354  738.2480 9822.1600   -1.1510    3.5195 353.41 353.4 116.7 10     0.0000    0.0382
M05          ?    BHZ  e P      d 20231014 1032   47.4925 GAU  2.61e-03 -1.00e+00  2.85e+02 -1.00e+00    1.0000 >    1.2627   -0.0012    1.1710  736.2660 9822.0830   -1.1500    4.1694 325.10 325.1 113.4 10     0.0000    0.0253
M05          ?    BHN  e S      ? 20231014 1032   48.3735 GAU  2.40e-03 -1.00e+00  2.98e+02 -1.00e+00    1.0000 >    2.1390    0.0035    0.9274  736.2660 9822.0830   -1.1500    4.1694 325.10 325.1 110.9 10     0.0000    0.0428
M07          ?    BHZ  e P      d 20231014 1032   47.4825 GAU  2.96e-03 -1.00e+00  4.65e+02 -1.00e+00    1.0000 >    1.2874   -0.0359    0.8633  737.4430 9822.8030   -1.1120    4.3122 343.72 343.7 111.9 10     0.0000    0.0257
M07          ?    BHE  e S      ? 20231014 1032   48.3844 GAU  2.56e-03 -1.00e+00 -1.00e+00 -1.00e+00    1.0000 >    2.1793   -0.0258    0.8510  737.4430 9822.8030   -1.1120    4.3122 343.72 343.7 109.4 10     0.0000    0.0436
END_PHASE
END_NLLOC

