NLLOC "./loc/SEML.20231017.081357.grid0" "LOCATED" "Location completed."
PUBLIC_ID None
SIGNATURE "Arham Zakki Edelo - edelo.17034@mhs.its.ac.id   obs:./obs/2023_10.obs   NLLoc:v7.00.10(30Aug2020)   run:28Dec2023 20h15m43"
COMMENT "SEML"
GRID  2001 2001 1001  727 9811 -2  0.01 0.01 0.01 PROB_DENSITY
SEARCH OCTREE nInitial 4851 nEvaluated 20011 smallestNodeSide 0.029762/0.029762/0.028409 oct_tree_integral 9.680288e-02 scatter_volume 9.661831e-02
HYPOCENTER  x 737.58 y 9818.13 z 1.25284  OT 56.7709  ix -1 iy -1 iz -1 MAXIMUM_LIKELIHOOD
GEOGRAPHIC  OT 2023 10 17  08 13 56.770850  Lat 9818.127976 Long 737.580357 Depth 1.252841
QUALITY  Pmax 1.17834e+89 MFmin 89.9651 MFmax 101.236 RMS 0.0528271 Nphs 26 Gap 286.006 Dist 1.20721 Mamp -9.90 0 Mdur -9.90 0
VPVSRATIO  VpVsRatio 1.72172  Npair 13  Diff 0.506439
STATISTICS  ExpectX 737.451893 Y 9818.157833 Z 1.294369  CovXX 0.0680748 XY -0.00506788 XZ -0.0178821 YY 0.026193 YZ -0.00109422 ZZ 0.0386839 EllAz1  16.4403 Dip1  22.8959 Len1  0.292372 Az2  323.585 Dip2  -55.0305 Len2  0.33544 Len3  5.208820e-01
STAT_GEOG  ExpectLat 9818.157833 Long 737.451893 Depth 1.294369
TRANSFORM  NONE
QML_OriginQuality  assocPhCt 26  usedPhCt 26  assocStaCt -1  usedStaCt 13  depthPhCt -1  stdErr 0.0528271  azGap 286.006  secAzGap 286.006  gtLevel -  minDist 1.20721 maxDist 5.30229 medDist 3.39735
QML_OriginUncertainty  horUnc -1  minHorUnc 0.242597  maxHorUnc 0.397445  azMaxHorUnc 96.8022
QML_ConfidenceEllipsoid  semiMajorAxisLength 0.520882  semiMinorAxisLength 0.292372  semiIntermediateAxisLength 0.33544  majorAxisPlunge -24.889  majorAxisAzimuth 95.1406  majorAxisRotation 143.676
FOCALMECH  Hyp  9818.127976 737.580357 1.252841 Mech  0 0 0 mf  0 nObs -1
PHASE ID Ins Cmp On Pha  FM Date     HrMn   Sec     Err  ErrMag    Coda      Amp       Per       PriorWt  >   TTpred    Res       Weight    StaLoc(X  Y         Z)        SDist    SAzim  RAz  RDip RQual    Tcorr       TTerr
M04          ?    BHZ  e P      c 20231017 0813   57.6870 GAU  3.51e-03 -1.00e+00 -1.00e+00 -1.00e+00    1.0000 >    0.8042    0.1119    0.6305  737.1400 9819.2520   -1.5710    1.2072 338.61 338.6 154.2 10     0.0000    0.0161
M04          ?    BHE  e S      ? 20231017 0813   58.3316 GAU  2.91e-03 -1.00e+00  3.39e+02 -1.00e+00    1.0000 >    1.3746    0.1862    0.2227  737.1400 9819.2520   -1.5710    1.2072 338.61 338.6 153.1 10     0.0000    0.0275
M06          ?    BHZ  i P      c 20231017 0813   57.6081 GAU  2.07e-03 -1.00e+00  4.50e+01 -1.00e+00    1.0000 >    0.7622    0.0750    0.7407  738.3100 9819.1170   -1.3960    1.2290  36.42  36.4 152.3 10     0.0000    0.0152
M06          ?    BHN  e S      ? 20231017 0813   58.1977 GAU  3.06e-03 -1.00e+00  5.07e+01 -1.00e+00    1.0000 >    1.3019    0.1249    0.5582  738.3100 9819.1170   -1.3960    1.2290  36.42  36.4 151.1 10     0.0000    0.0260
M02          ?    BHZ  e P      d 20231017 0813   57.6080 GAU  8.63e-04 -1.00e+00  1.11e+03 -1.00e+00    1.0000 >    0.8332    0.0039    1.6018  736.5970 9819.4060   -1.4960    1.6126 322.42 322.4 146.0 10     0.0000    0.0167
M02          ?    BHE  e S      ? 20231017 0813   58.2018 GAU  2.48e-03 -1.00e+00 -1.00e+00 -1.00e+00    1.0000 >    1.4235    0.0075    1.4341  736.5970 9819.4060   -1.4960    1.6126 322.42 322.4 144.6 10     0.0000    0.0285
M14          ?    BHZ  e P      c 20231017 0813   57.6046 GAU  3.41e-03 -1.00e+00 -1.00e+00 -1.00e+00    1.0000 >    0.8484   -0.0147    1.4569  737.5530 9820.0110   -1.3980    1.8832 359.17 359.2 140.3 10     0.0000    0.0170
M14          ?    BHN  e S      ? 20231017 0813   58.2287 GAU  3.59e-03 -1.00e+00  4.13e+02 -1.00e+00    1.0000 >    1.4484    0.0094    1.4202  737.5530 9820.0110   -1.3980    1.8832 359.17 359.2 138.6 10     0.0000    0.0290
M11          ?    BHZ  e P      d 20231017 0813   57.6965 GAU  2.90e-03 -1.00e+00  1.09e+02 -1.00e+00    1.0000 >    0.9363   -0.0107    1.5047  738.4670 9820.4900   -1.3120    2.5230  20.57  20.6 129.5 10     0.0000    0.0187
M11          ?    BHN  e S      ? 20231017 0813   58.3160 GAU  3.25e-03 -1.00e+00 -1.00e+00 -1.00e+00    1.0000 >    1.5969   -0.0517    0.7594  738.4670 9820.4900   -1.3120    2.5230  20.57  20.6 127.2 10     0.0000    0.0319
M09          ?    BHZ  i P      c 20231017 0813   57.7767 GAU  4.85e-03 -1.00e+00  2.81e+02 -1.00e+00    1.0000 >    0.9938    0.0120    1.4995  737.8820 9820.9850   -1.2700    2.8729   6.03   6.0 124.2 10     0.0000    0.0199
M09          ?    BHE  e S      ? 20231017 0813   58.4510 GAU  2.17e-03 -1.00e+00  3.17e+02 -1.00e+00    1.0000 >    1.6936   -0.0135    1.2899  737.8820 9820.9850   -1.2700    2.8729   6.03   6.0 121.6 10     0.0000    0.0339
M10          ?    BHZ  e P      d 20231017 0813   57.9586 GAU  3.21e-03 -1.00e+00  3.04e+03 -1.00e+00    1.0000 >    1.0906    0.0971    0.7424  736.5490 9821.3650   -1.2200    3.3974 342.33 342.3 117.5 10     0.0000    0.0218
M10          ?    BHN  e S      ? 20231017 0813   58.8324 GAU  2.91e-03 -1.00e+00 -1.00e+00 -1.00e+00    1.0000 >    1.8560    0.2056    0.1880  736.5490 9821.3650   -1.2200    3.3974 342.33 342.3 114.5 10     0.0000    0.0371
M13          ?    BHZ  i P      c 20231017 0813   57.8703 GAU  3.78e-03 -1.00e+00 -1.00e+00 -1.00e+00    1.0000 >    1.0992    0.0003    1.5324  737.1780 9821.5410   -1.2220    3.4367 353.28 353.3 117.1 10     0.0000    0.0220
M13          ?    BHN  e S      ? 20231017 0813   58.6525 GAU  2.05e-03 -1.00e+00 -1.00e+00 -1.00e+00    1.0000 >    1.8705    0.0112    1.3220  737.1780 9821.5410   -1.2220    3.4367 353.28 353.3 114.1 10     0.0000    0.0374
M08          ?    BHZ  i P      c 20231017 0813   58.0348 GAU  3.74e-04 -1.00e+00  1.12e+02 -1.00e+00    1.0000 >    1.2275    0.0364    1.1604  738.2480 9822.1600   -1.1510    4.0869   9.40   9.4 110.0 10     0.0000    0.0246
M08          ?    BHN  e S      ? 20231017 0813   58.9379 GAU  3.13e-04 -1.00e+00  3.16e+02 -1.00e+00    1.0000 >    2.0843    0.0827    0.8687  738.2480 9822.1600   -1.1510    4.0869   9.40   9.4 106.8 10     0.0000    0.0417
M05          ?    BHZ  e P      d 20231017 0813   57.9956 GAU  4.58e-03 -1.00e+00  1.56e+02 -1.00e+00    1.0000 >    1.2453   -0.0206    1.2959  736.2660 9822.0830   -1.1500    4.1677 341.62 341.6 109.3 10     0.0000    0.0249
M05          ?    BHN  e S      ? 20231017 0813   58.8924 GAU  2.18e-03 -1.00e+00  2.77e+02 -1.00e+00    1.0000 >    2.1139    0.0077    1.2725  736.2660 9822.0830   -1.1500    4.1677 341.62 341.6 106.1 10     0.0000    0.0423
M01          ?    BHZ  e P      c 20231017 0813   58.0348 GAU  3.55e-03 -1.00e+00 -1.00e+00 -1.00e+00    1.0000 >    1.3240   -0.0601    0.5742  736.4090 9822.5140   -1.1200    4.5397 345.05 345.0 105.9 10     0.0000    0.0265
M01          ?    BHE  e S      ? 20231017 0813   58.9156 GAU  2.23e-03 -1.00e+00  4.88e+02 -1.00e+00    1.0000 >    2.2444   -0.0996    0.2928  736.4090 9822.5140   -1.1200    4.5397 345.05 345.0 102.9 10     0.0000    0.0449
M07          ?    BHZ  i P      d 20231017 0813   58.1433 GAU  2.75e-03 -1.00e+00  7.55e+02 -1.00e+00    1.0000 >    1.3540    0.0185    1.3814  737.4430 9822.8030   -1.1120    4.6770 358.32 358.3 104.8 10     0.0000    0.0271
M07          ?    BHE  e S      ? 20231017 0813   59.1261 GAU  2.69e-03 -1.00e+00 -1.00e+00 -1.00e+00    1.0000 >    2.2939    0.0614    1.0210  737.4430 9822.8030   -1.1120    4.6770 358.32 358.3 101.9 10     0.0000    0.0459
M12          ?    BHZ  i P      c 20231017 0813   58.3344 GAU  2.51e-03 -1.00e+00 -1.00e+00 -1.00e+00    1.0000 >    1.4796    0.0840    0.8199  736.8520 9823.3800   -0.9890    5.3023 352.10 352.1  99.9 10     0.0000    0.0296
M12          ?    BHN  e S      ? 20231017 0813   59.4304 GAU  2.03e-03 -1.00e+00 -1.00e+00 -1.00e+00    1.0000 >    2.4974    0.1622    0.4098  736.8520 9823.3800   -0.9890    5.3023 352.10 352.1  98.0 10     0.0000    0.0499
END_PHASE
END_NLLOC

