NLLOC "./loc/SEML.20231005.073545.grid0" "LOCATED" "Location completed."
PUBLIC_ID None
SIGNATURE "Arham Zakki Edelo - edelo.17034@mhs.its.ac.id   obs:./obs/2023_10.obs   NLLoc:v7.00.10(30Aug2020)   run:28Dec2023 20h15m35"
COMMENT "SEML"
GRID  2001 2001 1001  727 9811 -2  0.01 0.01 0.01 PROB_DENSITY
SEARCH OCTREE nInitial 4851 nEvaluated 20011 smallestNodeSide 0.007440/0.007440/0.007102 oct_tree_integral 9.084831e-03 scatter_volume 9.084831e-03
HYPOCENTER  x 738.283 y 9818.61 z 0.453835  OT 44.9077  ix -1 iy -1 iz -1 MAXIMUM_LIKELIHOOD
GEOGRAPHIC  OT 2023 10 05  07 35 44.907713  Lat 9818.607887 Long 738.283482 Depth 0.453835
QUALITY  Pmax 4.57569e+84 MFmin 93.1915 MFmax 107.472 RMS 0.0263739 Nphs 24 Gap 289.756 Dist 0.509803 Mamp -9.90 0 Mdur -9.90 0
VPVSRATIO  VpVsRatio 1.83927  Npair 12  Diff 0.438816
STATISTICS  ExpectX 738.246371 Y 9818.617967 Z 0.494854  CovXX 0.0170624 XY -0.00631161 XZ -0.00955434 YY 0.0123245 YZ 0.000829606 ZZ 0.0138011 EllAz1  56.2109 Dip1  37.4456 Len1  0.119344 Az2  177.672 Dip2  34.275 Len2  0.205946 Len3  3.095101e-01
STAT_GEOG  ExpectLat 9818.617967 Long 738.246371 Depth 0.494854
TRANSFORM  NONE
QML_OriginQuality  assocPhCt 24  usedPhCt 24  assocStaCt -1  usedStaCt 12  depthPhCt -1  stdErr 0.0263739  azGap 289.756  secAzGap 289.756  gtLevel -  minDist 0.509803 maxDist 4.27848 medDist 2.52966
QML_OriginUncertainty  horUnc -1  minHorUnc 0.135238  maxHorUnc 0.222037  azMaxHorUnc 124.714
QML_ConfidenceEllipsoid  semiMajorAxisLength 0.30951  semiMinorAxisLength 0.119344  semiIntermediateAxisLength 0.205946  majorAxisPlunge -34.0293  majorAxisAzimuth 115.072  majorAxisRotation 109.091
FOCALMECH  Hyp  9818.607887 738.283482 0.453835 Mech  0 0 0 mf  0 nObs -1
PHASE ID Ins Cmp On Pha  FM Date     HrMn   Sec     Err  ErrMag    Coda      Amp       Per       PriorWt  >   TTpred    Res       Weight    StaLoc(X  Y         Z)        SDist    SAzim  RAz  RDip RQual    Tcorr       TTerr
M06          ?    BHZ  i P      c 20231005 0735   45.5002 GAU  2.85e-03 -1.00e+00 -1.00e+00 -1.00e+00    1.0000 >    0.5105    0.0820    0.1923  738.3100 9819.1170   -1.3960    0.5098   2.98   3.0 164.0 10     0.0000    0.0102
M06          ?    BHN  i S      ? 20231005 0735   45.9855 GAU  2.59e-03 -1.00e+00  2.71e+01 -1.00e+00    1.0000 >    0.8904    0.1874    0.0011  738.3100 9819.1170   -1.3960    0.5098   2.98   3.0 163.8 10     0.0000    0.0178
M04          ?    BHZ  e P      c 20231005 0735   45.5477 GAU  3.13e-03 -1.00e+00 -1.00e+00 -1.00e+00    1.0000 >    0.6435   -0.0035    1.6986  737.1400 9819.2520   -1.5710    1.3124 299.39 299.4 146.0 10     0.0000    0.0129
M04          ?    BHN  e S      ? 20231005 0735   46.0262 GAU  2.91e-03 -1.00e+00  7.19e+02 -1.00e+00    1.0000 >    1.1213   -0.0029    1.4819  737.1400 9819.2520   -1.5710    1.3124 299.39 299.4 145.5 10     0.0000    0.0224
M14          ?    BHZ  e P      c 20231005 0735   45.5560 GAU  2.19e-03 -1.00e+00 -1.00e+00 -1.00e+00    1.0000 >    0.6475    0.0007    1.7104  737.5530 9820.0110   -1.3980    1.5819 332.50 332.5 138.3 10     0.0000    0.0130
M14          ?    BHE  e S      ? 20231005 0735   46.0471 GAU  3.09e-03 -1.00e+00  5.52e+02 -1.00e+00    1.0000 >    1.1293    0.0101    1.3887  737.5530 9820.0110   -1.3980    1.5819 332.50 332.5 137.5 10     0.0000    0.0226
M02          ?    BHZ  e P      d 20231005 0735   45.6308 GAU  1.44e-03 -1.00e+00  2.91e+02 -1.00e+00    1.0000 >    0.7185    0.0046    1.6476  736.5970 9819.4060   -1.4960    1.8658 295.33 295.3 134.7 10     0.0000    0.0144
M02          ?    BHN  e S      ? 20231005 0735   46.1554 GAU  1.42e-03 -1.00e+00 -1.00e+00 -1.00e+00    1.0000 >    1.2526   -0.0049    1.4232  736.5970 9819.4060   -1.4960    1.8658 295.33 295.3 133.9 10     0.0000    0.0251
M11          ?    BHZ  e P      d 20231005 0735   45.5925 GAU  2.25e-03 -1.00e+00 -1.00e+00 -1.00e+00    1.0000 >    0.6866   -0.0018    1.6933  738.4670 9820.4900   -1.3120    1.8910   5.57   5.6 131.4 10     0.0000    0.0137
M11          ?    BHN  e S      ? 20231005 0735   46.0976 GAU  3.39e-03 -1.00e+00 -1.00e+00 -1.00e+00    1.0000 >    1.1982   -0.0082    1.4274  738.4670 9820.4900   -1.3120    1.8910   5.57   5.6 130.4 10     0.0000    0.0240
M09          ?    BHZ  i P      c 20231005 0735   45.6486 GAU  2.32e-03 -1.00e+00  1.50e+02 -1.00e+00    1.0000 >    0.7858   -0.0449    0.7155  737.8820 9820.9850   -1.2700    2.4108 350.41 350.4 123.5 10     0.0000    0.0157
M09          ?    BHN  e S      ? 20231005 0735   46.2014 GAU  2.22e-03 -1.00e+00  4.95e+02 -1.00e+00    1.0000 >    1.3718   -0.0780    0.4434  737.8820 9820.9850   -1.2700    2.4108 350.41 350.4 122.2 10     0.0000    0.0274
M03          ?    BHZ  e P      c 20231005 0735   45.6522 GAU  2.01e-03 -1.00e+00 -1.00e+00 -1.00e+00    1.0000 >    0.8485   -0.1040    0.2040  736.8800 9820.8540   -1.3350    2.6485 328.00 328.0 121.8 10     0.0000    0.0170
M03          ?    BHN  e S      ? 20231005 0735   46.2123 GAU  2.49e-03 -1.00e+00 -1.00e+00 -1.00e+00    1.0000 >    1.4805   -0.1759    0.0255  736.8800 9820.8540   -1.3350    2.6485 328.00 328.0 120.4 10     0.0000    0.0296
M13          ?    BHZ  e P      c 20231005 0735   45.8227 GAU  2.46e-03 -1.00e+00 -1.00e+00 -1.00e+00    1.0000 >    0.9412   -0.0263    1.1824  737.1780 9821.5410   -1.2220    3.1345 339.35 339.3 115.7 10     0.0000    0.0188
M13          ?    BHE  e S      ? 20231005 0735   46.5412 GAU  2.77e-03 -1.00e+00 -1.00e+00 -1.00e+00    1.0000 >    1.6436   -0.0101    1.2583  737.1780 9821.5410   -1.2220    3.1345 339.35 339.3 113.8 10     0.0000    0.0329
M10          ?    BHZ  e P      c 20231005 0735   45.8905 GAU  3.12e-03 -1.00e+00 -1.00e+00 -1.00e+00    1.0000 >    0.9697    0.0131    1.3897  736.5490 9821.3650   -1.2200    3.2573 327.83 327.8 114.7 10     0.0000    0.0194
M10          ?    BHE  e S      ? 20231005 0735   46.6628 GAU  2.89e-03 -1.00e+00 -1.00e+00 -1.00e+00    1.0000 >    1.6932    0.0618    0.5257  736.5490 9821.3650   -1.2200    3.2573 327.83 327.8 112.8 10     0.0000    0.0339
M08          ?    BHZ  i P      c 20231005 0735   45.9503 GAU  2.31e-03 -1.00e+00  2.61e+02 -1.00e+00    1.0000 >    1.0303    0.0123    1.3887  738.2480 9822.1600   -1.1510    3.5523 359.43 359.4 111.8 10     0.0000    0.0206
M08          ?    BHN  e S      ? 20231005 0735   46.7677 GAU  2.25e-03 -1.00e+00  3.17e+02 -1.00e+00    1.0000 >    1.7999    0.0601    0.5633  738.2480 9822.1600   -1.1510    3.5523 359.43 359.4 109.6 10     0.0000    0.0360
M05          ?    BHZ  i P      d 20231005 0735   45.9894 GAU  2.12e-03 -1.00e+00  1.86e+02 -1.00e+00    1.0000 >    1.1431   -0.0614    0.5699  736.2660 9822.0830   -1.1500    4.0183 329.86 329.9 109.0 10     0.0000    0.0229
M05          ?    BHE  e S      ? 20231005 0735   46.8292 GAU  2.50e-03 -1.00e+00 -1.00e+00 -1.00e+00    1.0000 >    1.9967   -0.0751    0.5636  736.2660 9822.0830   -1.1500    4.0183 329.86 329.9 106.6 10     0.0000    0.0399
M07          ?    BHZ  i P      c 20231005 0735   46.1063 GAU  2.68e-03 -1.00e+00 -1.00e+00 -1.00e+00    1.0000 >    1.2024   -0.0037    1.4451  737.4430 9822.8030   -1.1120    4.2785 348.67 348.7 107.4 10     0.0000    0.0240
M07          ?    BHE  e S      ? 20231005 0735   47.0236 GAU  2.60e-03 -1.00e+00 -1.00e+00 -1.00e+00    1.0000 >    2.1004    0.0155    1.0604  737.4430 9822.8030   -1.1120    4.2785 348.67 348.7  96.6  9     0.0000    0.0420
END_PHASE
END_NLLOC

