NLLOC "./loc/SEML.20231009.120057.grid0" "LOCATED" "Location completed."
PUBLIC_ID None
SIGNATURE "Arham Zakki Edelo - edelo.17034@mhs.its.ac.id   obs:./obs/2023_10.obs   NLLoc:v7.00.10(30Aug2020)   run:28Dec2023 20h15m37"
COMMENT "SEML"
GRID  2001 2001 1001  727 9811 -2  0.01 0.01 0.01 PROB_DENSITY
SEARCH OCTREE nInitial 4851 nEvaluated 20003 smallestNodeSide 0.007440/0.007440/0.007102 oct_tree_integral 3.189649e-03 scatter_volume 3.189649e-03
HYPOCENTER  x 736.795 y 9818.46 z -0.412642  OT 57.302  ix -1 iy -1 iz -1 MAXIMUM_LIKELIHOOD
GEOGRAPHIC  OT 2023 10 09  12 00 57.302048  Lat 9818.459077 Long 736.795387 Depth -0.412642
QUALITY  Pmax 3.57144e+71 MFmin 82.743 MFmax 102.886 RMS 0.0231218 Nphs 21 Gap 281.647 Dist 0.864572 Mamp -9.90 0 Mdur -9.90 0
VPVSRATIO  VpVsRatio 1.73366  Npair 10  Diff 0.503826
STATISTICS  ExpectX 736.783488 Y 9818.452127 Z -0.424590  CovXX 0.00515092 XY 0.000536686 XZ 0.00412382 YY 0.00577191 YZ 0.00210082 ZZ 0.0167874 EllAz1  85.3008 Dip1  -18.2845 Len1  0.116242 Az2  352.703 Dip2  -7.80948 Len2  0.138228 Len3  2.553387e-01
STAT_GEOG  ExpectLat 9818.452127 Long 736.783488 Depth -0.424590
TRANSFORM  NONE
QML_OriginQuality  assocPhCt 21  usedPhCt 21  assocStaCt -1  usedStaCt 11  depthPhCt -1  stdErr 0.0231218  azGap 281.647  secAzGap 285.168  gtLevel -  minDist 0.864572 maxDist 4.92125 medDist 2.74973
QML_OriginUncertainty  horUnc -1  minHorUnc 0.105523  maxHorUnc 0.118268  azMaxHorUnc 29.9745
QML_ConfidenceEllipsoid  semiMajorAxisLength 0.255339  semiMinorAxisLength 0.116242  semiIntermediateAxisLength 0.138228  majorAxisPlunge 70.0075  majorAxisAzimuth 60.557  majorAxisRotation 71.6417
FOCALMECH  Hyp  9818.459077 736.795387 -0.412642 Mech  0 0 0 mf  0 nObs -1
PHASE ID Ins Cmp On Pha  FM Date     HrMn   Sec     Err  ErrMag    Coda      Amp       Per       PriorWt  >   TTpred    Res       Weight    StaLoc(X  Y         Z)        SDist    SAzim  RAz  RDip RQual    Tcorr       TTerr
M04          ?    BHZ  e S      ? 20231009 1200   57.9859 GAU  2.37e-03 -1.00e+00  2.20e+03 -1.00e+00    1.0000 >    0.6828    0.0010    1.7582  737.1400 9819.2520   -1.5710    0.8646  23.49  23.5 142.7 10     0.0000    0.0137
M02          ?    BHZ  e P      d 20231009 1200   58.0456 GAU  5.05e-04 -1.00e+00 -1.00e+00 -1.00e+00    1.0000 >    0.3957    0.3478    0.0001  736.5970 9819.4060   -1.4960    0.9675 348.17 348.2 135.7 10     0.0000    0.0079
M02          ?    BHE  e S      ? 20231009 1200   58.6042 GAU  1.12e-03 -1.00e+00 -1.00e+00 -1.00e+00    1.0000 >    0.6859    0.6163    0.0000  736.5970 9819.4060   -1.4960    0.9675 348.17 348.2 137.6 10     0.0000    0.0137
M06          ?    BHZ  i P      d 20231009 1200   57.9192 GAU  3.32e-03 -1.00e+00  3.73e+01 -1.00e+00    1.0000 >    0.5232    0.0939    0.0875  738.3100 9819.1170   -1.3960    1.6513  66.52  66.5 115.6 10     0.0000    0.0105
M06          ?    BHE  e S      ? 20231009 1200   58.4356 GAU  2.51e-03 -1.00e+00 -1.00e+00 -1.00e+00    1.0000 >    0.9077    0.2258    0.0476  738.3100 9819.1170   -1.3960    1.6513  66.52  66.5 119.2 10     0.0000    0.0182
M14          ?    BHZ  e P      c 20231009 1200   57.9767 GAU  2.88e-03 -1.00e+00 -1.00e+00 -1.00e+00    1.0000 >    0.5413    0.1333    0.0192  737.5530 9820.0110   -1.3980    1.7270  26.02  26.0 114.3 10     0.0000    0.0108
M14          ?    BHN  e S      ? 20231009 1200   58.5068 GAU  2.00e-03 -1.00e+00  4.43e+02 -1.00e+00    1.0000 >    0.9390    0.2657    0.0477  737.5530 9820.0110   -1.3980    1.7270  26.02  26.0 118.1 10     0.0000    0.0188
M11          ?    BHZ  i P      c 20231009 1200   58.0560 GAU  9.69e-03 -1.00e+00 -1.00e+00 -1.00e+00    1.0000 >    0.7553   -0.0014    1.6541  738.4670 9820.4900   -1.3120    2.6304  39.46  39.5  99.8  9     0.0000    0.0151
M11          ?    BHN  e S      ? 20231009 1200   58.6159 GAU  3.24e-03 -1.00e+00 -1.00e+00 -1.00e+00    1.0000 >    1.3125    0.0014    1.4316  738.4670 9820.4900   -1.3120    2.6304  39.46  39.5 106.4 10     0.0000    0.0262
M09          ?    BHZ  i P      c 20231009 1200   58.0658 GAU  4.22e-03 -1.00e+00  5.10e+01 -1.00e+00    1.0000 >    0.7817   -0.0180    1.3527  737.8820 9820.9850   -1.2700    2.7497  23.28  23.3  97.7  9     0.0000    0.0156
M09          ?    BHE  e S      ? 20231009 1200   58.6636 GAU  2.78e-03 -1.00e+00  3.17e+02 -1.00e+00    1.0000 >    1.3596    0.0020    1.4092  737.8820 9820.9850   -1.2700    2.7497  23.28  23.3 104.6 10     0.0000    0.0272
M10          ?    BHZ  e P      c 20231009 1200   58.1236 GAU  2.97e-03 -1.00e+00 -1.00e+00 -1.00e+00    1.0000 >    0.8199    0.0017    1.6910  736.5490 9821.3650   -1.2200    2.9163 355.15 355.2  95.9  9     0.0000    0.0164
M10          ?    BHN  e S      ? 20231009 1200   58.7199 GAU  2.53e-03 -1.00e+00 -1.00e+00 -1.00e+00    1.0000 >    1.4279   -0.0101    1.3095  736.5490 9821.3650   -1.2200    2.9163 355.15 355.2 102.5 10     0.0000    0.0286
M05          ?    BHZ  e P      d 20231009 1200   58.3040 GAU  2.90e-03 -1.00e+00  3.27e+02 -1.00e+00    1.0000 >    1.0062   -0.0042    1.5720  736.2660 9822.0830   -1.1500    3.6624 351.69 351.7  93.2  9     0.0000    0.0201
M05          ?    BHN  e S      ? 20231009 1200   59.0951 GAU  2.97e-03 -1.00e+00  2.82e+02 -1.00e+00    1.0000 >    1.7615    0.0315    0.9991  736.2660 9822.0830   -1.1500    3.6624 351.69 351.7  97.4  9     0.0000    0.0352
M08          ?    BHZ  i P      c 20231009 1200   58.3976 GAU  2.01e-03 -1.00e+00 -1.00e+00 -1.00e+00    1.0000 >    1.0873    0.0082    1.5164  738.2480 9822.1600   -1.1510    3.9758  21.43  21.4  92.8  9     0.0000    0.0217
M08          ?    BHN  e S      ? 20231009 1200   59.2244 GAU  2.48e-03 -1.00e+00  3.36e+02 -1.00e+00    1.0000 >    1.9064    0.0160    1.1286  738.2480 9822.1600   -1.1510    3.9758  21.43  21.4  96.2  9     0.0000    0.0381
M07          ?    BHZ  i P      d 20231009 1200   58.5058 GAU  2.22e-03 -1.00e+00 -1.00e+00 -1.00e+00    1.0000 >    1.1915    0.0122    1.4219  737.4430 9822.8030   -1.1120    4.3919   8.48   8.5  92.2  9     0.0000    0.0238
M07          ?    BHE  e S      ? 20231009 1200   59.4061 GAU  3.34e-03 -1.00e+00 -1.00e+00 -1.00e+00    1.0000 >    2.0953    0.0087    1.0988  737.4430 9822.8030   -1.1120    4.3919   8.48   8.5  94.4  9     0.0000    0.0419
M12          ?    BHZ  i P      c 20231009 1200   58.6226 GAU  2.53e-03 -1.00e+00 -1.00e+00 -1.00e+00    1.0000 >    1.3176    0.0030    1.4298  736.8520 9823.3800   -0.9890    4.9212   0.66   0.7  91.7  9     0.0000    0.0264
M12          ?    BHE  e S      ? 20231009 1200   59.6428 GAU  2.27e-03 -1.00e+00  1.35e+02 -1.00e+00    1.0000 >    2.3298    0.0110    1.0253  736.8520 9823.3800   -0.9890    4.9212   0.66   0.7  92.6  9     0.0000    0.0466
END_PHASE
END_NLLOC

