NLLOC "./loc/SEML.20231012.074421.grid0" "LOCATED" "Location completed."
PUBLIC_ID None
SIGNATURE "Arham Zakki Edelo - edelo.17034@mhs.its.ac.id   obs:./obs/2023_10.obs   NLLoc:v7.00.10(30Aug2020)   run:28Dec2023 20h15m41"
COMMENT "SEML"
GRID  2001 2001 1001  727 9811 -2  0.01 0.01 0.01 PROB_DENSITY
SEARCH OCTREE nInitial 4851 nEvaluated 20011 smallestNodeSide 0.014881/0.014881/0.014205 oct_tree_integral 2.524695e-02 scatter_volume 2.524695e-02
HYPOCENTER  x 738.257 y 9819.07 z 1.30256  OT 21.1621  ix -1 iy -1 iz -1 MAXIMUM_LIKELIHOOD
GEOGRAPHIC  OT 2023 10 12  07 44 21.162094  Lat 9819.072917 Long 738.257440 Depth 1.302557
QUALITY  Pmax 1.88412e+43 MFmin 53.0864 MFmax 64.7167 RMS 0.0188366 Nphs 14 Gap 229.093 Dist 0.0685992 Mamp -9.90 0 Mdur -9.90 0
VPVSRATIO  VpVsRatio 1.75556  Npair 7  Diff 0.421408
STATISTICS  ExpectX 738.099778 Y 9818.996049 Z 1.277198  CovXX 0.0775074 XY 0.0267063 XZ 0.00817294 YY 0.0197639 YZ 0.00120325 ZZ 0.0139773 EllAz1  156.272 Dip1  -21.9691 Len1  0.173784 Az2  353.517 Dip2  -67.1014 Len2  0.221209 Len3  5.599767e-01
STAT_GEOG  ExpectLat 9818.996049 Long 738.099778 Depth 1.277198
TRANSFORM  NONE
QML_OriginQuality  assocPhCt 14  usedPhCt 14  assocStaCt -1  usedStaCt 7  depthPhCt -1  stdErr 0.0188366  azGap 229.093  secAzGap 229.093  gtLevel -  minDist 0.0685992 maxDist 3.60922 medDist 1.43249
QML_OriginUncertainty  horUnc -1  minHorUnc 0.146302  maxHorUnc 0.4498  azMaxHorUnc 68.6156
QML_ConfidenceEllipsoid  semiMajorAxisLength 0.559977  semiMinorAxisLength 0.173784  semiIntermediateAxisLength 0.221209  majorAxisPlunge 6.14094  majorAxisAzimuth 68.7598  majorAxisRotation 337.431
FOCALMECH  Hyp  9819.072917 738.257440 1.302557 Mech  0 0 0 mf  0 nObs -1
PHASE ID Ins Cmp On Pha  FM Date     HrMn   Sec     Err  ErrMag    Coda      Amp       Per       PriorWt  >   TTpred    Res       Weight    StaLoc(X  Y         Z)        SDist    SAzim  RAz  RDip RQual    Tcorr       TTerr
M06          ?    BHZ  i P      c 20231012 0744   21.8608 GAU  2.16e-03 -1.00e+00 -1.00e+00 -1.00e+00    1.0000 >    0.7031   -0.0044    1.6405  738.3100 9819.1170   -1.3960    0.0686  50.01  50.0 178.1  9     0.0000    0.0141
M06          ?    BHE  i S      ? 20231012 0744   22.3562 GAU  3.40e-03 -1.00e+00 -1.00e+00 -1.00e+00    1.0000 >    1.2005   -0.0064    1.4013  738.3100 9819.1170   -1.3960    0.0686  50.01  50.0 178.1  9     0.0000    0.0240
M04          ?    BHZ  e P      c 20231012 0744   21.8740 GAU  2.23e-03 -1.00e+00 -1.00e+00 -1.00e+00    1.0000 >    0.8073   -0.0954    0.1518  737.1400 9819.2520   -1.5710    1.1317 279.10 279.1 156.1 10     0.0000    0.0161
M04          ?    BHN  e S      ? 20231012 0744   22.4232 GAU  3.36e-03 -1.00e+00  7.61e+02 -1.00e+00    1.0000 >    1.3791   -0.1180    0.1471  737.1400 9819.2520   -1.5710    1.1317 279.10 279.1 155.1 10     0.0000    0.0276
M14          ?    BHZ  i P      c 20231012 0744   21.9340 GAU  3.22e-03 -1.00e+00 -1.00e+00 -1.00e+00    1.0000 >    0.7672    0.0046    1.5751  737.5530 9820.0110   -1.3980    1.1731 323.10 323.1 154.0 10     0.0000    0.0153
M14          ?    BHE  e S      ? 20231012 0744   22.4756 GAU  2.09e-03 -1.00e+00  4.49e+02 -1.00e+00    1.0000 >    1.3097    0.0038    1.3377  737.5530 9820.0110   -1.3980    1.1731 323.10 323.1 152.9 10     0.0000    0.0262
M11          ?    BHZ  e P      c 20231012 0744   21.9464 GAU  2.58e-03 -1.00e+00 -1.00e+00 -1.00e+00    1.0000 >    0.7754    0.0089    1.4904  738.4670 9820.4900   -1.3120    1.4325   8.41   8.4 148.1 10     0.0000    0.0155
M11          ?    BHN  e S      ? 20231012 0744   22.4869 GAU  3.83e-03 -1.00e+00 -1.00e+00 -1.00e+00    1.0000 >    1.3228    0.0019    1.3385  738.4670 9820.4900   -1.3120    1.4325   8.41   8.4 146.9 10     0.0000    0.0265
M09          ?    BHZ  i P      c 20231012 0744   21.9680 GAU  2.18e-03 -1.00e+00  5.20e+01 -1.00e+00    1.0000 >    0.8381   -0.0322    0.8841  737.8820 9820.9850   -1.2700    1.9486 348.89 348.9 138.6 10     0.0000    0.0168
M09          ?    BHE  e S      ? 20231012 0744   22.5815 GAU  2.79e-03 -1.00e+00  3.66e+02 -1.00e+00    1.0000 >    1.4290   -0.0096    1.2825  737.8820 9820.9850   -1.2700    1.9486 348.89 348.9 136.8 10     0.0000    0.0286
M13          ?    BHZ  e P      d 20231012 0744   22.1152 GAU  3.93e-03 -1.00e+00  3.16e+02 -1.00e+00    1.0000 >    0.9569   -0.0038    1.5284  737.1780 9821.5410   -1.2220    2.6938 336.38 336.4 126.9 10     0.0000    0.0191
M13          ?    BHE  e S      ? 20231012 0744   22.7964 GAU  2.71e-03 -1.00e+00 -1.00e+00 -1.00e+00    1.0000 >    1.6296    0.0047    1.1950  737.1780 9821.5410   -1.2220    2.6938 336.38 336.4 124.6 10     0.0000    0.0326
M05          ?    BHZ  e P      c 20231012 0744   22.3873 GAU  3.49e-03 -1.00e+00  2.09e+02 -1.00e+00    1.0000 >    1.1281    0.0971    0.0258  736.2660 9822.0830   -1.1500    3.6092 326.51 326.5 115.5 10     0.0000    0.0226
M05          ?    BHN  e S      ? 20231012 0744   23.3042 GAU  1.94e-03 -1.00e+00  2.72e+02 -1.00e+00    1.0000 >    1.9167    0.2254    0.0020  736.2660 9822.0830   -1.1500    3.6092 326.51 326.5 112.6 10     0.0000    0.0383
END_PHASE
END_NLLOC

