NLLOC "./loc/SEML.20231012.020852.grid0" "LOCATED" "Location completed."
PUBLIC_ID None
SIGNATURE "Arham Zakki Edelo - edelo.17034@mhs.its.ac.id   obs:./obs/2023_10.obs   NLLoc:v7.00.10(30Aug2020)   run:28Dec2023 20h15m38"
COMMENT "SEML"
GRID  2001 2001 1001  727 9811 -2  0.01 0.01 0.01 PROB_DENSITY
SEARCH OCTREE nInitial 4851 nEvaluated 20003 smallestNodeSide 0.014881/0.014881/0.014205 oct_tree_integral 5.520025e-02 scatter_volume 5.520025e-02
HYPOCENTER  x 738.094 y 9817.61 z 1.33097  OT 51.7388  ix -1 iy -1 iz -1 MAXIMUM_LIKELIHOOD
GEOGRAPHIC  OT 2023 10 12  02 08 51.738842  Lat 9817.614583 Long 738.093750 Depth 1.330966
QUALITY  Pmax 2.44744e+49 MFmin 53.6983 MFmax 67.5195 RMS 0.0244407 Nphs 16 Gap 311.93 Dist 1.5179 Mamp -9.90 0 Mdur -9.90 0
VPVSRATIO  VpVsRatio 1.78819  Npair 8  Diff 0.584518
STATISTICS  ExpectX 737.936289 Y 9817.608445 Z 1.179268  CovXX 0.0689578 XY 1.27536e-05 XZ 0.0192582 YY 0.0163348 YZ -0.00530797 ZZ 0.0555677 EllAz1  176.683 Dip1  -9.09004 Len1  0.233787 Az2  254.492 Dip2  52.8502 Len2  0.387709 Len3  5.406130e-01
STAT_GEOG  ExpectLat 9817.608445 Long 737.936289 Depth 1.179268
TRANSFORM  NONE
QML_OriginQuality  assocPhCt 16  usedPhCt 16  assocStaCt -1  usedStaCt 8  depthPhCt -1  stdErr 0.0244407  azGap 311.93  secAzGap 311.93  gtLevel -  minDist 1.5179 maxDist 5.22907 medDist 3.1383
QML_OriginUncertainty  horUnc -1  minHorUnc 0.19383  maxHorUnc 0.39825  azMaxHorUnc 89.9861
QML_ConfidenceEllipsoid  semiMajorAxisLength 0.540613  semiMinorAxisLength 0.233787  semiIntermediateAxisLength 0.387709  majorAxisPlunge 35.6526  majorAxisAzimuth 93.2733  majorAxisRotation 328.268
FOCALMECH  Hyp  9817.614583 738.093750 1.330966 Mech  0 0 0 mf  0 nObs -1
PHASE ID Ins Cmp On Pha  FM Date     HrMn   Sec     Err  ErrMag    Coda      Amp       Per       PriorWt  >   TTpred    Res       Weight    StaLoc(X  Y         Z)        SDist    SAzim  RAz  RDip RQual    Tcorr       TTerr
M06          ?    BHZ  i P      c 20231012 0208   52.5610 GAU  2.47e-03 -1.00e+00 -1.00e+00 -1.00e+00    1.0000 >    0.8122    0.0099    1.5601  738.3100 9819.1170   -1.3960    1.5179   8.19   8.2 147.7 10     0.0000    0.0162
M06          ?    BHN  e S      ? 20231012 0208   53.1143 GAU  3.07e-03 -1.00e+00 -1.00e+00 -1.00e+00    1.0000 >    1.3856   -0.0102    1.4892  738.3100 9819.1170   -1.3960    1.5179   8.19   8.2 146.4 10     0.0000    0.0277
M04          ?    BHZ  e P      c 20231012 0208   52.6114 GAU  2.04e-03 -1.00e+00 -1.00e+00 -1.00e+00    1.0000 >    0.9047   -0.0321    1.1871  737.1400 9819.2520   -1.5710    1.8949 329.78 329.8 142.9 10     0.0000    0.0181
M04          ?    BHN  e S      ? 20231012 0208   53.1764 GAU  2.93e-03 -1.00e+00  8.02e+02 -1.00e+00    1.0000 >    1.5442   -0.1066    0.1917  737.1400 9819.2520   -1.5710    1.8949 329.78 329.8 141.4 10     0.0000    0.0309
M02          ?    BHZ  i P      c 20231012 0208   52.7022 GAU  2.22e-03 -1.00e+00 -1.00e+00 -1.00e+00    1.0000 >    0.9552    0.0081    1.5687  736.5970 9819.4060   -1.4960    2.3344 320.12 320.1 135.5 10     0.0000    0.0191
M02          ?    BHN  e S      ? 20231012 0208   53.3835 GAU  3.12e-03 -1.00e+00  5.41e+02 -1.00e+00    1.0000 >    1.6293    0.0153    1.3009  736.5970 9819.4060   -1.4960    2.3344 320.12 320.1 133.6 10     0.0000    0.0326
M11          ?    BHZ  e P      c 20231012 0208   52.6032 GAU  2.01e-03 -1.00e+00 -1.00e+00 -1.00e+00    1.0000 >    1.0177   -0.1534    0.0820  738.4670 9820.4900   -1.3120    2.8995   7.40   7.4 125.8 10     0.0000    0.0204
M11          ?    BHN  e S      ? 20231012 0208   53.1959 GAU  2.10e-03 -1.00e+00 -1.00e+00 -1.00e+00    1.0000 >    1.7330   -0.2759    0.0017  738.4670 9820.4900   -1.3120    2.8995   7.40   7.4 123.5 10     0.0000    0.0347
M09          ?    BHZ  e P      c 20231012 0208   52.8322 GAU  2.97e-03 -1.00e+00  6.28e+01 -1.00e+00    1.0000 >    1.1043   -0.0109    1.5793  737.8820 9820.9850   -1.2700    3.3771 356.41 356.4 119.8 10     0.0000    0.0221
M09          ?    BHE  e S      ? 20231012 0208   53.6173 GAU  2.10e-03 -1.00e+00  3.70e+02 -1.00e+00    1.0000 >    1.8782    0.0003    1.3273  737.8820 9820.9850   -1.2700    3.3771 356.41 356.4 117.1 10     0.0000    0.0376
M13          ?    BHZ  e P      c 20231012 0208   52.9628 GAU  2.56e-03 -1.00e+00 -1.00e+00 -1.00e+00    1.0000 >    1.2339   -0.0099    1.5450  737.1780 9821.5410   -1.2220    4.0318 346.87 346.9 113.0 10     0.0000    0.0247
M13          ?    BHN  e S      ? 20231012 0208   53.8454 GAU  2.41e-03 -1.00e+00 -1.00e+00 -1.00e+00    1.0000 >    2.0949    0.0117    1.2117  737.1780 9821.5410   -1.2220    4.0318 346.87 346.9 110.1 10     0.0000    0.0419
M05          ?    BHZ  i P      d 20231012 0208   53.1236 GAU  3.17e-03 -1.00e+00  3.63e+02 -1.00e+00    1.0000 >    1.3989   -0.0142    1.4556  736.2660 9822.0830   -1.1500    4.8278 337.75 337.8 106.1 10     0.0000    0.0280
M05          ?    BHN  e S      ? 20231012 0208   54.0941 GAU  2.13e-03 -1.00e+00  2.59e+02 -1.00e+00    1.0000 >    2.3682   -0.0129    1.1657  736.2660 9822.0830   -1.1500    4.8278 337.75 337.8 103.4 10     0.0000    0.0474
M07          ?    BHZ  e P      d 20231012 0208   53.2995 GAU  2.13e-03 -1.00e+00  3.79e+02 -1.00e+00    1.0000 >    1.4845    0.0761    0.3099  737.4430 9822.8030   -1.1120    5.2291 352.85 352.9 103.3 10     0.0000    0.0297
M07          ?    BHN  e S      ? 20231012 0208   54.4372 GAU  2.04e-03 -1.00e+00 -1.00e+00 -1.00e+00    1.0000 >    2.5088    0.1896    0.0242  737.4430 9822.8030   -1.1120    5.2291 352.85 352.9 101.0 10     0.0000    0.0502
END_PHASE
END_NLLOC

