NLLOC "./loc/SEML.20231008.004602.grid0" "LOCATED" "Location completed."
PUBLIC_ID None
SIGNATURE "Arham Zakki Edelo - edelo.17034@mhs.its.ac.id   obs:./obs/2023_10.obs   NLLoc:v7.00.10(30Aug2020)   run:28Dec2023 20h15m36"
COMMENT "SEML"
GRID  2001 2001 1001  727 9811 -2  0.01 0.01 0.01 PROB_DENSITY
SEARCH OCTREE nInitial 4851 nEvaluated 20011 smallestNodeSide 0.007440/0.007440/0.007102 oct_tree_integral 2.949602e-03 scatter_volume 2.922324e-03
HYPOCENTER  x 737.234 y 9820.92 z 0.205256  OT 1.7391  ix -1 iy -1 iz -1 MAXIMUM_LIKELIHOOD
GEOGRAPHIC  OT 2023 10 08  00 46 1.739098  Lat 9820.921875 Long 737.234375 Depth 0.205256
QUALITY  Pmax 1.55381e+87 MFmin 115.82 MFmax 140.743 RMS 0.0217321 Nphs 24 Gap 56.3521 Dist 0.360817 Mamp -9.90 0 Mdur -9.90 0
VPVSRATIO  VpVsRatio 1.76165  Npair 12  Diff 0.265357
STATISTICS  ExpectX 737.233801 Y 9820.901735 Z 0.220593  CovXX 0.00229558 XY 0.000717481 XZ 0.00119471 YY 0.00330391 YZ -0.000997435 ZZ 0.00740877 EllAz1  119.774 Dip1  -14.6009 Len1  0.073408 Az2  210.753 Dip2  -3.7533 Len2  0.113583 Len3  1.662210e-01
STAT_GEOG  ExpectLat 9820.901735 Long 737.233801 Depth 0.220593
TRANSFORM  NONE
QML_OriginQuality  assocPhCt 24  usedPhCt 24  assocStaCt -1  usedStaCt 12  depthPhCt -1  stdErr 0.0217321  azGap 56.3521  secAzGap 56.3521  gtLevel -  minDist 0.360817 maxDist 2.10108 medDist 1.40902
QML_OriginUncertainty  horUnc -1  minHorUnc 0.0665021  maxHorUnc 0.0919581  azMaxHorUnc 27.4523
QML_ConfidenceEllipsoid  semiMajorAxisLength 0.166221  semiMinorAxisLength 0.073408  semiIntermediateAxisLength 0.113583  majorAxisPlunge 74.9035  majorAxisAzimuth 134.828  majorAxisRotation 102.65
FOCALMECH  Hyp  9820.921875 737.234375 0.205256 Mech  0 0 0 mf  0 nObs -1
PHASE ID Ins Cmp On Pha  FM Date     HrMn   Sec     Err  ErrMag    Coda      Amp       Per       PriorWt  >   TTpred    Res       Weight    StaLoc(X  Y         Z)        SDist    SAzim  RAz  RDip RQual    Tcorr       TTerr
M03          ?    BHZ  e P      d 20231008 0046    2.1634 GAU  1.71e-03 -1.00e+00  5.07e+03 -1.00e+00    1.0000 >    0.4223    0.0020    1.6859  736.8800 9820.8540   -1.3350    0.3608 259.16 259.2 166.3 10     0.0000    0.0084
M03          ?    BHN  e S      ? 20231008 0046    2.5204 GAU  7.49e-04 -1.00e+00 -1.00e+00 -1.00e+00    1.0000 >    0.7384    0.0429    0.7432  736.8800 9820.8540   -1.3350    0.3608 259.16 259.2 166.0 10     0.0000    0.0148
M13          ?    BHZ  i P      c 20231008 0046    2.1263 GAU  2.28e-03 -1.00e+00  2.14e+01 -1.00e+00    1.0000 >    0.4147   -0.0276    0.5740  737.1780 9821.5410   -1.2220    0.6217 354.80 354.8 155.8 10     0.0000    0.0083
M13          ?    BHN  e S      ? 20231008 0046    2.4409 GAU  3.12e-04 -1.00e+00 -1.00e+00 -1.00e+00    1.0000 >    0.7260   -0.0242    0.8447  737.1780 9821.5410   -1.2220    0.6217 354.80 354.8 155.3 10     0.0000    0.0145
M09          ?    BHZ  i P      c 20231008 0046    2.1641 GAU  2.41e-03 -1.00e+00  1.73e+02 -1.00e+00    1.0000 >    0.4299   -0.0049    1.6007  737.8820 9820.9850   -1.2700    0.6507  84.43  84.4 155.5 10     0.0000    0.0086
M09          ?    BHN  e S      ? 20231008 0046    2.4989 GAU  3.25e-03 -1.00e+00  3.87e+02 -1.00e+00    1.0000 >    0.7523    0.0075    1.4956  737.8820 9820.9850   -1.2700    0.6507  84.43  84.4 155.0 10     0.0000    0.0150
M10          ?    BHZ  i P      d 20231008 0046    2.1903 GAU  2.71e-03 -1.00e+00  1.28e+03 -1.00e+00    1.0000 >    0.4374    0.0138    1.3996  736.5490 9821.3650   -1.2200    0.8161 302.88 302.9 149.4 10     0.0000    0.0087
M10          ?    BHE  e S      ? 20231008 0046    2.5724 GAU  2.44e-03 -1.00e+00  3.24e+02 -1.00e+00    1.0000 >    0.7657    0.0676    0.4241  736.5490 9821.3650   -1.2200    0.8161 302.88 302.9 148.8 10     0.0000    0.0153
M14          ?    BHZ  e P      d 20231008 0046    2.2398 GAU  2.54e-03 -1.00e+00  4.75e+02 -1.00e+00    1.0000 >    0.5000    0.0008    1.6539  737.5530 9820.0110   -1.3980    0.9650 160.72 160.7 148.0 10     0.0000    0.0100
M14          ?    BHN  e S      ? 20231008 0046    2.6194 GAU  2.44e-03 -1.00e+00  4.04e+02 -1.00e+00    1.0000 >    0.8738    0.0065    1.4531  737.5530 9820.0110   -1.3980    0.9650 160.72 160.7 147.4 10     0.0000    0.0175
M11          ?    BHZ  i P      c 20231008 0046    2.2713 GAU  2.27e-03 -1.00e+00 -1.00e+00 -1.00e+00    1.0000 >    0.5337   -0.0016    1.6239  738.4670 9820.4900   -1.3120    1.3061 109.31 109.3 138.0 10     0.0000    0.0107
M11          ?    BHE  e S      ? 20231008 0046    2.6699 GAU  3.07e-03 -1.00e+00 -1.00e+00 -1.00e+00    1.0000 >    0.9336   -0.0028    1.3958  738.4670 9820.4900   -1.3120    1.3061 109.31 109.3 137.0 10     0.0000    0.0187
M05          ?    BHZ  i P      d 20231008 0046    2.2675 GAU  2.50e-03 -1.00e+00  2.99e+02 -1.00e+00    1.0000 >    0.5392   -0.0108    1.3820  736.2660 9822.0830   -1.1500    1.5119 320.17 320.2 130.0 10     0.0000    0.0108
M05          ?    BHN  e S      ? 20231008 0046    2.6958 GAU  2.48e-03 -1.00e+00  2.43e+02 -1.00e+00    1.0000 >    0.9449    0.0119    1.3759  736.2660 9822.0830   -1.1500    1.5119 320.17 320.2 128.6 10     0.0000    0.0189
M08          ?    BHZ  i P      d 20231008 0046    2.3206 GAU  2.89e-04 -1.00e+00  6.54e+02 -1.00e+00    1.0000 >    0.5571    0.0244    1.0761  738.2480 9822.1600   -1.1510    1.6001  39.31  39.3 128.3 10     0.0000    0.0111
M08          ?    BHE  e S      ? 20231008 0046    2.7784 GAU  2.02e-03 -1.00e+00 -1.00e+00 -1.00e+00    1.0000 >    0.9762    0.0631    0.5128  738.2480 9822.1600   -1.1510    1.6001  39.31  39.3 126.9 10     0.0000    0.0195
M02          ?    BHZ  i P      d 20231008 0046    2.2608 GAU  2.34e-03 -1.00e+00  1.27e+02 -1.00e+00    1.0000 >    0.6327   -0.1111    0.0009  736.5970 9819.4060   -1.4960    1.6444 202.81 202.8 134.1 10     0.0000    0.0127
M02          ?    BHE  e S      ? 20231008 0046    2.6540 GAU  2.86e-03 -1.00e+00  2.48e+03 -1.00e+00    1.0000 >    1.1051   -0.1903    0.0009  736.5970 9819.4060   -1.4960    1.6444 202.81 202.8 133.2 10     0.0000    0.0221
M04          ?    BHZ  e P      d 20231008 0046    2.3856 GAU  3.68e-03 -1.00e+00  1.38e+03 -1.00e+00    1.0000 >    0.6532   -0.0066    1.4696  737.1400 9819.2520   -1.5710    1.6725 183.23 183.2 134.9 10     0.0000    0.0131
M04          ?    BHE  e S      ? 20231008 0046    2.8905 GAU  3.42e-03 -1.00e+00  4.15e+02 -1.00e+00    1.0000 >    1.1402    0.0111    1.3085  737.1400 9819.2520   -1.5710    1.6725 183.23 183.2 134.0 10     0.0000    0.0228
M07          ?    BHZ  i P      d 20231008 0046    2.4006 GAU  2.40e-03 -1.00e+00 -1.00e+00 -1.00e+00    1.0000 >    0.6119    0.0495    0.6131  737.4430 9822.8030   -1.1120    1.8927   6.33   6.3 122.6 10     0.0000    0.0122
M07          ?    BHE  e S      ? 20231008 0046    2.9208 GAU  2.07e-03 -1.00e+00 -1.00e+00 -1.00e+00    1.0000 >    1.0728    0.1089    0.1288  737.4430 9822.8030   -1.1120    1.8927   6.33   6.3 120.7 10     0.0000    0.0215
M06          ?    BHZ  i P      c 20231008 0046    2.4773 GAU  1.93e-03 -1.00e+00 -1.00e+00 -1.00e+00    1.0000 >    0.7052    0.0330    0.9208  738.3100 9819.1170   -1.3960    2.1011 149.21 149.2 124.8 10     0.0000    0.0141
M06          ?    BHN  e S      ? 20231008 0046    3.0573 GAU  8.11e-04 -1.00e+00 -1.00e+00 -1.00e+00    1.0000 >    1.2328    0.0854    0.3161  738.3100 9819.1170   -1.3960    2.1011 149.21 149.2 123.4 10     0.0000    0.0247
END_PHASE
END_NLLOC

