NLLOC "./loc/SEML.20231012.022645.grid0" "LOCATED" "Location completed."
PUBLIC_ID None
SIGNATURE "Arham Zakki Edelo - edelo.17034@mhs.its.ac.id   obs:./obs/2023_10.obs   NLLoc:v7.00.10(30Aug2020)   run:28Dec2023 20h15m40"
COMMENT "SEML"
GRID  2001 2001 1001  727 9811 -2  0.01 0.01 0.01 PROB_DENSITY
SEARCH OCTREE nInitial 4851 nEvaluated 20003 smallestNodeSide 0.029762/0.029762/0.028409 oct_tree_integral 9.789903e-02 scatter_volume 9.690963e-02
HYPOCENTER  x 738.711 y 9817.77 z 0.911932  OT 44.3783  ix -1 iy -1 iz -1 MAXIMUM_LIKELIHOOD
GEOGRAPHIC  OT 2023 10 12  02 26 44.378257  Lat 9817.770833 Long 738.711310 Depth 0.911932
QUALITY  Pmax 3.56829e+54 MFmin 61.2316 MFmax 75.3026 RMS 0.0413671 Nphs 18 Gap 318.443 Dist 1.40471 Mamp -9.90 0 Mdur -9.90 0
VPVSRATIO  VpVsRatio 1.6906  Npair 9  Diff 0.612709
STATISTICS  ExpectX 738.448605 Y 9817.659219 Z 0.669409  CovXX 0.463776 XY 0.0515561 XZ 0.214375 YY 0.0382525 YZ 0.0285848 ZZ 0.139889 EllAz1  193.988 Dip1  35.8557 Len1  0.32437 Az2  325.848 Dip2  42.7181 Len2  0.352363 Len3  1.427092e+00
STAT_GEOG  ExpectLat 9817.659219 Long 738.448605 Depth 0.669409
TRANSFORM  NONE
QML_OriginQuality  assocPhCt 18  usedPhCt 18  assocStaCt -1  usedStaCt 9  depthPhCt -1  stdErr 0.0413671  azGap 318.443  secAzGap 318.443  gtLevel -  minDist 1.40471 maxDist 5.18954 medDist 3.31943
QML_OriginUncertainty  horUnc -1  minHorUnc 0.271696  maxHorUnc 1.03964  azMaxHorUnc 83.1894
QML_ConfidenceEllipsoid  semiMajorAxisLength 1.42709  semiMinorAxisLength 0.32437  semiIntermediateAxisLength 0.352363  majorAxisPlunge 26.327  majorAxisAzimuth 83.0353  majorAxisRotation 54.909
FOCALMECH  Hyp  9817.770833 738.711310 0.911932 Mech  0 0 0 mf  0 nObs -1
PHASE ID Ins Cmp On Pha  FM Date     HrMn   Sec     Err  ErrMag    Coda      Amp       Per       PriorWt  >   TTpred    Res       Weight    StaLoc(X  Y         Z)        SDist    SAzim  RAz  RDip RQual    Tcorr       TTerr
M06          ?    BHZ  i P      c 20231012 0226   45.1157 GAU  5.62e-03 -1.00e+00 -1.00e+00 -1.00e+00    1.0000 >    0.7133    0.0241    1.4406  738.3100 9819.1170   -1.3960    1.4047 343.40 343.4 147.7 10     0.0000    0.0143
M06          ?    BHE  e S      ? 20231012 0226   45.5940 GAU  2.01e-03 -1.00e+00 -1.00e+00 -1.00e+00    1.0000 >    1.2259   -0.0101    1.6928  738.3100 9819.1170   -1.3960    1.4047 343.40 343.4 145.1 10     0.0000    0.0245
M04          ?    BHZ  e P      c 20231012 0226   45.1109 GAU  3.77e-03 -1.00e+00 -1.00e+00 -1.00e+00    1.0000 >    0.8708   -0.1382    0.0084  737.1400 9819.2520   -1.5710    2.1594 313.31 313.3 137.4 10     0.0000    0.0174
M04          ?    BHN  e S      ? 20231012 0226   45.5984 GAU  2.67e-03 -1.00e+00  8.30e+02 -1.00e+00    1.0000 >    1.4963   -0.2761    0.0001  737.1400 9819.2520   -1.5710    2.1594 313.31 313.3 133.7 10     0.0000    0.0299
M14          ?    BHZ  e P      c 20231012 0226   45.2760 GAU  1.24e-03 -1.00e+00 -1.00e+00 -1.00e+00    1.0000 >    0.9023   -0.0045    1.8367  737.5530 9820.0110   -1.3980    2.5219 332.66 332.7 130.5 10     0.0000    0.0180
M14          ?    BHN  e S      ? 20231012 0226   46.0277 GAU  1.08e-03 -1.00e+00  2.92e+02 -1.00e+00    1.0000 >    1.5491    0.1003    0.5234  737.5530 9820.0110   -1.3980    2.5219 332.66 332.7 125.9 10     0.0000    0.0310
M11          ?    BHZ  e P      d 20231012 0226   45.2723 GAU  2.42e-03 -1.00e+00  8.26e+01 -1.00e+00    1.0000 >    0.9276   -0.0335    1.1681  738.4670 9820.4900   -1.3120    2.7301 354.87 354.9 127.0 10     0.0000    0.0186
M11          ?    BHE  e S      ? 20231012 0226   45.9754 GAU  4.00e-03 -1.00e+00 -1.00e+00 -1.00e+00    1.0000 >    1.5917    0.0055    1.5936  738.4670 9820.4900   -1.3120    2.7301 354.87 354.9 121.8 10     0.0000    0.0318
M09          ?    BHZ  i P      c 20231012 0226   45.4289 GAU  2.46e-03 -1.00e+00 -1.00e+00 -1.00e+00    1.0000 >    1.0454    0.0052    1.7952  737.8820 9820.9850   -1.2700    3.3194 345.53 345.5 120.8 10     0.0000    0.0209
M09          ?    BHN  e S      ? 20231012 0226   46.1788 GAU  2.87e-03 -1.00e+00  4.70e+02 -1.00e+00    1.0000 >    1.7919    0.0087    1.5107  737.8820 9820.9850   -1.2700    3.3194 345.53 345.5 114.5 10     0.0000    0.0358
M13          ?    BHZ  e P      c 20231012 0226   45.7048 GAU  2.70e-03 -1.00e+00 -1.00e+00 -1.00e+00    1.0000 >    1.2079    0.1186    0.4768  737.1780 9821.5410   -1.2220    4.0700 337.87 337.9 114.8 10     0.0000    0.0242
M13          ?    BHN  e S      ? 20231012 0226   46.6864 GAU  2.23e-03 -1.00e+00 -1.00e+00 -1.00e+00    1.0000 >    2.0661    0.2420    0.0812  737.1780 9821.5410   -1.2220    4.0700 337.87 337.9 107.4 10     0.0000    0.0413
M08          ?    BHZ  e P      d 20231012 0226   45.7952 GAU  1.07e-03 -1.00e+00  6.20e+02 -1.00e+00    1.0000 >    1.2785    0.1385    0.3905  738.2480 9822.1600   -1.1510    4.4136 353.97 354.0 112.1 10     0.0000    0.0256
M08          ?    BHN  e S      ? 20231012 0226   46.8833 GAU  6.19e-05 -1.00e+00  2.93e+02 -1.00e+00    1.0000 >    2.1831    0.3220    0.0527  738.2480 9822.1600   -1.1510    4.4136 353.97 354.0 104.4 10     0.0000    0.0437
M05          ?    BHZ  i P      c 20231012 0226   45.7743 GAU  2.25e-03 -1.00e+00 -1.00e+00 -1.00e+00    1.0000 >    1.4084   -0.0124    1.6039  736.2660 9822.0830   -1.1500    4.9572 330.44 330.4 109.4 10     0.0000    0.0282
M05          ?    BHE  e S      ? 20231012 0226   46.7652 GAU  2.37e-03 -1.00e+00 -1.00e+00 -1.00e+00    1.0000 >    2.4001   -0.0131    1.2773  736.2660 9822.0830   -1.1500    4.9572 330.44 330.4 101.5 10     0.0000    0.0480
M07          ?    BHZ  i P      d 20231012 0226   45.8400 GAU  3.41e-03 -1.00e+00  6.14e+02 -1.00e+00    1.0000 >    1.4598    0.0019    1.6553  737.4430 9822.8030   -1.1120    5.1895 345.85 345.9 108.1 10     0.0000    0.0292
M07          ?    BHE  e S      ? 20231012 0226   46.9309 GAU  2.01e-03 -1.00e+00 -1.00e+00 -1.00e+00    1.0000 >    2.4842    0.0685    0.8926  737.4430 9822.8030   -1.1120    5.1895 345.85 345.9 100.3 10     0.0000    0.0497
END_PHASE
END_NLLOC

