NLLOC "./loc/SEML.20231014.082431.grid0" "LOCATED" "Location completed."
PUBLIC_ID None
SIGNATURE "Arham Zakki Edelo - edelo.17034@mhs.its.ac.id   obs:./obs/2023_10.obs   NLLoc:v7.00.10(30Aug2020)   run:28Dec2023 20h15m41"
COMMENT "SEML"
GRID  2001 2001 1001  727 9811 -2  0.01 0.01 0.01 PROB_DENSITY
SEARCH OCTREE nInitial 4851 nEvaluated 20003 smallestNodeSide 0.014881/0.014881/0.014205 oct_tree_integral 2.377176e-02 scatter_volume 2.350256e-02
HYPOCENTER  x 738.987 y 9818.98 z 1.34517  OT 30.5472  ix -1 iy -1 iz -1 MAXIMUM_LIKELIHOOD
GEOGRAPHIC  OT 2023 10 14  08 24 30.547172  Lat 9818.983631 Long 738.986607 Depth 1.345170
QUALITY  Pmax 1.15501e+46 MFmin 50.3559 MFmax 64.5629 RMS 0.0141896 Nphs 14 Gap 300.182 Dist 0.689626 Mamp -9.90 0 Mdur -9.90 0
VPVSRATIO  VpVsRatio 1.72307  Npair 7  Diff 0.389753
STATISTICS  ExpectX 738.991166 Y 9818.991667 Z 1.361133  CovXX 0.0268354 XY 0.0102876 XZ 0.00233336 YY 0.0166674 YZ -0.00147843 ZZ 0.0121272 EllAz1  326.191 Dip1  35.0755 Len1  0.173512 Az2  333.168 Dip2  -54.724 Len2  0.220756 Len3  3.428324e-01
STAT_GEOG  ExpectLat 9818.991667 Long 738.991166 Depth 1.361133
TRANSFORM  NONE
QML_OriginQuality  assocPhCt 14  usedPhCt 14  assocStaCt -1  usedStaCt 7  depthPhCt -1  stdErr 0.0141896  azGap 300.182  secAzGap 300.182  gtLevel -  minDist 0.689626 maxDist 4.12405 medDist 2.28596
QML_OriginUncertainty  horUnc -1  minHorUnc 0.153737  maxHorUnc 0.276444  azMaxHorUnc 58.1491
QML_ConfidenceEllipsoid  semiMajorAxisLength 0.342832  semiMinorAxisLength 0.173512  semiIntermediateAxisLength 0.220756  majorAxisPlunge 3.29105  majorAxisAzimuth 58.5051  majorAxisRotation 144.679
FOCALMECH  Hyp  9818.983631 738.986607 1.345170 Mech  0 0 0 mf  0 nObs -1
PHASE ID Ins Cmp On Pha  FM Date     HrMn   Sec     Err  ErrMag    Coda      Amp       Per       PriorWt  >   TTpred    Res       Weight    StaLoc(X  Y         Z)        SDist    SAzim  RAz  RDip RQual    Tcorr       TTerr
M06          ?    BHZ  i P      c 20231014 0824   31.2837 GAU  3.62e-03 -1.00e+00 -1.00e+00 -1.00e+00    1.0000 >    0.7355    0.0010    1.3095  738.3100 9819.1170   -1.3960    0.6896 281.15 281.2 164.3 10     0.0000    0.0147
M06          ?    BHN  e S      ? 20231014 0824   31.7782 GAU  2.59e-03 -1.00e+00 -1.00e+00 -1.00e+00    1.0000 >    1.2550   -0.0239    0.9509  738.3100 9819.1170   -1.3960    0.6896 281.15 281.2 163.8 10     0.0000    0.0251
M11          ?    BHZ  e P      c 20231014 0824   31.3490 GAU  2.30e-03 -1.00e+00 -1.00e+00 -1.00e+00    1.0000 >    0.8045   -0.0026    1.2967  738.4670 9820.4900   -1.3120    1.5935 340.97 341.0 145.7 10     0.0000    0.0161
M11          ?    BHN  e S      ? 20231014 0824   31.9193 GAU  2.71e-04 -1.00e+00 -1.00e+00 -1.00e+00    1.0000 >    1.3715    0.0005    1.0823  738.4670 9820.4900   -1.3120    1.5935 340.97 341.0 144.3 10     0.0000    0.0274
M14          ?    BHZ  i P      c 20231014 0824   31.3987 GAU  2.68e-03 -1.00e+00 -1.00e+00 -1.00e+00    1.0000 >    0.8481    0.0033    1.2598  737.5530 9820.0110   -1.3980    1.7637 305.63 305.6 143.5 10     0.0000    0.0170
M14          ?    BHN  e S      ? 20231014 0824   32.0053 GAU  2.54e-03 -1.00e+00  3.42e+02 -1.00e+00    1.0000 >    1.4464    0.0117    0.9815  737.5530 9820.0110   -1.3980    1.7637 305.63 305.6 142.1 10     0.0000    0.0289
M09          ?    BHZ  i P      c 20231014 0824   31.4529 GAU  1.29e-03 -1.00e+00  1.75e+02 -1.00e+00    1.0000 >    0.9003    0.0054    1.2251  737.8820 9820.9850   -1.2700    2.2860 331.10 331.1 133.9 10     0.0000    0.0180
M09          ?    BHN  e S      ? 20231014 0824   32.0886 GAU  2.12e-03 -1.00e+00  4.93e+02 -1.00e+00    1.0000 >    1.5336    0.0078    0.9895  737.8820 9820.9850   -1.2700    2.2860 331.10 331.1 132.0 10     0.0000    0.0307
M13          ?    BHZ  i P      c 20231014 0824   31.5563 GAU  2.37e-03 -1.00e+00 -1.00e+00 -1.00e+00    1.0000 >    1.0476   -0.0385    0.6767  737.1780 9821.5410   -1.2220    3.1323 324.73 324.7 122.2 10     0.0000    0.0210
M13          ?    BHE  e S      ? 20231014 0824   32.2436 GAU  2.19e-03 -1.00e+00 -1.00e+00 -1.00e+00    1.0000 >    1.7817   -0.0854    0.1993  737.1780 9821.5410   -1.2220    3.1323 324.73 324.7 119.7 10     0.0000    0.0356
M10          ?    BHZ  e P      c 20231014 0824   31.6490 GAU  2.05e-03 -1.00e+00  8.34e+02 -1.00e+00    1.0000 >    1.1031   -0.0012    1.1856  736.5490 9821.3650   -1.2200    3.4078 314.33 314.3 119.1 10     0.0000    0.0221
M10          ?    BHE  e S      ? 20231014 0824   32.4249 GAU  4.69e-03 -1.00e+00 -1.00e+00 -1.00e+00    1.0000 >    1.8750    0.0028    0.9084  736.5490 9821.3650   -1.2200    3.4078 314.33 314.3 116.5 10     0.0000    0.0375
M05          ?    BHZ  e P      c 20231014 0824   31.7793 GAU  2.03e-03 -1.00e+00 -1.00e+00 -1.00e+00    1.0000 >    1.2432   -0.0112    1.1023  736.2660 9822.0830   -1.1500    4.1241 318.72 318.7 111.7 10     0.0000    0.0249
M05          ?    BHE  e S      ? 20231014 0824   32.6635 GAU  2.07e-03 -1.00e+00 -1.00e+00 -1.00e+00    1.0000 >    2.1086    0.0078    0.8323  736.2660 9822.0830   -1.1500    4.1241 318.72 318.7 108.9 10     0.0000    0.0422
END_PHASE
END_NLLOC

