NLLOC "./loc/SEML.20231014.163141.grid0" "LOCATED" "Location completed."
PUBLIC_ID None
SIGNATURE "Arham Zakki Edelo - edelo.17034@mhs.its.ac.id   obs:./obs/2023_10.obs   NLLoc:v7.00.10(30Aug2020)   run:28Dec2023 20h15m42"
COMMENT "SEML"
GRID  2001 2001 1001  727 9811 -2  0.01 0.01 0.01 PROB_DENSITY
SEARCH OCTREE nInitial 4851 nEvaluated 20003 smallestNodeSide 0.014881/0.014881/0.014205 oct_tree_integral 4.238316e-02 scatter_volume 4.205272e-02
HYPOCENTER  x 737.707 y 9818.54 z 0.791193  OT 41.023  ix -1 iy -1 iz -1 MAXIMUM_LIKELIHOOD
GEOGRAPHIC  OT 2023 10 14  16 31 41.023009  Lat 9818.537202 Long 737.706845 Depth 0.791193
QUALITY  Pmax 2.12821e+49 MFmin 56.4863 MFmax 68.0644 RMS 0.0260255 Nphs 16 Gap 291.754 Dist 0.836637 Mamp -9.90 0 Mdur -9.90 0
VPVSRATIO  VpVsRatio 1.70153  Npair 8  Diff 0.534389
STATISTICS  ExpectX 737.395101 Y 9818.583115 Z 0.584829  CovXX 0.151457 XY -0.018371 XZ 0.0946756 YY 0.0129287 YZ -0.0175505 ZZ 0.0780516 EllAz1  164.19 Dip1  -31.0473 Len1  0.158872 Az2  223.573 Dip2  40.2315 Len2  0.237245 Len3  8.799309e-01
STAT_GEOG  ExpectLat 9818.583115 Long 737.395101 Depth 0.584829
TRANSFORM  NONE
QML_OriginQuality  assocPhCt 16  usedPhCt 16  assocStaCt -1  usedStaCt 8  depthPhCt -1  stdErr 0.0260255  azGap 291.754  secAzGap 291.754  gtLevel -  minDist 0.836637 maxDist 4.91767 medDist 3.35649
QML_OriginUncertainty  horUnc -1  minHorUnc 0.155653  maxHorUnc 0.594861  azMaxHorUnc 97.4273
QML_ConfidenceEllipsoid  semiMajorAxisLength 0.879931  semiMinorAxisLength 0.158872  semiIntermediateAxisLength 0.237245  majorAxisPlunge 34.2561  majorAxisAzimuth 98.3925  majorAxisRotation 294.642
FOCALMECH  Hyp  9818.537202 737.706845 0.791193 Mech  0 0 0 mf  0 nObs -1
PHASE ID Ins Cmp On Pha  FM Date     HrMn   Sec     Err  ErrMag    Coda      Amp       Per       PriorWt  >   TTpred    Res       Weight    StaLoc(X  Y         Z)        SDist    SAzim  RAz  RDip RQual    Tcorr       TTerr
M06          ?    BHZ  i P      c 20231014 1631   41.6462 GAU  2.58e-03 -1.00e+00 -1.00e+00 -1.00e+00    1.0000 >    0.6195    0.0037    1.8495  738.3100 9819.1170   -1.3960    0.8366  46.13  46.1 158.4 10     0.0000    0.0124
M06          ?    BHN  e S      ? 20231014 1631   42.0932 GAU  2.57e-03 -1.00e+00 -1.00e+00 -1.00e+00    1.0000 >    1.0688    0.0015    1.6590  738.3100 9819.1170   -1.3960    0.8366  46.13  46.1 156.6 10     0.0000    0.0214
M11          ?    BHZ  e P      d 20231014 1631   41.7976 GAU  2.59e-03 -1.00e+00  1.05e+02 -1.00e+00    1.0000 >    0.7834   -0.0088    1.7089  738.4670 9820.4900   -1.3120    2.0955  21.27  21.3 133.4 10     0.0000    0.0157
M11          ?    BHN  e S      ? 20231014 1631   42.3788 GAU  3.77e-03 -1.00e+00 -1.00e+00 -1.00e+00    1.0000 >    1.3506    0.0052    1.4940  738.4670 9820.4900   -1.3120    2.0955  21.27  21.3 128.9 10     0.0000    0.0270
M09          ?    BHZ  i P      c 20231014 1631   41.8558 GAU  2.23e-03 -1.00e+00  1.27e+02 -1.00e+00    1.0000 >    0.8449   -0.0122    1.6108  737.8820 9820.9850   -1.2700    2.4541   4.09   4.1 127.9 10     0.0000    0.0169
M09          ?    BHE  e S      ? 20231014 1631   42.4893 GAU  9.05e-04 -1.00e+00  3.82e+02 -1.00e+00    1.0000 >    1.4560    0.0103    1.4087  737.8820 9820.9850   -1.2700    2.4541   4.09   4.1 122.4 10     0.0000    0.0291
M13          ?    BHZ  i P      c 20231014 1631   41.9209 GAU  2.61e-03 -1.00e+00 -1.00e+00 -1.00e+00    1.0000 >    0.9625   -0.0646    0.3366  737.1780 9821.5410   -1.2220    3.0500 350.01 350.0 120.9 10     0.0000    0.0193
M13          ?    BHE  e S      ? 20231014 1631   42.5389 GAU  2.29e-03 -1.00e+00 -1.00e+00 -1.00e+00    1.0000 >    1.6569   -0.1410    0.2282  737.1780 9821.5410   -1.2220    3.0500 350.01 350.0 113.8 10     0.0000    0.0331
M08          ?    BHZ  e P      c 20231014 1631   42.1210 GAU  2.20e-03 -1.00e+00 -1.00e+00 -1.00e+00    1.0000 >    1.0901    0.0079    1.6002  738.2480 9822.1600   -1.1510    3.6630   8.50   8.5 115.1 10     0.0000    0.0218
M08          ?    BHE  e S      ? 20231014 1631   42.8880 GAU  2.49e-03 -1.00e+00 -1.00e+00 -1.00e+00    1.0000 >    1.8733   -0.0083    1.2774  738.2480 9822.1600   -1.1510    3.6630   8.50   8.5 106.6 10     0.0000    0.0375
M05          ?    BHZ  i P      c 20231014 1631   42.3004 GAU  2.10e-03 -1.00e+00  1.06e+02 -1.00e+00    1.0000 >    1.1282    0.1492    0.0086  736.2660 9822.0830   -1.1500    3.8274 337.89 337.9 113.9 10     0.0000    0.0226
M05          ?    BHE  e S      ? 20231014 1631   43.2572 GAU  2.13e-03 -1.00e+00 -1.00e+00 -1.00e+00    1.0000 >    1.9378    0.2964    0.0007  736.2660 9822.0830   -1.1500    3.8274 337.89 337.9 105.3 10     0.0000    0.0388
M07          ?    BHZ  i P      d 20231014 1631   42.1461 GAU  3.87e-03 -1.00e+00  4.15e+02 -1.00e+00    1.0000 >    1.2286   -0.1055    0.2625  737.4430 9822.8030   -1.1120    4.2739 356.46 356.5 110.8 10     0.0000    0.0246
M07          ?    BHE  e S      ? 20231014 1631   42.9517 GAU  3.01e-03 -1.00e+00 -1.00e+00 -1.00e+00    1.0000 >    2.1063   -0.1776    0.1461  737.4430 9822.8030   -1.1120    4.2739 356.46 356.5 101.7 10     0.0000    0.0421
M12          ?    BHZ  i P      c 20231014 1631   42.4043 GAU  2.36e-03 -1.00e+00 -1.00e+00 -1.00e+00    1.0000 >    1.3690    0.0122    1.4200  736.8520 9823.3800   -0.9890    4.9177 349.99 350.0 106.6 10     0.0000    0.0274
M12          ?    BHN  e S      ? 20231014 1631   43.3857 GAU  2.64e-03 -1.00e+00 -1.00e+00 -1.00e+00    1.0000 >    2.3364    0.0263    0.9888  736.8520 9823.3800   -0.9890    4.9177 349.99 350.0  97.9 10     0.0000    0.0467
END_PHASE
END_NLLOC

