NLLOC "./loc/SEML.20231010.085248.grid0" "LOCATED" "Location completed."
PUBLIC_ID None
SIGNATURE "Arham Zakki Edelo - edelo.17034@mhs.its.ac.id   obs:./obs/2023_10.obs   NLLoc:v7.00.10(30Aug2020)   run:28Dec2023 20h15m38"
COMMENT "SEML"
GRID  2001 2001 1001  727 9811 -2  0.01 0.01 0.01 PROB_DENSITY
SEARCH OCTREE nInitial 4851 nEvaluated 20003 smallestNodeSide 0.029762/0.029762/0.028409 oct_tree_integral 8.087765e-02 scatter_volume 7.999679e-02
HYPOCENTER  x 738.682 y 9818.22 z 0.00284091  OT 47.4818  ix -1 iy -1 iz -1 MAXIMUM_LIKELIHOOD
GEOGRAPHIC  OT 2023 10 10  08 52 47.481850  Lat 9818.217262 Long 738.681548 Depth 0.002841
QUALITY  Pmax 5.67827e+26 MFmin 34.5913 MFmax 45.1216 RMS 0.0246871 Nphs 10 Gap 333.216 Dist 2.11923 Mamp -9.90 0 Mdur -9.90 0
VPVSRATIO  VpVsRatio 1.77015  Npair 5  Diff 0.458187
STATISTICS  ExpectX 738.461981 Y 9818.271484 Z -0.070417  CovXX 0.75029 XY -0.0658172 XZ 0.183004 YY 0.0547699 YZ 0.0205699 ZZ 0.256874 EllAz1  188.522 Dip1  12.3635 Len1  0.3774 Az2  311.291 Dip2  67.953 Len2  0.854165 Len3  1.696054e+00
STAT_GEOG  ExpectLat 9818.271484 Long 738.461981 Depth -0.070417
TRANSFORM  NONE
QML_OriginQuality  assocPhCt 10  usedPhCt 10  assocStaCt -1  usedStaCt 5  depthPhCt -1  stdErr 0.0246871  azGap 333.216  secAzGap 333.216  gtLevel -  minDist 2.11923 maxDist 4.75005 medDist 3.648
QML_OriginUncertainty  horUnc -1  minHorUnc 0.334323  maxHorUnc 1.31904  azMaxHorUnc 95.3585
QML_ConfidenceEllipsoid  semiMajorAxisLength 1.69605  semiMinorAxisLength 0.3774  semiIntermediateAxisLength 0.854165  majorAxisPlunge 17.9576  majorAxisAzimuth 94.4481  majorAxisRotation 15.9198
FOCALMECH  Hyp  9818.217262 738.681548 0.002841 Mech  0 0 0 mf  0 nObs -1
PHASE ID Ins Cmp On Pha  FM Date     HrMn   Sec     Err  ErrMag    Coda      Amp       Per       PriorWt  >   TTpred    Res       Weight    StaLoc(X  Y         Z)        SDist    SAzim  RAz  RDip RQual    Tcorr       TTerr
M14          ?    BHZ  e P      c 20231010 0852   48.1545 GAU  2.17e-03 -1.00e+00 -1.00e+00 -1.00e+00    1.0000 >    0.6813   -0.0087    1.5681  737.5530 9820.0110   -1.3980    2.1192 327.82 327.8 120.2 10     0.0000    0.0136
M14          ?    BHN  e S      ? 20231010 0852   48.6731 GAU  2.92e-03 -1.00e+00  3.98e+02 -1.00e+00    1.0000 >    1.1942   -0.0029    1.5359  737.5530 9820.0110   -1.3980    2.1192 327.82 327.8 119.6  9     0.0000    0.0239
M11          ?    BHZ  e P      c 20231010 0852   48.1975 GAU  9.70e-04 -1.00e+00 -1.00e+00 -1.00e+00    1.0000 >    0.7054    0.0103    1.5835  738.4670 9820.4900   -1.3120    2.2828 354.61 354.6 116.5 10     0.0000    0.0141
M11          ?    BHN  e S      ? 20231010 0852   48.7261 GAU  1.34e-03 -1.00e+00 -1.00e+00 -1.00e+00    1.0000 >    1.2379    0.0064    1.5210  738.4670 9820.4900   -1.3120    2.2828 354.61 354.6 115.6  9     0.0000    0.0248
M13          ?    BHZ  e P      c 20231010 0852   48.4089 GAU  6.74e-04 -1.00e+00 -1.00e+00 -1.00e+00    1.0000 >    1.0266   -0.0995    0.1553  737.1780 9821.5410   -1.2220    3.6480 335.66 335.7 104.0 10     0.0000    0.0205
M13          ?    BHE  e S      ? 20231010 0852   49.0842 GAU  8.09e-04 -1.00e+00 -1.00e+00 -1.00e+00    1.0000 >    1.8068   -0.2045    0.0150  737.1780 9821.5410   -1.2220    3.6480 335.66 335.7  98.8  9     0.0000    0.0361
M05          ?    BHZ  e P      d 20231010 0852   48.7684 GAU  2.35e-03 -1.00e+00  3.79e+02 -1.00e+00    1.0000 >    1.2497    0.0368    0.9503  736.2660 9822.0830   -1.1500    4.5584 328.00 328.0  99.5  9     0.0000    0.0250
M05          ?    BHN  e S      ? 20231010 0852   49.7452 GAU  2.20e-03 -1.00e+00  2.83e+02 -1.00e+00    1.0000 >    2.1997    0.0637    0.6039  736.2660 9822.0830   -1.1500    4.5584 328.00 328.0  84.3  8     0.0000    0.0440
M07          ?    BHZ  e P      c 20231010 0852   48.7555 GAU  2.53e-03 -1.00e+00 -1.00e+00 -1.00e+00    1.0000 >    1.2949   -0.0213    1.2423  737.4430 9822.8030   -1.1120    4.7501 344.89 344.9  98.6  9     0.0000    0.0259
M07          ?    BHE  e S      ? 20231010 0852   49.7101 GAU  2.08e-03 -1.00e+00 -1.00e+00 -1.00e+00    1.0000 >    2.2787   -0.0505    0.8249  737.4430 9822.8030   -1.1120    4.7501 344.89 344.9  84.2  8     0.0000    0.0456
END_PHASE
END_NLLOC

