NLLOC "./loc/SEML.20231017.090133.grid0" "LOCATED" "Location completed."
PUBLIC_ID None
SIGNATURE "Arham Zakki Edelo - edelo.17034@mhs.its.ac.id   obs:./obs/2023_10.obs   NLLoc:v7.00.10(30Aug2020)   run:28Dec2023 20h15m43"
COMMENT "SEML"
GRID  2001 2001 1001  727 9811 -2  0.01 0.01 0.01 PROB_DENSITY
SEARCH OCTREE nInitial 4851 nEvaluated 20019 smallestNodeSide 0.029762/0.029762/0.028409 oct_tree_integral 1.022125e-01 scatter_volume 1.021045e-01
HYPOCENTER  x 736.42 y 9818.25 z 0.65625  OT 32.4106  ix -1 iy -1 iz -1 MAXIMUM_LIKELIHOOD
GEOGRAPHIC  OT 2023 10 17  09 01 32.410646  Lat 9818.247024 Long 736.419643 Depth 0.656250
QUALITY  Pmax 6.66847e+35 MFmin 41.4743 MFmax 50.971 RMS 0.0221531 Nphs 12 Gap 307.372 Dist 2.08094 Mamp -9.90 0 Mdur -9.90 0
VPVSRATIO  VpVsRatio 1.66101  Npair 6  Diff 0.386101
STATISTICS  ExpectX 736.123217 Y 9818.391635 Z -0.027880  CovXX 0.147059 XY -0.0352847 XZ 0.289527 YY 0.0281659 YZ -0.084748 ZZ 0.731876 EllAz1  184.496 Dip1  -4.94729 Len1  0.252301 Az2  272.432 Dip2  22.5904 Len2  0.314317 Len3  1.743449e+00
STAT_GEOG  ExpectLat 9818.391635 Long 736.123217 Depth -0.027880
TRANSFORM  NONE
QML_OriginQuality  assocPhCt 12  usedPhCt 12  assocStaCt -1  usedStaCt 6  depthPhCt -1  stdErr 0.0221531  azGap 307.372  secAzGap 307.372  gtLevel -  minDist 2.08094 maxDist 4.66949 medDist 3.24209
QML_OriginUncertainty  horUnc -1  minHorUnc 0.20618  maxHorUnc 0.600421  azMaxHorUnc 105.346
QML_ConfidenceEllipsoid  semiMajorAxisLength 1.74345  semiMinorAxisLength 0.252301  semiIntermediateAxisLength 0.314317  majorAxisPlunge 66.815  majorAxisAzimuth 106.156  majorAxisRotation 18.0229
FOCALMECH  Hyp  9818.247024 736.419643 0.656250 Mech  0 0 0 mf  0 nObs -1
PHASE ID Ins Cmp On Pha  FM Date     HrMn   Sec     Err  ErrMag    Coda      Amp       Per       PriorWt  >   TTpred    Res       Weight    StaLoc(X  Y         Z)        SDist    SAzim  RAz  RDip RQual    Tcorr       TTerr
M06          ?    BHZ  i P      c 20231017 0901   33.1853 GAU  2.68e-03 -1.00e+00 -1.00e+00 -1.00e+00    1.0000 >    0.7741    0.0006    1.4626  738.3100 9819.1170   -1.3960    2.0809  65.29  65.3 132.6 10     0.0000    0.0155
M06          ?    BHN  e S      ? 20231017 0901   33.7573 GAU  2.47e-03 -1.00e+00 -1.00e+00 -1.00e+00    1.0000 >    1.3409    0.0057    1.2626  738.3100 9819.1170   -1.3960    2.0809  65.29  65.3 127.5 10     0.0000    0.0268
M14          ?    BHZ  e P      c 20231017 0901   33.1852 GAU  2.90e-03 -1.00e+00 -1.00e+00 -1.00e+00    1.0000 >    0.7774   -0.0029    1.4483  737.5530 9820.0110   -1.3980    2.0967  32.72  32.7 132.4 10     0.0000    0.0155
M14          ?    BHN  e S      ? 20231017 0901   33.7738 GAU  2.09e-03 -1.00e+00  2.74e+02 -1.00e+00    1.0000 >    1.3467    0.0165    1.1645  737.5530 9820.0110   -1.3980    2.0967  32.72  32.7 127.3 10     0.0000    0.0269
M09          ?    BHZ  i P      c 20231017 0901   33.3613 GAU  2.42e-03 -1.00e+00  1.82e+02 -1.00e+00    1.0000 >    0.9651   -0.0144    1.2525  737.8820 9820.9850   -1.2700    3.1040  28.11  28.1 118.8 10     0.0000    0.0193
M09          ?    BHE  e S      ? 20231017 0901   34.0338 GAU  2.28e-03 -1.00e+00  3.49e+02 -1.00e+00    1.0000 >    1.6702   -0.0471    0.7404  737.8820 9820.9850   -1.2700    3.1040  28.11  28.1 110.0 10     0.0000    0.0334
M13          ?    BHZ  e P      d 20231017 0901   33.3581 GAU  2.46e-03 -1.00e+00  3.28e+02 -1.00e+00    1.0000 >    1.0204   -0.0730    0.3102  737.1780 9821.5410   -1.2220    3.3801  12.97  13.0 115.9 10     0.0000    0.0204
M13          ?    BHE  e S      ? 20231017 0901   34.0485 GAU  2.28e-03 -1.00e+00 -1.00e+00 -1.00e+00    1.0000 >    1.7650   -0.1272    0.1141  737.1780 9821.5410   -1.2220    3.3801  12.97  13.0 105.9 10     0.0000    0.0353
M08          ?    BHZ  e P      d 20231017 0901   33.6565 GAU  2.40e-03 -1.00e+00  8.97e+02 -1.00e+00    1.0000 >    1.2328    0.0130    1.2372  738.2480 9822.1600   -1.1510    4.3191  25.04  25.0 109.0 10     0.0000    0.0247
M08          ?    BHN  e S      ? 20231017 0901   34.5234 GAU  2.09e-03 -1.00e+00  3.18e+02 -1.00e+00    1.0000 >    2.1248   -0.0121    1.0245  738.2480 9822.1600   -1.1510    4.3191  25.04  25.0  97.5  9     0.0000    0.0425
M07          ?    BHZ  i P      d 20231017 0901   33.7419 GAU  2.26e-03 -1.00e+00  6.02e+02 -1.00e+00    1.0000 >    1.3133    0.0179    1.1524  737.4430 9822.8030   -1.1120    4.6695  12.66  12.7 106.8 10     0.0000    0.0263
M07          ?    BHN  e S      ? 20231017 0901   34.6999 GAU  2.07e-03 -1.00e+00 -1.00e+00 -1.00e+00    1.0000 >    2.2581    0.0312    0.8308  737.4430 9822.8030   -1.1120    4.6695  12.66  12.7  95.8  9     0.0000    0.0452
END_PHASE
END_NLLOC

