#  2023   9 28  8 38   9.712571  -1.641264998  101.141798403   2.05540  0  0  0  0.01927990  3247
M06  0.62212900  1.000  P
M06  1.07482900  1.000  S
M04  0.64922900  1.000  P
M04  1.11052900  1.000  S
M14  0.73382900  1.000  P
M14  1.25182900  1.000  S
M02  0.77892900  1.000  P
M02  1.37752900  1.000  S
M11  0.77052900  1.000  P
M11  1.33472900  1.000  S
M09  0.85602900  1.000  P
M09  1.47312900  1.000  S
M03  0.94342900  1.000  P
M03  1.68552900  1.000  S
M13  0.98972900  1.000  P
M13  1.71912900  1.000  S
M10  1.05422900  1.000  P
M10  1.84922900  1.000  S
M05  1.20562900  1.000  P
M05  2.09912900  1.000  S
M07  1.27052900  1.000  P
M07  2.20132900  1.000  S
M01  1.27612900  1.000  P
M01  2.20412900  1.000  S
M12  1.42032900  1.000  P
M12  2.43992900  1.000  S
#  2023   9 28  8 39   3.324868  -1.640048838  101.146743707   1.62926  0  0  0  0.04292000  3248
M06  0.58823200  1.000  P
M06  1.05673200  1.000  S
M04  0.68923200  1.000  P
M04  1.21353200  1.000  S
M14  0.61553200  1.000  P
M14  1.10893200  1.000  S
M11  0.68653200  1.000  P
M11  1.21023200  1.000  S
M02  0.81913200  1.000  P
M02  1.41713200  1.000  S
M09  0.76713200  1.000  P
M09  1.35393200  1.000  S
M03  0.92543200  1.000  P
M03  1.66363200  1.000  S
M13  0.87473200  1.000  P
M13  1.53573200  1.000  S
M10  0.91093200  1.000  P
M10  1.63273200  1.000  S
M05  1.20483200  1.000  P
M05  2.12593200  1.000  S
M07  1.21283200  1.000  P
M07  2.15963200  1.000  S
M01  1.26173200  1.000  P
M01  2.19283200  1.000  S
M12  1.39403200  1.000  P
M12  2.47033200  1.000  S
#  2023   9 28  8 39  16.254984  -1.640192882  101.137920199   1.95597  0  0  0  0.03119520  3249
M06  0.60331600  1.000  P
M06  1.09371600  1.000  S
M04  0.67171600  1.000  P
M04  1.21881600  1.000  S
M14  0.67151600  1.000  P
M14  1.17341600  1.000  S
M02  0.68761600  1.000  P
M02  1.22251600  1.000  S
M11  0.72551600  1.000  P
M11  1.28431600  1.000  S
M09  0.81841600  1.000  P
M09  1.44761600  1.000  S
M13  0.94151600  1.000  P
M13  1.64521600  1.000  S
M05  1.27651600  1.000  P
M05  2.25701600  1.000  S
M07  1.29921600  1.000  P
M07  2.30011600  1.000  S
M12  1.39151600  1.000  P
M12  2.44011600  1.000  S
#  2023   9 28  8 39  29.691031  -1.644126258  101.139628957   1.49787  0  0  0  0.02277280  3250
M06  0.64116900  1.000  P
M06  1.13786900  1.000  S
M04  0.61656900  1.000  P
M04  1.09406900  1.000  S
M02  0.88056900  1.000  P
M02  1.54676900  1.000  S
M14  0.63316900  1.000  P
M14  1.13416900  1.000  S
M11  0.76136900  1.000  P
M11  1.33246900  1.000  S
M09  0.85446900  1.000  P
M09  1.50056900  1.000  S
M13  0.89656900  1.000  P
M13  1.58766900  1.000  S
M05  1.19756900  1.000  P
M05  2.10266900  1.000  S
M07  1.29516900  1.000  P
M07  2.27416900  1.000  S
#  2023   9 28  8 40  15.941136  -1.642037905  101.142434267   1.73224  0  0  0  0.02487310  3251
M06  0.61626400  1.000  P
M06  1.11506400  1.000  S
M04  0.67256400  1.000  P
M04  1.20116400  1.000  S
M14  0.71726400  1.000  P
M14  1.22276400  1.000  S
M02  0.75966400  1.000  P
M02  1.30216400  1.000  S
M11  0.73826400  1.000  P
M11  1.28096400  1.000  S
M09  0.82896400  1.000  P
M09  1.47726400  1.000  S
M03  0.88776400  1.000  P
M03  1.57826400  1.000  S
M13  0.94106400  1.000  P
M13  1.67196400  1.000  S
M10  1.08256400  1.000  P
M10  1.87326400  1.000  S
M05  1.20426400  1.000  P
M05  2.08766400  1.000  S
M07  1.25836400  1.000  P
M07  2.22476400  1.000  S
M01  1.17166400  1.000  P
M01  2.02816400  1.000  S
M12  1.43246400  1.000  P
M12  2.50236400  1.000  S
#  2023   9 28  8 40  38.481508  -1.642472370  101.145008296   1.65767  0  0  0  0.03017380  3252
M06  0.63889200  1.000  P
M06  1.10739200  1.000  S
M04  0.70049200  1.000  P
M04  1.22279200  1.000  S
M14  0.72399200  1.000  P
M14  1.24449200  1.000  S
M11  0.75509200  1.000  P
M11  1.29779200  1.000  S
M02  0.79649200  1.000  P
M02  1.41349200  1.000  S
M09  0.84569200  1.000  P
M09  1.49419200  1.000  S
M13  0.97669200  1.000  P
M13  1.70269200  1.000  S
M10  1.13789200  1.000  P
M10  1.99159200  1.000  S
M05  1.27739200  1.000  P
M05  2.21569200  1.000  S
M07  1.27299200  1.000  P
M07  2.23469200  1.000  S
M01  1.36259200  1.000  P
M01  2.34459200  1.000  S
M12  1.43679200  1.000  P
M12  2.49079200  1.000  S
#  2023   9 28  8 40  41.382031  -1.643554152  101.139929154   1.81392  0  0  0  0.03635090  3253
M06  0.66356900  1.000  P
M06  1.15966900  1.000  S
M04  0.66786900  1.000  P
M04  1.17816900  1.000  S
M14  0.76076900  1.000  P
M14  1.26726900  1.000  S
M02  0.74146900  1.000  P
M02  1.30066900  1.000  S
M11  0.79346900  1.000  P
M11  1.37586900  1.000  S
M09  0.88896900  1.000  P
M09  1.53566900  1.000  S
M03  0.96666900  1.000  P
M03  1.68216900  1.000  S
M13  1.02046900  1.000  P
M13  1.74586900  1.000  S
M10  1.05706900  1.000  P
M10  1.83346900  1.000  S
M05  1.33856900  1.000  P
M05  2.28446900  1.000  S
M01  1.36886900  1.000  P
M01  2.38196900  1.000  S
M07  1.28026900  1.000  P
M07  2.23186900  1.000  S
M12  1.44016900  1.000  P
M12  2.50246900  1.000  S
#  2023   9 28  8 41   2.164666  -1.646240555  101.143942789   1.38778  0  0  0  0.02226840  3254
M06  0.71123400  1.000  P
M06  1.26383400  1.000  S
M04  0.68333400  1.000  P
M04  1.20423400  1.000  S
M14  0.78183400  1.000  P
M14  1.36213400  1.000  S
M02  0.78633400  1.000  P
M02  1.39273400  1.000  S
M11  0.80883400  1.000  P
M11  1.38993400  1.000  S
M09  0.90613400  1.000  P
M09  1.60103400  1.000  S
M13  1.07443400  1.000  P
M13  1.87913400  1.000  S
M05  1.33043400  1.000  P
M05  2.34523400  1.000  S
M07  1.37083400  1.000  P
M07  2.36933400  1.000  S
M12  1.55803400  1.000  P
M12  2.71713400  1.000  S
#  2023   9 28  8 41  20.882024  -1.638965898  101.152892335   1.95597  0  0  0  0.01672010  3255
M06  0.65057600  1.000  P
M06  1.12247600  1.000  S
M11  0.76787600  1.000  P
M11  1.32917600  1.000  S
M14  0.71597600  1.000  P
M14  1.25417600  1.000  S
M09  0.87637600  1.000  P
M09  1.54347600  1.000  S
M05  1.32797600  1.000  P
M05  2.30657600  1.000  S
#  2023   9 28  8 41  55.053530  -1.640324542  101.140594180   1.72869  0  0  0  0.02481510  3256
M06  0.53947000  1.000  P
M06  0.98697000  1.000  S
M04  0.63617000  1.000  P
M04  1.13427000  1.000  S
M14  0.64717000  1.000  P
M14  1.12577000  1.000  S
M02  0.66347000  1.000  P
M02  1.19937000  1.000  S
M11  0.67797000  1.000  P
M11  1.23757000  1.000  S
M09  0.76667000  1.000  P
M09  1.34357000  1.000  S
M13  0.87837000  1.000  P
M13  1.53577000  1.000  S
M10  0.97557000  1.000  P
M10  1.71107000  1.000  S
M05  1.13977000  1.000  P
M05  1.98707000  1.000  S
M07  1.19817000  1.000  P
M07  2.10607000  1.000  S
M01  1.24127000  1.000  P
M01  2.17737000  1.000  S
M12  1.34627000  1.000  P
M12  2.36847000  1.000  S
#  2023   9 28  8 42  14.572999  -1.638574406  101.141661850   2.75142  0  0  0  0.03524510  3257
M06  0.75860100  1.000  P
M06  1.30250100  1.000  S
M14  0.83810100  1.000  P
M14  1.40620100  1.000  S
M11  0.84750100  1.000  P
M11  1.46250100  1.000  S
M09  0.89350100  1.000  P
M09  1.55180100  1.000  S
M13  1.05170100  1.000  P
M13  1.79460100  1.000  S
M05  1.36980100  1.000  P
M05  2.36090100  1.000  S
M07  1.39360100  1.000  P
M07  2.39800100  1.000  S
#  2023   9 28  8 42  19.552989  -1.644227263  101.139528793   2.21165  0  0  0  0.03506110  3258
M06  0.67901100  1.000  P
M06  1.14831100  1.000  S
M02  0.82281100  1.000  P
M02  1.43131100  1.000  S
M14  0.77731100  1.000  P
M14  1.25191100  1.000  S
M11  0.88701100  1.000  P
M11  1.52431100  1.000  S
M09  0.91241100  1.000  P
M09  1.61621100  1.000  S
M13  1.02541100  1.000  P
M13  1.79661100  1.000  S
M05  1.36541100  1.000  P
M05  2.30301100  1.000  S
M07  1.35271100  1.000  P
M07  2.31451100  1.000  S
M12  1.60591100  1.000  P
M12  2.77401100  1.000  S
#  2023   9 28  8 43  54.732379  -1.641936964  101.142467581   2.14062  0  0  0  0.03089540  3259
M06  0.63792100  1.000  P
M06  1.10472100  1.000  S
M04  0.75872100  1.000  P
M04  1.30012100  1.000  S
M14  0.77702100  1.000  P
M14  1.30532100  1.000  S
M11  0.77882100  1.000  P
M11  1.35692100  1.000  S
M09  0.89742100  1.000  P
M09  1.57572100  1.000  S
M13  1.03902100  1.000  P
M13  1.80392100  1.000  S
M10  1.18602100  1.000  P
M10  2.06432100  1.000  S
M07  1.38442100  1.000  P
M07  2.41132100  1.000  S
M12  1.73302100  1.000  P
M12  2.93002100  1.000  S
#  2023   9 28  8 44  16.908736  -1.647784466  101.146952508   0.62784  0  0  0  0.05179100  3260
M06  0.68336400  1.000  P
M06  1.17366400  1.000  S
M04  0.67286400  1.000  P
M04  1.17356400  1.000  S
M14  0.78686400  1.000  P
M14  1.28336400  1.000  S
M11  0.79606400  1.000  P
M11  1.41166400  1.000  S
M02  0.80756400  1.000  P
M02  1.46926400  1.000  S
M09  0.92506400  1.000  P
M09  1.58866400  1.000  S
M13  1.05406400  1.000  P
M13  1.80066400  1.000  S
M10  1.20286400  1.000  P
M10  2.12546400  1.000  S
M05  1.39116400  1.000  P
M05  2.40676400  1.000  S
M07  1.41786400  1.000  P
M07  2.48746400  1.000  S
M12  1.83916400  1.000  P
M12  3.16356400  1.000  S
#  2023   9 28  8 44  28.379225  -1.638033099  101.144602490   2.39631  0  0  0  0.03450130  3261
M06  0.67697500  1.000  P
M06  1.15527500  1.000  S
M04  0.72297500  1.000  P
M04  1.21107500  1.000  S
M14  0.76037500  1.000  P
M14  1.28597500  1.000  S
M11  0.77657500  1.000  P
M11  1.33317500  1.000  S
M02  0.89197500  1.000  P
M02  1.52767500  1.000  S
M09  0.87067500  1.000  P
M09  1.51127500  1.000  S
M13  0.98037500  1.000  P
M13  1.70057500  1.000  S
M10  1.16737500  1.000  P
M10  1.96407500  1.000  S
M05  1.19217500  1.000  P
M05  2.05227500  1.000  S
M07  1.29297500  1.000  P
M07  2.20677500  1.000  S
M12  1.51267500  1.000  P
M12  2.59357500  1.000  S
#  2023   9 28  8 47  19.863003  -1.642038698  101.141698965   1.89560  0  0  0  0.02394090  3262
M06  0.64989700  1.000  P
M06  1.13219700  1.000  S
M04  0.70129700  1.000  P
M04  1.21379700  1.000  S
M14  0.73599700  1.000  P
M14  1.24619700  1.000  S
M02  0.77229700  1.000  P
M02  1.32489700  1.000  S
M11  0.76059700  1.000  P
M11  1.32959700  1.000  S
M09  0.83689700  1.000  P
M09  1.48809700  1.000  S
M03  0.97989700  1.000  P
M03  1.69599700  1.000  S
M13  0.98179700  1.000  P
M13  1.74409700  1.000  S
M10  1.05039700  1.000  P
M10  1.82369700  1.000  S
M05  1.19609700  1.000  P
M05  2.09619700  1.000  S
M07  1.26929700  1.000  P
M07  2.20809700  1.000  S
M01  1.20209700  1.000  P
M01  2.07279700  1.000  S
M12  1.43089700  1.000  P
M12  2.46029700  1.000  S
#  2023   9 28  8 47  33.074199  -1.639283062  101.139490113   2.12997  0  0  0  0.03343300  3263
M06  0.62540100  1.000  P
M06  1.07050100  1.000  S
M04  0.70190100  1.000  P
M04  1.22310100  1.000  S
M14  0.67350100  1.000  P
M14  1.16550100  1.000  S
M11  0.74160100  1.000  P
M11  1.29890100  1.000  S
M09  0.82420100  1.000  P
M09  1.42810100  1.000  S
M13  0.96920100  1.000  P
M13  1.67280100  1.000  S
M05  1.29160100  1.000  P
M05  2.23830100  1.000  S
M07  1.30370100  1.000  P
M07  2.25730100  1.000  S
M12  1.57390100  1.000  P
M12  2.72340100  1.000  S
#  2023   9 28  8 51  42.258733  -1.641671779  101.138857610   2.35369  0  0  0  0.01382430  3264
M06  0.68936700  1.000  P
M06  1.17846700  1.000  S
M11  0.84096700  1.000  P
M11  1.43156700  1.000  S
M09  0.94116700  1.000  P
M09  1.59406700  1.000  S
M13  1.02096700  1.000  P
M13  1.76576700  1.000  S
#  2023   9 28  8 59  46.525692  -1.640731464  101.137519693   2.08381  0  0  0  0.02755220  3265
M06  0.62400800  1.000  P
M06  1.09710800  1.000  S
M04  0.69060800  1.000  P
M04  1.17960800  1.000  S
M14  0.71200800  1.000  P
M14  1.21810800  1.000  S
M11  0.75550800  1.000  P
M11  1.34370800  1.000  S
M09  0.87110800  1.000  P
M09  1.55420800  1.000  S
M13  0.96410800  1.000  P
M13  1.69590800  1.000  S
M05  1.23470800  1.000  P
M05  2.13600800  1.000  S
M07  1.35930800  1.000  P
M07  2.36020800  1.000  S
#  2023   9 28  9  4  21.272602  -1.641065717  101.139458587   1.84943  0  0  0  0.02117270  3266
M06  0.56359800  1.000  P
M06  1.00269800  1.000  S
M04  0.62929800  1.000  P
M04  1.11889800  1.000  S
M14  0.68389800  1.000  P
M14  1.18729800  1.000  S
M11  0.71149800  1.000  P
M11  1.24919800  1.000  S
M09  0.80619800  1.000  P
M09  1.39779800  1.000  S
M13  0.96379800  1.000  P
M13  1.69579800  1.000  S
M07  1.24749800  1.000  P
M07  2.16269800  1.000  S
#  2023   9 28  9  5  15.836161  -1.640594769  101.139524928   2.14062  0  0  0  0.01857910  3267
M06  0.62713900  1.000  P
M06  1.08563900  1.000  S
M04  0.72263900  1.000  P
M04  1.23553900  1.000  S
M14  0.67833900  1.000  P
M14  1.17113900  1.000  S
M11  0.77673900  1.000  P
M11  1.33803900  1.000  S
M09  0.88133900  1.000  P
M09  1.52853900  1.000  S
M13  0.98023900  1.000  P
M13  1.69463900  1.000  S
M07  1.36233900  1.000  P
M07  2.36583900  1.000  S
#  2023   9 28  9 10  20.367955  -1.642605462  101.146345359   1.51562  0  0  0  0.02100880  3268
M06  0.63534500  1.000  P
M06  1.14264500  1.000  S
M04  0.69864500  1.000  P
M04  1.20754500  1.000  S
M14  0.70364500  1.000  P
M14  1.25124500  1.000  S
M11  0.73924500  1.000  P
M11  1.33384500  1.000  S
M02  0.83124500  1.000  P
M02  1.43254500  1.000  S
M09  0.84924500  1.000  P
M09  1.50004500  1.000  S
M03  0.93774500  1.000  P
M03  1.67374500  1.000  S
M13  0.98584500  1.000  P
M13  1.77884500  1.000  S
M10  1.09734500  1.000  P
M10  1.90684500  1.000  S
M05  1.26434500  1.000  P
M05  2.25314500  1.000  S
M07  1.29224500  1.000  P
M07  2.24944500  1.000  S
M01  1.31074500  1.000  P
M01  2.30594500  1.000  S
M12  1.47844500  1.000  P
M12  2.57654500  1.000  S
#  2023   9 28  9 17  17.382020  -1.640469278  101.131102170   2.12642  0  0  0  0.01111190  3269
M06  0.69208000  1.000  P
M06  1.20198000  1.000  S
M14  0.72898000  1.000  P
M11  0.85458000  1.000  P
M11  1.46308000  1.000  S
M09  0.94068000  1.000  P
M09  1.64838000  1.000  S
M13  0.95478000  1.000  P
M13  1.64938000  1.000  S
