#  2023   9 14 18  6  58.634264  -1.642681598  101.138123378   1.82102  0  0  0  0.01637080  3170
M06  0.58003600  1.000  P
M06  0.99973600  1.000  S
M11  0.77193600  1.000  P
M11  1.25253600  1.000  S
M09  0.85663600  1.000  P
M09  1.50793600  1.000  S
M07  1.28643600  1.000  P
M07  2.25243600  1.000  S
M12  1.39743600  1.000  P
M12  2.39323600  1.000  S
#  2023   9 15 17 48  41.782234  -1.643967541  101.130838490   1.44460  0  0  0  0.02418110  3172
M04  0.55506600  1.000  P
M04  1.07636600  1.000  S
M06  0.59226600  1.000  P
M06  1.07186600  1.000  S
M14  0.66676600  1.000  P
M14  1.14896600  1.000  S
M03  0.85616600  1.000  P
M03  1.43266600  1.000  S
M11  0.70706600  1.000  P
M11  1.26626600  1.000  S
M09  0.84836600  1.000  P
M09  1.39406600  1.000  S
M13  0.98436600  1.000  P
M13  1.73026600  1.000  S
M05  1.29786600  1.000  P
M05  2.29916600  1.000  S
M07  1.27986600  1.000  P
M07  2.23686600  1.000  S
M12  1.41256600  1.000  P
M12  2.49856600  1.000  S
#  2023   9 15 17 50  48.409039  -1.639783369  101.143401133   1.87074  0  0  0  0.03680300  3173
M06  0.55446100  1.000  P
M06  1.07696100  1.000  S
M14  0.69746100  1.000  P
M14  1.17986100  1.000  S
M11  0.69436100  1.000  P
M11  1.24216100  1.000  S
M09  0.74756100  1.000  P
M09  1.31766100  1.000  S
M13  0.83636100  1.000  P
M13  1.52076100  1.000  S
M10  0.95546100  1.000  P
M10  1.73336100  1.000  S
M05  1.18166100  1.000  P
M05  2.08316100  1.000  S
M07  1.22426100  1.000  P
M07  2.15136100  1.000  S
M12  1.33276100  1.000  P
M12  2.34556100  1.000  S
#  2023   9 15 17 51   9.400665  -1.641526132  101.149151727   2.16903  0  0  0  0.01889670  3174
M06  0.66843500  1.000  P
M06  1.16933500  1.000  S
M11  0.81403500  1.000  P
M11  1.41743500  1.000  S
M14  0.64503500  1.000  P
M14  1.14533500  1.000  S
M09  0.93833500  1.000  P
M09  1.56273500  1.000  S
M13  1.13263500  1.000  P
M13  1.88793500  1.000  S
M07  1.35623500  1.000  P
M07  2.38593500  1.000  S
M12  1.47923500  1.000  P
M12  2.57983500  1.000  S
#  2023   9 18  5 36  41.986033  -1.638844344  101.140859992   1.72869  0  0  0  0.03734260  3175
M06  0.64406700  1.000  P
M06  1.16676700  1.000  S
M04  0.61876700  1.000  P
M04  1.07706700  1.000  S
M14  0.69586700  1.000  P
M14  1.18446700  1.000  S
M02  0.70656700  1.000  P
M02  1.26646700  1.000  S
M11  0.67886700  1.000  P
M11  1.17896700  1.000  S
M09  0.75926700  1.000  P
M09  1.32236700  1.000  S
M13  0.87866700  1.000  P
M13  1.54626700  1.000  S
M10  1.06586700  1.000  P
M10  1.84676700  1.000  S
M05  1.11056700  1.000  P
M05  1.96446700  1.000  S
M07  1.16096700  1.000  P
M07  2.04486700  1.000  S
#  2023   9 18 16 33  14.218442  -1.643487095  101.139728548   1.70739  0  0  0  0.04203970  3176
M06  0.69535800  1.000  P
M06  1.16975800  1.000  S
M14  0.73495800  1.000  P
M14  1.23615800  1.000  S
M11  0.77575800  1.000  P
M11  1.35595800  1.000  S
M09  0.84355800  1.000  P
M09  1.51055800  1.000  S
M13  0.94085800  1.000  P
M13  1.69115800  1.000  S
M10  1.00145800  1.000  P
M10  1.79045800  1.000  S
M05  1.28535800  1.000  P
M05  2.27755800  1.000  S
M07  1.27425800  1.000  P
M07  2.25635800  1.000  S
M12  1.46745800  1.000  P
M12  2.55065800  1.000  S
#  2023   9 19 22 37  53.886677  -1.633521594  101.148808964   2.81534  0  0  0  0.02305020  3177
M06  0.79202300  1.000  P
M06  1.37982300  1.000  S
M11  0.81472300  1.000  P
M11  1.41402300  1.000  S
M14  0.87182300  1.000  P
M14  1.42852300  1.000  S
M04  0.76302300  1.000  P
M04  1.29922300  1.000  S
M09  0.87082300  1.000  P
M09  1.48872300  1.000  S
M13  1.07532300  1.000  P
M13  1.78352300  1.000  S
M10  1.09422300  1.000  P
M10  1.84492300  1.000  S
M07  1.36662300  1.000  P
M07  2.32942300  1.000  S
M05  1.23412300  1.000  P
M05  2.10792300  1.000  S
#  2023   9 20 20 41  28.645259  -1.640058488  101.137786364   1.85653  0  0  0  0.03875090  3178
M06  0.56804100  1.000  P
M06  1.06854100  1.000  S
M04  0.57234100  1.000  P
M04  1.08754100  1.000  S
M14  0.67424100  1.000  P
M14  1.14184100  1.000  S
M11  0.72624100  1.000  P
M11  1.25584100  1.000  S
M09  0.77864100  1.000  P
M09  1.39464100  1.000  S
M13  0.92494100  1.000  P
M13  1.62424100  1.000  S
M10  1.11754100  1.000  P
M10  1.92184100  1.000  S
M05  1.25384100  1.000  P
M05  2.21084100  1.000  S
M07  1.24574100  1.000  P
M07  2.20444100  1.000  S
M12  1.31494100  1.000  P
M12  2.30494100  1.000  S
#  2023   9 21  3 26  18.592066  -1.644017154  101.147215861   1.02557  0  0  0  0.02394650  3179
M06  0.68183400  1.000  P
M06  1.19653400  1.000  S
M14  0.74893400  1.000  P
M14  1.36223400  1.000  S
M11  0.69753400  1.000  P
M11  1.22603400  1.000  S
M02  0.78313400  1.000  P
M02  1.38063400  1.000  S
M09  0.88293400  1.000  P
M09  1.52853400  1.000  S
M13  0.90393400  1.000  P
M13  1.59023400  1.000  S
M05  1.26943400  1.000  P
M05  2.25173400  1.000  S
M12  1.51993400  1.000  P
M12  2.67973400  1.000  S
#  2023   9 21  3 26  48.392718  -1.637890918  101.151687975   2.32528  0  0  0  0.01172600  3180
M06  0.70768200  1.000  P
M06  1.21368200  1.000  S
M11  0.80778200  1.000  P
M11  1.37608200  1.000  S
M14  0.87528200  1.000  P
M14  1.49748200  1.000  S
M09  0.90428200  1.000  P
M09  1.55158200  1.000  S
#  2023   9 21  3 26  59.630680  -1.639382493  101.140860564   2.45312  0  0  0  0.03163570  3181
M06  0.69352000  1.000  P
M06  1.19712000  1.000  S
M04  0.79602000  1.000  P
M04  1.34862000  1.000  S
M14  0.78102000  1.000  P
M14  1.35042000  1.000  S
M02  0.78412000  1.000  P
M02  1.40142000  1.000  S
M11  0.76642000  1.000  P
M11  1.32892000  1.000  S
M09  0.86562000  1.000  P
M09  1.50422000  1.000  S
M13  0.97022000  1.000  P
M13  1.71812000  1.000  S
M05  1.20162000  1.000  P
M05  2.09692000  1.000  S
M07  1.30612000  1.000  P
M07  2.29612000  1.000  S
M12  1.50202000  1.000  P
M12  2.63702000  1.000  S
#  2023   9 21  3 28   2.728707  -1.644491139  101.144341989   1.21733  0  0  0  0.04120900  3183
M06  0.67979300  1.000  P
M06  1.18359300  1.000  S
M04  0.89069300  1.000  P
M04  1.63889300  1.000  S
M14  0.68809300  1.000  P
M14  1.20529300  1.000  S
M11  0.71559300  1.000  P
M11  1.28939300  1.000  S
M09  0.85879300  1.000  P
M09  1.48709300  1.000  S
M13  0.97279300  1.000  P
M13  1.67379300  1.000  S
M05  1.28959300  1.000  P
M05  2.26179300  1.000  S
M07  1.34839300  1.000  P
M07  2.33769300  1.000  S
M12  1.46659300  1.000  P
M12  2.53079300  1.000  S
#  2023   9 21  3 28  44.746861  -1.641126567  101.145407937   1.68608  0  0  0  0.04089960  3184
M06  0.66423900  1.000  P
M06  1.18473900  1.000  S
M04  0.75843900  1.000  P
M04  1.27503900  1.000  S
M14  0.70393900  1.000  P
M14  1.19723900  1.000  S
M11  0.71993900  1.000  P
M11  1.29323900  1.000  S
M02  0.78373900  1.000  P
M02  1.43113900  1.000  S
M09  0.81373900  1.000  P
M09  1.45133900  1.000  S
M13  0.96793900  1.000  P
M13  1.64613900  1.000  S
M10  1.10763900  1.000  P
M10  1.98093900  1.000  S
M05  1.18123900  1.000  P
M05  2.10583900  1.000  S
M07  1.28533900  1.000  P
M07  2.26353900  1.000  S
M12  1.46043900  1.000  P
M12  2.51443900  1.000  S
#  2023   9 21  3 43   8.547568  -1.646443730  101.142672931   1.28125  0  0  0  0.01281020  3186
M06  0.67533200  1.000  P
M06  1.21593200  1.000  S
M14  0.71223200  1.000  P
M14  1.27543200  1.000  S
M11  0.78623200  1.000  P
M11  1.35983200  1.000  S
M09  0.92333200  1.000  P
M09  1.61683200  1.000  S
M13  1.07463200  1.000  P
M13  1.86943200  1.000  S
#  2023   9 21  3 43  36.966165  -1.644226108  101.140598334   1.43040  0  0  0  0.00403036  3187
M06  0.63553500  1.000  P
M06  1.14693500  1.000  S
M14  0.67713500  1.000  P
M14  1.17603500  1.000  S
M11  0.74403500  1.000  P
M11  1.31783500  1.000  S
M09  0.85153500  1.000  P
M09  1.49993500  1.000  S
M13  1.01533500  1.000  P
M13  1.77743500  1.000  S
#  2023   9 21  3 44  35.314834  -1.638107912  101.137583751   2.87216  0  0  0  0.01452840  3188
M06  0.79386600  1.000  P
M06  1.34836600  1.000  S
M14  0.83906600  1.000  P
M14  1.43016600  1.000  S
M11  0.88166600  1.000  P
M11  1.50826600  1.000  S
M09  1.01056600  1.000  P
M09  1.71926600  1.000  S
#  2023   9 21  3 45   0.401739  -1.636492609  101.138384193   2.38921  0  0  0  0.01383200  3189
M06  0.67086100  1.000  P
M06  1.15976100  1.000  S
M14  0.72466100  1.000  P
M14  1.23246100  1.000  S
M11  0.76726100  1.000  P
M11  1.31056100  1.000  S
M09  0.88326100  1.000  P
M09  1.50906100  1.000  S
#  2023   9 21  3 46  23.753327  -1.637134560  101.135677611   1.66832  0  0  0  0.04000720  3190
M04  0.65317300  1.000  P
M04  1.16627300  1.000  S
M06  0.53157300  1.000  P
M06  0.99967300  1.000  S
M14  0.56337300  1.000  P
M14  1.00647300  1.000  S
M02  0.58297300  1.000  P
M02  1.03627300  1.000  S
M11  0.63627300  1.000  P
M11  1.14287300  1.000  S
M09  0.74757300  1.000  P
M09  1.34937300  1.000  S
M13  0.82007300  1.000  P
M13  1.43237300  1.000  S
M05  1.15757300  1.000  P
M05  2.04077300  1.000  S
M12  1.28607300  1.000  P
M12  2.26587300  1.000  S
#  2023   9 21  3 47  35.902162  -1.640857502  101.145407650   2.08381  0  0  0  0.02234210  3191
M06  0.68953800  1.000  P
M06  1.19043800  1.000  S
M04  0.78023800  1.000  P
M04  1.33673800  1.000  S
M14  0.77793800  1.000  P
M14  1.35333800  1.000  S
M11  0.77703800  1.000  P
M11  1.33903800  1.000  S
M02  0.75573800  1.000  P
M02  1.29433800  1.000  S
M09  0.86683800  1.000  P
M09  1.50653800  1.000  S
M13  1.02523800  1.000  P
M13  1.78303800  1.000  S
M05  1.27813800  1.000  P
M05  2.19573800  1.000  S
#  2023   9 21  3 47  45.476231  -1.642339277  101.143671240   1.74290  0  0  0  0.00784434  3192
M06  0.70606900  1.000  P
M06  1.26606900  1.000  S
M14  0.71846900  1.000  P
M14  1.24356900  1.000  S
M11  0.74176900  1.000  P
M11  1.31116900  1.000  S
M09  0.84546900  1.000  P
M09  1.48676900  1.000  S
M13  1.03146900  1.000  P
M13  1.78926900  1.000  S
#  2023   9 21  3 50  10.319493  -1.638306338  101.140725728   2.26847  0  0  0  0.02460290  3193
M06  0.64050700  1.000  P
M06  1.10980700  1.000  S
M04  0.66200700  1.000  P
M04  1.14260700  1.000  S
M14  0.75350700  1.000  P
M14  1.23730700  1.000  S
M11  0.76300700  1.000  P
M11  1.32540700  1.000  S
M09  0.82090700  1.000  P
M09  1.43970700  1.000  S
M13  0.96750700  1.000  P
M13  1.65620700  1.000  S
M10  1.06290700  1.000  P
M10  1.82970700  1.000  S
M05  1.28350700  1.000  P
M05  2.21670700  1.000  S
#  2023   9 21  3 51  53.756371  -1.634608223  101.139184351   2.33239  0  0  0  0.03099780  3194
M06  0.63542900  1.000  P
M06  1.13222900  1.000  S
M04  0.74802900  1.000  P
M04  1.25042900  1.000  S
M14  0.72592900  1.000  P
M14  1.18632900  1.000  S
M11  0.71582900  1.000  P
M11  1.23402900  1.000  S
M02  0.70252900  1.000  P
M02  1.19942900  1.000  S
M09  0.78042900  1.000  P
M09  1.34942900  1.000  S
M13  0.84562900  1.000  P
M13  1.44332900  1.000  S
M10  1.05912900  1.000  P
M10  1.80772900  1.000  S
M05  1.05502900  1.000  P
M05  1.79342900  1.000  S
M12  1.36202900  1.000  P
M12  2.32112900  1.000  S
#  2023   9 21  3 54  41.160775  -1.634058868  101.149611683   2.58807  0  0  0  0.02292610  3195
M06  0.75382500  1.000  P
M06  1.26742500  1.000  S
M11  0.76922500  1.000  P
M11  1.32622500  1.000  S
M09  0.94882500  1.000  P
M09  1.56522500  1.000  S
M13  1.04092500  1.000  P
M13  1.74432500  1.000  S
M05  1.19522500  1.000  P
M05  2.07482500  1.000  S
#  2023   9 21  3 54  56.191213  -1.634788065  101.159572393   2.16903  0  0  0  0.01994010  3196
M06  0.80238700  1.000  P
M06  1.37278700  1.000  S
M11  0.82598700  1.000  P
M11  1.43888700  1.000  S
M09  1.01958700  1.000  P
M09  1.65418700  1.000  S
M13  1.11968700  1.000  P
M13  1.81168700  1.000  S
M05  1.40678700  1.000  P
M05  2.43078700  1.000  S
#  2023   9 21  3 55   2.205158  -1.635068689  101.148877460   2.39631  0  0  0  0.02249870  3197
M06  0.70484200  1.000  P
M06  1.22024200  1.000  S
M11  0.73904200  1.000  P
M11  1.28014200  1.000  S
M14  0.78764200  1.000  P
M14  1.36674200  1.000  S
M09  0.90014200  1.000  P
M09  1.55594200  1.000  S
M13  1.02284200  1.000  P
M13  1.72084200  1.000  S
M05  1.20614200  1.000  P
M05  2.11054200  1.000  S
#  2023   9 21  3 57  10.921028  -1.639444364  101.145874061   2.13352  0  0  0  0.03594330  3198
M06  0.74247200  1.000  P
M06  1.30527200  1.000  S
M04  0.80317200  1.000  P
M04  1.35447200  1.000  S
M14  0.56607200  1.000  P
M14  0.97137200  1.000  S
M11  0.75077200  1.000  P
M11  1.31117200  1.000  S
M09  0.84507200  1.000  P
M09  1.51677200  1.000  S
M13  1.06167200  1.000  P
M13  1.74907200  1.000  S
M05  1.38377200  1.000  P
M05  2.42317200  1.000  S
#  2023   9 21 18  2  53.306780  -1.645356713  101.152564952   1.62216  0  0  0  0.02931790  3202
M06  0.75622000  1.000  P
M06  1.31982000  1.000  S
M11  0.84342000  1.000  P
M11  1.46972000  1.000  S
M14  0.88252000  1.000  P
M14  1.53652000  1.000  S
M09  0.98212000  1.000  P
M09  1.73302000  1.000  S
M13  0.99102000  1.000  P
M13  1.73022000  1.000  S
M05  1.34472000  1.000  P
M05  2.33272000  1.000  S
M07  1.43692000  1.000  P
M07  2.52702000  1.000  S
M12  1.59172000  1.000  P
M12  2.79832000  1.000  S
#  2023   9 21 18  3   1.863211  -1.643281181  101.143538552   1.64347  0  0  0  0.03636260  3203
M06  0.63658900  1.000  P
M06  1.09128900  1.000  S
M04  0.60328900  1.000  P
M04  1.04078900  1.000  S
M14  0.73338900  1.000  P
M14  1.24058900  1.000  S
M02  0.77208900  1.000  P
M02  1.35648900  1.000  S
M11  0.74918900  1.000  P
M11  1.34148900  1.000  S
M09  0.84518900  1.000  P
M09  1.43178900  1.000  S
M13  0.84198900  1.000  P
M13  1.46238900  1.000  S
M05  1.27668900  1.000  P
M05  2.19308900  1.000  S
M07  1.27338900  1.000  P
M07  2.19128900  1.000  S
M12  1.46638900  1.000  P
M12  2.54898900  1.000  S
#  2023   9 21 18  3   6.839155  -1.639645227  101.146743277   1.70028  0  0  0  0.03135920  3204
M06  0.58974500  1.000  P
M06  1.05704500  1.000  S
M04  0.72014500  1.000  P
M04  1.25184500  1.000  S
M14  0.69724500  1.000  P
M14  1.23664500  1.000  S
M11  0.68294500  1.000  P
M11  1.14074500  1.000  S
M09  0.82194500  1.000  P
M09  1.46114500  1.000  S
M13  0.95084500  1.000  P
M13  1.67774500  1.000  S
M05  1.22894500  1.000  P
M05  2.14704500  1.000  S
M07  1.29804500  1.000  P
M07  2.27464500  1.000  S
M12  1.39024500  1.000  P
M12  2.41664500  1.000  S
#  2023   9 21 18  3  55.402140  -1.635920363  101.169934547   0.00284  0  0  0  0.02783220  3205
M06  0.85846000  1.000  P
M06  1.48696000  1.000  S
M11  0.80126000  1.000  P
M11  1.35036000  1.000  S
M09  1.08496000  1.000  P
M09  1.89866000  1.000  S
M07  1.54116000  1.000  P
M07  2.65906000  1.000  S
M12  1.71846000  1.000  P
M12  2.95086000  1.000  S
#  2023   9 21 18  3  58.453417  -1.639767610  101.157973444   1.72869  0  0  0  0.01823050  3206
M06  0.69768300  1.000  P
M06  1.22248300  1.000  S
M11  0.80928300  1.000  P
M11  1.41028300  1.000  S
M09  0.83338300  1.000  P
M09  1.48138300  1.000  S
M07  1.38708300  1.000  P
M07  2.38238300  1.000  S
M12  1.52438300  1.000  P
M12  2.66248300  1.000  S
#  2023   9 21 18  4   4.847070  -1.633578112  101.158768958   1.08949  0  0  0  0.01778840  3207
M06  0.60743000  1.000  P
M06  1.06353000  1.000  S
M11  0.63753000  1.000  P
M11  1.12703000  1.000  S
M09  0.80873000  1.000  P
M09  1.41963000  1.000  S
M07  1.30603000  1.000  P
M07  2.29623000  1.000  S
M12  1.43123000  1.000  P
M12  2.53373000  1.000  S
#  2023   9 21 18  4   8.673522  -1.643415285  101.143939772   1.64347  0  0  0  0.03039310  3208
M06  0.64917800  1.000  P
M06  1.15577800  1.000  S
M04  0.68777800  1.000  P
M04  1.21337800  1.000  S
M14  0.75897800  1.000  P
M14  1.29177800  1.000  S
M02  0.78557800  1.000  P
M02  1.38137800  1.000  S
M11  0.75807800  1.000  P
M11  1.32077800  1.000  S
M09  0.85337800  1.000  P
M09  1.46077800  1.000  S
M13  0.97797800  1.000  P
M13  1.69187800  1.000  S
M10  1.14337800  1.000  P
M10  1.97237800  1.000  S
M05  1.24497800  1.000  P
M05  2.12427800  1.000  S
M07  1.32747800  1.000  P
M07  2.28167800  1.000  S
M01  1.35057800  1.000  P
M01  2.34367800  1.000  S
M12  1.47487800  1.000  P
M12  2.54997800  1.000  S
#  2023   9 21 18  5  31.933446  -1.648129418  101.138998183   2.14062  0  0  0  0.01910980  3209
M06  0.71805400  1.000  P
M06  1.22465400  1.000  S
M14  0.87015400  1.000  P
M14  1.48355400  1.000  S
M11  0.93095400  1.000  P
M11  1.64965400  1.000  S
M09  0.89215400  1.000  P
M09  1.55775400  1.000  S
M07  1.41375400  1.000  P
M07  2.43375400  1.000  S
M12  1.59235400  1.000  P
M12  2.72955400  1.000  S
#  2023   9 21 18  5  48.377213  -1.643154572  101.136185339   2.14062  0  0  0  0.02908100  3210
M06  0.66918700  1.000  P
M06  1.14858700  1.000  S
M14  0.77608700  1.000  P
M14  1.30358700  1.000  S
M11  0.84718700  1.000  P
M11  1.50258700  1.000  S
M09  0.89588700  1.000  P
M09  1.56228700  1.000  S
M05  1.35468700  1.000  P
M05  2.31718700  1.000  S
M07  1.29808700  1.000  P
M07  2.25538700  1.000  S
M12  1.53248700  1.000  P
M12  2.65078700  1.000  S
#  2023   9 21 18  6  39.499944  -1.649694249  101.122622410   1.25284  0  0  0  0.03881570  3211
M06  0.82975600  1.000  P
M06  1.40235600  1.000  S
M14  0.83915600  1.000  P
M14  1.50165600  1.000  S
M11  1.07495600  1.000  P
M11  1.86475600  1.000  S
M09  1.05145600  1.000  P
M09  1.94895600  1.000  S
M05  1.36115600  1.000  P
M05  2.39415600  1.000  S
M07  1.46045600  1.000  P
M07  2.56755600  1.000  S
M12  1.73815600  1.000  P
M12  3.02955600  1.000  S
#  2023   9 21 18 40  21.609643  -1.649607730  101.140470386   1.88494  0  0  0  0.03301280  3212
M06  0.78915700  1.000  P
M06  1.36465700  1.000  S
M04  0.75355700  1.000  P
M04  1.31875700  1.000  S
M02  0.85785700  1.000  P
M02  1.50435700  1.000  S
M14  0.87225700  1.000  P
M14  1.51115700  1.000  S
M11  0.93915700  1.000  P
M11  1.61575700  1.000  S
M09  1.00865700  1.000  P
M09  1.75365700  1.000  S
M13  1.06445700  1.000  P
M13  1.82065700  1.000  S
M05  1.32545700  1.000  P
M05  2.30295700  1.000  S
M07  1.45765700  1.000  P
M07  2.52605700  1.000  S
M12  1.64545700  1.000  P
M12  2.83385700  1.000  S
#  2023   9 28  7  5   1.828476  -1.638564169  101.151153929   2.46733  0  0  0  0.01965970  3213
M06  0.73052400  1.000  P
M06  1.25232400  1.000  S
M11  0.83792400  1.000  P
M11  1.41422400  1.000  S
M14  0.90072400  1.000  P
M14  1.53672400  1.000  S
M09  0.94352400  1.000  P
M09  1.61832400  1.000  S
M13  1.05832400  1.000  P
M13  1.82432400  1.000  S
M07  1.41982400  1.000  P
M07  2.42502400  1.000  S
#  2023   9 28  7 39   3.832552  -1.634672125  101.142326167   2.33949  0  0  0  0.03271290  3214
M06  0.66044800  1.000  P
M06  1.14044800  1.000  S
M14  0.71524800  1.000  P
M14  1.21614800  1.000  S
M04  0.76944800  1.000  P
M04  1.33274800  1.000  S
M11  0.70944800  1.000  P
M11  1.21894800  1.000  S
M02  0.81224800  1.000  P
M02  1.41624800  1.000  S
M09  0.87704800  1.000  P
M09  1.50904800  1.000  S
M13  0.93134800  1.000  P
M13  1.58784800  1.000  S
M05  1.25674800  1.000  P
M05  2.13414800  1.000  S
M07  1.33494800  1.000  P
M07  2.30034800  1.000  S
