#  2023   9 14 16 27  36.080619  -1.636292160  101.137113908   2.45312  0  0  0  0.01613700  3130
M06  0.68398100  1.000  P
M06  1.20818100  1.000  S
M14  0.77748100  1.000  P
M14  1.24418100  1.000  S
M11  0.79528100  1.000  P
M11  1.33688100  1.000  S
M09  0.82258100  1.000  P
M09  1.41678100  1.000  S
M07  1.34878100  1.000  P
M07  2.30928100  1.000  S
#  2023   9 14 16 28   5.156149  -1.638333752  101.146507917   1.45526  0  0  0  0.04312320  3131
M06  0.55375100  1.000  P
M06  0.99955100  1.000  S
M04  0.66775100  1.000  P
M04  1.15545100  1.000  S
M11  0.61015100  1.000  P
M11  1.06755100  1.000  S
M14  0.65545100  1.000  P
M14  1.12295100  1.000  S
M02  0.86235100  1.000  P
M02  1.55725100  1.000  S
M09  0.73865100  1.000  P
M09  1.34445100  1.000  S
M13  0.90145100  1.000  P
M13  1.59395100  1.000  S
M10  1.09365100  1.000  P
M10  1.90985100  1.000  S
M05  1.14075100  1.000  P
M05  2.01855100  1.000  S
M07  1.19455100  1.000  P
M07  2.11045100  1.000  S
M01  1.23375100  1.000  P
M01  2.16485100  1.000  S
M12  1.38495100  1.000  P
M12  2.39385100  1.000  S
#  2023   9 14 16 28  10.981918  -1.643010518  101.145008870   1.27415  0  0  0  0.03066070  3132
M06  0.58158200  1.000  P
M06  1.01528200  1.000  S
M04  0.64298200  1.000  P
M04  1.12258200  1.000  S
M14  0.66648200  1.000  P
M14  1.17078200  1.000  S
M11  0.70038200  1.000  P
M11  1.24608200  1.000  S
M02  0.80258200  1.000  P
M02  1.38148200  1.000  S
M09  0.82608200  1.000  P
M09  1.46218200  1.000  S
M13  0.93368200  1.000  P
M13  1.67168200  1.000  S
M10  1.05868200  1.000  P
M10  1.85338200  1.000  S
M05  1.28268200  1.000  P
M05  2.26958200  1.000  S
M07  1.28688200  1.000  P
M07  2.28468200  1.000  S
M01  1.24478200  1.000  P
M01  2.20638200  1.000  S
M12  1.43358200  1.000  P
M12  2.53598200  1.000  S
#  2023   9 14 16 28  18.735639  -1.638849516  101.136047076   1.99858  0  0  0  0.05387940  3133
M04  0.65236100  1.000  P
M04  1.09976100  1.000  S
M06  0.60506100  1.000  P
M06  1.05026100  1.000  S
M14  0.75886100  1.000  P
M14  1.34176100  1.000  S
M11  0.73566100  1.000  P
M11  1.28996100  1.000  S
M09  0.79596100  1.000  P
M09  1.40236100  1.000  S
M13  0.90816100  1.000  P
M13  1.57146100  1.000  S
M10  1.01996100  1.000  P
M10  1.74116100  1.000  S
M05  1.23146100  1.000  P
M05  2.17616100  1.000  S
M07  1.26296100  1.000  P
M07  2.20516100  1.000  S
M12  1.59506100  1.000  P
M12  2.78666100  1.000  S
#  2023   9 14 16 28  27.965281  -1.641047800  101.156036301   1.65057  0  0  0  0.01938160  3134
M06  0.64791900  1.000  P
M06  1.15771900  1.000  S
M11  0.80231900  1.000  P
M11  1.38231900  1.000  S
M09  0.90781900  1.000  P
M09  1.62901900  1.000  S
M07  1.37571900  1.000  P
M07  2.41761900  1.000  S
#  2023   9 14 16 28  40.484118  -1.640988130  101.149017461   0.79119  0  0  0  0.03114060  3135
M06  0.51258200  1.000  P
M06  0.94968200  1.000  S
M11  0.64158200  1.000  P
M11  1.23778200  1.000  S
M04  0.56388200  1.000  P
M04  1.11388200  1.000  S
M14  0.64708200  1.000  P
M14  1.10648200  1.000  S
M09  0.77028200  1.000  P
M09  1.36128200  1.000  S
M13  0.84858200  1.000  P
M13  1.50108200  1.000  S
M10  1.06938200  1.000  P
M10  1.86608200  1.000  S
M05  1.23848200  1.000  P
M05  2.20838200  1.000  S
M07  1.19608200  1.000  P
M07  2.16628200  1.000  S
M12  1.39868200  1.000  P
M12  2.54038200  1.000  S
#  2023   9 14 16 28  47.260618  -1.642620015  101.132842461   1.95597  0  0  0  0.03563660  3136
M04  0.65978200  1.000  P
M04  1.12488200  1.000  S
M06  0.64428200  1.000  P
M06  1.14768200  1.000  S
M14  0.64978200  1.000  P
M14  1.17208200  1.000  S
M11  0.79958200  1.000  P
M11  1.36128200  1.000  S
M09  0.90288200  1.000  P
M09  1.53788200  1.000  S
M07  1.48368200  1.000  P
M07  2.61758200  1.000  S
M12  1.96838200  1.000  P
M12  3.38798200  1.000  S
#  2023   9 14 16 28  51.578746  -1.643687102  101.141399915   1.68608  0  0  0  0.04207400  3137
M06  0.67565400  1.000  P
M06  1.12445400  1.000  S
M04  0.70965400  1.000  P
M04  1.20565400  1.000  S
M14  0.69305400  1.000  P
M14  1.23845400  1.000  S
M11  0.76735400  1.000  P
M11  1.38665400  1.000  S
M09  0.86005400  1.000  P
M09  1.54215400  1.000  S
M13  0.97605400  1.000  P
M13  1.71355400  1.000  S
M10  1.05425400  1.000  P
M10  1.81155400  1.000  S
M05  1.25885400  1.000  P
M05  2.16485400  1.000  S
M07  1.34305400  1.000  P
M07  2.32755400  1.000  S
M12  1.60375400  1.000  P
M12  2.79935400  1.000  S
#  2023   9 14 16 29  41.083231  -1.643704353  101.125356786   0.90483  0  0  0  0.01233540  3138
M06  0.62326900  1.000  P
M06  1.10126900  1.000  S
M14  0.64606900  1.000  P
M14  1.12096900  1.000  S
M11  0.87846900  1.000  P
M11  1.51406900  1.000  S
M09  0.87386900  1.000  P
M09  1.53216900  1.000  S
M07  1.35246900  1.000  P
M07  2.40176900  1.000  S
#  2023   9 14 16 29  46.228926  -1.640727002  101.141664139   1.70028  0  0  0  0.01432850  3139
M06  0.51697400  1.000  P
M06  0.96367400  1.000  S
M14  0.66477400  1.000  P
M14  1.13717400  1.000  S
M11  0.69317400  1.000  P
M11  1.23117400  1.000  S
M09  0.77347400  1.000  P
M09  1.40707400  1.000  S
M07  1.23377400  1.000  P
M07  2.15777400  1.000  S
#  2023   9 14 16 29  52.261738  -1.644492151  101.143406152   1.54403  0  0  0  0.01982990  3140
M06  0.61746200  1.000  P
M06  1.12016200  1.000  S
M14  0.72076200  1.000  P
M14  1.26066200  1.000  S
M11  0.77006200  1.000  P
M11  1.33136200  1.000  S
M09  0.86356200  1.000  P
M09  1.55476200  1.000  S
M13  0.93956200  1.000  P
M13  1.66906200  1.000  S
M07  1.34276200  1.000  P
M07  2.31876200  1.000  S
M12  1.47606200  1.000  P
M12  2.61776200  1.000  S
#  2023   9 14 16 32   8.396723  -1.642471792  101.145543063   1.58665  0  0  0  0.02443570  3141
M06  0.64237700  1.000  P
M06  1.16217700  1.000  S
M04  0.71677700  1.000  P
M04  1.18167700  1.000  S
M14  0.71187700  1.000  P
M14  1.23217700  1.000  S
M11  0.70837700  1.000  P
M11  1.28367700  1.000  S
M02  0.79497700  1.000  P
M02  1.41017700  1.000  S
M09  0.86077700  1.000  P
M09  1.54467700  1.000  S
M03  0.94517700  1.000  P
M03  1.64267700  1.000  S
M13  0.97977700  1.000  P
M13  1.78027700  1.000  S
M10  1.04007700  1.000  P
M10  1.82557700  1.000  S
M05  1.31697700  1.000  P
M05  2.26417700  1.000  S
M07  1.27447700  1.000  P
M07  2.24457700  1.000  S
M01  1.33667700  1.000  P
M01  2.31927700  1.000  S
M12  1.43787700  1.000  P
M12  2.55467700  1.000  S
#  2023   9 14 16 32  17.740158  -1.638440588  101.140993255   1.60085  0  0  0  0.03136330  3142
M06  0.47484200  1.000  P
M06  0.98054200  1.000  S
M04  0.60534200  1.000  P
M04  1.03984200  1.000  S
M14  0.60434200  1.000  P
M14  1.03424200  1.000  S
M02  0.66694200  1.000  P
M02  1.22514200  1.000  S
M11  0.63614200  1.000  P
M11  1.19474200  1.000  S
M09  0.71434200  1.000  P
M09  1.29734200  1.000  S
M13  0.85664200  1.000  P
M13  1.51024200  1.000  S
M10  1.00894200  1.000  P
M10  1.81114200  1.000  S
M07  1.20024200  1.000  P
M07  2.18704200  1.000  S
M12  1.33374200  1.000  P
M12  2.38244200  1.000  S
#  2023   9 14 16 32  30.693599  -1.639905190  101.155166090   0.49290  0  0  0  0.01763940  3143
M06  0.67940100  1.000  P
M06  1.17430100  1.000  S
M11  0.65260100  1.000  P
M11  1.09310100  1.000  S
M14  0.73590100  1.000  P
M14  1.28940100  1.000  S
M09  0.82680100  1.000  P
M09  1.47940100  1.000  S
M13  0.92450100  1.000  P
M13  1.61220100  1.000  S
M07  1.34580100  1.000  P
M07  2.29170100  1.000  S
M12  1.50430100  1.000  P
M12  2.62060100  1.000  S
#  2023   9 14 16 32  37.113818  -1.639047520  101.139590135   1.72159  0  0  0  0.02805490  3144
M06  0.52158200  1.000  P
M06  0.98398200  1.000  S
M04  0.60868200  1.000  P
M04  1.04258200  1.000  S
M14  0.62238200  1.000  P
M14  1.07628200  1.000  S
M02  0.66268200  1.000  P
M02  1.20168200  1.000  S
M11  0.63458200  1.000  P
M11  1.19248200  1.000  S
M09  0.73198200  1.000  P
M09  1.32058200  1.000  S
M03  0.76368200  1.000  P
M03  1.33938200  1.000  S
M13  0.84848200  1.000  P
M13  1.48138200  1.000  S
M10  0.94668200  1.000  P
M10  1.71648200  1.000  S
M05  1.10358200  1.000  P
M05  1.98148200  1.000  S
M07  1.16208200  1.000  P
M07  2.06098200  1.000  S
M01  1.13378200  1.000  P
M01  2.02948200  1.000  S
M12  1.32068200  1.000  P
M12  2.36038200  1.000  S
#  2023   9 14 16 32  59.114955  -1.643425086  101.134848705   2.21165  0  0  0  0.02985360  3145
M06  0.77984500  1.000  P
M06  1.29554500  1.000  S
M14  0.77144500  1.000  P
M14  1.34414500  1.000  S
M11  0.88284500  1.000  P
M11  1.48604500  1.000  S
M09  0.95684500  1.000  P
M09  1.63924500  1.000  S
M13  0.89484500  1.000  P
M13  1.54274500  1.000  S
M05  1.19834500  1.000  P
M05  2.05564500  1.000  S
M07  1.31494500  1.000  P
M07  2.25084500  1.000  S
M12  1.60444500  1.000  P
M12  2.74094500  1.000  S
#  2023   9 14 16 34  11.011336  -1.635936895  101.154693926   2.13352  0  0  0  0.02058680  3146
M06  0.71496400  1.000  P
M06  1.22626400  1.000  S
M11  0.75576400  1.000  P
M11  1.33516400  1.000  S
M14  0.86436400  1.000  P
M14  1.46606400  1.000  S
M09  0.76446400  1.000  P
M09  1.34506400  1.000  S
M07  1.39066400  1.000  P
M07  2.38496400  1.000  S
M05  1.32696400  1.000  P
M05  2.27616400  1.000  S
#  2023   9 14 16 34  40.432994  -1.640242323  101.154431145   1.48011  0  0  0  0.02235370  3147
M06  0.59710600  1.000  P
M06  1.01290600  1.000  S
M11  0.64920600  1.000  P
M11  1.28010600  1.000  S
M14  0.78280600  1.000  P
M14  1.43730600  1.000  S
M09  0.87900600  1.000  P
M09  1.53250600  1.000  S
M07  1.32330600  1.000  P
M07  2.35980600  1.000  S
#  2023   9 14 16 34  47.566675  -1.638708511  101.142063069   1.71449  0  0  0  0.02041180  3148
M06  0.50112500  1.000  P
M06  0.93682500  1.000  S
M14  0.63982500  1.000  P
M14  1.10382500  1.000  S
M11  0.66252500  1.000  P
M11  1.16132500  1.000  S
M09  0.71422500  1.000  P
M09  1.29862500  1.000  S
M13  0.87282500  1.000  P
M13  1.48892500  1.000  S
M07  1.17142500  1.000  P
M07  2.07762500  1.000  S
M12  1.33182500  1.000  P
M12  2.34272500  1.000  S
#  2023   9 14 16 34  58.790326  -1.638080766  101.162717629   2.24716  0  0  0  0.00907635  3149
M06  0.88047400  1.000  P
M06  1.37757400  1.000  S
M11  0.93627400  1.000  P
M11  1.62197400  1.000  S
M09  1.09127400  1.000  P
M09  1.87707400  1.000  S
M07  1.45507400  1.000  P
M07  2.43657400  1.000  S
#  2023   9 14 16 36  23.411720  -1.642155517  101.126892622   1.45171  0  0  0  0.01627750  3150
M06  0.65808000  1.000  P
M06  1.12778000  1.000  S
M11  0.83548000  1.000  P
M11  1.50508000  1.000  S
M09  0.86238000  1.000  P
M09  1.52558000  1.000  S
M07  1.41398000  1.000  P
M07  2.45288000  1.000  S
#  2023   9 14 16 38  46.270767  -1.639592554  101.133173481   1.77841  0  0  0  0.01520530  3151
M06  0.58763300  1.000  P
M06  1.02123300  1.000  S
M11  0.79473300  1.000  P
M11  1.30553300  1.000  S
M09  0.79483300  1.000  P
M09  1.41223300  1.000  S
M07  1.17613300  1.000  P
M07  2.01373300  1.000  S
#  2023   9 14 16 39  22.148088  -1.642408777  101.141599087   3.01421  0  0  0  0.01447780  3152
M06  0.83571200  1.000  P
M06  1.41941200  1.000  S
M11  0.96651200  1.000  P
M11  1.62621200  1.000  S
M09  1.02131200  1.000  P
M09  1.77231200  1.000  S
M07  1.50911200  1.000  P
M07  2.56061200  1.000  S
#  2023   9 14 16 40  10.579888  -1.645429279  101.147685289   1.34517  0  0  0  0.00920324  3153
M06  0.64971200  1.000  P
M06  1.18271200  1.000  S
M14  0.76881200  1.000  P
M14  1.33461200  1.000  S
M11  0.77641200  1.000  P
M11  1.35131200  1.000  S
M09  0.91521200  1.000  P
M09  1.63221200  1.000  S
M07  1.35591200  1.000  P
M07  2.40711200  1.000  S
#  2023   9 14 16 40  29.725071  -1.638585600  101.131233870   1.70028  0  0  0  0.01041490  3154
M06  0.58662900  1.000  P
M06  1.04702900  1.000  S
M11  0.74772900  1.000  P
M11  1.31182900  1.000  S
M09  0.78762900  1.000  P
M09  1.33262900  1.000  S
M07  1.34872900  1.000  P
M07  2.36152900  1.000  S
#  2023   9 14 16 42  57.515501  -1.639513574  101.144069307   2.33949  0  0  0  0.02297200  3155
M06  0.67259900  1.000  P
M06  1.16409900  1.000  S
M04  0.80869900  1.000  P
M04  1.19909900  1.000  S
M14  0.76599900  1.000  P
M14  1.26239900  1.000  S
M11  0.79039900  1.000  P
M11  1.36779900  1.000  S
M02  0.86969900  1.000  P
M02  1.50839900  1.000  S
M09  0.86849900  1.000  P
M09  1.50999900  1.000  S
M03  0.96119900  1.000  P
M03  1.66999900  1.000  S
M13  1.00499900  1.000  P
M13  1.72059900  1.000  S
M10  1.12039900  1.000  P
M10  1.86299900  1.000  S
M05  1.23979900  1.000  P
M05  2.07769900  1.000  S
M07  1.29449900  1.000  P
M07  2.16539900  1.000  S
M01  1.26579900  1.000  P
M01  2.13399900  1.000  S
M12  1.45589900  1.000  P
M12  2.51899900  1.000  S
#  2023   9 14 16 43  40.414810  -1.645296914  101.145679773   1.14631  0  0  0  0.02832260  3156
M06  0.64989000  1.000  P
M06  1.17019000  1.000  S
M04  0.63949000  1.000  P
M04  1.16569000  1.000  S
M14  0.73469000  1.000  P
M14  1.22879000  1.000  S
M11  0.74829000  1.000  P
M11  1.30519000  1.000  S
M09  0.85379000  1.000  P
M09  1.53129000  1.000  S
M13  0.96199000  1.000  P
M13  1.62729000  1.000  S
M10  1.10249000  1.000  P
M10  1.96379000  1.000  S
M05  1.32479000  1.000  P
M05  2.29699000  1.000  S
M07  1.33399000  1.000  P
M07  2.33339000  1.000  S
M12  1.43929000  1.000  P
M12  2.51149000  1.000  S
#  2023   9 14 16 48  22.347757  -1.639155559  101.132939053   1.71804  0  0  0  0.02512960  3157
M04  0.56524300  1.000  P
M04  0.99024300  1.000  S
M06  0.57584300  1.000  P
M06  1.01274300  1.000  S
M14  0.60964300  1.000  P
M14  1.12524300  1.000  S
M11  0.64984300  1.000  P
M11  1.15454300  1.000  S
M09  0.75674300  1.000  P
M09  1.33864300  1.000  S
M10  1.05924300  1.000  P
M10  1.90294300  1.000  S
M13  0.85554300  1.000  P
M13  1.53904300  1.000  S
M05  1.18964300  1.000  P
M05  2.10814300  1.000  S
M07  1.17244300  1.000  P
M07  2.07394300  1.000  S
M12  1.30124300  1.000  P
M12  2.29154300  1.000  S
#  2023   9 14 16 48  45.509039  -1.639185075  101.136782746   2.36079  0  0  0  0.01358320  3158
M06  0.68386100  1.000  P
M06  1.17306100  1.000  S
M11  0.82716100  1.000  P
M11  1.37156100  1.000  S
M09  0.84896100  1.000  P
M09  1.50586100  1.000  S
M07  1.45516100  1.000  P
M07  2.49816100  1.000  S
#  2023   9 14 16 56   2.080378  -1.642399820  101.149887961   2.13352  0  0  0  0.01589660  3160
M06  0.67562200  1.000  P
M06  1.17522200  1.000  S
M11  0.83902200  1.000  P
M11  1.42272200  1.000  S
M09  0.94072200  1.000  P
M09  1.65272200  1.000  S
M07  1.41152200  1.000  P
M07  2.48272200  1.000  S
#  2023   9 14 17  0  13.881972  -1.643109354  101.146914086   1.35582  0  0  0  0.01484810  3161
M06  0.66112800  1.000  P
M06  1.17832800  1.000  S
M04  0.69372800  1.000  P
M04  1.23822800  1.000  S
M14  0.70942800  1.000  P
M14  1.22492800  1.000  S
M11  0.70922800  1.000  P
M11  1.25102800  1.000  S
M09  0.86982800  1.000  P
M09  1.54052800  1.000  S
M13  0.92212800  1.000  P
M13  1.63582800  1.000  S
M05  1.27182800  1.000  P
M05  2.20792800  1.000  S
M07  1.30942800  1.000  P
M07  2.28242800  1.000  S
M12  1.47462800  1.000  P
M12  2.61512800  1.000  S
#  2023   9 14 17 16  12.594621  -1.642340864  101.142200626   2.02699  0  0  0  0.01470770  3163
M06  0.61177900  1.000  P
M06  1.06237900  1.000  S
M14  0.74267900  1.000  P
M14  1.31107900  1.000  S
M11  0.79127900  1.000  P
M11  1.35947900  1.000  S
M09  0.88847900  1.000  P
M09  1.46777900  1.000  S
M07  1.32877900  1.000  P
M07  2.31977900  1.000  S
#  2023   9 14 17 16  20.608754  -1.643698043  101.131239285   1.44460  0  0  0  0.01808200  3164
M04  0.51384600  1.000  P
M04  0.96074600  1.000  S
M06  0.58604600  1.000  P
M06  1.01074600  1.000  S
M14  0.66464600  1.000  P
M14  1.14564600  1.000  S
M11  0.73524600  1.000  P
M11  1.28274600  1.000  S
M09  0.86204600  1.000  P
M09  1.50454600  1.000  S
M07  1.24934600  1.000  P
M07  2.20784600  1.000  S
#  2023   9 14 17 22  43.411852  -1.641540119  101.136183624   1.67188  0  0  0  0.05166220  3165
M06  0.53384800  1.000  P
M06  0.97404800  1.000  S
M04  0.63154800  1.000  P
M04  1.04364800  1.000  S
M02  0.56614800  1.000  P
M02  1.02534800  1.000  S
M14  0.57424800  1.000  P
M14  1.02454800  1.000  S
M11  0.67044800  1.000  P
M11  1.25844800  1.000  S
M09  0.81174800  1.000  P
M09  1.44054800  1.000  S
M13  0.84904800  1.000  P
M13  1.52594800  1.000  S
M05  1.13074800  1.000  P
M05  1.96164800  1.000  S
M07  1.24324800  1.000  P
M07  2.19454800  1.000  S
M12  1.36104800  1.000  P
M12  2.37434800  1.000  S
#  2023   9 14 17 23   1.672801  -1.642614406  101.138056465   1.72869  0  0  0  0.02475900  3166
M06  0.56039900  1.000  P
M06  1.04269900  1.000  S
M04  0.62559900  1.000  P
M04  1.12039900  1.000  S
M02  0.64109900  1.000  P
M02  1.19369900  1.000  S
M14  0.68739900  1.000  P
M14  1.18429900  1.000  S
M11  0.74969900  1.000  P
M11  1.33209900  1.000  S
M09  0.84049900  1.000  P
M09  1.46489900  1.000  S
M13  0.96209900  1.000  P
M13  1.69509900  1.000  S
M10  0.89959900  1.000  P
M10  1.55359900  1.000  S
M05  1.17339900  1.000  P
M05  2.11439900  1.000  S
M01  1.33979900  1.000  P
M01  2.39999900  1.000  S
M07  1.27229900  1.000  P
M07  2.30269900  1.000  S
M12  1.40329900  1.000  P
M12  2.52469900  1.000  S
#  2023   9 14 17 23   3.432217  -1.649404988  101.141339169   1.39489  0  0  0  0.02823270  3167
M06  0.69728300  1.000  P
M06  1.19938300  1.000  S
M04  0.75728300  1.000  P
M04  1.20198300  1.000  S
M02  0.78158300  1.000  P
M02  1.39198300  1.000  S
M14  0.81418300  1.000  P
M14  1.46158300  1.000  S
M11  0.87248300  1.000  P
M11  1.54878300  1.000  S
M09  0.97198300  1.000  P
M09  1.72898300  1.000  S
M13  1.09548300  1.000  P
M13  1.89088300  1.000  S
M10  1.18488300  1.000  P
M10  2.05188300  1.000  S
M05  1.36598300  1.000  P
M05  2.37398300  1.000  S
M01  1.44268300  1.000  P
M01  2.55958300  1.000  S
M07  1.42338300  1.000  P
M07  2.52028300  1.000  S
M12  1.33798300  1.000  P
M12  2.33268300  1.000  S
#  2023   9 14 17 23  38.481678  -1.641370475  101.137553793   1.90980  0  0  0  0.03528270  3168
M06  0.58742200  1.000  P
M06  1.05582200  1.000  S
M04  0.65942200  1.000  P
M04  1.11062200  1.000  S
M02  0.69092200  1.000  P
M02  1.24162200  1.000  S
M14  0.68462200  1.000  P
M14  1.19972200  1.000  S
M11  0.77992200  1.000  P
M11  1.31372200  1.000  S
M09  0.81502200  1.000  P
M09  1.45842200  1.000  S
M03  0.92962200  1.000  P
M03  1.64932200  1.000  S
M13  0.93062200  1.000  P
M13  1.62882200  1.000  S
M10  1.12922200  1.000  P
M10  1.91832200  1.000  S
M05  1.16462200  1.000  P
M05  2.00242200  1.000  S
M01  1.34972200  1.000  P
M01  2.32782200  1.000  S
M07  1.26582200  1.000  P
M07  2.24452200  1.000  S
M12  1.36682200  1.000  P
M12  2.38912200  1.000  S
#  2023   9 14 17 24  47.472342  -1.643694738  101.134314218   1.75710  0  0  0  0.03013130  3169
M04  0.61775800  1.000  P
M04  1.09375800  1.000  S
M06  0.60795800  1.000  P
M06  1.07135800  1.000  S
M14  0.63695800  1.000  P
M14  1.14525800  1.000  S
M11  0.78935800  1.000  P
M11  1.37945800  1.000  S
M09  0.89445800  1.000  P
M09  1.56735800  1.000  S
M13  1.01895800  1.000  P
M13  1.73875800  1.000  S
M07  1.25185800  1.000  P
M07  2.18605800  1.000  S
M12  1.48645800  1.000  P
M12  2.57485800  1.000  S
