#  2023   9 28  7 40   2.519272  -1.637367457  101.138050894   2.31108  0  0  0  0.02632520  3215
M06  0.65452800  1.000  P
M06  1.14132800  1.000  S
M04  0.71942800  1.000  P
M04  1.26202800  1.000  S
M14  0.71992800  1.000  P
M14  1.20632800  1.000  S
M11  0.77482800  1.000  P
M11  1.31162800  1.000  S
M09  0.88542800  1.000  P
M09  1.56192800  1.000  S
M05  1.34122800  1.000  P
M05  2.32562800  1.000  S
M07  1.47582800  1.000  P
M07  2.58382800  1.000  S
#  2023   9 28  7 55  56.946956  -1.636685426  101.146740125   2.15483  0  0  0  0.02880210  3216
M06  0.62694400  1.000  P
M06  1.08454400  1.000  S
M11  0.71904400  1.000  P
M11  1.24094400  1.000  S
M14  0.73724400  1.000  P
M14  1.22974400  1.000  S
M04  0.66754400  1.000  P
M04  1.16864400  1.000  S
M09  0.79384400  1.000  P
M09  1.38714400  1.000  S
M02  0.86984400  1.000  P
M02  1.51734400  1.000  S
M13  1.01164400  1.000  P
M13  1.70324400  1.000  S
M05  1.29124400  1.000  P
M05  2.22954400  1.000  S
M07  1.31434400  1.000  P
M07  2.26614400  1.000  S
#  2023   9 28  7 56   5.492735  -1.641128731  101.143402566   1.72869  0  0  0  0.02797340  3217
M06  0.61376500  1.000  P
M06  1.07186500  1.000  S
M04  0.67536500  1.000  P
M04  1.17056500  1.000  S
M14  0.68926500  1.000  P
M14  1.19866500  1.000  S
M11  0.71726500  1.000  P
M11  1.27876500  1.000  S
M02  0.76746500  1.000  P
M02  1.35726500  1.000  S
M09  0.81966500  1.000  P
M09  1.41846500  1.000  S
M03  0.91076500  1.000  P
M03  1.58656500  1.000  S
M13  0.95166500  1.000  P
M13  1.64916500  1.000  S
M10  1.07396500  1.000  P
M10  1.87426500  1.000  S
M05  1.23726500  1.000  P
M05  2.17996500  1.000  S
M07  1.24636500  1.000  P
M07  2.17516500  1.000  S
M01  1.24066500  1.000  P
M01  2.16786500  1.000  S
#  2023   9 28  7 56  11.486618  -1.641395930  101.145140840   1.74290  0  0  0  0.04274440  3218
M06  0.63428200  1.000  P
M06  1.14878200  1.000  S
M04  0.70748200  1.000  P
M04  1.25078200  1.000  S
M14  0.69968200  1.000  P
M14  1.23368200  1.000  S
M11  0.74378200  1.000  P
M11  1.37098200  1.000  S
M02  0.82868200  1.000  P
M02  1.50098200  1.000  S
M09  0.84808200  1.000  P
M09  1.48508200  1.000  S
M03  1.30228200  1.000  P
M03  2.28228200  1.000  S
M13  0.98838200  1.000  P
M13  1.77158200  1.000  S
M10  1.08758200  1.000  P
M10  1.90628200  1.000  S
M07  1.50868200  1.000  P
M07  2.66818200  1.000  S
#  2023   9 28  7 57  46.276622  -1.636690030  101.142462001   2.77983  0  0  0  0.03084650  3219
M06  0.75217800  1.000  P
M06  1.27847800  1.000  S
M04  0.78657800  1.000  P
M04  1.33257800  1.000  S
M14  0.86187800  1.000  P
M14  1.49227800  1.000  S
M11  0.83737800  1.000  P
M11  1.42977800  1.000  S
M02  0.92107800  1.000  P
M02  1.55627800  1.000  S
M09  0.89597800  1.000  P
M09  1.53927800  1.000  S
M13  1.00057800  1.000  P
M13  1.68437800  1.000  S
M05  1.30067800  1.000  P
M05  2.21517800  1.000  S
M07  1.40937800  1.000  P
M07  2.41557800  1.000  S
#  2023   9 28  7 59  35.898457  -1.644077389  101.153699955   0.22301  0  0  0  0.03608140  3220
M06  0.70764300  1.000  P
M06  1.21324300  1.000  S
M11  0.82084300  1.000  P
M11  1.44094300  1.000  S
M04  0.76034300  1.000  P
M04  1.31174300  1.000  S
M14  0.73424300  1.000  P
M14  1.24994300  1.000  S
M02  0.90094300  1.000  P
M02  1.57144300  1.000  S
M09  0.92444300  1.000  P
M09  1.56714300  1.000  S
M13  1.04414300  1.000  P
M13  1.75304300  1.000  S
M10  1.27294300  1.000  P
M10  2.16204300  1.000  S
M07  1.40804300  1.000  P
M07  2.42524300  1.000  S
M05  1.38794300  1.000  P
M05  2.39424300  1.000  S
#  2023   9 28  8  1  35.723212  -1.642878580  101.142602276   1.41619  0  0  0  0.01356560  3221
M06  0.60638800  1.000  P
M06  1.04638800  1.000  S
M14  0.66588800  1.000  P
M14  1.15528800  1.000  S
M11  0.70268800  1.000  P
M11  1.26318800  1.000  S
M09  0.81678800  1.000  P
M09  1.41448800  1.000  S
M07  1.28568800  1.000  P
M07  2.23698800  1.000  S
#  2023   9 28  8  2   3.363576  -1.640450282  101.148749503   1.10369  0  0  0  0.02377640  3222
M06  0.54952400  1.000  P
M06  1.00192400  1.000  S
M11  0.62732400  1.000  P
M11  1.13622400  1.000  S
M04  0.66152400  1.000  P
M04  1.14412400  1.000  S
M14  0.66272400  1.000  P
M14  1.15522400  1.000  S
M02  0.80322400  1.000  P
M02  1.40272400  1.000  S
M09  0.75562400  1.000  P
M09  1.34512400  1.000  S
M13  0.88312400  1.000  P
M13  1.50992400  1.000  S
M10  0.87852400  1.000  P
M10  1.53582400  1.000  S
M05  1.24262400  1.000  P
M05  2.16362400  1.000  S
M07  1.23642400  1.000  P
M07  2.17142400  1.000  S
#  2023   9 28  8  2  40.309346  -1.643952123  101.145143567   1.48722  0  0  0  0.03663300  3223
M06  0.66315400  1.000  P
M06  1.15055400  1.000  S
M04  0.68655400  1.000  P
M04  1.20675400  1.000  S
M14  0.72875400  1.000  P
M14  1.26675400  1.000  S
M11  0.77025400  1.000  P
M11  1.32975400  1.000  S
M02  0.87965400  1.000  P
M02  1.50765400  1.000  S
M09  0.86455400  1.000  P
M09  1.50985400  1.000  S
M13  0.97565400  1.000  P
M13  1.65425400  1.000  S
M10  1.15535400  1.000  P
M10  1.98275400  1.000  S
M05  1.29525400  1.000  P
M05  2.27465400  1.000  S
M07  1.30105400  1.000  P
M07  2.29135400  1.000  S
M01  1.34175400  1.000  P
M01  2.33575400  1.000  S
#  2023   9 28  8  7  49.710402  -1.639511123  101.146342058   1.35938  0  0  0  0.02114780  3224
M06  0.52439800  1.000  P
M06  0.99489800  1.000  S
M04  0.64259800  1.000  P
M04  1.15089800  1.000  S
M14  0.59029800  1.000  P
M14  1.09019800  1.000  S
M11  0.63219800  1.000  P
M11  1.12399800  1.000  S
M02  0.76789800  1.000  P
M02  1.33559800  1.000  S
M09  0.75229800  1.000  P
M09  1.31449800  1.000  S
M13  0.92859800  1.000  P
M13  1.64099800  1.000  S
M05  1.18159800  1.000  P
M05  2.09529800  1.000  S
M07  1.21749800  1.000  P
M07  2.15749800  1.000  S
#  2023   9 28  8 13   6.840710  -1.643950677  101.146480488   1.24574  0  0  0  0.03736090  3225
M06  0.59179000  1.000  P
M06  1.06859000  1.000  S
M04  0.64259000  1.000  P
M04  1.12569000  1.000  S
M14  0.70149000  1.000  P
M14  1.20799000  1.000  S
M11  0.72959000  1.000  P
M11  1.28829000  1.000  S
M02  0.78819000  1.000  P
M02  1.40539000  1.000  S
M09  0.80989000  1.000  P
M09  1.45739000  1.000  S
M13  0.94449000  1.000  P
M13  1.64879000  1.000  S
M10  1.10409000  1.000  P
M10  1.92059000  1.000  S
M05  1.24699000  1.000  P
M05  2.22619000  1.000  S
M07  1.25019000  1.000  P
M07  2.21209000  1.000  S
M01  1.35449000  1.000  P
M01  2.40599000  1.000  S
#  2023   9 28  8 15  50.847877  -1.640317623  101.147011377   1.43040  0  0  0  0.02267480  3226
M06  0.56782300  1.000  P
M06  1.04432300  1.000  S
M14  0.68922300  1.000  P
M14  1.17492300  1.000  S
M11  0.65232300  1.000  P
M11  1.16092300  1.000  S
M09  0.77662300  1.000  P
M09  1.39162300  1.000  S
M13  0.86472300  1.000  P
M13  1.52792300  1.000  S
M05  1.20842300  1.000  P
M05  2.11242300  1.000  S
M07  1.26162300  1.000  P
M07  2.21222300  1.000  S
#  2023   9 28  8 15  58.195898  -1.646643288  101.144745366   0.62074  0  0  0  0.03247390  3227
M06  0.67330200  1.000  P
M06  1.15620200  1.000  S
M04  0.73590200  1.000  P
M04  1.27560200  1.000  S
M14  0.69840200  1.000  P
M14  1.20450200  1.000  S
M02  0.72430200  1.000  P
M02  1.23970200  1.000  S
M11  0.74110200  1.000  P
M11  1.26890200  1.000  S
M09  0.89950200  1.000  P
M09  1.53960200  1.000  S
M13  1.01710200  1.000  P
M13  1.73060200  1.000  S
M05  1.33550200  1.000  P
M05  2.29050200  1.000  S
M07  1.34630200  1.000  P
M07  2.29280200  1.000  S
#  2023   9 28  8 17   0.495618  -1.642474968  101.142601846   1.97017  0  0  0  0.02065420  3228
M06  0.60808200  1.000  P
M06  1.14378200  1.000  S
M14  0.73618200  1.000  P
M14  1.29968200  1.000  S
M11  0.77818200  1.000  P
M11  1.34018200  1.000  S
M09  0.88748200  1.000  P
M09  1.54188200  1.000  S
M13  1.01718200  1.000  P
M13  1.80828200  1.000  S
M07  1.33448200  1.000  P
M07  2.34108200  1.000  S
#  2023   9 28  8 17  24.296935  -1.640060787  101.135647291   1.81392  0  0  0  0.01039340  3229
M06  0.57096500  1.000  P
M06  0.99996500  1.000  S
M14  0.63916500  1.000  P
M14  1.11716500  1.000  S
M11  0.64956500  1.000  P
M11  1.13786500  1.000  S
M09  0.79336500  1.000  P
M09  1.38786500  1.000  S
M13  0.92786500  1.000  P
M13  1.61146500  1.000  S
#  2023   9 28  8 19  49.299552  -1.638980319  101.139523213   2.21165  0  0  0  0.01971920  3230
M06  0.63254800  1.000  P
M06  1.12364800  1.000  S
M04  0.71934800  1.000  P
M04  1.23404800  1.000  S
M14  0.72574800  1.000  P
M14  1.19604800  1.000  S
M02  0.77924800  1.000  P
M02  1.36314800  1.000  S
M11  0.75404800  1.000  P
M11  1.32144800  1.000  S
M09  0.86154800  1.000  P
M09  1.45184800  1.000  S
M13  0.96834800  1.000  P
M13  1.64464800  1.000  S
M05  1.34754800  1.000  P
M05  2.35564800  1.000  S
M07  1.35024800  1.000  P
M07  2.36204800  1.000  S
#  2023   9 28  8 20  55.526452  -1.639791280  101.136048075   1.94176  0  0  0  0.02693350  3231
M04  0.63494800  1.000  P
M04  1.08844800  1.000  S
M06  0.59304800  1.000  P
M06  1.03744800  1.000  S
M14  0.67354800  1.000  P
M14  1.15444800  1.000  S
M11  0.72964800  1.000  P
M11  1.27314800  1.000  S
M09  0.81664800  1.000  P
M09  1.42334800  1.000  S
M13  0.85204800  1.000  P
M13  1.51034800  1.000  S
M05  1.29234800  1.000  P
M05  2.24584800  1.000  S
M07  1.30194800  1.000  P
M07  2.25564800  1.000  S
#  2023   9 28  8 26  42.881262  -1.640722965  101.145407506   1.62926  0  0  0  0.02808850  3232
M06  0.58083800  1.000  P
M06  1.05603800  1.000  S
M04  0.64313800  1.000  P
M04  1.17933800  1.000  S
M14  0.67863800  1.000  P
M14  1.19243800  1.000  S
M11  0.69593800  1.000  P
M11  1.24973800  1.000  S
M02  0.80733800  1.000  P
M02  1.39613800  1.000  S
M09  0.81373800  1.000  P
M09  1.40053800  1.000  S
M03  0.92843800  1.000  P
M03  1.62203800  1.000  S
M13  0.93453800  1.000  P
M13  1.67193800  1.000  S
M10  1.01143800  1.000  P
M10  1.79203800  1.000  S
M05  1.23533800  1.000  P
M05  2.20263800  1.000  S
M07  1.23863800  1.000  P
M07  2.19953800  1.000  S
M01  1.27343800  1.000  P
M01  2.22613800  1.000  S
M12  1.39393800  1.000  P
M12  2.47183800  1.000  S
#  2023   9 28  8 26  46.839589  -1.641595501  101.147213274   1.22443  0  0  0  0.04420550  3233
M06  0.53581100  1.000  P
M06  1.03531100  1.000  S
M04  0.62601100  1.000  P
M04  1.15671100  1.000  S
M14  0.66701100  1.000  P
M14  1.16371100  1.000  S
M11  0.67581100  1.000  P
M11  1.27311100  1.000  S
M02  0.77781100  1.000  P
M02  1.37541100  1.000  S
M09  0.73821100  1.000  P
M09  1.36991100  1.000  S
M03  0.79751100  1.000  P
M03  1.47531100  1.000  S
M13  0.90671100  1.000  P
M13  1.64441100  1.000  S
M10  1.02091100  1.000  P
M10  1.83841100  1.000  S
M05  1.24981100  1.000  P
M05  2.25011100  1.000  S
M07  1.24941100  1.000  P
M07  2.26111100  1.000  S
M01  1.25341100  1.000  P
M01  2.23841100  1.000  S
M12  1.42241100  1.000  P
M12  2.55721100  1.000  S
#  2023   9 28  8 27   2.100451  -1.642742022  101.144473814   1.71449  0  0  0  0.02937560  3234
M06  0.62564900  1.000  P
M06  1.12344900  1.000  S
M04  0.66214900  1.000  P
M04  1.17374900  1.000  S
M14  0.74234900  1.000  P
M14  1.24164900  1.000  S
M11  0.75314900  1.000  P
M11  1.31694900  1.000  S
M02  0.79534900  1.000  P
M02  1.43154900  1.000  S
M09  0.84504900  1.000  P
M09  1.51614900  1.000  S
M03  0.94074900  1.000  P
M03  1.63874900  1.000  S
M13  0.98164900  1.000  P
M13  1.75324900  1.000  S
M10  1.07634900  1.000  P
M10  1.89644900  1.000  S
M05  1.25594900  1.000  P
M05  2.19444900  1.000  S
M07  1.28204900  1.000  P
M07  2.24924900  1.000  S
M01  1.21894900  1.000  P
M01  2.14464900  1.000  S
M12  1.42944900  1.000  P
M12  2.48814900  1.000  S
#  2023   9 28  8 29  31.021827  -1.642869181  101.151292221   0.23722  0  0  0  0.03000130  3235
M06  0.64127300  1.000  P
M06  1.12707300  1.000  S
M11  0.78097300  1.000  P
M11  1.33607300  1.000  S
M04  0.67907300  1.000  P
M04  1.17767300  1.000  S
M14  0.67897300  1.000  P
M14  1.18617300  1.000  S
M02  0.85747300  1.000  P
M02  1.47627300  1.000  S
M09  0.88167300  1.000  P
M09  1.52697300  1.000  S
M13  0.98147300  1.000  P
M13  1.67907300  1.000  S
M05  1.34427300  1.000  P
M05  2.30677300  1.000  S
M07  1.34547300  1.000  P
M07  2.32367300  1.000  S
#  2023   9 28  8 33  52.383476  -1.638611892  101.138085634   2.12997  0  0  0  0.03974300  3236
M06  0.61302400  1.000  P
M06  1.07852400  1.000  S
M04  0.70252400  1.000  P
M04  1.19042400  1.000  S
M14  0.65942400  1.000  P
M14  1.13272400  1.000  S
M11  0.75152400  1.000  P
M11  1.27232400  1.000  S
M09  0.82502400  1.000  P
M09  1.43702400  1.000  S
M13  0.92522400  1.000  P
M13  1.60662400  1.000  S
M05  1.41012400  1.000  P
M05  2.43782400  1.000  S
M07  1.42492400  1.000  P
M07  2.46692400  1.000  S
M12  1.46062400  1.000  P
M12  2.53592400  1.000  S
#  2023   9 28  8 34  52.701038  -1.642073087  101.140997118   1.70028  0  0  0  0.04005200  3237
M06  0.57676200  1.000  P
M06  1.01956200  1.000  S
M04  0.65336200  1.000  P
M04  1.16046200  1.000  S
M14  0.70756200  1.000  P
M14  1.19706200  1.000  S
M02  0.71776200  1.000  P
M02  1.25256200  1.000  S
M11  0.72986200  1.000  P
M11  1.28326200  1.000  S
M09  0.82946200  1.000  P
M09  1.40726200  1.000  S
M03  0.95546200  1.000  P
M03  1.62966200  1.000  S
M13  0.93806200  1.000  P
M13  1.59206200  1.000  S
M10  1.10066200  1.000  P
M10  1.90786200  1.000  S
M05  1.19236200  1.000  P
M05  2.07596200  1.000  S
M07  1.30746200  1.000  P
M07  2.28796200  1.000  S
M01  1.30016200  1.000  P
M01  2.27496200  1.000  S
M12  1.40196200  1.000  P
M12  2.43916200  1.000  S
#  2023   9 28  8 35  23.664381  -1.640024533  101.138087134   2.06605  0  0  0  0.03263150  3238
M06  0.61321900  1.000  P
M06  1.05261900  1.000  S
M04  0.69111900  1.000  P
M04  1.19591900  1.000  S
M14  0.72131900  1.000  P
M14  1.23131900  1.000  S
M02  0.71741900  1.000  P
M02  1.23841900  1.000  S
M11  0.74311900  1.000  P
M11  1.30481900  1.000  S
M09  0.83441900  1.000  P
M09  1.43801900  1.000  S
M03  0.92411900  1.000  P
M03  1.60181900  1.000  S
M13  0.91161900  1.000  P
M13  1.55861900  1.000  S
M10  0.95531900  1.000  P
M10  1.64841900  1.000  S
M05  1.29991900  1.000  P
M05  2.24891900  1.000  S
M01  1.32301900  1.000  P
M01  2.30821900  1.000  S
M07  1.23581900  1.000  P
M07  2.11531900  1.000  S
M12  1.43911900  1.000  P
M12  2.46391900  1.000  S
#  2023   9 28  8 35  37.040384  -1.638738516  101.145438813   1.22798  0  0  0  0.01459770  3239
M06  0.49701600  1.000  P
M06  0.89371600  1.000  S
M04  0.61041600  1.000  P
M04  1.06261600  1.000  S
M14  0.58421600  1.000  P
M14  1.03501600  1.000  S
M11  0.58541600  1.000  P
M11  1.02431600  1.000  S
M09  0.71371600  1.000  P
M09  1.28121600  1.000  S
M13  0.82761600  1.000  P
M13  1.47171600  1.000  S
M05  1.12921600  1.000  P
M05  1.98251600  1.000  S
M07  1.18841600  1.000  P
M07  2.08681600  1.000  S
M12  1.35441600  1.000  P
M12  2.36871600  1.000  S
#  2023   9 28  8 36   6.266300  -1.642819158  101.135315982   1.83523  0  0  0  0.00834873  3240
M04  0.64070000  1.000  P
M04  1.10130000  1.000  S
M06  0.60330000  1.000  P
M06  1.04710000  1.000  S
M14  0.69550000  1.000  P
M14  1.22330000  1.000  S
M09  0.85910000  1.000  P
M09  1.51270000  1.000  S
M13  0.86840000  1.000  P
M13  1.49770000  1.000  S
M05  1.31230000  1.000  P
M05  2.27940000  1.000  S
#  2023   9 28  8 36   9.261727  -1.641665148  101.145007435   1.45881  0  0  0  0.03889330  3241
M06  0.62207300  1.000  P
M06  1.09507300  1.000  S
M04  0.66457300  1.000  P
M04  1.17537300  1.000  S
M14  0.65237300  1.000  P
M14  1.15417300  1.000  S
M11  0.73647300  1.000  P
M11  1.25947300  1.000  S
M02  0.81107300  1.000  P
M02  1.42377300  1.000  S
M09  0.81047300  1.000  P
M09  1.42047300  1.000  S
M03  0.92867300  1.000  P
M03  1.63477300  1.000  S
M13  0.97907300  1.000  P
M13  1.71097300  1.000  S
M10  1.05907300  1.000  P
M10  1.87277300  1.000  S
M05  1.21637300  1.000  P
M05  2.12787300  1.000  S
M07  1.31067300  1.000  P
M07  2.26797300  1.000  S
M01  1.27147300  1.000  P
M01  2.20597300  1.000  S
M12  1.47077300  1.000  P
M12  2.57327300  1.000  S
#  2023   9 28  8 36  18.695253  -1.643748370  101.146948189   1.56534  0  0  0  0.05971850  3242
M06  0.59424700  1.000  P
M06  1.10354700  1.000  S
M04  0.65824700  1.000  P
M04  1.20974700  1.000  S
M14  0.66424700  1.000  P
M14  1.20494700  1.000  S
M11  0.74464700  1.000  P
M11  1.34554700  1.000  S
M02  0.84234700  1.000  P
M02  1.48804700  1.000  S
M09  0.82914700  1.000  P
M09  1.50114700  1.000  S
M03  0.98784700  1.000  P
M03  1.75834700  1.000  S
M13  0.97724700  1.000  P
M13  1.76084700  1.000  S
M10  0.99154700  1.000  P
M10  1.79884700  1.000  S
M05  1.31584700  1.000  P
M05  2.28754700  1.000  S
M07  1.32824700  1.000  P
M07  2.33734700  1.000  S
M01  1.33374700  1.000  P
M01  2.32784700  1.000  S
M12  1.49484700  1.000  P
M12  2.64924700  1.000  S
#  2023   9 28  8 36  33.712682  -1.641407162  101.134712869   2.25426  0  0  0  0.01378180  3243
M06  0.69471800  1.000  P
M06  1.19011800  1.000  S
M14  0.75841800  1.000  P
M14  1.27151800  1.000  S
M11  0.83221800  1.000  P
M11  1.46611800  1.000  S
M09  0.88081800  1.000  P
M09  1.55191800  1.000  S
M13  1.01271800  1.000  P
M13  1.73041800  1.000  S
M07  1.39301800  1.000  P
M07  2.39801800  1.000  S
#  2023   9 28  8 36  39.875258  -1.645029432  101.144208880   1.28835  0  0  0  0.03958900  3244
M06  0.60544200  1.000  P
M06  1.09544200  1.000  S
M04  0.58374200  1.000  P
M04  1.05884200  1.000  S
M14  0.70414200  1.000  P
M14  1.23374200  1.000  S
M02  0.75934200  1.000  P
M02  1.36794200  1.000  S
M11  0.75554200  1.000  P
M11  1.32034200  1.000  S
M09  0.86384200  1.000  P
M09  1.49984200  1.000  S
M13  0.98484200  1.000  P
M13  1.74514200  1.000  S
M05  1.26924200  1.000  P
M05  2.22904200  1.000  S
M07  1.33714200  1.000  P
M07  2.35884200  1.000  S
M12  1.59314200  1.000  P
M12  2.76954200  1.000  S
#  2023   9 28  8 37  37.715849  -1.646922333  101.135520891   2.50994  0  0  0  0.03815050  3245
M06  0.79015100  1.000  P
M06  1.35605100  1.000  S
M02  0.86535100  1.000  P
M02  1.49155100  1.000  S
M14  0.79855100  1.000  P
M14  1.35405100  1.000  S
M11  0.88965100  1.000  P
M11  1.51195100  1.000  S
M09  1.05645100  1.000  P
M09  1.80285100  1.000  S
M13  1.16145100  1.000  P
M13  1.96255100  1.000  S
M07  1.59145100  1.000  P
#  2023   9 28  8 37  40.766601  -1.640861828  101.141396906   1.91335  0  0  0  0.02186050  3246
M06  0.58079900  1.000  P
M06  1.03329900  1.000  S
M04  0.65719900  1.000  P
M04  1.13619900  1.000  S
M14  0.70609900  1.000  P
M14  1.20449900  1.000  S
M02  0.75429900  1.000  P
M02  1.34989900  1.000  S
M11  0.72259900  1.000  P
M11  1.28859900  1.000  S
M09  0.82529900  1.000  P
M09  1.41659900  1.000  S
M03  0.88739900  1.000  P
M03  1.56259900  1.000  S
M13  0.94449900  1.000  P
M13  1.65889900  1.000  S
M10  1.00469900  1.000  P
M10  1.73989900  1.000  S
M05  1.18719900  1.000  P
M05  2.06989900  1.000  S
M07  1.25169900  1.000  P
M07  2.19729900  1.000  S
M01  1.23639900  1.000  P
M01  2.13609900  1.000  S
M12  1.40619900  1.000  P
M12  2.45099900  1.000  S
