#  2023   9 11  2 12  34.790987  -1.708159953  101.174693195   8.96591  0  0  0  0.14586200  3089
M06  2.97081300  1.000  P
M06  4.94881300  1.000  S
M14  3.41691300  1.000  P
M14  5.71251300  1.000  S
M11  3.28261300  1.000  P
M11  5.40581300  1.000  S
M09  3.22631300  1.000  P
M09  5.34661300  1.000  S
M13  3.39331300  1.000  P
M13  5.71711300  1.000  S
M08  3.67041300  1.000  P
M08  6.14641300  1.000  S
M05  3.58401300  1.000  P
M05  5.92701300  1.000  S
M07  3.57051300  1.000  P
M07  5.93671300  1.000  S
M12  3.99851300  1.000  P
M12  6.68301300  1.000  S
#  2023   9 11  2 19  35.939195  -1.708498983  101.112391075   0.52841  0  0  0  0.07874940  3091
M06  2.30710500  1.000  P
M06  4.11200500  1.000  S
M14  2.69310500  1.000  P
M14  4.82300500  1.000  S
M03  2.73590500  1.000  P
M03  4.83130500  1.000  S
M11  2.73100500  1.000  P
M11  4.87730500  1.000  S
M09  2.74780500  1.000  P
M09  4.91030500  1.000  S
M13  2.86540500  1.000  P
M13  5.05810500  1.000  S
M05  2.91380500  1.000  P
M05  5.14930500  1.000  S
M07  3.07030500  1.000  P
M07  5.40460500  1.000  S
M12  3.39890500  1.000  P
M12  5.99390500  1.000  S
#  2023   9 11  2 35  19.249357  -1.708153854  101.180040921   8.73864  0  0  0  0.11326700  3092
M06  2.98934300  1.000  P
M06  4.93124300  1.000  S
M14  3.02174300  1.000  P
M14  4.97114300  1.000  S
M11  3.37634300  1.000  P
M11  5.58174300  1.000  S
M09  3.38034300  1.000  P
M09  5.60064300  1.000  S
M08  3.41324300  1.000  P
M08  5.67834300  1.000  S
M05  3.57994300  1.000  P
M05  5.97294300  1.000  S
M07  3.57264300  1.000  P
M07  5.96404300  1.000  S
M12  4.02884300  1.000  P
M12  6.75534300  1.000  S
#  2023   9 11  2 46  58.289493  -1.708390652  101.208116479   0.13068  0  0  0  0.07609180  3093
M06  3.01380700  1.000  P
M06  5.19040700  1.000  S
M11  3.32430700  1.000  P
M11  5.68440700  1.000  S
M09  3.40320700  1.000  P
M09  5.87680700  1.000  S
M08  3.55980700  1.000  P
M08  6.13620700  1.000  S
M13  3.49720700  1.000  P
M13  6.07670700  1.000  S
M07  3.75980700  1.000  P
M07  6.53220700  1.000  S
M05  3.73770700  1.000  P
M05  6.43670700  1.000  S
#  2023   9 13 15 18  58.211231  -1.639251837  101.137250737   1.97017  0  0  0  0.00999425  3094
M06  0.58566900  1.000  P
M06  1.02536900  1.000  S
M11  0.74636900  1.000  P
M11  1.27606900  1.000  S
M09  0.79206900  1.000  P
M09  1.40056900  1.000  S
M13  0.93396900  1.000  P
M13  1.58506900  1.000  S
M07  1.29986900  1.000  P
M07  2.26106900  1.000  S
#  2023   9 14 16  1   7.062317  -1.643013117  101.142602420   1.21733  0  0  0  0.02394820  3095
M06  0.57788300  1.000  P
M06  1.09008300  1.000  S
M14  0.63248300  1.000  P
M14  1.11668300  1.000  S
M11  0.69208300  1.000  P
M11  1.21128300  1.000  S
M09  0.80428300  1.000  P
M09  1.42348300  1.000  S
M13  0.97718300  1.000  P
M13  1.72388300  1.000  S
M05  1.25958300  1.000  P
M05  2.23898300  1.000  S
M07  1.26328300  1.000  P
M07  2.24018300  1.000  S
#  2023   9 14 16  1  16.519503  -1.640044937  101.150353361   1.64347  0  0  0  0.01527710  3096
M06  0.55569700  1.000  P
M06  1.10079700  1.000  S
M11  0.69959700  1.000  P
M11  1.24589700  1.000  S
M14  0.76089700  1.000  P
M14  1.30979700  1.000  S
M09  0.77299700  1.000  P
M09  1.47869700  1.000  S
M07  1.26459700  1.000  P
M07  2.28279700  1.000  S
#  2023   9 14 16  1  24.831252  -1.647198176  101.129237604   1.64347  0  0  0  0.02926170  3097
M06  0.70374800  1.000  P
M06  1.22044800  1.000  S
M14  0.76924800  1.000  P
M14  1.36874800  1.000  S
M11  0.87914800  1.000  P
M11  1.43664800  1.000  S
M09  0.99094800  1.000  P
M09  1.70254800  1.000  S
M13  1.00674800  1.000  P
M13  1.76514800  1.000  S
M05  1.42814800  1.000  P
M05  2.47634800  1.000  S
M07  1.43174800  1.000  P
M07  2.44354800  1.000  S
M12  1.49954800  1.000  P
M12  2.59904800  1.000  S
#  2023   9 14 16  3  59.181722  -1.639524931  101.133507637   2.92188  0  0  0  0.00384360  3098
M06  0.83667800  1.000  P
M06  1.41627800  1.000  S
M14  0.86417800  1.000  P
M14  1.47197800  1.000  S
M11  0.93707800  1.000  P
M11  1.60807800  1.000  S
M09  1.28667800  1.000  P
M09  2.18297800  1.000  S
#  2023   9 14 16  4   8.140922  -1.641133054  101.139391808   1.72869  0  0  0  0.03420740  3099
M06  0.53837800  1.000  P
M06  1.04917800  1.000  S
M04  0.60347800  1.000  P
M04  1.08847800  1.000  S
M14  0.68337800  1.000  P
M14  1.14047800  1.000  S
M02  0.58157800  1.000  P
M02  1.08397800  1.000  S
M11  0.69747800  1.000  P
M11  1.25537800  1.000  S
M09  0.81867800  1.000  P
M09  1.38037800  1.000  S
M13  0.95037800  1.000  P
M13  1.70637800  1.000  S
M05  1.27937800  1.000  P
M05  2.37827800  1.000  S
M01  1.07797800  1.000  P
M01  1.83307800  1.000  S
M07  1.21037800  1.000  P
M07  2.11147800  1.000  S
M12  1.34547800  1.000  P
M12  2.41977800  1.000  S
#  2023   9 14 16  7  36.655681  -1.644101649  101.131239713   2.55256  0  0  0  0.02400650  3100
M04  0.80481900  1.000  P
M04  1.37921900  1.000  S
M06  0.80481900  1.000  P
M06  1.39131900  1.000  S
M14  0.78541900  1.000  P
M14  1.34361900  1.000  S
M11  0.80411900  1.000  P
M11  1.38611900  1.000  S
M09  1.01161900  1.000  P
M09  1.72391900  1.000  S
M13  1.10161900  1.000  P
M13  1.86511900  1.000  S
#  2023   9 14 16  7  43.030211  -1.639923232  101.138454683   1.98438  0  0  0  0.02128190  3101
M06  0.58528900  1.000  P
M06  1.06738900  1.000  S
M04  0.69598900  1.000  P
M04  1.15348900  1.000  S
M14  0.67838900  1.000  P
M14  1.09488900  1.000  S
M11  0.75208900  1.000  P
M11  1.29048900  1.000  S
M09  0.86048900  1.000  P
M09  1.50708900  1.000  S
M13  0.95268900  1.000  P
M13  1.64808900  1.000  S
#  2023   9 14 16 10  57.361676  -1.637850862  101.126353302   1.02557  0  0  0  0.00675283  3102
M06  0.48012400  1.000  P
M06  0.99722400  1.000  S
M09  0.72792400  1.000  P
M09  1.29122400  1.000  S
M11  0.74232400  1.000  P
M11  1.28732400  1.000  S
M07  1.21082400  1.000  P
M07  2.22842400  1.000  S
#  2023   9 14 16 11  12.314833  -1.644025533  101.139461736   2.10511  0  0  0  0.00649107  3103
M06  0.65426700  1.000  P
M06  1.11666700  1.000  S
M11  0.83966700  1.000  P
M11  1.46656700  1.000  S
M09  1.10526700  1.000  P
M09  1.91536700  1.000  S
M07  1.32786700  1.000  P
M07  2.28476700  1.000  S
#  2023   9 14 16 11  17.975984  -1.643891428  101.139060515   2.57386  0  0  0  0.00352773  3104
M06  0.75311600  1.000  P
M06  1.29301600  1.000  S
M11  0.92151600  1.000  P
M11  1.56691600  1.000  S
M09  0.99121600  1.000  P
M09  1.69491600  1.000  S
M07  1.59411600  1.000  P
M07  2.72391600  1.000  S
#  2023   9 14 16 23  25.431857  -1.641907042  101.139024983   1.90270  0  0  0  0.01807910  3105
M06  0.58254300  1.000  P
M06  1.01414300  1.000  S
M04  0.68114300  1.000  P
M04  1.17034300  1.000  S
M14  0.69834300  1.000  P
M14  1.19944300  1.000  S
M02  0.72094300  1.000  P
M02  1.26534300  1.000  S
M11  0.76714300  1.000  P
M11  1.36444300  1.000  S
M09  0.84934300  1.000  P
M09  1.46984300  1.000  S
M03  0.90354300  1.000  P
M03  1.56304300  1.000  S
M13  0.96744300  1.000  P
M13  1.67224300  1.000  S
M10  1.00284300  1.000  P
M10  1.74364300  1.000  S
M05  1.21134300  1.000  P
M05  2.12894300  1.000  S
M01  1.21714300  1.000  P
M01  2.13884300  1.000  S
M07  1.28984300  1.000  P
M07  2.26784300  1.000  S
M12  1.38384300  1.000  P
M12  2.44744300  1.000  S
#  2023   9 14 16 23  33.898537  -1.644833623  101.138660440   2.16193  0  0  0  0.03629990  3106
M06  0.66126300  1.000  P
M06  1.17746300  1.000  S
M04  0.76786300  1.000  P
M04  1.29286300  1.000  S
M02  0.87596300  1.000  P
M02  1.48496300  1.000  S
M14  0.82396300  1.000  P
M14  1.27556300  1.000  S
M11  0.87136300  1.000  P
M11  1.55076300  1.000  S
M09  0.96756300  1.000  P
M09  1.61616300  1.000  S
M03  0.96026300  1.000  P
M03  1.69656300  1.000  S
M13  1.08436300  1.000  P
M13  1.81486300  1.000  S
M10  1.06696300  1.000  P
M10  1.94086300  1.000  S
M01  1.22766300  1.000  P
M01  2.05886300  1.000  S
M07  1.45176300  1.000  P
M07  2.46996300  1.000  S
M12  1.52936300  1.000  P
M12  2.68736300  1.000  S
#  2023   9 14 16 23  52.762674  -1.645436078  101.141401780   1.71449  0  0  0  0.02552850  3107
M06  0.66422600  1.000  P
M06  1.18562600  1.000  S
M04  0.71052600  1.000  P
M04  1.21092600  1.000  S
M14  0.72102600  1.000  P
M14  1.30452600  1.000  S
M02  0.77242600  1.000  P
M02  1.37302600  1.000  S
M11  0.81762600  1.000  P
M11  1.43522600  1.000  S
M09  0.91062600  1.000  P
M09  1.59372600  1.000  S
M13  0.81942600  1.000  P
M13  1.46172600  1.000  S
M07  1.34332600  1.000  P
M07  2.37312600  1.000  S
M12  1.71482600  1.000  P
M12  2.97112600  1.000  S
#  2023   9 14 16 23  59.078159  -1.643427243  101.132843318   2.38210  0  0  0  0.02816760  3108
M04  0.76584100  1.000  P
M04  1.33704100  1.000  S
M06  0.74314100  1.000  P
M06  1.29084100  1.000  S
M02  0.75944100  1.000  P
M02  1.33744100  1.000  S
M14  0.84544100  1.000  P
M14  1.32124100  1.000  S
M11  0.95344100  1.000  P
M11  1.58324100  1.000  S
M09  0.96244100  1.000  P
M09  1.59734100  1.000  S
M13  1.06574100  1.000  P
M13  1.82434100  1.000  S
M07  1.46154100  1.000  P
M07  2.52554100  1.000  S
M12  1.69594100  1.000  P
M12  2.92554100  1.000  S
#  2023   9 14 16 24   4.688811  -1.647459618  101.136323614   2.43892  0  0  0  0.02239130  3109
M06  0.79038900  1.000  P
M06  1.33508900  1.000  S
M04  0.82998900  1.000  P
M04  1.43648900  1.000  S
M14  0.87658900  1.000  P
M14  1.40198900  1.000  S
M11  0.93468900  1.000  P
M11  1.49698900  1.000  S
M09  1.05138900  1.000  P
M09  1.79218900  1.000  S
M13  1.16548900  1.000  P
M13  1.97878900  1.000  S
M07  1.46938900  1.000  P
M07  2.49608900  1.000  S
#  2023   9 14 16 24  13.521952  -1.640495913  101.137619714   1.65412  0  0  0  0.02622280  3110
M06  0.52134800  1.000  P
M06  0.93734800  1.000  S
M04  0.58504800  1.000  P
M04  1.01454800  1.000  S
M14  0.63584800  1.000  P
M14  1.15104800  1.000  S
M02  0.65094800  1.000  P
M02  1.12094800  1.000  S
M11  0.68664800  1.000  P
M11  1.25214800  1.000  S
M09  0.76904800  1.000  P
M09  1.35304800  1.000  S
M03  0.79254800  1.000  P
M03  1.41044800  1.000  S
M13  0.89114800  1.000  P
M13  1.53074800  1.000  S
M10  1.00154800  1.000  P
M10  1.72034800  1.000  S
M05  1.21984800  1.000  P
M05  2.12274800  1.000  S
M01  1.21864800  1.000  P
M01  2.11644800  1.000  S
M07  1.19234800  1.000  P
M07  2.10684800  1.000  S
M12  1.36984800  1.000  P
M12  2.42094800  1.000  S
#  2023   9 14 16 24  25.413854  -1.639215942  101.139356350   1.63281  0  0  0  0.02790380  3111
M06  0.50224600  1.000  P
M06  1.01954600  1.000  S
M04  0.60974600  1.000  P
M04  1.02714600  1.000  S
M14  0.60324600  1.000  P
M14  1.04394600  1.000  S
M02  0.65204600  1.000  P
M02  1.14314600  1.000  S
M11  0.65894600  1.000  P
M11  1.17094600  1.000  S
M09  0.73874600  1.000  P
M09  1.37664600  1.000  S
M13  0.87694600  1.000  P
M13  1.59284600  1.000  S
M10  1.00964600  1.000  P
M10  1.78444600  1.000  S
M05  1.19734600  1.000  P
M05  2.14704600  1.000  S
M07  1.14724600  1.000  P
M07  2.08944600  1.000  S
M12  1.35064600  1.000  P
M12  2.36084600  1.000  S
#  2023   9 14 16 24  54.752989  -1.644025821  101.139194351   1.93466  0  0  0  0.02000250  3112
M06  0.61121100  1.000  P
M06  1.04951100  1.000  S
M14  0.76921100  1.000  P
M14  1.30871100  1.000  S
M11  0.85071100  1.000  P
M11  1.46671100  1.000  S
M09  0.89711100  1.000  P
M09  1.52971100  1.000  S
M07  1.30561100  1.000  P
M07  2.26721100  1.000  S
#  2023   9 14 16 24  59.378260  -1.645036074  101.138059042   1.89915  0  0  0  0.05102800  3113
M06  0.69694000  1.000  P
M06  1.22764000  1.000  S
M04  0.70144000  1.000  P
M04  1.20564000  1.000  S
M02  0.74804000  1.000  P
M02  1.33204000  1.000  S
M14  0.75414000  1.000  P
M14  1.32724000  1.000  S
M11  0.86484000  1.000  P
M11  1.45764000  1.000  S
M09  0.90104000  1.000  P
M09  1.53884000  1.000  S
M13  1.06084000  1.000  P
M13  1.81844000  1.000  S
M10  1.20034000  1.000  P
M10  2.06234000  1.000  S
M05  1.38984000  1.000  P
M05  2.38234000  1.000  S
M07  1.42354000  1.000  P
M07  2.47394000  1.000  S
M12  1.49224000  1.000  P
M12  2.60794000  1.000  S
#  2023   9 14 16 25   6.482287  -1.642349933  101.133778018   1.37358  0  0  0  0.02823970  3114
M04  0.51881300  1.000  P
M04  0.89761300  1.000  S
M06  0.52201300  1.000  P
M06  0.90701300  1.000  S
M02  0.67741300  1.000  P
M02  1.25901300  1.000  S
M14  0.64351300  1.000  P
M14  1.07251300  1.000  S
M11  0.68321300  1.000  P
M11  1.22881300  1.000  S
M09  0.76691300  1.000  P
M09  1.41291300  1.000  S
M10  0.90071300  1.000  P
M10  1.56041300  1.000  S
M13  0.91971300  1.000  P
M13  1.67451300  1.000  S
M05  1.11011300  1.000  P
M05  1.93721300  1.000  S
M07  1.21171300  1.000  P
M07  2.15091300  1.000  S
M12  1.46201300  1.000  P
M12  2.54401300  1.000  S
#  2023   9 14 16 25  25.752631  -1.641395208  101.145809299   1.18892  0  0  0  0.01781530  3115
M06  0.56896900  1.000  P
M06  1.01296900  1.000  S
M14  0.63406900  1.000  P
M14  1.11746900  1.000  S
M11  0.64976900  1.000  P
M11  1.15596900  1.000  S
M09  0.77486900  1.000  P
M09  1.35026900  1.000  S
M13  0.84666900  1.000  P
M13  1.50996900  1.000  S
M05  1.23056900  1.000  P
M05  2.16826900  1.000  S
M07  1.23706900  1.000  P
M07  2.18686900  1.000  S
M12  1.43316900  1.000  P
M12  2.49286900  1.000  S
#  2023   9 14 16 25  28.452398  -1.641398527  101.142734392   1.87074  0  0  0  0.01383870  3116
M06  0.56440200  1.000  P
M06  1.00260200  1.000  S
M14  0.71090200  1.000  P
M14  1.23080200  1.000  S
M11  0.73440200  1.000  P
M11  1.29200200  1.000  S
M09  0.85210200  1.000  P
M09  1.47440200  1.000  S
M07  1.29150200  1.000  P
M07  2.25670200  1.000  S
#  2023   9 14 16 25  34.354244  -1.633347743  101.122672006   1.61506  0  0  0  0.00638011  3117
M14  0.62935600  1.000  P
M14  1.08335600  1.000  S
M06  0.73975600  1.000  P
M06  1.29835600  1.000  S
M09  1.02565600  1.000  P
M09  1.77685600  1.000  S
M11  0.80885600  1.000  P
M11  1.43995600  1.000  S
#  2023   9 14 16 25  48.118899  -1.640226622  101.137819963   1.77486  0  0  0  0.00893234  3119
M06  0.54140100  1.000  P
M06  0.95090100  1.000  S
M14  0.65160100  1.000  P
M14  1.11430100  1.000  S
M11  0.72250100  1.000  P
M11  1.27340100  1.000  S
M09  0.78890100  1.000  P
M09  1.38060100  1.000  S
M07  1.32360100  1.000  P
M07  2.30510100  1.000  S
#  2023   9 14 16 25  56.819179  -1.637403277  101.136012123   1.59730  0  0  0  0.00820830  3120
M06  0.50222100  1.000  P
M06  0.88242100  1.000  S
M14  0.54712100  1.000  P
M14  0.96652100  1.000  S
M11  0.64842100  1.000  P
M11  1.11952100  1.000  S
M09  0.71472100  1.000  P
M09  1.25642100  1.000  S
#  2023   9 14 16 26   2.757131  -1.637800068  101.142362908   1.71094  0  0  0  0.02558440  3121
M06  0.52596900  1.000  P
M06  0.96046900  1.000  S
M04  0.64526900  1.000  P
M04  1.11666900  1.000  S
M14  0.62016900  1.000  P
M14  1.09346900  1.000  S
M11  0.64046900  1.000  P
M11  1.10416900  1.000  S
M02  0.68696900  1.000  P
M02  1.25076900  1.000  S
M09  0.72126900  1.000  P
M09  1.30576900  1.000  S
M03  0.73636900  1.000  P
M03  1.30926900  1.000  S
M13  0.78816900  1.000  P
M13  1.42986900  1.000  S
M10  0.97646900  1.000  P
M10  1.70236900  1.000  S
M05  1.09566900  1.000  P
M05  1.92026900  1.000  S
M07  1.15386900  1.000  P
M07  2.04636900  1.000  S
M01  1.16856900  1.000  P
M01  2.04366900  1.000  S
M12  1.31806900  1.000  P
M12  2.31676900  1.000  S
#  2023   9 14 16 26  23.649284  -1.638846213  101.139121993   1.89915  0  0  0  0.02688130  3122
M06  0.56141600  1.000  P
M06  1.01051600  1.000  S
M04  0.68201600  1.000  P
M04  1.11931600  1.000  S
M14  0.64931600  1.000  P
M14  1.12541600  1.000  S
M02  0.67281600  1.000  P
M02  1.21181600  1.000  S
M11  0.68201600  1.000  P
M11  1.23781600  1.000  S
M09  0.77241600  1.000  P
M09  1.34741600  1.000  S
M03  0.84511600  1.000  P
M03  1.48851600  1.000  S
M13  0.89871600  1.000  P
M13  1.54001600  1.000  S
M10  0.97881600  1.000  P
M10  1.73711600  1.000  S
M05  1.12661600  1.000  P
M05  1.97611600  1.000  S
M01  1.14071600  1.000  P
M01  1.97831600  1.000  S
M07  1.18821600  1.000  P
M07  2.04491600  1.000  S
M12  1.35291600  1.000  P
M12  2.36561600  1.000  S
#  2023   9 14 16 26  34.959325  -1.639176444  101.144804249   2.81534  0  0  0  0.03285230  3123
M06  0.77457500  1.000  P
M06  1.33407500  1.000  S
M14  0.93887500  1.000  P
M14  1.49057500  1.000  S
M11  0.87787500  1.000  P
M11  1.49217500  1.000  S
M09  0.94987500  1.000  P
M09  1.63207500  1.000  S
M13  1.08877500  1.000  P
M13  1.85347500  1.000  S
M07  1.43557500  1.000  P
M07  2.44697500  1.000  S
M12  1.71417500  1.000  P
M12  2.97207500  1.000  S
#  2023   9 14 16 26  48.501240  -1.645166859  101.141535176   1.57244  0  0  0  0.01672020  3124
M06  0.70426000  1.000  P
M06  1.21666000  1.000  S
M14  0.73846000  1.000  P
M14  1.24386000  1.000  S
M11  0.76796000  1.000  P
M11  1.37936000  1.000  S
M09  0.90376000  1.000  P
M09  1.57456000  1.000  S
M13  1.05236000  1.000  P
M13  1.85566000  1.000  S
M05  1.24016000  1.000  P
M05  2.19246000  1.000  S
M07  1.27166000  1.000  P
M07  2.16056000  1.000  S
M12  1.49906000  1.000  P
M12  2.61746000  1.000  S
#  2023   9 14 16 27  14.245647  -1.641265287  101.141531019   1.89915  0  0  0  0.01786100  3126
M06  0.57065300  1.000  P
M06  0.99455300  1.000  S
M14  0.70575300  1.000  P
M14  1.20775300  1.000  S
M11  0.73295300  1.000  P
M11  1.29445300  1.000  S
M09  0.84655300  1.000  P
M09  1.49505300  1.000  S
M13  0.89875300  1.000  P
M13  1.57425300  1.000  S
M07  1.33295300  1.000  P
M07  2.32875300  1.000  S
#  2023   9 14 16 27  17.692638  -1.637196236  101.140891663   1.56179  0  0  0  0.02631340  3127
M06  0.45526200  1.000  P
M06  0.87236200  1.000  S
M04  0.59076200  1.000  P
M04  1.00896200  1.000  S
M14  0.57436200  1.000  P
M14  0.99866200  1.000  S
M11  0.60916200  1.000  P
M11  1.04136200  1.000  S
M02  0.64356200  1.000  P
M02  1.14706200  1.000  S
M09  0.70766200  1.000  P
M09  1.28596200  1.000  S
M03  0.82216200  1.000  P
M03  1.49726200  1.000  S
M13  0.83856200  1.000  P
M13  1.47496200  1.000  S
M10  0.92306200  1.000  P
M10  1.64166200  1.000  S
M05  1.13076200  1.000  P
M05  1.95786200  1.000  S
M07  1.12406200  1.000  P
M07  1.98766200  1.000  S
M01  1.09096200  1.000  P
M01  1.95876200  1.000  S
M12  1.26276200  1.000  P
M12  2.21856200  1.000  S
#  2023   9 14 16 27  22.957502  -1.635210417  101.142193046   1.74290  0  0  0  0.01432940  3128
M06  0.47809800  1.000  P
M06  0.88349800  1.000  S
M14  0.59529800  1.000  P
M14  1.02019800  1.000  S
M11  0.59229800  1.000  P
M11  1.04899800  1.000  S
M09  0.69699800  1.000  P
M09  1.15479800  1.000  S
M07  1.29889800  1.000  P
M07  2.25559800  1.000  S
#  2023   9 14 16 27  30.119411  -1.638847793  101.137651386   1.88494  0  0  0  0.01796900  3129
M06  0.56488900  1.000  P
M06  0.97988900  1.000  S
M14  0.69668900  1.000  P
M14  1.10548900  1.000  S
M11  0.71028900  1.000  P
M11  1.09348900  1.000  S
M09  0.75388900  1.000  P
M09  1.38498900  1.000  S
M07  1.18758900  1.000  P
M07  2.02008900  1.000  S
