NLLOC "./loc/SEML.20230928.083738.grid0" "LOCATED" "Location completed."
PUBLIC_ID None
SIGNATURE "Arham Zakki Edelo - edelo.17034@mhs.its.ac.id   obs:./obs/2023_09.obs   NLLoc:v7.00.10(30Aug2020)   run:28Dec2023 20h13m03"
COMMENT "SEML"
GRID  2001 2001 1001  727 9811 -2  0.01 0.01 0.01 PROB_DENSITY
SEARCH OCTREE nInitial 4851 nEvaluated 20011 smallestNodeSide 0.014881/0.014881/0.014205 oct_tree_integral 3.426128e-02 scatter_volume 3.426128e-02
HYPOCENTER  x 737.588 y 9817.84 z 1.25994  OT 37.7158  ix -1 iy -1 iz -1 MAXIMUM_LIKELIHOOD
GEOGRAPHIC  OT 2023 09 28  08 37 37.715849  Lat 9817.837798 Long 737.587798 Depth 1.259943
QUALITY  Pmax 1.27566e+37 MFmin 46.2616 MFmax 59.4051 RMS 0.0381505 Nphs 13 Gap 298.267 Dist 1.46899 Mamp -9.90 0 Mdur -9.90 0
VPVSRATIO  VpVsRatio 1.7063  Npair 6  Diff 0.24564
STATISTICS  ExpectX 738.319483 Y 9817.599823 Z -0.272008  CovXX 0.378369 XY -0.118337 XZ -0.789545 YY 0.0512016 YZ 0.254277 ZZ 1.81641 EllAz1  19.4724 Dip1  0.745384 Len1  0.21314 Az2  289.819 Dip2  -24.9095 Len2  0.332281 Len3  2.787915e+00
STAT_GEOG  ExpectLat 9817.599823 Long 738.319483 Depth -0.272008
TRANSFORM  NONE
QML_OriginQuality  assocPhCt 13  usedPhCt 13  assocStaCt -1  usedStaCt 7  depthPhCt -1  stdErr 0.0381505  azGap 298.267  secAzGap 298.267  gtLevel -  minDist 1.46899 maxDist 4.96731 medDist 2.79413
QML_OriginUncertainty  horUnc -1  minHorUnc 0.172158  maxHorUnc 0.978966  azMaxHorUnc 107.941
QML_ConfidenceEllipsoid  semiMajorAxisLength 2.78791  semiMinorAxisLength 0.21314  semiIntermediateAxisLength 0.332281  majorAxisPlunge -65.0778  majorAxisAzimuth 107.868  majorAxisRotation 182.742
FOCALMECH  Hyp  9817.837798 737.587798 1.259943 Mech  0 0 0 mf  0 nObs -1
PHASE ID Ins Cmp On Pha  FM Date     HrMn   Sec     Err  ErrMag    Coda      Amp       Per       PriorWt  >   TTpred    Res       Weight    StaLoc(X  Y         Z)        SDist    SAzim  RAz  RDip RQual    Tcorr       TTerr
M06          ?    BHZ  i P      c 20230928 0837   38.5060 GAU  8.11e-04 -1.00e+00 -1.00e+00 -1.00e+00    1.0000 >    0.7919   -0.0018    1.7296  738.3100 9819.1170   -1.3960    1.4690  29.45  29.4 147.7 10     0.0000    0.0158
M06          ?    BHN  e S      ? 20230928 0837   39.0719 GAU  3.47e-04 -1.00e+00 -1.00e+00 -1.00e+00    1.0000 >    1.3523    0.0037    1.4526  738.3100 9819.1170   -1.3960    1.4690  29.45  29.4 146.4 10     0.0000    0.0270
M02          ?    BHZ  e P      c 20230928 0837   38.5812 GAU  4.99e-04 -1.00e+00 -1.00e+00 -1.00e+00    1.0000 >    0.8682   -0.0028    1.6899  736.5970 9819.4060   -1.4960    1.8550 327.72 327.7 141.9 10     0.0000    0.0174
M02          ?    BHN  e S      ? 20230928 0837   39.2074 GAU  8.98e-04 -1.00e+00 -1.00e+00 -1.00e+00    1.0000 >    1.4827    0.0088    1.3610  736.5970 9819.4060   -1.4960    1.8550 327.72 327.7 140.3 10     0.0000    0.0297
M14          ?    BHZ  e P      c 20230928 0837   38.5144 GAU  5.39e-04 -1.00e+00 -1.00e+00 -1.00e+00    1.0000 >    0.8953   -0.0967    0.3794  737.5530 9820.0110   -1.3980    2.1735 359.08 359.1 135.8 10     0.0000    0.0179
M14          ?    BHE  e S      ? 20230928 0837   39.0699 GAU  4.37e-04 -1.00e+00  3.88e+02 -1.00e+00    1.0000 >    1.5280   -0.1739    0.2176  737.5530 9820.0110   -1.3980    2.1735 359.08 359.1 133.8 10     0.0000    0.0306
M11          ?    BHZ  e P      c 20230928 0837   38.6055 GAU  1.94e-03 -1.00e+00 -1.00e+00 -1.00e+00    1.0000 >    0.9878   -0.0982    0.3892  738.4670 9820.4900   -1.3120    2.7941  18.34  18.3 125.9 10     0.0000    0.0198
M11          ?    BHE  e S      ? 20230928 0837   39.2278 GAU  5.20e-04 -1.00e+00 -1.00e+00 -1.00e+00    1.0000 >    1.6839   -0.1720    0.2361  738.4670 9820.4900   -1.3120    2.7941  18.34  18.3 123.5 10     0.0000    0.0337
M09          ?    BHZ  i P      c 20230928 0837   38.7723 GAU  3.56e-04 -1.00e+00  4.17e+01 -1.00e+00    1.0000 >    1.0519    0.0045    1.6011  737.8820 9820.9850   -1.2700    3.1609   5.34   5.3 120.9 10     0.0000    0.0210
M09          ?    BHE  e S      ? 20230928 0837   39.5187 GAU  1.90e-04 -1.00e+00  3.98e+02 -1.00e+00    1.0000 >    1.7915    0.0114    1.2180  737.8820 9820.9850   -1.2700    3.1609   5.34   5.3 118.1 10     0.0000    0.0358
M13          ?    BHZ  e P      c 20230928 0837   38.8773 GAU  1.37e-03 -1.00e+00 -1.00e+00 -1.00e+00    1.0000 >    1.1612    0.0003    1.5545  737.1780 9821.5410   -1.2220    3.7258 353.69 353.7 114.3 10     0.0000    0.0232
M13          ?    BHN  e S      ? 20230928 0837   39.6784 GAU  1.88e-04 -1.00e+00  3.78e+01 -1.00e+00    1.0000 >    1.9746   -0.0120    1.1704  737.1780 9821.5410   -1.2220    3.7258 353.69 353.7 111.1 10     0.0000    0.0395
M07          ?    BHZ  e P      c 20230928 0837   39.3073 GAU  9.71e-04 -1.00e+00 -1.00e+00 -1.00e+00    1.0000 >    1.4207    0.1707    0.0006  737.4430 9822.8030   -1.1120    4.9673 358.33 358.3 103.0 10     0.0000    0.0284
END_PHASE
END_NLLOC

