NLLOC "./loc/SEML.20230928.084016.grid0" "LOCATED" "Location completed."
PUBLIC_ID None
SIGNATURE "Arham Zakki Edelo - edelo.17034@mhs.its.ac.id   obs:./obs/2023_09.obs   NLLoc:v7.00.10(30Aug2020)   run:28Dec2023 20h13m07"
COMMENT "SEML"
GRID  2001 2001 1001  727 9811 -2  0.01 0.01 0.01 PROB_DENSITY
SEARCH OCTREE nInitial 4851 nEvaluated 20011 smallestNodeSide 0.007440/0.007440/0.007102 oct_tree_integral 9.898524e-03 scatter_volume 9.898524e-03
HYPOCENTER  x 738.358 y 9818.38 z 0.482244  OT 15.9411  ix -1 iy -1 iz -1 MAXIMUM_LIKELIHOOD
GEOGRAPHIC  OT 2023 09 28  08 40 15.941136  Lat 9818.377232 Long 738.357887 Depth 0.482244
QUALITY  Pmax 1.70739e+94 MFmin 95.7559 MFmax 113.105 RMS 0.0248731 Nphs 26 Gap 297.338 Dist 0.741316 Mamp -9.90 0 Mdur -9.90 0
VPVSRATIO  VpVsRatio 1.75421  Npair 13  Diff 0.571013
STATISTICS  ExpectX 738.340062 Y 9818.377367 Z 0.528721  CovXX 0.0133415 XY -0.00381321 XZ -0.005862 YY 0.00811665 YZ -9.33288e-05 ZZ 0.01262 EllAz1  41.6638 Dip1  26.4911 Len1  0.128274 Az2  336.2 Dip2  -39.8021 Len2  0.186785 Len3  2.625887e-01
STAT_GEOG  ExpectLat 9818.377367 Long 738.340062 Depth 0.528721
TRANSFORM  NONE
QML_OriginQuality  assocPhCt 26  usedPhCt 26  assocStaCt -1  usedStaCt 13  depthPhCt -1  stdErr 0.0248731  azGap 297.338  secAzGap 297.338  gtLevel -  minDist 0.741316 maxDist 5.2245 medDist 2.88419
QML_OriginUncertainty  horUnc -1  minHorUnc 0.118514  maxHorUnc 0.187904  azMaxHorUnc 117.793
QML_ConfidenceEllipsoid  semiMajorAxisLength 0.262589  semiMinorAxisLength 0.128274  semiIntermediateAxisLength 0.186785  majorAxisPlunge -38.7192  majorAxisAzimuth 108.113  majorAxisRotation 107.334
FOCALMECH  Hyp  9818.377232 738.357887 0.482244 Mech  0 0 0 mf  0 nObs -1
PHASE ID Ins Cmp On Pha  FM Date     HrMn   Sec     Err  ErrMag    Coda      Amp       Per       PriorWt  >   TTpred    Res       Weight    StaLoc(X  Y         Z)        SDist    SAzim  RAz  RDip RQual    Tcorr       TTerr
M06          ?    BHZ  i P      c 20230928 0840   16.5574 GAU  6.21e-04 -1.00e+00  1.16e+03 -1.00e+00    1.0000 >    0.5370    0.0792    0.2808  738.3100 9819.1170   -1.3960    0.7413 356.30 356.3 157.9 10     0.0000    0.0107
M06          ?    BHN  e S      ? 20230928 0840   17.0562 GAU  2.32e-03 -1.00e+00 -1.00e+00 -1.00e+00    1.0000 >    0.9364    0.1787    0.0064  738.3100 9819.1170   -1.3960    0.7413 356.30 356.3 157.5 10     0.0000    0.0187
M04          ?    BHZ  i P      d 20230928 0840   16.6137 GAU  5.75e-03 -1.00e+00  5.31e+02 -1.00e+00    1.0000 >    0.6777   -0.0051    1.5740  737.1400 9819.2520   -1.5710    1.4995 305.69 305.7 142.7 10     0.0000    0.0136
M04          ?    BHE  e S      ? 20230928 0840   17.1423 GAU  1.91e-03 -1.00e+00  8.49e+01 -1.00e+00    1.0000 >    1.1806    0.0206    1.2709  737.1400 9819.2520   -1.5710    1.4995 305.69 305.7 142.1 10     0.0000    0.0236
M14          ?    BHZ  i P      c 20230928 0840   16.6584 GAU  1.79e-03 -1.00e+00  9.86e-01 -1.00e+00    1.0000 >    0.6955    0.0217    1.2866  737.5530 9820.0110   -1.3980    1.8213 333.77 333.8 134.4 10     0.0000    0.0139
M14          ?    BHE  e S      ? 20230928 0840   17.1639 GAU  1.35e-03 -1.00e+00  1.47e+03 -1.00e+00    1.0000 >    1.2128    0.0100    1.3887  737.5530 9820.0110   -1.3980    1.8213 333.77 333.8 133.6 10     0.0000    0.0243
M02          ?    BHZ  i P      c 20230928 0840   16.7008 GAU  4.19e-03 -1.00e+00 -1.00e+00 -1.00e+00    1.0000 >    0.7561    0.0036    1.5892  736.5970 9819.4060   -1.4960    2.0394 300.29 300.3 132.4 10     0.0000    0.0151
M02          ?    BHN  e S      ? 20230928 0840   17.2433 GAU  8.24e-04 -1.00e+00 -1.00e+00 -1.00e+00    1.0000 >    1.3178   -0.0156    1.2491  736.5970 9819.4060   -1.4960    2.0394 300.29 300.3 131.6 10     0.0000    0.0264
M11          ?    BHZ  i P      c 20230928 0840   16.6794 GAU  7.77e-04 -1.00e+00  9.60e+02 -1.00e+00    1.0000 >    0.7358    0.0025    1.6092  738.4670 9820.4900   -1.3120    2.1156   2.96   3.0 128.5 10     0.0000    0.0147
M11          ?    BHN  e S      ? 20230928 0840   17.2221 GAU  9.70e-04 -1.00e+00  4.07e+02 -1.00e+00    1.0000 >    1.2838   -0.0028    1.3808  738.4670 9820.4900   -1.3120    2.1156   2.96   3.0 127.4 10     0.0000    0.0257
M09          ?    BHZ  i P      c 20230928 0840   16.7701 GAU  1.88e-03 -1.00e+00  4.66e+02 -1.00e+00    1.0000 >    0.8422   -0.0132    1.4094  737.8820 9820.9850   -1.2700    2.6508 349.66 349.7 121.3 10     0.0000    0.0168
M09          ?    BHN  e S      ? 20230928 0840   17.4184 GAU  1.23e-03 -1.00e+00 -1.00e+00 -1.00e+00    1.0000 >    1.4697    0.0075    1.3110  737.8820 9820.9850   -1.2700    2.6508 349.66 349.7 119.9 10     0.0000    0.0294
M03          ?    BHZ  i P      d 20230928 0840   16.8289 GAU  2.95e-03 -1.00e+00  4.83e+03 -1.00e+00    1.0000 >    0.9045   -0.0167    1.3190  736.8800 9820.8540   -1.3350    2.8842 329.18 329.2 119.9 10     0.0000    0.0181
M03          ?    BHN  e S      ? 20230928 0840   17.5194 GAU  7.19e-04 -1.00e+00  2.69e+02 -1.00e+00    1.0000 >    1.5779    0.0003    1.2801  736.8800 9820.8540   -1.3350    2.8842 329.18 329.2 118.4 10     0.0000    0.0316
M13          ?    BHZ  i P      c 20230928 0840   16.8822 GAU  3.09e-03 -1.00e+00 -1.00e+00 -1.00e+00    1.0000 >    1.0011   -0.0600    0.3916  737.1780 9821.5410   -1.2220    3.3766 339.55 339.5 114.3 10     0.0000    0.0200
M13          ?    BHN  e S      ? 20230928 0840   17.6131 GAU  3.66e-03 -1.00e+00 -1.00e+00 -1.00e+00    1.0000 >    1.7475   -0.0756    0.3892  737.1780 9821.5410   -1.2220    3.3766 339.55 339.5 112.4 10     0.0000    0.0350
M10          ?    BHZ  i P      c 20230928 0840   17.0237 GAU  1.93e-03 -1.00e+00  2.63e+03 -1.00e+00    1.0000 >    1.0282    0.0543    0.6254  736.5490 9821.3650   -1.2200    3.4927 328.81 328.8 113.4 10     0.0000    0.0206
M10          ?    BHN  e S      ? 20230928 0840   17.8144 GAU  1.09e-03 -1.00e+00 -1.00e+00 -1.00e+00    1.0000 >    1.7949    0.0783    0.4562  736.5490 9821.3650   -1.2200    3.4927 328.81 328.8 111.2  9     0.0000    0.0359
M05          ?    BHZ  i P      d 20230928 0840   17.1454 GAU  1.93e-03 -1.00e+00  3.33e+02 -1.00e+00    1.0000 >    1.2035    0.0007    1.4219  736.2660 9822.0830   -1.1500    4.2554 330.56 330.6 108.3 10     0.0000    0.0241
M05          ?    BHE  e S      ? 20230928 0840   18.0288 GAU  5.02e-04 -1.00e+00 -1.00e+00 -1.00e+00    1.0000 >    2.0968   -0.0091    1.0922  736.2660 9822.0830   -1.1500    4.2554 330.56 330.6  67.3 10     0.0000    0.0419
M07          ?    BHZ  i P      d 20230928 0840   17.1995 GAU  2.32e-03 -1.00e+00 -1.00e+00 -1.00e+00    1.0000 >    1.2640   -0.0057    1.3705  737.4430 9822.8030   -1.1120    4.5193 348.32 348.3 106.8 10     0.0000    0.0253
M07          ?    BHE  e S      ? 20230928 0840   18.1659 GAU  2.52e-03 -1.00e+00 -1.00e+00 -1.00e+00    1.0000 >    2.1960    0.0287    0.9937  737.4430 9822.8030   -1.1120    4.5193 348.32 348.3  67.2 10     0.0000    0.0439
M01          ?    BHZ  i P      c 20230928 0840   17.1128 GAU  1.40e-03 -1.00e+00 -1.00e+00 -1.00e+00    1.0000 >    1.2782   -0.1066    0.1286  736.4090 9822.5140   -1.1200    4.5729 334.77 334.8 106.6 10     0.0000    0.0256
M01          ?    BHN  e S      ? 20230928 0840   17.9693 GAU  2.99e-03 -1.00e+00  1.63e+03 -1.00e+00    1.0000 >    2.2198   -0.1917    0.0245  736.4090 9822.5140   -1.1200    4.5729 334.77 334.8  67.2 10     0.0000    0.0444
M12          ?    BHZ  i P      d 20230928 0840   17.3736 GAU  1.16e-03 -1.00e+00 -1.00e+00 -1.00e+00    1.0000 >    1.4263    0.0062    1.3309  736.8520 9823.3800   -0.9890    5.2245 343.25 343.2 103.3 10     0.0000    0.0285
M12          ?    BHE  e S      ? 20230928 0840   18.4435 GAU  3.18e-03 -1.00e+00  6.45e+02 -1.00e+00    1.0000 >    2.4562    0.0462    0.8201  736.8520 9823.3800   -0.9890    5.2245 343.25 343.2  67.2 10     0.0000    0.0491
END_PHASE
END_NLLOC

