NLLOC "./loc/SEML.20230928.084155.grid0" "LOCATED" "Location completed."
PUBLIC_ID None
SIGNATURE "Arham Zakki Edelo - edelo.17034@mhs.its.ac.id   obs:./obs/2023_09.obs   NLLoc:v7.00.10(30Aug2020)   run:28Dec2023 20h13m10"
COMMENT "SEML"
GRID  2001 2001 1001  727 9811 -2  0.01 0.01 0.01 PROB_DENSITY
SEARCH OCTREE nInitial 4851 nEvaluated 20003 smallestNodeSide 0.014881/0.014881/0.014205 oct_tree_integral 1.468661e-02 scatter_volume 1.468661e-02
HYPOCENTER  x 738.153 y 9818.57 z 0.478693  OT 55.0535  ix -1 iy -1 iz -1 MAXIMUM_LIKELIHOOD
GEOGRAPHIC  OT 2023 09 28  08 41 55.053530  Lat 9818.566964 Long 738.153274 Depth 0.478693
QUALITY  Pmax 1.06153e+87 MFmin 90.5916 MFmax 103.883 RMS 0.0248151 Nphs 24 Gap 282.426 Dist 0.571929 Mamp -9.90 0 Mdur -9.90 0
VPVSRATIO  VpVsRatio 1.71106  Npair 12  Diff 0.574688
STATISTICS  ExpectX 738.166066 Y 9818.538212 Z 0.533706  CovXX 0.0136903 XY 0.00126239 XZ -0.00274054 YY 0.0117599 YZ -0.00629454 ZZ 0.0122735 EllAz1  10.6858 Dip1  45.0274 Len1  0.140428 Az2  293.862 Dip2  -12.829 Len2  0.209635 Len3  2.636253e-01
STAT_GEOG  ExpectLat 9818.538212 Long 738.166066 Depth 0.533706
TRANSFORM  NONE
QML_OriginQuality  assocPhCt 24  usedPhCt 24  assocStaCt -1  usedStaCt 12  depthPhCt -1  stdErr 0.0248151  azGap 282.426  secAzGap 282.426  gtLevel -  minDist 0.571929 maxDist 4.98584 medDist 2.78153
QML_OriginUncertainty  horUnc -1  minHorUnc 0.16004  maxHorUnc 0.181446  azMaxHorUnc 63.7002
QML_ConfidenceEllipsoid  semiMajorAxisLength 0.263625  semiMinorAxisLength 0.140428  semiIntermediateAxisLength 0.209635  majorAxisPlunge -42.1431  majorAxisAzimuth 35.7544  majorAxisRotation 91.7898
FOCALMECH  Hyp  9818.566964 738.153274 0.478693 Mech  0 0 0 mf  0 nObs -1
PHASE ID Ins Cmp On Pha  FM Date     HrMn   Sec     Err  ErrMag    Coda      Amp       Per       PriorWt  >   TTpred    Res       Weight    StaLoc(X  Y         Z)        SDist    SAzim  RAz  RDip RQual    Tcorr       TTerr
M06          ?    BHZ  i P      c 20230928 0841   55.5930 GAU  1.84e-03 -1.00e+00 -1.00e+00 -1.00e+00    1.0000 >    0.5213    0.0181    1.1821  738.3100 9819.1170   -1.3960    0.5719  15.90  15.9 162.5 10     0.0000    0.0104
M06          ?    BHN  e S      ? 20230928 0841   56.0405 GAU  1.25e-03 -1.00e+00 -1.00e+00 -1.00e+00    1.0000 >    0.9090    0.0780    0.1974  738.3100 9819.1170   -1.3960    0.5719  15.90  15.9 162.2 10     0.0000    0.0182
M04          ?    BHZ  e P      d 20230928 0841   55.6897 GAU  7.04e-03 -1.00e+00  9.77e+02 -1.00e+00    1.0000 >    0.6364   -0.0003    1.4035  737.1400 9819.2520   -1.5710    1.2231 304.06 304.1 148.2 10     0.0000    0.0127
M04          ?    BHE  e S      ? 20230928 0841   56.1878 GAU  9.98e-04 -1.00e+00  2.74e+02 -1.00e+00    1.0000 >    1.1087    0.0255    1.0185  737.1400 9819.2520   -1.5710    1.2231 304.06 304.1 147.7 10     0.0000    0.0222
M14          ?    BHZ  i P      c 20230928 0841   55.7007 GAU  1.01e-03 -1.00e+00 -1.00e+00 -1.00e+00    1.0000 >    0.6493   -0.0021    1.4113  737.5530 9820.0110   -1.3980    1.5638 337.43 337.4 139.0 10     0.0000    0.0130
M14          ?    BHE  e S      ? 20230928 0841   56.1793 GAU  2.24e-03 -1.00e+00  3.66e+02 -1.00e+00    1.0000 >    1.1322   -0.0064    1.3144  737.5530 9820.0110   -1.3980    1.5638 337.43 337.4 138.3 10     0.0000    0.0226
M02          ?    BHZ  i P      c 20230928 0841   55.7170 GAU  8.98e-04 -1.00e+00 -1.00e+00 -1.00e+00    1.0000 >    0.7055   -0.0420    0.8404  736.5970 9819.4060   -1.4960    1.7680 298.33 298.3 136.8 10     0.0000    0.0141
M02          ?    BHE  e S      ? 20230928 0841   56.2529 GAU  9.61e-04 -1.00e+00  3.91e+03 -1.00e+00    1.0000 >    1.2296   -0.0303    1.0743  736.5970 9819.4060   -1.4960    1.7680 298.33 298.3 136.1 10     0.0000    0.0246
M11          ?    BHZ  i P      c 20230928 0841   55.7315 GAU  1.19e-03 -1.00e+00  1.04e+02 -1.00e+00    1.0000 >    0.7020   -0.0240    1.1995  738.4670 9820.4900   -1.3120    1.9485   9.27   9.3 130.9 10     0.0000    0.0140
M11          ?    BHN  e S      ? 20230928 0841   56.2911 GAU  5.81e-04 -1.00e+00  1.85e+01 -1.00e+00    1.0000 >    1.2248    0.0128    1.1949  738.4670 9820.4900   -1.3120    1.9485   9.27   9.3 129.9 10     0.0000    0.0245
M09          ?    BHZ  i P      c 20230928 0841   55.8202 GAU  1.79e-03 -1.00e+00  2.05e+02 -1.00e+00    1.0000 >    0.7942   -0.0275    1.1431  737.8820 9820.9850   -1.2700    2.4332 353.60 353.6 123.6 10     0.0000    0.0159
M09          ?    BHE  e S      ? 20230928 0841   56.3971 GAU  4.21e-04 -1.00e+00  3.19e+02 -1.00e+00    1.0000 >    1.3861   -0.0425    0.8739  737.8820 9820.9850   -1.2700    2.4332 353.60 353.6 122.4 10     0.0000    0.0277
M13          ?    BHZ  i P      c 20230928 0841   55.9319 GAU  1.04e-03 -1.00e+00 -1.00e+00 -1.00e+00    1.0000 >    0.9430   -0.0646    0.4391  737.1780 9821.5410   -1.2220    3.1299 341.84 341.8 116.2 10     0.0000    0.0189
M13          ?    BHE  e S      ? 20230928 0841   56.5893 GAU  6.78e-04 -1.00e+00 -1.00e+00 -1.00e+00    1.0000 >    1.6462   -0.1104    0.1207  737.1780 9821.5410   -1.2220    3.1299 341.84 341.8 114.4 10     0.0000    0.0329
M10          ?    BHZ  e P      c 20230928 0841   56.0291 GAU  1.98e-03 -1.00e+00 -1.00e+00 -1.00e+00    1.0000 >    0.9649    0.0107    1.2753  736.5490 9821.3650   -1.2200    3.2253 330.17 330.2 115.3 10     0.0000    0.0193
M10          ?    BHE  e S      ? 20230928 0841   56.7646 GAU  8.30e-04 -1.00e+00 -1.00e+00 -1.00e+00    1.0000 >    1.6845    0.0265    0.9555  736.5490 9821.3650   -1.2200    3.2253 330.17 330.2 113.5 10     0.0000    0.0337
M05          ?    BHZ  i P      d 20230928 0841   56.1933 GAU  2.00e-03 -1.00e+00  1.41e+02 -1.00e+00    1.0000 >    1.1384    0.0013    1.3060  736.2660 9822.0830   -1.1500    3.9905 331.77 331.8 109.6 10     0.0000    0.0228
M05          ?    BHN  e S      ? 20230928 0841   57.0406 GAU  1.17e-03 -1.00e+00  2.84e+02 -1.00e+00    1.0000 >    1.9881   -0.0010    1.0737  736.2660 9822.0830   -1.1500    3.9905 331.77 331.8  91.9  9     0.0000    0.0398
M07          ?    BHZ  i P      d 20230928 0841   56.2517 GAU  8.11e-04 -1.00e+00 -1.00e+00 -1.00e+00    1.0000 >    1.2084   -0.0103    1.2830  737.4430 9822.8030   -1.1120    4.2952 350.48 350.5 107.7 10     0.0000    0.0242
M07          ?    BHN  e S      ? 20230928 0841   57.1596 GAU  1.53e-03 -1.00e+00 -1.00e+00 -1.00e+00    1.0000 >    2.1047    0.0014    1.0400  737.4430 9822.8030   -1.1120    4.2952 350.48 350.5  67.3 10     0.0000    0.0421
M01          ?    BHZ  e P      c 20230928 0841   56.2948 GAU  1.00e-03 -1.00e+00 -1.00e+00 -1.00e+00    1.0000 >    1.2143    0.0270    0.9887  736.4090 9822.5140   -1.1200    4.3153 336.16 336.2 107.7 10     0.0000    0.0243
M01          ?    BHE  e S      ? 20230928 0841   57.2309 GAU  1.50e-03 -1.00e+00  6.03e+02 -1.00e+00    1.0000 >    2.1148    0.0626    0.5294  736.4090 9822.5140   -1.1200    4.3153 336.16 336.2  67.2 10     0.0000    0.0423
M12          ?    BHZ  e P      d 20230928 0841   56.3998 GAU  1.22e-03 -1.00e+00 -1.00e+00 -1.00e+00    1.0000 >    1.3662   -0.0199    1.1769  736.8520 9823.3800   -0.9890    4.9858 344.87 344.9 104.0 10     0.0000    0.0273
M12          ?    BHE  e S      ? 20230928 0841   57.4220 GAU  1.43e-03 -1.00e+00  4.12e+02 -1.00e+00    1.0000 >    2.3590    0.0095    0.9585  736.8520 9823.3800   -0.9890    4.9858 344.87 344.9  67.2 10     0.0000    0.0472
END_PHASE
END_NLLOC

