NLLOC "./loc/SEML.20230928.084417.grid0" "LOCATED" "Location completed."
PUBLIC_ID None
SIGNATURE "Arham Zakki Edelo - edelo.17034@mhs.its.ac.id   obs:./obs/2023_09.obs   NLLoc:v7.00.10(30Aug2020)   run:28Dec2023 20h13m12"
COMMENT "SEML"
GRID  2001 2001 1001  727 9811 -2  0.01 0.01 0.01 PROB_DENSITY
SEARCH OCTREE nInitial 4851 nEvaluated 20019 smallestNodeSide 0.014881/0.014881/0.014205 oct_tree_integral 5.975829e-02 scatter_volume 5.975829e-02
HYPOCENTER  x 738.86 y 9817.74 z -0.622159  OT 16.9087  ix -1 iy -1 iz -1 MAXIMUM_LIKELIHOOD
GEOGRAPHIC  OT 2023 09 28  08 44 16.908736  Lat 9817.741071 Long 738.860119 Depth -0.622159
QUALITY  Pmax 5.52391e+71 MFmin 78.8476 MFmax 99.7706 RMS 0.051791 Nphs 22 Gap 314.48 Dist 1.48183 Mamp -9.90 0 Mdur -9.90 0
VPVSRATIO  VpVsRatio 1.71185  Npair 11  Diff 0.834131
STATISTICS  ExpectX 739.046677 Y 9817.773388 Z -1.036159  CovXX 0.0313071 XY 0.00683456 XZ -0.0653734 YY 0.014545 YZ -0.0225897 ZZ 0.219784 EllAz1  79.7836 Dip1  18.1103 Len1  0.195381 Az2  168.917 Dip2  -2.64757 Len2  0.207028 Len3  9.255607e-01
STAT_GEOG  ExpectLat 9817.773388 Long 739.046677 Depth -1.036159
TRANSFORM  NONE
QML_OriginQuality  assocPhCt 22  usedPhCt 22  assocStaCt -1  usedStaCt 11  depthPhCt -1  stdErr 0.051791  azGap 314.48  secAzGap 314.48  gtLevel -  minDist 1.48183 maxDist 5.98582 medDist 3.38818
QML_OriginUncertainty  horUnc -1  minHorUnc 0.166903  maxHorUnc 0.278573  azMaxHorUnc 70.4017
QML_ConfidenceEllipsoid  semiMajorAxisLength 0.925561  semiMinorAxisLength 0.195381  semiIntermediateAxisLength 0.207028  majorAxisPlunge -71.6838  majorAxisAzimuth 70.8872  majorAxisRotation 276.8
FOCALMECH  Hyp  9817.741071 738.860119 -0.622159 Mech  0 0 0 mf  0 nObs -1
PHASE ID Ins Cmp On Pha  FM Date     HrMn   Sec     Err  ErrMag    Coda      Amp       Per       PriorWt  >   TTpred    Res       Weight    StaLoc(X  Y         Z)        SDist    SAzim  RAz  RDip RQual    Tcorr       TTerr
M06          ?    BHZ  i P      c 20230928 0844   17.5921 GAU  1.49e-03 -1.00e+00  8.87e+01 -1.00e+00    1.0000 >    0.4577    0.2256    0.1666  738.3100 9819.1170   -1.3960    1.4818 338.21 338.2 117.0 10     0.0000    0.0092
M06          ?    BHN  e S      ? 20230928 0844   18.0824 GAU  5.54e-04 -1.00e+00  1.47e+01 -1.00e+00    1.0000 >    0.7910    0.3826    0.0640  738.3100 9819.1170   -1.3960    1.4818 338.21 338.2 117.2 10     0.0000    0.0158
M04          ?    BHZ  e P      d 20230928 0844   17.5816 GAU  1.62e-03 -1.00e+00  7.09e+02 -1.00e+00    1.0000 >    0.6790   -0.0061    1.7692  737.1400 9819.2520   -1.5710    2.2895 311.30 311.3 111.8 10     0.0000    0.0136
M04          ?    BHE  e S      ? 20230928 0844   18.0823 GAU  3.74e-04 -1.00e+00  3.30e+02 -1.00e+00    1.0000 >    1.1730    0.0006    1.6841  737.1400 9819.2520   -1.5710    2.2895 311.30 311.3 112.1 10     0.0000    0.0235
M14          ?    BHZ  i P      c 20230928 0844   17.6956 GAU  1.99e-03 -1.00e+00  1.98e+02 -1.00e+00    1.0000 >    0.7479    0.0390    1.1273  737.5530 9820.0110   -1.3980    2.6194 330.06 330.1 105.8 10     0.0000    0.0150
M14          ?    BHE  e S      ? 20230928 0844   18.1921 GAU  1.94e-03 -1.00e+00  4.46e+02 -1.00e+00    1.0000 >    1.2925   -0.0091    1.5469  737.5530 9820.0110   -1.3980    2.6194 330.06 330.1 106.1 10     0.0000    0.0259
M11          ?    BHZ  i P      c 20230928 0844   17.7048 GAU  3.25e-03 -1.00e+00 -1.00e+00 -1.00e+00    1.0000 >    0.7830    0.0131    1.7407  738.4670 9820.4900   -1.3120    2.7769 351.86 351.9 103.2 10     0.0000    0.0157
M11          ?    BHN  e S      ? 20230928 0844   18.3204 GAU  1.49e-03 -1.00e+00 -1.00e+00 -1.00e+00    1.0000 >    1.3534    0.0582    0.8507  738.4670 9820.4900   -1.3120    2.7769 351.86 351.9 103.6 10     0.0000    0.0271
M02          ?    BHZ  i P      c 20230928 0844   17.7163 GAU  8.98e-04 -1.00e+00 -1.00e+00 -1.00e+00    1.0000 >    0.8059    0.0017    1.8167  736.5970 9819.4060   -1.4960    2.8096 306.34 306.3 106.5 10     0.0000    0.0161
M02          ?    BHE  e S      ? 20230928 0844   18.3780 GAU  1.38e-03 -1.00e+00 -1.00e+00 -1.00e+00    1.0000 >    1.3924    0.0769    0.5409  736.5970 9819.4060   -1.4960    2.8096 306.34 306.3 106.9 10     0.0000    0.0278
M09          ?    BHZ  i P      c 20230928 0844   17.8338 GAU  1.12e-03 -1.00e+00  1.20e+02 -1.00e+00    1.0000 >    0.9435   -0.0184    1.4344  737.8820 9820.9850   -1.2700    3.3882 343.22 343.2 100.1 10     0.0000    0.0189
M09          ?    BHN  i S      ? 20230928 0844   18.4974 GAU  7.80e-04 -1.00e+00  5.11e+02 -1.00e+00    1.0000 >    1.6312   -0.0425    0.8980  737.8820 9820.9850   -1.2700    3.3882 343.22 343.2 100.4 10     0.0000    0.0326
M13          ?    BHZ  i P      c 20230928 0844   17.9628 GAU  1.43e-03 -1.00e+00 -1.00e+00 -1.00e+00    1.0000 >    1.1477   -0.0937    0.1510  737.1780 9821.5410   -1.2220    4.1556 336.12 336.1  97.4 10     0.0000    0.0230
M13          ?    BHE  e S      ? 20230928 0844   18.7094 GAU  1.71e-03 -1.00e+00 -1.00e+00 -1.00e+00    1.0000 >    1.9847   -0.1840    0.0220  737.1780 9821.5410   -1.2220    4.1556 336.12 336.1  97.8 10     0.0000    0.0397
M10          ?    BHZ  i P      c 20230928 0844   18.1116 GAU  2.58e-03 -1.00e+00  2.22e+02 -1.00e+00    1.0000 >    1.1862    0.0167    1.6165  736.5490 9821.3650   -1.2200    4.2982 327.47 327.5  89.8  9     0.0000    0.0237
M10          ?    BHN  e S      ? 20230928 0844   19.0342 GAU  3.54e-03 -1.00e+00  6.10e+01 -1.00e+00    1.0000 >    2.0512    0.0742    0.6926  736.5490 9821.3650   -1.2200    4.2982 327.47 327.5  97.5 10     0.0000    0.0410
M05          ?    BHZ  e P      c 20230928 0844   18.2999 GAU  6.86e-04 -1.00e+00 -1.00e+00 -1.00e+00    1.0000 >    1.3772    0.0139    1.5868  736.2660 9822.0830   -1.1500    5.0578 329.14 329.1  72.0 10     0.0000    0.0275
M05          ?    BHN  e S      ? 20230928 0844   19.3155 GAU  6.24e-04 -1.00e+00  2.82e+02 -1.00e+00    1.0000 >    2.4025    0.0043    1.2673  736.2660 9822.0830   -1.1500    5.0578 329.14 329.1  95.6 10     0.0000    0.0480
M07          ?    BHZ  e P      c 20230928 0844   18.3266 GAU  9.13e-04 -1.00e+00 -1.00e+00 -1.00e+00    1.0000 >    1.4253   -0.0075    1.5245  737.4430 9822.8030   -1.1120    5.2566 344.36 344.4  72.0 10     0.0000    0.0285
M07          ?    BHN  e S      ? 20230928 0844   19.3962 GAU  1.31e-03 -1.00e+00  1.50e+01 -1.00e+00    1.0000 >    2.4935   -0.0060    1.2161  737.4430 9822.8030   -1.1120    5.2566 344.36 344.4  95.1 10     0.0000    0.0499
M12          ?    BHZ  e P      d 20230928 0844   18.7479 GAU  1.21e-03 -1.00e+00 -1.00e+00 -1.00e+00    1.0000 >    1.6033    0.2359    0.1780  736.8520 9823.3800   -0.9890    5.9858 340.40 340.4  72.0 10     0.0000    0.0321
M12          ?    BHN  e S      ? 20230928 0844   20.0723 GAU  1.16e-03 -1.00e+00 -1.00e+00 -1.00e+00    1.0000 >    2.8295    0.3341    0.1055  736.8520 9823.3800   -0.9890    5.9858 340.40 340.4  93.7 10     0.0000    0.0566
END_PHASE
END_NLLOC

