NLLOC "./loc/SEML.20230928.084220.grid0" "LOCATED" "Location completed."
PUBLIC_ID None
SIGNATURE "Arham Zakki Edelo - edelo.17034@mhs.its.ac.id   obs:./obs/2023_09.obs   NLLoc:v7.00.10(30Aug2020)   run:28Dec2023 20h13m11"
COMMENT "SEML"
GRID  2001 2001 1001  727 9811 -2  0.01 0.01 0.01 PROB_DENSITY
SEARCH OCTREE nInitial 4851 nEvaluated 20003 smallestNodeSide 0.014881/0.014881/0.014205 oct_tree_integral 4.929806e-02 scatter_volume 4.929806e-02
HYPOCENTER  x 738.034 y 9818.14 z 0.961648  OT 19.553  ix -1 iy -1 iz -1 MAXIMUM_LIKELIHOOD
GEOGRAPHIC  OT 2023 09 28  08 42 19.552989  Lat 9818.135417 Long 738.034226 Depth 0.961648
QUALITY  Pmax 1.84945e+56 MFmin 63.187 MFmax 81.4839 RMS 0.0350611 Nphs 18 Gap 295.786 Dist 1.01959 Mamp -9.90 0 Mdur -9.90 0
VPVSRATIO  VpVsRatio 1.67922  Npair 9  Diff 0.698759
STATISTICS  ExpectX 737.856144 Y 9818.137472 Z 0.786496  CovXX 0.140347 XY -0.00936818 XZ 0.0514291 YY 0.0216023 YZ -0.00801701 ZZ 0.0649117 EllAz1  180.144 Dip1  -9.99692 Len1  0.266804 Az2  251.577 Dip2  61.0323 Len2  0.372481 Len3  7.686962e-01
STAT_GEOG  ExpectLat 9818.137472 Long 737.856144 Depth 0.786496
TRANSFORM  NONE
QML_OriginQuality  assocPhCt 18  usedPhCt 18  assocStaCt -1  usedStaCt 9  depthPhCt -1  stdErr 0.0350611  azGap 295.786  secAzGap 295.786  gtLevel -  minDist 1.01959 maxDist 5.37618 medDist 2.85365
QML_OriginUncertainty  horUnc -1  minHorUnc 0.21908  maxHorUnc 0.569639  azMaxHorUnc 94.4833
QML_ConfidenceEllipsoid  semiMajorAxisLength 0.768696  semiMinorAxisLength 0.266804  semiIntermediateAxisLength 0.372481  majorAxisPlunge 26.8808  majorAxisAzimuth 95.2707  majorAxisRotation 341.446
FOCALMECH  Hyp  9818.135417 738.034226 0.961648 Mech  0 0 0 mf  0 nObs -1
PHASE ID Ins Cmp On Pha  FM Date     HrMn   Sec     Err  ErrMag    Coda      Amp       Per       PriorWt  >   TTpred    Res       Weight    StaLoc(X  Y         Z)        SDist    SAzim  RAz  RDip RQual    Tcorr       TTerr
M06          ?    BHZ  i P      d 20230928 0842   20.2320 GAU  2.33e-03 -1.00e+00  1.52e+02 -1.00e+00    1.0000 >    0.6779    0.0011    1.6916  738.3100 9819.1170   -1.3960    1.0196  15.69  15.7 155.9 10     0.0000    0.0136
M06          ?    BHN  e S      ? 20230928 0842   20.7013 GAU  1.91e-03 -1.00e+00 -1.00e+00 -1.00e+00    1.0000 >    1.1636   -0.0152    1.5769  738.3100 9819.1170   -1.3960    1.0196  15.69  15.7 154.1 10     0.0000    0.0233
M02          ?    BHZ  e P      c 20230928 0842   20.3758 GAU  4.21e-04 -1.00e+00 -1.00e+00 -1.00e+00    1.0000 >    0.8237   -0.0009    1.6907  736.5970 9819.4060   -1.4960    1.9183 311.48 311.5 140.7 10     0.0000    0.0165
M02          ?    BHE  e S      ? 20230928 0842   20.9843 GAU  7.19e-04 -1.00e+00  5.14e+02 -1.00e+00    1.0000 >    1.4134    0.0179    1.3387  736.5970 9819.4060   -1.4960    1.9183 311.48 311.5 137.5 10     0.0000    0.0283
M14          ?    BHZ  e P      c 20230928 0842   20.3303 GAU  1.47e-03 -1.00e+00 -1.00e+00 -1.00e+00    1.0000 >    0.8051   -0.0278    1.3925  737.5530 9820.0110   -1.3980    1.9363 345.61 345.6 139.4 10     0.0000    0.0161
M14          ?    BHN  e S      ? 20230928 0842   20.8049 GAU  5.42e-04 -1.00e+00  3.25e+02 -1.00e+00    1.0000 >    1.3811   -0.1292    0.0894  737.5530 9820.0110   -1.3980    1.9363 345.61 345.6 136.0 10     0.0000    0.0276
M11          ?    BHZ  e P      c 20230928 0842   20.4400 GAU  1.19e-03 -1.00e+00 -1.00e+00 -1.00e+00    1.0000 >    0.8691    0.0178    1.3829  738.4670 9820.4900   -1.3120    2.3940  10.41  10.4 131.8 10     0.0000    0.0174
M11          ?    BHN  i S      ? 20230928 0842   21.0773 GAU  8.09e-04 -1.00e+00 -1.00e+00 -1.00e+00    1.0000 >    1.4900    0.0344    1.0448  738.4670 9820.4900   -1.3120    2.3940  10.41  10.4 127.6 10     0.0000    0.0298
M09          ?    BHZ  i P      c 20230928 0842   20.4654 GAU  2.01e-04 -1.00e+00 -1.00e+00 -1.00e+00    1.0000 >    0.9529   -0.0405    1.1417  737.8820 9820.9850   -1.2700    2.8536 356.94 356.9 125.9 10     0.0000    0.0191
M09          ?    BHE  e S      ? 20230928 0842   21.1692 GAU  1.05e-03 -1.00e+00  3.65e+02 -1.00e+00    1.0000 >    1.6321   -0.0159    1.4500  737.8820 9820.9850   -1.2700    2.8536 356.94 356.9 120.8 10     0.0000    0.0326
M13          ?    BHZ  i P      c 20230928 0842   20.5784 GAU  4.50e-04 -1.00e+00 -1.00e+00 -1.00e+00    1.0000 >    1.0865   -0.0611    0.7192  737.1780 9821.5410   -1.2220    3.5116 345.89 345.9 119.4 10     0.0000    0.0217
M13          ?    BHN  e S      ? 20230928 0842   21.3496 GAU  6.07e-04 -1.00e+00  2.02e+01 -1.00e+00    1.0000 >    1.8583   -0.0617    0.8477  737.1780 9821.5410   -1.2220    3.5116 345.89 345.9 113.1 10     0.0000    0.0372
M05          ?    BHZ  e P      c 20230928 0842   20.9184 GAU  1.52e-03 -1.00e+00 -1.00e+00 -1.00e+00    1.0000 >    1.2625    0.1029    0.3351  736.2660 9822.0830   -1.1500    4.3255 335.87 335.9 113.3 10     0.0000    0.0252
M05          ?    BHN  e S      ? 20230928 0842   21.8560 GAU  7.89e-04 -1.00e+00  3.08e+02 -1.00e+00    1.0000 >    2.1533    0.1496    0.2372  736.2660 9822.0830   -1.1500    4.3255 335.87 335.9 106.0 10     0.0000    0.0431
M07          ?    BHZ  i P      d 20230928 0842   20.9057 GAU  2.68e-04 -1.00e+00 -1.00e+00 -1.00e+00    1.0000 >    1.3472    0.0056    1.5119  737.4430 9822.8030   -1.1120    4.7049 352.78 352.8 110.9 10     0.0000    0.0269
M07          ?    BHN  e S      ? 20230928 0842   21.8675 GAU  5.09e-04 -1.00e+00 -1.00e+00 -1.00e+00    1.0000 >    2.2940    0.0205    1.1758  737.4430 9822.8030   -1.1120    4.7049 352.78 352.8 103.0  9     0.0000    0.0459
M12          ?    BHZ  i P      d 20230928 0842   21.1589 GAU  1.26e-03 -1.00e+00 -1.00e+00 -1.00e+00    1.0000 >    1.4938    0.1121    0.3335  736.8520 9823.3800   -0.9890    5.3762 347.30 347.3  98.1  8     0.0000    0.0299
M12          ?    BHE  e S      ? 20230928 0842   22.3270 GAU  5.58e-04 -1.00e+00  4.12e+02 -1.00e+00    1.0000 >    2.5236    0.2504    0.0404  736.8520 9823.3800   -0.9890    5.3762 347.30 347.3  70.4 10     0.0000    0.0505
END_PHASE
END_NLLOC

