NLLOC "./loc/SEML.20230928.083903.grid0" "LOCATED" "Location completed."
PUBLIC_ID None
SIGNATURE "Arham Zakki Edelo - edelo.17034@mhs.its.ac.id   obs:./obs/2023_09.obs   NLLoc:v7.00.10(30Aug2020)   run:28Dec2023 20h13m05"
COMMENT "SEML"
GRID  2001 2001 1001  727 9811 -2  0.01 0.01 0.01 PROB_DENSITY
SEARCH OCTREE nInitial 4851 nEvaluated 20003 smallestNodeSide 0.014881/0.014881/0.014205 oct_tree_integral 3.629031e-02 scatter_volume 3.614370e-02
HYPOCENTER  x 738.838 y 9818.6 z 0.379261  OT 3.32487  ix -1 iy -1 iz -1 MAXIMUM_LIKELIHOOD
GEOGRAPHIC  OT 2023 09 28  08 39 3.324868  Lat 9818.596726 Long 738.837798 Depth 0.379261
QUALITY  Pmax 5.93284e+89 MFmin 96.0501 MFmax 115.276 RMS 0.04292 Nphs 26 Gap 300.939 Dist 0.741118 Mamp -9.90 0 Mdur -9.90 0
VPVSRATIO  VpVsRatio 1.76885  Npair 13  Diff 0.6078
STATISTICS  ExpectX 738.949209 Y 9818.635633 Z 0.245116  CovXX 0.0377691 XY 0.0065761 XZ -0.0429634 YY 0.0195507 YZ -0.0272558 ZZ 0.0932873 EllAz1  34.0671 Dip1  28.2137 Len1  0.149662 Az2  310.428 Dip2  -11.6683 Len2  0.269081 Len3  6.609386e-01
STAT_GEOG  ExpectLat 9818.635633 Long 738.949209 Depth 0.245116
TRANSFORM  NONE
QML_OriginQuality  assocPhCt 26  usedPhCt 26  assocStaCt -1  usedStaCt 13  depthPhCt -1  stdErr 0.04292  azGap 300.939  secAzGap 300.939  gtLevel -  minDist 0.741118 maxDist 5.1791 medDist 2.98802
QML_OriginUncertainty  horUnc -1  minHorUnc 0.200194  maxHorUnc 0.302916  azMaxHorUnc 72.0869
QML_ConfidenceEllipsoid  semiMajorAxisLength 0.660939  semiMinorAxisLength 0.149662  semiIntermediateAxisLength 0.269081  majorAxisPlunge -59.0556  majorAxisAzimuth 60.5767  majorAxisRotation 258.604
FOCALMECH  Hyp  9818.596726 738.837798 0.379261 Mech  0 0 0 mf  0 nObs -1
PHASE ID Ins Cmp On Pha  FM Date     HrMn   Sec     Err  ErrMag    Coda      Amp       Per       PriorWt  >   TTpred    Res       Weight    StaLoc(X  Y         Z)        SDist    SAzim  RAz  RDip RQual    Tcorr       TTerr
M06          ?    BHZ  i P      c 20230928 0839    3.9131 GAU  1.08e-03 -1.00e+00 -1.00e+00 -1.00e+00    1.0000 >    0.5125    0.0758    0.2402  738.3100 9819.1170   -1.3960    0.7411 314.59 314.6 156.7 10     0.0000    0.0102
M06          ?    BHN  e S      ? 20230928 0839    4.3816 GAU  1.20e-03 -1.00e+00 -1.00e+00 -1.00e+00    1.0000 >    0.8943    0.1625    0.0054  738.3100 9819.1170   -1.3960    0.7411 314.59 314.6 156.3 10     0.0000    0.0179
M04          ?    BHZ  e P      c 20230928 0839    4.0141 GAU  2.41e-03 -1.00e+00 -1.00e+00 -1.00e+00    1.0000 >    0.7119   -0.0227    1.5209  737.1400 9819.2520   -1.5710    1.8199 291.10 291.1 135.4 10     0.0000    0.0142
M04          ?    BHN  e S      ? 20230928 0839    4.5384 GAU  4.77e-04 -1.00e+00  6.85e+02 -1.00e+00    1.0000 >    1.2411   -0.0276    1.4260  737.1400 9819.2520   -1.5710    1.8199 291.10 291.1 134.6 10     0.0000    0.0248
M14          ?    BHZ  e P      c 20230928 0839    3.9404 GAU  2.68e-03 -1.00e+00 -1.00e+00 -1.00e+00    1.0000 >    0.6944   -0.0788    0.5665  737.5530 9820.0110   -1.3980    1.9107 317.75 317.7 131.1 10     0.0000    0.0139
M14          ?    BHE  e S      ? 20230928 0839    4.4338 GAU  2.18e-03 -1.00e+00  2.38e+02 -1.00e+00    1.0000 >    1.2119   -0.1030    0.5270  737.5530 9820.0110   -1.3980    1.9107 317.75 317.7 130.1 10     0.0000    0.0242
M11          ?    BHZ  i P      c 20230928 0839    4.0114 GAU  1.09e-03 -1.00e+00 -1.00e+00 -1.00e+00    1.0000 >    0.6816    0.0049    1.6001  738.4670 9820.4900   -1.3120    1.9292 348.92 348.9 129.3 10     0.0000    0.0136
M11          ?    BHN  e S      ? 20230928 0839    4.5351 GAU  1.56e-03 -1.00e+00 -1.00e+00 -1.00e+00    1.0000 >    1.1903    0.0199    1.2485  738.4670 9820.4900   -1.3120    1.9292 348.92 348.9 128.2 10     0.0000    0.0238
M02          ?    BHZ  e P      d 20230928 0839    4.1440 GAU  1.48e-03 -1.00e+00 -1.00e+00 -1.00e+00    1.0000 >    0.8081    0.0110    1.4749  736.5970 9819.4060   -1.4960    2.3825 289.86 289.9 125.9 10     0.0000    0.0162
M02          ?    BHN  i S      ? 20230928 0839    4.7420 GAU  1.07e-03 -1.00e+00  2.39e+03 -1.00e+00    1.0000 >    1.4096    0.0075    1.4057  736.5970 9819.4060   -1.4960    2.3825 289.86 289.9 124.8 10     0.0000    0.0282
M09          ?    BHZ  i P      c 20230928 0839    4.0920 GAU  7.76e-04 -1.00e+00  1.01e+02 -1.00e+00    1.0000 >    0.8111   -0.0440    1.1169  737.8820 9820.9850   -1.2700    2.5724 338.19 338.2 120.3 10     0.0000    0.0162
M09          ?    BHE  e S      ? 20230928 0839    4.6788 GAU  1.55e-03 -1.00e+00  3.24e+02 -1.00e+00    1.0000 >    1.4169   -0.0630    0.9290  737.8820 9820.9850   -1.2700    2.5724 338.19 338.2 118.7 10     0.0000    0.0283
M03          ?    BHZ  i P      c 20230928 0839    4.2503 GAU  6.21e-04 -1.00e+00 -1.00e+00 -1.00e+00    1.0000 >    0.9154    0.0100    1.4787  736.8800 9820.8540   -1.3350    2.9880 319.06 319.1 117.2 10     0.0000    0.0183
M03          ?    BHN  e S      ? 20230928 0839    4.9885 GAU  2.10e-03 -1.00e+00  4.19e+01 -1.00e+00    1.0000 >    1.5984    0.0652    0.5285  736.8800 9820.8540   -1.3350    2.9880 319.06 319.1 115.4 10     0.0000    0.0320
M13          ?    BHZ  i P      c 20230928 0839    4.1996 GAU  3.22e-03 -1.00e+00 -1.00e+00 -1.00e+00    1.0000 >    0.9913   -0.1166    0.4271  737.1780 9821.5410   -1.2220    3.3799 330.59 330.6 112.6 10     0.0000    0.0198
M13          ?    BHE  e S      ? 20230928 0839    4.8606 GAU  6.59e-04 -1.00e+00 -1.00e+00 -1.00e+00    1.0000 >    1.7322   -0.1964    0.1375  737.1780 9821.5410   -1.2220    3.3799 330.59 330.6 110.3 10     0.0000    0.0346
M10          ?    BHZ  e P      c 20230928 0839    4.2358 GAU  7.55e-04 -1.00e+00 -1.00e+00 -1.00e+00    1.0000 >    1.0419   -0.1310    0.3496  736.5490 9821.3650   -1.2200    3.5919 320.42 320.4 111.1 10     0.0000    0.0208
M10          ?    BHN  e S      ? 20230928 0839    4.9576 GAU  6.25e-04 -1.00e+00 -1.00e+00 -1.00e+00    1.0000 >    1.8206   -0.1879    0.1688  736.5490 9821.3650   -1.2200    3.5919 320.42 320.4 108.7 10     0.0000    0.0364
M05          ?    BHZ  i P      d 20230928 0839    4.5297 GAU  1.49e-03 -1.00e+00  1.26e+02 -1.00e+00    1.0000 >    1.2145   -0.0096    1.5592  736.2660 9822.0830   -1.1500    4.3322 323.58 323.6 106.4 10     0.0000    0.0243
M05          ?    BHN  e S      ? 20230928 0839    5.4508 GAU  5.04e-04 -1.00e+00  3.31e+02 -1.00e+00    1.0000 >    2.1230    0.0030    1.2654  736.2660 9822.0830   -1.1500    4.3322 323.58 323.6 103.4 10     0.0000    0.0425
M07          ?    BHZ  i P      d 20230928 0839    4.5377 GAU  4.49e-04 -1.00e+00 -1.00e+00 -1.00e+00    1.0000 >    1.2348   -0.0220    1.4883  737.4430 9822.8030   -1.1120    4.4315 341.65 341.7 105.7 10     0.0000    0.0247
M07          ?    BHE  e S      ? 20230928 0839    5.4845 GAU  1.49e-03 -1.00e+00 -1.00e+00 -1.00e+00    1.0000 >    2.1588    0.0008    1.2668  737.4430 9822.8030   -1.1120    4.4315 341.65 341.7 102.5 10     0.0000    0.0432
M01          ?    BHZ  e P      c 20230928 0839    4.5866 GAU  1.15e-03 -1.00e+00 -1.00e+00 -1.00e+00    1.0000 >    1.2800   -0.0183    1.5083  736.4090 9822.5140   -1.1200    4.6091 328.20 328.2 105.0 10     0.0000    0.0256
M01          ?    BHE  e S      ? 20230928 0839    5.5177 GAU  2.24e-03 -1.00e+00  5.28e+02 -1.00e+00    1.0000 >    2.2375   -0.0447    1.1451  736.4090 9822.5140   -1.1200    4.6091 328.20 328.2 101.8 10     0.0000    0.0447
M12          ?    BHZ  e P      c 20230928 0839    4.7189 GAU  1.48e-03 -1.00e+00 -1.00e+00 -1.00e+00    1.0000 >    1.4090   -0.0150    1.4914  736.8520 9823.3800   -0.9890    5.1791 337.45 337.5 102.1 10     0.0000    0.0282
M12          ?    BHE  e S      ? 20230928 0839    5.7952 GAU  2.33e-03 -1.00e+00  4.17e+02 -1.00e+00    1.0000 >    2.4553    0.0150    1.1243  736.8520 9823.3800   -0.9890    5.1791 337.45 337.5  67.2 10     0.0000    0.0491
END_PHASE
END_NLLOC

