#  2023   3  8  4 53  44.107957  -1.638846644  101.138720916   1.70028  0  0  0  0.02824650  2834
M06  0.53324300  1.000  P
M06  0.94514300  1.000  S
M04  0.59854300  1.000  P
M04  1.03114300  1.000  S
M14  0.63884300  1.000  P
M14  1.11134300  1.000  S
M11  0.66654300  1.000  P
M11  1.17574300  1.000  S
M09  0.74684300  1.000  P
M09  1.33274300  1.000  S
M13  0.86924300  1.000  P
M13  1.52704300  1.000  S
M05  1.10674300  1.000  P
M05  1.93024300  1.000  S
M12  1.36894300  1.000  P
M12  2.34404300  1.000  S
#  2023   3 12 23 29  24.119465  -1.642347633  101.135917095   2.32528  0  0  0  0.01605430  2835
M06  0.69793500  1.000  P
M06  1.20083500  1.000  S
M14  0.80253500  1.000  P
M14  1.34483500  1.000  S
M11  0.88043500  1.000  P
M11  1.53233500  1.000  S
M09  0.90813500  1.000  P
M09  1.56213500  1.000  S
#  2023   3 19 14 58  26.798009  -1.640872320  101.131637369   2.29688  0  0  0  0.01383260  2836
M04  0.71489100  1.000  P
M04  1.23039100  1.000  S
M06  0.73209100  1.000  P
M06  1.25989100  1.000  S
M14  0.79679100  1.000  P
M14  1.39939100  1.000  S
M11  0.87409100  1.000  P
M11  1.49689100  1.000  S
M09  0.90879100  1.000  P
M09  1.57149100  1.000  S
#  2023   3 19 14 58  27.354912  -1.643556313  101.137923774   2.53835  0  0  0  0.03044600  2837
M06  0.74558800  1.000  P
M06  1.28798800  1.000  S
M04  0.77408800  1.000  P
M04  1.32348800  1.000  S
M02  0.86488800  1.000  P
M02  1.45288800  1.000  S
M14  0.85748800  1.000  P
M14  1.44478800  1.000  S
M11  0.84988800  1.000  P
M11  1.54658800  1.000  S
M09  0.97318800  1.000  P
M09  1.63668800  1.000  S
M13  1.08068800  1.000  P
M13  1.90908800  1.000  S
M05  1.42678800  1.000  P
M05  2.58448800  1.000  S
M12  1.60728800  1.000  P
M12  2.74718800  1.000  S
#  2023   3 19 14 58  41.394268  -1.640323679  101.141396334   2.59517  0  0  0  0.02629510  2838
M06  0.72843200  1.000  P
M06  1.24743200  1.000  S
M04  0.72713200  1.000  P
M04  1.29873200  1.000  S
M02  0.88133200  1.000  P
M02  1.50493200  1.000  S
M11  0.86003200  1.000  P
M11  1.43253200  1.000  S
M09  0.91363200  1.000  P
M09  1.61133200  1.000  S
M13  1.12183200  1.000  P
M13  1.94533200  1.000  S
#  2023   3 19 14 59   5.121890  -1.639387523  101.136181339   2.42472  0  0  0  0.02272850  2839
M04  0.74641000  1.000  P
M04  1.28001000  1.000  S
M06  0.70641000  1.000  P
M06  1.21101000  1.000  S
M14  0.80221000  1.000  P
M14  1.36751000  1.000  S
M11  0.83371000  1.000  P
M11  1.40301000  1.000  S
M09  0.96571000  1.000  P
M09  1.68671000  1.000  S
M05  1.12741000  1.000  P
M05  1.94011000  1.000  S
#  2023   3 19 15  0  56.343065  -1.639730388  101.130098693   2.38921  0  0  0  0.01871170  2840
M06  0.76653500  1.000  P
M06  1.31083500  1.000  S
M14  0.76363500  1.000  P
M14  1.32463500  1.000  S
M11  0.89033500  1.000  P
M11  1.50863500  1.000  S
M09  0.95703500  1.000  P
M09  1.63693500  1.000  S
#  2023   3 19 15  7  48.627634  -1.641668178  101.142199910   2.35369  0  0  0  0.03634180  2841
M06  0.68976600  1.000  P
M06  1.18126600  1.000  S
M04  0.74726600  1.000  P
M04  1.23346600  1.000  S
M14  0.78886600  1.000  P
M14  1.30026600  1.000  S
M02  0.87146600  1.000  P
M02  1.46326600  1.000  S
M11  0.78476600  1.000  P
M11  1.40046600  1.000  S
M09  0.87476600  1.000  P
M09  1.59076600  1.000  S
M13  1.02986600  1.000  P
M13  1.80626600  1.000  S
M10  1.18556600  1.000  P
M10  2.13836600  1.000  S
M08  1.14356600  1.000  P
M08  2.08516600  1.000  S
M05  1.32046600  1.000  P
M05  2.30096600  1.000  S
M12  1.43216600  1.000  P
M12  2.43416600  1.000  S
#  2023   3 19 15  8   6.142450  -1.640424971  101.141028785   2.34304  0  0  0  0.01744180  2842
M06  0.67865000  1.000  P
M06  1.15285000  1.000  S
M14  0.76025000  1.000  P
M14  1.31325000  1.000  S
M02  0.82995000  1.000  P
M02  1.43685000  1.000  S
M11  0.70845000  1.000  P
M11  1.19795000  1.000  S
M09  0.89805000  1.000  P
M09  1.57595000  1.000  S
M13  1.01095000  1.000  P
M13  1.74815000  1.000  S
M10  1.04055000  1.000  P
M10  1.78525000  1.000  S
M08  1.10905000  1.000  P
M08  1.87995000  1.000  S
M05  1.25825000  1.000  P
M05  2.14275000  1.000  S
M12  1.39515000  1.000  P
M12  2.39865000  1.000  S
#  2023   3 19 15  8  45.767866  -1.643479875  101.146413134   1.36648  0  0  0  0.02690190  2843
M06  0.61193400  1.000  P
M06  1.16293400  1.000  S
M04  0.70233400  1.000  P
M04  1.21223400  1.000  S
M14  0.70123400  1.000  P
M14  1.22333400  1.000  S
M11  0.72113400  1.000  P
M11  1.28203400  1.000  S
M09  0.81173400  1.000  P
M09  1.50593400  1.000  S
M13  0.93673400  1.000  P
M13  1.60143400  1.000  S
M08  1.17333400  1.000  P
M08  2.12693400  1.000  S
M05  1.28303400  1.000  P
M05  2.25683400  1.000  S
M12  1.44083400  1.000  P
M12  2.60393400  1.000  S
#  2023   3 19 15 10   1.901861  -1.642334220  101.148350439   1.01847  0  0  0  0.05757030  2844
M06  0.60113900  1.000  P
M06  1.16863900  1.000  S
M04  0.71553900  1.000  P
M04  1.16823900  1.000  S
M11  0.67023900  1.000  P
M11  1.12833900  1.000  S
M14  0.71323900  1.000  P
M14  1.22143900  1.000  S
M02  0.75633900  1.000  P
M02  1.37023900  1.000  S
M09  0.81413900  1.000  P
M09  1.50163900  1.000  S
M13  0.89853900  1.000  P
M13  1.72713900  1.000  S
M08  1.17313900  1.000  P
M08  2.24953900  1.000  S
M10  1.28073900  1.000  P
M10  2.17313900  1.000  S
M05  1.27703900  1.000  P
M05  2.25203900  1.000  S
M12  1.43593900  1.000  P
M12  2.56733900  1.000  S
#  2023   3 19 15 10  17.064591  -1.637566890  101.140257016   2.78693  0  0  0  0.01647800  2845
M06  0.76300900  1.000  P
M06  1.31390900  1.000  S
M14  0.82420900  1.000  P
M14  1.40550900  1.000  S
M11  0.84910900  1.000  P
M11  1.43960900  1.000  S
M09  0.95300900  1.000  P
M09  1.64350900  1.000  S
#  2023   3 19 15 10  42.460542  -1.646450085  101.136790469   2.61648  0  0  0  0.01469150  2846
M06  0.80945800  1.000  P
M06  1.36695800  1.000  S
M14  0.89315800  1.000  P
M14  1.54065800  1.000  S
M11  0.96565800  1.000  P
M11  1.66825800  1.000  S
M09  1.06555800  1.000  P
M09  1.82955800  1.000  S
#  2023   3 19 15 12   7.923382  -1.645091420  101.149088689   3.04261  0  0  0  0.01906930  2847
M06  0.88811800  1.000  P
M06  1.49101800  1.000  S
M14  1.04001800  1.000  P
M14  1.76251800  1.000  S
M11  1.01721800  1.000  P
M11  1.75021800  1.000  S
M09  1.06161800  1.000  P
M09  1.77181800  1.000  S
#  2023   3 19 15 12  41.666715  -1.640263666  101.134644805   2.73011  0  0  0  0.01208560  2848
M06  0.78188500  1.000  P
M06  1.35108500  1.000  S
M14  0.84108500  1.000  P
M14  1.41138500  1.000  S
M11  0.90658500  1.000  P
M11  1.55748500  1.000  S
M09  1.05198500  1.000  P
M09  1.80308500  1.000  S
#  2023   3 19 15 13   3.030247  -1.642747792  101.139126140   2.48153  0  0  0  0.01527280  2849
M06  0.72035300  1.000  P
M06  1.26055300  1.000  S
M14  0.83045300  1.000  P
M14  1.40805300  1.000  S
M02  0.85505300  1.000  P
M02  1.44105300  1.000  S
M11  0.86155300  1.000  P
M11  1.48815300  1.000  S
M09  0.97035300  1.000  P
M09  1.67985300  1.000  S
#  2023   3 19 15 13  29.225885  -1.646247345  101.137659253   2.65199  0  0  0  0.00690822  2850
M06  0.80141500  1.000  P
M06  1.36771500  1.000  S
M14  0.91671500  1.000  P
M14  1.54211500  1.000  S
M11  0.97481500  1.000  P
M11  1.68151500  1.000  S
M09  1.04941500  1.000  P
M09  1.80601500  1.000  S
#  2023   3 19 15 14  14.544503  -1.637035338  101.134106624   3.09943  0  0  0  0.00852664  2851
M06  0.86369700  1.000  P
M06  1.45969700  1.000  S
M14  0.87979700  1.000  P
M14  1.48379700  1.000  S
M11  0.92539700  1.000  P
M11  1.60929700  1.000  S
M09  1.19089700  1.000  P
M09  2.04099700  1.000  S
#  2023   3 19 15 14  23.746881  -1.641682837  101.128563288   1.72869  0  0  0  0.00665602  2852
M06  0.65761900  1.000  P
M06  1.16041900  1.000  S
M14  0.69021900  1.000  P
M14  1.18791900  1.000  S
M11  0.85141900  1.000  P
M11  1.49451900  1.000  S
M09  0.86371900  1.000  P
M09  1.51061900  1.000  S
#  2023   3 19 15 17   0.955769  -1.642211369  101.137521265   2.01278  0  0  0  0.01328030  2853
M06  0.60443100  1.000  P
M06  1.07943100  1.000  S
M14  0.73303100  1.000  P
M14  1.24053100  1.000  S
M11  0.82023100  1.000  P
M11  1.37533100  1.000  S
M09  0.85773100  1.000  P
M09  1.52103100  1.000  S
#  2023   3 19 15 17  15.426447  -1.644895328  101.143807660   1.52983  0  0  0  0.03249130  2854
M06  0.65565300  1.000  P
M06  1.19125300  1.000  S
M04  0.70005300  1.000  P
M04  1.20025300  1.000  S
M14  0.73335300  1.000  P
M14  1.27715300  1.000  S
M02  0.75915300  1.000  P
M02  1.38685300  1.000  S
M11  0.76255300  1.000  P
M11  1.34475300  1.000  S
M09  0.92695300  1.000  P
M09  1.63885300  1.000  S
M13  1.00155300  1.000  P
M13  1.78655300  1.000  S
M10  1.09855300  1.000  P
M10  1.93915300  1.000  S
M08  1.27455300  1.000  P
M08  2.18695300  1.000  S
M05  1.27495300  1.000  P
M05  2.21215300  1.000  S
M12  1.50285300  1.000  P
M12  2.62605300  1.000  S
#  2023   3 19 15 17  23.259535  -1.643289254  101.136051789   1.54403  0  0  0  0.02232870  2855
M06  0.53876500  1.000  P
M06  1.09616500  1.000  S
M14  0.68916500  1.000  P
M14  1.13906500  1.000  S
M11  0.68136500  1.000  P
M11  1.35906500  1.000  S
M09  0.82626500  1.000  P
M09  1.41896500  1.000  S
M08  1.11636500  1.000  P
M08  1.97966500  1.000  S
M12  1.41476500  1.000  P
M12  2.49566500  1.000  S
#  2023   3 19 15 17  27.560416  -1.644301520  101.133044781   2.13352  0  0  0  0.02583100  2856
M06  0.70588400  1.000  P
M06  1.30908400  1.000  S
M14  0.78208400  1.000  P
M14  1.34238400  1.000  S
M11  0.85808400  1.000  P
M11  1.55038400  1.000  S
M09  0.96668400  1.000  P
M09  1.63378400  1.000  S
M08  1.31488400  1.000  P
M08  2.30398400  1.000  S
#  2023   3 19 15 17  37.338395  -1.641338245  101.136250260   1.22443  0  0  0  0.03837260  2857
M06  0.44190500  1.000  P
M06  1.00590500  1.000  S
M14  0.57460500  1.000  P
M14  0.96430500  1.000  S
M11  0.52580500  1.000  P
M11  1.19450500  1.000  S
M09  0.66670500  1.000  P
M09  1.33480500  1.000  S
M08  1.03870500  1.000  P
M08  2.02720500  1.000  S
M12  1.27350500  1.000  P
M12  2.33850500  1.000  S
#  2023   3 30 10 37  55.426088  -1.640258205  101.139725113   2.13352  0  0  0  0.02589340  2858
M06  0.62591200  1.000  P
M06  1.07121200  1.000  S
M04  0.71901200  1.000  P
M04  1.21631200  1.000  S
M14  0.72191200  1.000  P
M14  1.24741200  1.000  S
M02  0.77691200  1.000  P
M02  1.41521200  1.000  S
M11  0.77101200  1.000  P
M11  1.41331200  1.000  S
M09  0.84931200  1.000  P
M09  1.54871200  1.000  S
M13  0.96181200  1.000  P
M13  1.72901200  1.000  S
M05  1.33261200  1.000  P
M05  2.29151200  1.000  S
M12  1.61421200  1.000  P
M12  2.84991200  1.000  S
#  2023   3 30 10 38  31.478533  -1.641328161  101.145608694   2.38921  0  0  0  0.01122220  2859
M06  0.69136700  1.000  P
M06  1.20356700  1.000  S
M14  0.83146700  1.000  P
M14  1.34366700  1.000  S
M11  0.83996700  1.000  P
M11  1.41326700  1.000  S
M09  0.94266700  1.000  P
M09  1.62176700  1.000  S
#  2023   3 30 10 38  50.877791  -1.646193665  101.125025190   1.65057  0  0  0  0.00689681  2860
M06  0.76090900  1.000  P
M06  1.33480900  1.000  S
M14  0.79630900  1.000  P
M14  1.38170900  1.000  S
M11  0.89490900  1.000  P
M11  1.48340900  1.000  S
M09  1.00210900  1.000  P
M09  1.76290900  1.000  S
#  2023   3 30 10 38  55.638828  -1.643219173  101.138658721   2.61648  0  0  0  0.01812510  2861
M06  0.75527200  1.000  P
M06  1.32867200  1.000  S
M14  0.86267200  1.000  P
M14  1.44217200  1.000  S
M11  0.90907200  1.000  P
M11  1.54987200  1.000  S
M09  1.00437200  1.000  P
M09  1.75667200  1.000  S
#  2023   3 30 10 39  42.121967  -1.641301124  101.139492258   1.85298  0  0  0  0.01541850  2862
M06  0.57053300  1.000  P
M06  0.99373300  1.000  S
M04  0.64853300  1.000  P
M04  1.10083300  1.000  S
M14  0.67943300  1.000  P
M14  1.17403300  1.000  S
M02  0.73053300  1.000  P
M02  1.25813300  1.000  S
M11  0.72573300  1.000  P
M11  1.29513300  1.000  S
M09  0.82033300  1.000  P
M09  1.46143300  1.000  S
M13  0.97663300  1.000  P
M13  1.71873300  1.000  S
M05  1.27603300  1.000  P
M05  2.19273300  1.000  S
#  2023   3 30 10 39  48.851175  -1.643560631  101.133912996   2.76562  0  0  0  0.00716343  2863
M04  0.84492500  1.000  P
M04  1.45372500  1.000  S
M06  0.82562500  1.000  P
M06  1.39572500  1.000  S
M11  0.98152500  1.000  P
M11  1.65432500  1.000  S
M09  1.00882500  1.000  P
M09  1.74842500  1.000  S
#  2023   3 30 10 40   7.735971  -1.640595200  101.139123851   1.85653  0  0  0  0.04037770  2864
M06  0.56742900  1.000  P
M06  1.08602900  1.000  S
M04  0.63242900  1.000  P
M04  1.11752900  1.000  S
M14  0.67282900  1.000  P
M14  1.22322900  1.000  S
M02  0.72962900  1.000  P
M02  1.30122900  1.000  S
M11  0.71022900  1.000  P
M11  1.29192900  1.000  S
M09  0.80742900  1.000  P
M09  1.37742900  1.000  S
M03  0.81962900  1.000  P
M03  1.45672900  1.000  S
M13  0.92272900  1.000  P
M13  1.67582900  1.000  S
M08  1.08942900  1.000  P
M08  1.99412900  1.000  S
M05  1.26642900  1.000  P
M05  2.23112900  1.000  S
M01  1.37362900  1.000  P
M01  2.46672900  1.000  S
M12  1.41952900  1.000  P
M12  2.42952900  1.000  S
#  2023   3 30 10 40  14.494488  -1.642208921  101.139794030   1.70028  0  0  0  0.03881410  2865
M06  0.58971200  1.000  P
M06  1.09161200  1.000  S
M04  0.63971200  1.000  P
M04  1.11191200  1.000  S
M14  0.66391200  1.000  P
M14  1.19041200  1.000  S
M02  0.71871200  1.000  P
M02  1.29981200  1.000  S
M11  0.72771200  1.000  P
M11  1.29051200  1.000  S
M09  0.83621200  1.000  P
M09  1.51291200  1.000  S
M03  0.74881200  1.000  P
M03  1.34491200  1.000  S
M13  0.95461200  1.000  P
M13  1.69331200  1.000  S
M10  0.94761200  1.000  P
M10  1.68051200  1.000  S
M08  1.13241200  1.000  P
M08  1.97261200  1.000  S
M05  1.02381200  1.000  P
M05  1.86571200  1.000  S
M01  1.27261200  1.000  P
M01  2.19731200  1.000  S
M12  1.44311200  1.000  P
M12  2.54701200  1.000  S
#  2023   3 30 10 40  28.921790  -1.639925962  101.135914525   2.01278  0  0  0  0.03567130  2866
M04  0.65701000  1.000  P
M04  1.13761000  1.000  S
M06  0.61251000  1.000  P
M06  1.06701000  1.000  S
M02  0.69141000  1.000  P
M02  1.18901000  1.000  S
M14  0.62271000  1.000  P
M14  1.09291000  1.000  S
M11  0.76781000  1.000  P
M11  1.32321000  1.000  S
M09  0.82631000  1.000  P
M09  1.43621000  1.000  S
M10  1.07041000  1.000  P
M10  1.84241000  1.000  S
M13  0.85131000  1.000  P
M13  1.44921000  1.000  S
M08  1.15691000  1.000  P
M08  1.99801000  1.000  S
M05  1.19061000  1.000  P
M05  2.04551000  1.000  S
#  2023   3 30 10 40  36.387594  -1.643150828  101.139661339   2.55256  0  0  0  0.06319660  2867
M06  0.73780600  1.000  P
M06  1.27800600  1.000  S
M04  0.74280600  1.000  P
M04  1.26080600  1.000  S
M14  0.72420600  1.000  P
M14  1.27980600  1.000  S
M02  0.87500600  1.000  P
M02  1.50200600  1.000  S
M11  0.89080600  1.000  P
M11  1.53660600  1.000  S
M09  0.98600600  1.000  P
M09  1.63460600  1.000  S
M13  1.10280600  1.000  P
M13  1.88620600  1.000  S
M10  0.95100600  1.000  P
M10  1.68640600  1.000  S
M08  1.38060600  1.000  P
M08  2.33200600  1.000  S
M05  1.47740600  1.000  P
M05  2.54460600  1.000  S
#  2023   3 30 10 40  42.444114  -1.644487232  101.147951665   1.20312  0  0  0  0.03937360  2868
M06  0.59718600  1.000  P
M06  1.09528600  1.000  S
M04  0.71568600  1.000  P
M04  1.27498600  1.000  S
M14  0.72738600  1.000  P
M14  1.26938600  1.000  S
M11  0.73128600  1.000  P
M11  1.31628600  1.000  S
M02  0.74818600  1.000  P
M02  1.31838600  1.000  S
M09  0.85298600  1.000  P
M09  1.49668600  1.000  S
M13  0.90588600  1.000  P
M13  1.71088600  1.000  S
M10  1.08078600  1.000  P
M10  1.98448600  1.000  S
M08  1.15508600  1.000  P
M08  1.98468600  1.000  S
M05  1.33498600  1.000  P
M05  2.42698600  1.000  S
M12  1.55158600  1.000  P
M12  2.67938600  1.000  S
#  2023   3 30 10 41   9.317607  -1.654253824  101.136264027   2.53125  0  0  0  0.01825540  2869
M06  0.89959300  1.000  P
M06  1.53299300  1.000  S
M04  0.95389300  1.000  P
M04  1.64429300  1.000  S
M14  0.93379300  1.000  P
M14  1.60259300  1.000  S
M11  1.16389300  1.000  P
M11  1.94609300  1.000  S
M09  1.20779300  1.000  P
M09  2.07909300  1.000  S
#  2023   3 30 10 41  20.143743  -1.640598363  101.136182624   2.32528  0  0  0  0.02303020  2870
M06  0.68645700  1.000  P
M06  1.19725700  1.000  S
M04  0.72355700  1.000  P
M04  1.22315700  1.000  S
M02  0.79455700  1.000  P
M02  1.31635700  1.000  S
M14  0.77825700  1.000  P
M14  1.32125700  1.000  S
M11  0.80985700  1.000  P
M11  1.36325700  1.000  S
M09  0.92275700  1.000  P
M09  1.55825700  1.000  S
M13  0.98725700  1.000  P
M13  1.68135700  1.000  S
#  2023   3 30 10 41  29.932211  -1.645109899  101.131976093   2.50284  0  0  0  0.01831010  2871
M06  0.80348900  1.000  P
M06  1.38388900  1.000  S
M14  0.86648900  1.000  P
M14  1.47648900  1.000  S
M11  0.96838900  1.000  P
M11  1.67048900  1.000  S
M09  1.06708900  1.000  P
M09  1.84618900  1.000  S
#  2023   3 30 10 42   3.190275  -1.642487056  101.131371694   1.62926  0  0  0  0.00667662  2872
M06  0.60932500  1.000  P
M06  1.05092500  1.000  S
M14  0.65062500  1.000  P
M14  1.16842500  1.000  S
M11  0.81392500  1.000  P
M11  1.41502500  1.000  S
M09  0.85422500  1.000  P
M09  1.49152500  1.000  S
#  2023   3 30 10 42  11.623057  -1.642211657  101.137253880   2.06960  0  0  0  0.01792510  2873
M06  0.63894300  1.000  P
M06  1.11704300  1.000  S
M04  0.69794300  1.000  P
M04  1.19414300  1.000  S
M02  0.73314300  1.000  P
M02  1.27884300  1.000  S
M14  0.77604300  1.000  P
M14  1.28774300  1.000  S
M11  0.80154300  1.000  P
M11  1.37434300  1.000  S
M09  0.88564300  1.000  P
M09  1.50484300  1.000  S
M13  1.02904300  1.000  P
M13  1.78714300  1.000  S
#  2023   3 30 10 45  34.462742  -1.636698639  101.134440495   2.45312  0  0  0  0.01367790  2874
M04  0.73095800  1.000  P
M04  1.24325800  1.000  S
M06  0.72075800  1.000  P
M06  1.22545800  1.000  S
M14  0.74235800  1.000  P
M14  1.28695800  1.000  S
M11  0.79885800  1.000  P
M11  1.37385800  1.000  S
M09  0.97575800  1.000  P
M09  1.64905800  1.000  S
#  2023   3 30 10 49  11.328725  -1.642689935  101.130369213   2.36079  0  0  0  0.01290860  2875
M06  0.76407500  1.000  P
M06  1.33497500  1.000  S
M14  0.81697500  1.000  P
M14  1.34537500  1.000  S
M11  0.92647500  1.000  P
M11  1.59187500  1.000  S
M09  0.96667500  1.000  P
M09  1.66847500  1.000  S
