NLLOC "./loc/SEML.20230319.150846.grid0" "LOCATED" "Location completed."
PUBLIC_ID None
SIGNATURE "Arham Zakki Edelo - edelo.17034@mhs.its.ac.id   obs:./obs/2023_03.obs   NLLoc:v7.00.10(30Aug2020)   run:28Dec2023 19h56m26"
COMMENT "SEML"
GRID  2001 2001 1001  727 9811 -2  0.01 0.01 0.01 PROB_DENSITY
SEARCH OCTREE nInitial 4851 nEvaluated 20003 smallestNodeSide 0.014881/0.014881/0.014205 oct_tree_integral 1.516238e-02 scatter_volume 1.507736e-02
HYPOCENTER  x 738.801 y 9818.22 z 0.116477  OT 45.7679  ix -1 iy -1 iz -1 MAXIMUM_LIKELIHOOD
GEOGRAPHIC  OT 2023 03 19  15 08 45.767866  Lat 9818.217262 Long 738.800595 Depth 0.116477
QUALITY  Pmax 2.16471e+56 MFmin 66.4489 MFmax 75.8787 RMS 0.0269019 Nphs 18 Gap 309.906 Dist 1.0248 Mamp -9.90 0 Mdur -9.90 0
VPVSRATIO  VpVsRatio 1.83937  Npair 9  Diff 0.653255
STATISTICS  ExpectX 738.803071 Y 9818.212530 Z 0.124686  CovXX 0.0154865 XY -0.00150614 XZ -0.00686799 YY 0.00831723 YZ -0.00032895 ZZ 0.017082 EllAz1  28.1431 Dip1  19.9833 Len1  0.16136 Az2  312.993 Dip2  -35.1762 Len2  0.190428 Len3  2.864031e-01
STAT_GEOG  ExpectLat 9818.212530 Long 738.803071 Depth 0.124686
TRANSFORM  NONE
QML_OriginQuality  assocPhCt 18  usedPhCt 18  assocStaCt -1  usedStaCt 9  depthPhCt -1  stdErr 0.0269019  azGap 309.906  secAzGap 309.906  gtLevel -  minDist 1.0248 maxDist 5.51823 medDist 2.91619
QML_OriginUncertainty  horUnc -1  minHorUnc 0.135762  maxHorUnc 0.19057  azMaxHorUnc 101.395
QML_ConfidenceEllipsoid  semiMajorAxisLength 0.286403  semiMinorAxisLength 0.16136  semiIntermediateAxisLength 0.190428  majorAxisPlunge -47.946  majorAxisAzimuth 94.3711  majorAxisRotation 260.183
FOCALMECH  Hyp  9818.217262 738.800595 0.116477 Mech  0 0 0 mf  0 nObs -1
PHASE ID Ins Cmp On Pha  FM Date     HrMn   Sec     Err  ErrMag    Coda      Amp       Per       PriorWt  >   TTpred    Res       Weight    StaLoc(X  Y         Z)        SDist    SAzim  RAz  RDip RQual    Tcorr       TTerr
M06          ?    BHZ  i P      c 20230319 1508   46.3798 GAU  1.98e-03 -1.00e+00  1.40e+02 -1.00e+00    1.0000 >    0.4890    0.1229    0.0974  738.3100 9819.1170   -1.3960    1.0248 331.40 331.4 144.7 10     0.0000    0.0098
M06          ?    BHN  i S      ? 20230319 1508   46.9308 GAU  1.34e-03 -1.00e+00 -1.00e+00 -1.00e+00    1.0000 >    0.8554    0.3075    0.0017  738.3100 9819.1170   -1.3960    1.0248 331.40 331.4 144.0 10     0.0000    0.0171
M04          ?    BHZ  e P      c 20230319 1508   46.4702 GAU  1.60e-03 -1.00e+00 -1.00e+00 -1.00e+00    1.0000 >    0.6930    0.0094    1.7552  737.1400 9819.2520   -1.5710    1.9566 301.93 301.9 128.2 10     0.0000    0.0139
M04          ?    BHN  e S      ? 20230319 1508   46.9801 GAU  2.65e-03 -1.00e+00  7.79e+02 -1.00e+00    1.0000 >    1.2107    0.0015    1.6796  737.1400 9819.2520   -1.5710    1.9566 301.93 301.9 127.0 10     0.0000    0.0242
M14          ?    BHZ  i P      c 20230319 1508   46.4691 GAU  1.88e-03 -1.00e+00 -1.00e+00 -1.00e+00    1.0000 >    0.7110   -0.0098    1.7830  737.5530 9820.0110   -1.3980    2.1849 325.18 325.2 121.8 10     0.0000    0.0142
M14          ?    BHE  e S      ? 20230319 1508   46.9912 GAU  1.48e-03 -1.00e+00  3.81e+02 -1.00e+00    1.0000 >    1.2443   -0.0210    1.4850  737.5530 9820.0110   -1.3980    2.1849 325.18 325.2 120.1 10     0.0000    0.0249
M11          ?    BHZ  i P      c 20230319 1508   46.4890 GAU  4.81e-03 -1.00e+00 -1.00e+00 -1.00e+00    1.0000 >    0.7223   -0.0011    1.8618  738.4670 9820.4900   -1.3120    2.2971 351.65 351.6 118.9 10     0.0000    0.0144
M11          ?    BHE  e S      ? 20230319 1508   47.0499 GAU  1.55e-03 -1.00e+00 -1.00e+00 -1.00e+00    1.0000 >    1.2652    0.0168    1.4849  738.4670 9820.4900   -1.3120    2.2971 351.65 351.6 116.7 10     0.0000    0.0253
M09          ?    BHZ  i P      c 20230319 1508   46.5796 GAU  2.67e-03 -1.00e+00 -1.00e+00 -1.00e+00    1.0000 >    0.8611   -0.0493    0.7274  737.8820 9820.9850   -1.2700    2.9162 341.64 341.6 111.9 10     0.0000    0.0172
M09          ?    BHE  e S      ? 20230319 1508   47.2738 GAU  2.40e-03 -1.00e+00  3.28e+02 -1.00e+00    1.0000 >    1.5094   -0.0034    1.5639  737.8820 9820.9850   -1.2700    2.9162 341.64 341.6 108.6 10     0.0000    0.0302
M13          ?    BHZ  e P      c 20230319 1508   46.7046 GAU  1.04e-03 -1.00e+00 -1.00e+00 -1.00e+00    1.0000 >    1.0467   -0.1099    0.0801  737.1780 9821.5410   -1.2220    3.6987 333.98 334.0 105.8 10     0.0000    0.0209
M13          ?    BHE  e S      ? 20230319 1508   47.3693 GAU  1.93e-03 -1.00e+00 -1.00e+00 -1.00e+00    1.0000 >    1.8363   -0.2348    0.0021  737.1780 9821.5410   -1.2220    3.6987 333.98 334.0 100.9 10     0.0000    0.0367
M08          ?    BHZ  i P      c 20230319 1508   46.9412 GAU  1.07e-03 -1.00e+00  2.20e+02 -1.00e+00    1.0000 >    1.1094    0.0640    0.4244  738.2480 9822.1600   -1.1510    3.9813 352.02 352.0 103.6 10     0.0000    0.0222
M08          ?    BHN  e S      ? 20230319 1508   47.8948 GAU  4.45e-03 -1.00e+00  2.88e+02 -1.00e+00    1.0000 >    1.9477    0.1792    0.0737  738.2480 9822.1600   -1.1510    3.9813 352.02 352.0  97.9  9     0.0000    0.0390
M05          ?    BHZ  i P      c 20230319 1508   47.0509 GAU  2.49e-03 -1.00e+00  2.50e+02 -1.00e+00    1.0000 >    1.2712    0.0118    1.5631  736.2660 9822.0830   -1.1500    4.6226 326.75 326.7 101.0 10     0.0000    0.0254
M05          ?    BHN  e S      ? 20230319 1508   48.0247 GAU  2.44e-03 -1.00e+00  2.58e+02 -1.00e+00    1.0000 >    2.2309    0.0259    1.1708  736.2660 9822.0830   -1.1500    4.6226 326.75 326.7  95.1  9     0.0000    0.0446
M12          ?    BHZ  i P      c 20230319 1508   47.2087 GAU  1.67e-03 -1.00e+00 -1.00e+00 -1.00e+00    1.0000 >    1.4837   -0.0429    1.0386  736.8520 9823.3800   -0.9890    5.5182 339.32 339.3  97.6 10     0.0000    0.0297
M12          ?    BHE  e S      ? 20230319 1508   48.3718 GAU  3.54e-03 -1.00e+00 -1.00e+00 -1.00e+00    1.0000 >    2.6019    0.0021    1.2074  736.8520 9823.3800   -0.9890    5.5182 339.32 339.3  92.8  9     0.0000    0.0520
END_PHASE
END_NLLOC

