NLLOC "./loc/SEML.20230319.151303.grid0" "LOCATED" "Location completed."
PUBLIC_ID None
SIGNATURE "Arham Zakki Edelo - edelo.17034@mhs.its.ac.id   obs:./obs/2023_03.obs   NLLoc:v7.00.10(30Aug2020)   run:28Dec2023 19h56m28"
COMMENT "SEML"
GRID  2001 2001 1001  727 9811 -2  0.01 0.01 0.01 PROB_DENSITY
SEARCH OCTREE nInitial 4851 nEvaluated 20011 smallestNodeSide 0.014881/0.014881/0.014205 oct_tree_integral 3.889810e-02 scatter_volume 3.889810e-02
HYPOCENTER  x 737.99 y 9818.3 z 1.23153  OT 3.03025  ix -1 iy -1 iz -1 MAXIMUM_LIKELIHOOD
GEOGRAPHIC  OT 2023 03 19  15 13 3.030247  Lat 9818.299107 Long 737.989583 Depth 1.231534
QUALITY  Pmax 1.04363e+30 MFmin 37.2355 MFmax 43.1645 RMS 0.0152728 Nphs 10 Gap 287.086 Dist 0.878417 Mamp -9.90 0 Mdur -9.90 0
VPVSRATIO  VpVsRatio 2.00886  Npair 5  Diff 0.169373
STATISTICS  ExpectX 738.030120 Y 9818.257212 Z 1.194860  CovXX 0.0267937 XY -0.00874647 XZ -0.0143457 YY 0.0261526 YZ 0.0145745 ZZ 0.0491051 EllAz1  39.2484 Dip1  -4.02378 Len1  0.249841 Az2  306.391 Dip2  -35.3259 Len2  0.269727 Len3  4.744130e-01
STAT_GEOG  ExpectLat 9818.257212 Long 738.030120 Depth 1.194860
TRANSFORM  NONE
QML_OriginQuality  assocPhCt 10  usedPhCt 10  assocStaCt -1  usedStaCt 5  depthPhCt -1  stdErr 0.0152728  azGap 287.086  secAzGap 287.086  gtLevel -  minDist 0.878417 maxDist 2.68805 medDist 1.7789
QML_OriginUncertainty  horUnc -1  minHorUnc 0.201886  maxHorUnc 0.284638  azMaxHorUnc 133.951
QML_ConfidenceEllipsoid  semiMajorAxisLength 0.474413  semiMinorAxisLength 0.249841  semiIntermediateAxisLength 0.269727  majorAxisPlunge -54.3756  majorAxisAzimuth 134.882  majorAxisRotation 159.318
FOCALMECH  Hyp  9818.299107 737.989583 1.231534 Mech  0 0 0 mf  0 nObs -1
PHASE ID Ins Cmp On Pha  FM Date     HrMn   Sec     Err  ErrMag    Coda      Amp       Per       PriorWt  >   TTpred    Res       Weight    StaLoc(X  Y         Z)        SDist    SAzim  RAz  RDip RQual    Tcorr       TTerr
M06          ?    BHZ  i P      d 20230319 1513    3.7506 GAU  1.96e-03 -1.00e+00 -1.00e+00 -1.00e+00    1.0000 >    0.7239   -0.0035    1.2730  738.3100 9819.1170   -1.3960    0.8784  21.39  21.4 159.4 10     0.0000    0.0145
M06          ?    BHN  e S      ? 20230319 1513    4.2908 GAU  5.80e-03 -1.00e+00 -1.00e+00 -1.00e+00    1.0000 >    1.2369    0.0236    0.8846  738.3100 9819.1170   -1.3960    0.8784  21.39  21.4 158.6 10     0.0000    0.0247
M14          ?    BHZ  e P      c 20230319 1513    3.8607 GAU  1.36e-03 -1.00e+00 -1.00e+00 -1.00e+00    1.0000 >    0.8273    0.0032    1.2501  737.5530 9820.0110   -1.3980    1.7667 345.69 345.7 142.0 10     0.0000    0.0165
M14          ?    BHN  e S      ? 20230319 1513    4.4383 GAU  1.92e-03 -1.00e+00  3.22e+02 -1.00e+00    1.0000 >    1.4129   -0.0049    1.0416  737.5530 9820.0110   -1.3980    1.7667 345.69 345.7 140.4 10     0.0000    0.0283
M02          ?    BHZ  e P      c 20230319 1513    3.8853 GAU  3.23e-03 -1.00e+00 -1.00e+00 -1.00e+00    1.0000 >    0.8519    0.0031    1.2396  736.5970 9819.4060   -1.4960    1.7789 308.48 308.5 142.8 10     0.0000    0.0170
M02          ?    BHN  e S      ? 20230319 1513    4.4713 GAU  3.00e-03 -1.00e+00 -1.00e+00 -1.00e+00    1.0000 >    1.4557   -0.0146    0.9557  736.5970 9819.4060   -1.4960    1.7789 308.48 308.5 141.2 10     0.0000    0.0291
M11          ?    BHZ  i P      c 20230319 1513    3.8918 GAU  1.60e-03 -1.00e+00 -1.00e+00 -1.00e+00    1.0000 >    0.8834   -0.0218    0.9224  738.4670 9820.4900   -1.3120    2.2423  12.29  12.3 133.3 10     0.0000    0.0177
M11          ?    BHE  e S      ? 20230319 1513    4.5184 GAU  2.67e-03 -1.00e+00 -1.00e+00 -1.00e+00    1.0000 >    1.5076   -0.0195    0.8899  738.4670 9820.4900   -1.3120    2.2423  12.29  12.3 131.1 10     0.0000    0.0302
M09          ?    BHZ  e P      c 20230319 1513    4.0006 GAU  1.67e-03 -1.00e+00  1.03e+01 -1.00e+00    1.0000 >    0.9554    0.0149    1.0757  737.8820 9820.9850   -1.2700    2.6880 357.71 357.7 126.3 10     0.0000    0.0191
M09          ?    BHN  e S      ? 20230319 1513    4.7101 GAU  7.68e-03 -1.00e+00  4.93e+02 -1.00e+00    1.0000 >    1.6291    0.0508    0.4674  737.8820 9820.9850   -1.2700    2.6880 357.71 357.7 123.8 10     0.0000    0.0326
END_PHASE
END_NLLOC

