NLLOC "./loc/SEML.20230319.145905.grid0" "LOCATED" "Location completed."
PUBLIC_ID None
SIGNATURE "Arham Zakki Edelo - edelo.17034@mhs.its.ac.id   obs:./obs/2023_03.obs   NLLoc:v7.00.10(30Aug2020)   run:28Dec2023 19h56m24"
COMMENT "SEML"
GRID  2001 2001 1001  727 9811 -2  0.01 0.01 0.01 PROB_DENSITY
SEARCH OCTREE nInitial 4851 nEvaluated 20003 smallestNodeSide 0.014881/0.014881/0.014205 oct_tree_integral 3.458558e-02 scatter_volume 3.442366e-02
HYPOCENTER  x 737.662 y 9818.67 z 1.17472  OT 5.12189  ix -1 iy -1 iz -1 MAXIMUM_LIKELIHOOD
GEOGRAPHIC  OT 2023 03 19  14 59 5.121890  Lat 9818.671131 Long 737.662202 Depth 1.174716
QUALITY  Pmax 4.24949e+35 MFmin 45.4525 MFmax 56.1532 RMS 0.0227285 Nphs 12 Gap 262.583 Dist 0.781092 Mamp -9.90 0 Mdur -9.90 0
VPVSRATIO  VpVsRatio 1.88779  Npair 6  Diff 0.307988
STATISTICS  ExpectX 737.929667 Y 9818.310364 Z 0.803731  CovXX 0.34637 XY -0.141965 XZ -0.35458 YY 0.134368 YZ 0.192203 ZZ 0.454723 EllAz1  317.214 Dip1  -41.9735 Len1  0.326363 Az2  218.169 Dip2  -9.91251 Len2  0.480842 Len3  1.721760e+00
STAT_GEOG  ExpectLat 9818.310364 Long 737.929667 Depth 0.803731
TRANSFORM  NONE
QML_OriginQuality  assocPhCt 12  usedPhCt 12  assocStaCt -1  usedStaCt 6  depthPhCt -1  stdErr 0.0227285  azGap 262.583  secAzGap 262.583  gtLevel -  minDist 0.781092 maxDist 3.68649 medDist 1.66664
QML_OriginUncertainty  horUnc -1  minHorUnc 0.381249  maxHorUnc 0.979973  azMaxHorUnc 116.626
QML_ConfidenceEllipsoid  semiMajorAxisLength 1.72176  semiMinorAxisLength 0.326363  semiIntermediateAxisLength 0.480842  majorAxisPlunge -46.3235  majorAxisAzimuth 117.624  majorAxisRotation 90.6811
FOCALMECH  Hyp  9818.671131 737.662202 1.174716 Mech  0 0 0 mf  0 nObs -1
PHASE ID Ins Cmp On Pha  FM Date     HrMn   Sec     Err  ErrMag    Coda      Amp       Per       PriorWt  >   TTpred    Res       Weight    StaLoc(X  Y         Z)        SDist    SAzim  RAz  RDip RQual    Tcorr       TTerr
M04          ?    BHZ  e P      c 20230319 1459    5.8683 GAU  2.47e-03 -1.00e+00 -1.00e+00 -1.00e+00    1.0000 >    0.7498   -0.0034    1.4827  737.1400 9819.2520   -1.5710    0.7811 318.04 318.0 162.2 10     0.0000    0.0150
M04          ?    BHE  e S      ? 20230319 1459    6.4019 GAU  1.60e-03 -1.00e+00  3.14e+02 -1.00e+00    1.0000 >    1.2830   -0.0030    1.2841  737.1400 9819.2520   -1.5710    0.7811 318.04 318.0 161.5 10     0.0000    0.0257
M06          ?    BHZ  i P      c 20230319 1459    5.8283 GAU  5.48e-03 -1.00e+00 -1.00e+00 -1.00e+00    1.0000 >    0.7039    0.0025    1.5094  738.3100 9819.1170   -1.3960    0.7864  55.46  55.5 161.0 10     0.0000    0.0141
M06          ?    BHE  e S      ? 20230319 1459    6.3329 GAU  2.23e-03 -1.00e+00 -1.00e+00 -1.00e+00    1.0000 >    1.2039    0.0071    1.3346  738.3100 9819.1170   -1.3960    0.7864  55.46  55.5 160.2 10     0.0000    0.0241
M14          ?    BHZ  e P      c 20230319 1459    5.9241 GAU  2.78e-03 -1.00e+00 -1.00e+00 -1.00e+00    1.0000 >    0.7600    0.0423    0.6743  737.5530 9820.0110   -1.3980    1.3443 355.34 355.3 149.2 10     0.0000    0.0152
M14          ?    BHN  e S      ? 20230319 1459    6.4894 GAU  9.66e-04 -1.00e+00  3.14e+02 -1.00e+00    1.0000 >    1.2994    0.0681    0.5096  737.5530 9820.0110   -1.3980    1.3443 355.34 355.3 147.8 10     0.0000    0.0260
M11          ?    BHZ  i P      c 20230319 1459    5.9556 GAU  9.32e-04 -1.00e+00 -1.00e+00 -1.00e+00    1.0000 >    0.8317    0.0019    1.4846  738.4670 9820.4900   -1.3120    1.9890  23.87  23.9 136.4 10     0.0000    0.0166
M11          ?    BHN  e S      ? 20230319 1459    6.5249 GAU  1.85e-03 -1.00e+00 -1.00e+00 -1.00e+00    1.0000 >    1.4209   -0.0179    1.0461  738.4670 9820.4900   -1.3120    1.9890  23.87  23.9 134.4 10     0.0000    0.0284
M09          ?    BHZ  i P      c 20230319 1459    6.0876 GAU  1.93e-03 -1.00e+00  1.65e+02 -1.00e+00    1.0000 >    0.8800    0.0857    0.2585  737.8820 9820.9850   -1.2700    2.3243   5.43   5.4 130.6 10     0.0000    0.0176
M09          ?    BHE  e S      ? 20230319 1459    6.8086 GAU  1.60e-03 -1.00e+00  3.69e+02 -1.00e+00    1.0000 >    1.5025    0.1842    0.0056  737.8820 9820.9850   -1.2700    2.3243   5.43   5.4 128.2 10     0.0000    0.0301
M05          ?    BHZ  e P      c 20230319 1459    6.2493 GAU  3.46e-03 -1.00e+00 -1.00e+00 -1.00e+00    1.0000 >    1.1327   -0.0053    1.3177  736.2660 9822.0830   -1.1500    3.6865 337.74 337.7 111.8 10     0.0000    0.0227
M05          ?    BHN  e S      ? 20230319 1459    7.0620 GAU  4.41e-03 -1.00e+00  2.63e+02 -1.00e+00    1.0000 >    1.9274    0.0127    1.0927  736.2660 9822.0830   -1.1500    3.6865 337.74 337.7 108.3 10     0.0000    0.0385
END_PHASE
END_NLLOC

