NLLOC "./loc/SEML.20230319.145828.grid0" "LOCATED" "Location completed."
PUBLIC_ID None
SIGNATURE "Arham Zakki Edelo - edelo.17034@mhs.its.ac.id   obs:./obs/2023_03.obs   NLLoc:v7.00.10(30Aug2020)   run:28Dec2023 19h56m23"
COMMENT "SEML"
GRID  2001 2001 1001  727 9811 -2  0.01 0.01 0.01 PROB_DENSITY
SEARCH OCTREE nInitial 4851 nEvaluated 20011 smallestNodeSide 0.014881/0.014881/0.014205 oct_tree_integral 2.926415e-02 scatter_volume 2.926415e-02
HYPOCENTER  x 737.856 y 9818.21 z 1.28835  OT 27.3549  ix -1 iy -1 iz -1 MAXIMUM_LIKELIHOOD
GEOGRAPHIC  OT 2023 03 19  14 58 27.354912  Lat 9818.209821 Long 737.855655 Depth 1.288352
QUALITY  Pmax 2.88067e+57 MFmin 64.1333 MFmax 74.209 RMS 0.030446 Nphs 18 Gap 286.939 Dist 1.01459 Mamp -9.90 0 Mdur -9.90 0
VPVSRATIO  VpVsRatio 1.81526  Npair 9  Diff 0.615313
STATISTICS  ExpectX 737.927336 Y 9818.151110 Z 1.164460  CovXX 0.041925 XY -0.0139479 XZ -0.0342223 YY 0.0219723 YZ 0.0186125 ZZ 0.0724264 EllAz1  22.8906 Dip1  -3.80365 Len1  0.228105 Az2  290.081 Dip2  -36.3992 Len2  0.266773 Len3  5.983503e-01
STAT_GEOG  ExpectLat 9818.151110 Long 737.927336 Depth 1.164460
TRANSFORM  NONE
QML_OriginQuality  assocPhCt 18  usedPhCt 18  assocStaCt -1  usedStaCt 9  depthPhCt -1  stdErr 0.030446  azGap 286.939  secAzGap 286.939  gtLevel -  minDist 1.01459 maxDist 5.26669 medDist 2.36071
QML_OriginUncertainty  horUnc -1  minHorUnc 0.1845  maxHorUnc 0.336041  azMaxHorUnc 117.213
QML_ConfidenceEllipsoid  semiMajorAxisLength 0.59835  semiMinorAxisLength 0.228105  semiIntermediateAxisLength 0.266773  majorAxisPlunge -53.3372  majorAxisAzimuth 118.015  majorAxisRotation 158.714
FOCALMECH  Hyp  9818.209821 737.855655 1.288352 Mech  0 0 0 mf  0 nObs -1
PHASE ID Ins Cmp On Pha  FM Date     HrMn   Sec     Err  ErrMag    Coda      Amp       Per       PriorWt  >   TTpred    Res       Weight    StaLoc(X  Y         Z)        SDist    SAzim  RAz  RDip RQual    Tcorr       TTerr
M06          ?    BHZ  i P      c 20230319 1458   28.1005 GAU  5.26e-03 -1.00e+00 -1.00e+00 -1.00e+00    1.0000 >    0.7482   -0.0026    1.6813  738.3100 9819.1170   -1.3960    1.0146  26.60  26.6 157.0 10     0.0000    0.0150
M06          ?    BHN  i S      ? 20230319 1458   28.6429 GAU  1.55e-03 -1.00e+00 -1.00e+00 -1.00e+00    1.0000 >    1.2775    0.0105    1.3856  738.3100 9819.1170   -1.3960    1.0146  26.60  26.6 156.1 10     0.0000    0.0255
M04          ?    BHZ  e P      c 20230319 1458   28.1290 GAU  2.23e-03 -1.00e+00 -1.00e+00 -1.00e+00    1.0000 >    0.8176   -0.0435    0.9989  737.1400 9819.2520   -1.5710    1.2642 325.52 325.5 153.4 10     0.0000    0.0164
M04          ?    BHN  e S      ? 20230319 1458   28.6784 GAU  1.03e-03 -1.00e+00  7.70e+02 -1.00e+00    1.0000 >    1.3968   -0.0733    0.5594  737.1400 9819.2520   -1.5710    1.2642 325.52 325.5 152.3 10     0.0000    0.0279
M02          ?    BHZ  e P      c 20230319 1458   28.2198 GAU  9.66e-04 -1.00e+00 -1.00e+00 -1.00e+00    1.0000 >    0.8568    0.0081    1.5539  736.5970 9819.4060   -1.4960    1.7364 313.54 313.5 144.3 10     0.0000    0.0171
M02          ?    BHN  e S      ? 20230319 1458   28.8078 GAU  1.61e-03 -1.00e+00 -1.00e+00 -1.00e+00    1.0000 >    1.4628   -0.0100    1.4565  736.5970 9819.4060   -1.4960    1.7364 313.54 313.5 142.8 10     0.0000    0.0293
M14          ?    BHZ  i P      c 20230319 1458   28.2124 GAU  2.46e-03 -1.00e+00 -1.00e+00 -1.00e+00    1.0000 >    0.8465    0.0110    1.4931  737.5530 9820.0110   -1.3980    1.8264 350.46 350.5 141.8 10     0.0000    0.0169
M14          ?    BHN  e S      ? 20230319 1458   28.7997 GAU  1.06e-03 -1.00e+00  2.29e+02 -1.00e+00    1.0000 >    1.4445    0.0003    1.4401  737.5530 9820.0110   -1.3980    1.8264 350.46 350.5 140.1 10     0.0000    0.0289
M11          ?    BHZ  i P      d 20230319 1458   28.2048 GAU  1.61e-03 -1.00e+00 -1.00e+00 -1.00e+00    1.0000 >    0.9130   -0.0630    0.6480  738.4670 9820.4900   -1.3120    2.3607  15.01  15.0 132.5 10     0.0000    0.0183
M11          ?    BHN  i S      ? 20230319 1458   28.9015 GAU  3.02e-03 -1.00e+00 -1.00e+00 -1.00e+00    1.0000 >    1.5566   -0.0100    1.4227  738.4670 9820.4900   -1.3120    2.3607  15.01  15.0 130.3 10     0.0000    0.0311
M09          ?    BHZ  i P      c 20230319 1458   28.3281 GAU  1.56e-03 -1.00e+00 -1.00e+00 -1.00e+00    1.0000 >    0.9799   -0.0067    1.6225  737.8820 9820.9850   -1.2700    2.7753   0.54   0.5 126.1 10     0.0000    0.0196
M09          ?    BHN  e S      ? 20230319 1458   28.9916 GAU  1.76e-03 -1.00e+00  4.33e+02 -1.00e+00    1.0000 >    1.6693   -0.0326    1.2310  737.8820 9820.9850   -1.2700    2.7753   0.54   0.5 123.8 10     0.0000    0.0334
M13          ?    BHZ  e P      c 20230319 1458   28.4356 GAU  2.78e-03 -1.00e+00 -1.00e+00 -1.00e+00    1.0000 >    1.0953   -0.0146    1.5406  737.1780 9821.5410   -1.2220    3.3994 348.50 348.5 118.2 10     0.0000    0.0219
M13          ?    BHE  e S      ? 20230319 1458   29.2640 GAU  2.06e-03 -1.00e+00 -1.00e+00 -1.00e+00    1.0000 >    1.8631    0.0460    0.7000  737.1780 9821.5410   -1.2220    3.3994 348.50 348.5 115.4 10     0.0000    0.0373
M05          ?    BHZ  i P      c 20230319 1458   28.7817 GAU  2.55e-03 -1.00e+00 -1.00e+00 -1.00e+00    1.0000 >    1.2523    0.1745    0.1131  736.2660 9822.0830   -1.1500    4.1867 337.69 337.7 109.9 10     0.0000    0.0250
M05          ?    BHE  i S      ? 20230319 1458   29.9394 GAU  1.16e-03 -1.00e+00 -1.00e+00 -1.00e+00    1.0000 >    2.1248    0.4597    0.0008  736.2660 9822.0830   -1.1500    4.1867 337.69 337.7 106.9 10     0.0000    0.0425
M12          ?    BHZ  i P      c 20230319 1458   28.9622 GAU  2.32e-03 -1.00e+00 -1.00e+00 -1.00e+00    1.0000 >    1.4728    0.1345    0.1138  736.8520 9823.3800   -0.9890    5.2667 349.01 349.0 101.0 10     0.0000    0.0295
M12          ?    BHE  e S      ? 20230319 1458   30.1021 GAU  2.25e-03 -1.00e+00  2.37e+01 -1.00e+00    1.0000 >    2.4858    0.2614    0.0385  736.8520 9823.3800   -0.9890    5.2667 349.01 349.0  99.1 10     0.0000    0.0497
END_PHASE
END_NLLOC

