NLLOC "./loc/SEML.20230319.150806.grid0" "LOCATED" "Location completed."
PUBLIC_ID None
SIGNATURE "Arham Zakki Edelo - edelo.17034@mhs.its.ac.id   obs:./obs/2023_03.obs   NLLoc:v7.00.10(30Aug2020)   run:28Dec2023 19h56m25"
COMMENT "SEML"
GRID  2001 2001 1001  727 9811 -2  0.01 0.01 0.01 PROB_DENSITY
SEARCH OCTREE nInitial 4851 nEvaluated 20019 smallestNodeSide 0.007440/0.007440/0.007102 oct_tree_integral 1.053001e-02 scatter_volume 1.042853e-02
HYPOCENTER  x 738.202 y 9818.56 z 1.09304  OT 6.14245  ix -1 iy -1 iz -1 MAXIMUM_LIKELIHOOD
GEOGRAPHIC  OT 2023 03 19  15 08 6.142450  Lat 9818.555804 Long 738.201637 Depth 1.093040
QUALITY  Pmax 3.47552e+69 MFmin 72.1085 MFmax 86.8297 RMS 0.0174418 Nphs 20 Gap 286.987 Dist 0.571563 Mamp -9.90 0 Mdur -9.90 0
VPVSRATIO  VpVsRatio 1.70161  Npair 10  Diff 0.529261
STATISTICS  ExpectX 738.221557 Y 9818.527732 Z 1.098296  CovXX 0.0135437 XY 0.000121081 XZ -0.000455678 YY 0.00952072 YZ -0.00479691 ZZ 0.00886818 EllAz1  2.29806 Dip1  46.9876 Len1  0.124338 Az2  294.01 Dip2  -19.0407 Len2  0.21682 Len3  2.241672e-01
STAT_GEOG  ExpectLat 9818.527732 Long 738.221557 Depth 1.098296
TRANSFORM  NONE
QML_OriginQuality  assocPhCt 20  usedPhCt 20  assocStaCt -1  usedStaCt 10  depthPhCt -1  stdErr 0.0174418  azGap 286.987  secAzGap 286.987  gtLevel -  minDist 0.571563 maxDist 5.00943 medDist 2.80298
QML_OriginUncertainty  horUnc -1  minHorUnc 0.14795  maxHorUnc 0.176519  azMaxHorUnc 88.2776
QML_ConfidenceEllipsoid  semiMajorAxisLength 0.224167  semiMinorAxisLength 0.124338  semiIntermediateAxisLength 0.21682  majorAxisPlunge 36.8045  majorAxisAzimuth 218.975  majorAxisRotation 82.824
FOCALMECH  Hyp  9818.555804 738.201637 1.093040 Mech  0 0 0 mf  0 nObs -1
PHASE ID Ins Cmp On Pha  FM Date     HrMn   Sec     Err  ErrMag    Coda      Amp       Per       PriorWt  >   TTpred    Res       Weight    StaLoc(X  Y         Z)        SDist    SAzim  RAz  RDip RQual    Tcorr       TTerr
M06          ?    BHZ  i P      c 20230319 1508    6.8211 GAU  2.66e-03 -1.00e+00  3.41e+02 -1.00e+00    1.0000 >    0.6709    0.0077    1.4663  738.3100 9819.1170   -1.3960    0.5716  10.93  10.9 165.5 10     0.0000    0.0134
M06          ?    BHN  e S      ? 20230319 1508    7.2953 GAU  2.13e-03 -1.00e+00 -1.00e+00 -1.00e+00    1.0000 >    1.1489    0.0040    1.3357  738.3100 9819.1170   -1.3960    0.5716  10.93  10.9 164.9 10     0.0000    0.0230
M14          ?    BHZ  i P      c 20230319 1508    6.9027 GAU  3.38e-03 -1.00e+00 -1.00e+00 -1.00e+00    1.0000 >    0.7766   -0.0163    1.2755  737.5530 9820.0110   -1.3980    1.5932 335.98 336.0 143.3 10     0.0000    0.0155
M14          ?    BHN  e S      ? 20230319 1508    7.4557 GAU  2.57e-03 -1.00e+00  3.74e+02 -1.00e+00    1.0000 >    1.3292   -0.0159    1.1455  737.5530 9820.0110   -1.3980    1.5932 335.98 336.0 141.6 10     0.0000    0.0266
M02          ?    BHZ  e P      c 20230319 1508    6.9724 GAU  9.70e-04 -1.00e+00 -1.00e+00 -1.00e+00    1.0000 >    0.8318   -0.0019    1.4738  736.5970 9819.4060   -1.4960    1.8160 297.92 297.9 140.3 10     0.0000    0.0166
M02          ?    BHN  e S      ? 20230319 1508    7.5793 GAU  7.88e-03 -1.00e+00  1.39e+03 -1.00e+00    1.0000 >    1.4240    0.0128    1.1664  736.5970 9819.4060   -1.4960    1.8160 297.92 297.9 138.4 10     0.0000    0.0285
M11          ?    BHZ  i P      c 20230319 1508    6.8509 GAU  2.35e-03 -1.00e+00 -1.00e+00 -1.00e+00    1.0000 >    0.8119   -0.1035    0.0204  738.4670 9820.4900   -1.3120    1.9523   7.81   7.8 135.7 10     0.0000    0.0162
M11          ?    BHE  e S      ? 20230319 1508    7.3404 GAU  2.90e-03 -1.00e+00 -1.00e+00 -1.00e+00    1.0000 >    1.3888   -0.1909    0.0028  738.4670 9820.4900   -1.3120    1.9523   7.81   7.8 133.5 10     0.0000    0.0278
M09          ?    BHZ  i P      c 20230319 1508    7.0405 GAU  1.63e-03 -1.00e+00  7.51e+01 -1.00e+00    1.0000 >    0.8910    0.0070    1.4142  737.8820 9820.9850   -1.2700    2.4501 352.50 352.5 127.0 10     0.0000    0.0178
M09          ?    BHE  e S      ? 20230319 1508    7.7184 GAU  2.78e-03 -1.00e+00  3.19e+02 -1.00e+00    1.0000 >    1.5230    0.0530    0.6121  737.8820 9820.9850   -1.2700    2.4501 352.50 352.5 124.4 10     0.0000    0.0305
M13          ?    BHZ  i P      c 20230319 1508    7.1534 GAU  2.67e-03 -1.00e+00 -1.00e+00 -1.00e+00    1.0000 >    1.0232   -0.0123    1.2947  737.1780 9821.5410   -1.2220    3.1558 341.07 341.1 116.7 10     0.0000    0.0205
M13          ?    BHE  e S      ? 20230319 1508    7.8906 GAU  2.12e-03 -1.00e+00 -1.00e+00 -1.00e+00    1.0000 >    1.7463    0.0018    1.1147  737.1780 9821.5410   -1.2220    3.1558 341.07 341.1 113.0 10     0.0000    0.0349
M10          ?    BHZ  e P      d 20230319 1508    7.1830 GAU  2.78e-03 -1.00e+00  1.27e+03 -1.00e+00    1.0000 >    1.0447   -0.0042    1.3719  736.5490 9821.3650   -1.2200    3.2593 329.53 329.5 115.5 10     0.0000    0.0209
M10          ?    BHN  e S      ? 20230319 1508    7.9277 GAU  3.04e-03 -1.00e+00  2.07e+03 -1.00e+00    1.0000 >    1.7827    0.0026    1.1016  736.5490 9821.3650   -1.2200    3.2593 329.53 329.5 111.6 10     0.0000    0.0357
M08          ?    BHZ  i P      d 20230319 1508    7.2515 GAU  2.46e-03 -1.00e+00  4.80e+02 -1.00e+00    1.0000 >    1.1079    0.0011    1.3585  738.2480 9822.1600   -1.1510    3.6045   0.74   0.7 110.4 10     0.0000    0.0222
M08          ?    BHE  e S      ? 20230319 1508    8.0224 GAU  7.30e-04 -1.00e+00 -1.00e+00 -1.00e+00    1.0000 >    1.8880   -0.0081    1.0445  738.2480 9822.1600   -1.1510    3.6045   0.74   0.7 106.3 10     0.0000    0.0378
M05          ?    BHZ  i P      c 20230319 1508    7.4007 GAU  4.40e-03 -1.00e+00  4.16e+01 -1.00e+00    1.0000 >    1.2015    0.0568    0.4985  736.2660 9822.0830   -1.1500    4.0234 331.24 331.2 106.0 10     0.0000    0.0240
M05          ?    BHN  e S      ? 20230319 1508    8.2852 GAU  2.17e-03 -1.00e+00  2.73e+02 -1.00e+00    1.0000 >    2.0449    0.0979    0.2299  736.2660 9822.0830   -1.1500    4.0234 331.24 331.2 101.5  9     0.0000    0.0409
M12          ?    BHZ  e P      c 20230319 1508    7.5376 GAU  2.49e-03 -1.00e+00 -1.00e+00 -1.00e+00    1.0000 >    1.4061   -0.0109    1.1789  736.8520 9823.3800   -0.9890    5.0094 344.37 344.4  95.7  9     0.0000    0.0281
M12          ?    BHE  e S      ? 20230319 1508    8.5411 GAU  2.00e-03 -1.00e+00 -1.00e+00 -1.00e+00    1.0000 >    2.3782    0.0204    0.8941  736.8520 9823.3800   -0.9890    5.0094 344.37 344.4  94.2  9     0.0000    0.0476
END_PHASE
END_NLLOC

