NLLOC "./loc/SEML.20230319.150749.grid0" "LOCATED" "Location completed."
PUBLIC_ID None
SIGNATURE "Arham Zakki Edelo - edelo.17034@mhs.its.ac.id   obs:./obs/2023_03.obs   NLLoc:v7.00.10(30Aug2020)   run:28Dec2023 19h56m25"
COMMENT "SEML"
GRID  2001 2001 1001  727 9811 -2  0.01 0.01 0.01 PROB_DENSITY
SEARCH OCTREE nInitial 4851 nEvaluated 20019 smallestNodeSide 0.014881/0.014881/0.014205 oct_tree_integral 3.340295e-02 scatter_volume 3.340295e-02
HYPOCENTER  x 738.332 y 9818.42 z 1.10369  OT 48.6276  ix -1 iy -1 iz -1 MAXIMUM_LIKELIHOOD
GEOGRAPHIC  OT 2023 03 19  15 07 48.627634  Lat 9818.418155 Long 738.331845 Depth 1.103693
QUALITY  Pmax 1.5138e+73 MFmin 79.0518 MFmax 97.2726 RMS 0.0363418 Nphs 22 Gap 295.925 Dist 0.699187 Mamp -9.90 0 Mdur -9.90 0
VPVSRATIO  VpVsRatio 1.90028  Npair 11  Diff 0.515724
STATISTICS  ExpectX 738.381017 Y 9818.352535 Z 0.951714  CovXX 0.0522978 XY -0.0134921 XZ -0.0336137 YY 0.0238251 YZ 0.0185123 ZZ 0.0921688 EllAz1  14.8971 Dip1  -7.09385 Len1  0.251032 Az2  280.463 Dip2  -31.8516 Len2  0.344154 Len3  6.423477e-01
STAT_GEOG  ExpectLat 9818.352535 Long 738.381017 Depth 0.951714
TRANSFORM  NONE
QML_OriginQuality  assocPhCt 22  usedPhCt 22  assocStaCt -1  usedStaCt 11  depthPhCt -1  stdErr 0.0363418  azGap 295.925  secAzGap 295.925  gtLevel -  minDist 0.699187 maxDist 5.17782 medDist 2.60597
QML_OriginUncertainty  horUnc -1  minHorUnc 0.205983  maxHorUnc 0.364216  azMaxHorUnc 111.731
QML_ConfidenceEllipsoid  semiMajorAxisLength 0.642348  semiMinorAxisLength 0.251032  semiIntermediateAxisLength 0.344154  majorAxisPlunge -57.1816  majorAxisAzimuth 116.023  majorAxisRotation 150.434
FOCALMECH  Hyp  9818.418155 738.331845 1.103693 Mech  0 0 0 mf  0 nObs -1
PHASE ID Ins Cmp On Pha  FM Date     HrMn   Sec     Err  ErrMag    Coda      Amp       Per       PriorWt  >   TTpred    Res       Weight    StaLoc(X  Y         Z)        SDist    SAzim  RAz  RDip RQual    Tcorr       TTerr
M06          ?    BHZ  i P      c 20230319 1507   49.3174 GAU  5.39e-04 -1.00e+00 -1.00e+00 -1.00e+00    1.0000 >    0.6816    0.0081    1.4519  738.3100 9819.1170   -1.3960    0.6992 358.21 358.2 162.5 10     0.0000    0.0136
M06          ?    BHN  e S      ? 20230319 1507   49.8089 GAU  1.29e-03 -1.00e+00 -1.00e+00 -1.00e+00    1.0000 >    1.1670    0.0143    1.2849  738.3100 9819.1170   -1.3960    0.6992 358.21 358.2 161.8 10     0.0000    0.0233
M04          ?    BHZ  e P      c 20230319 1507   49.3749 GAU  3.34e-03 -1.00e+00 -1.00e+00 -1.00e+00    1.0000 >    0.8017   -0.0544    1.0929  737.1400 9819.2520   -1.5710    1.4546 304.98 305.0 147.8 10     0.0000    0.0160
M04          ?    BHE  e S      ? 20230319 1507   49.8611 GAU  9.56e-04 -1.00e+00  2.70e+02 -1.00e+00    1.0000 >    1.3729   -0.1394    0.0572  737.1400 9819.2520   -1.5710    1.4546 304.98 305.0 146.3 10     0.0000    0.0275
M14          ?    BHZ  i P      c 20230319 1507   49.4165 GAU  2.00e-03 -1.00e+00 -1.00e+00 -1.00e+00    1.0000 >    0.8048   -0.0160    1.5754  737.5530 9820.0110   -1.3980    1.7731 333.94 333.9 140.1 10     0.0000    0.0161
M14          ?    BHE  e S      ? 20230319 1507   49.9279 GAU  3.20e-03 -1.00e+00  3.49e+02 -1.00e+00    1.0000 >    1.3771   -0.0769    0.6639  737.5530 9820.0110   -1.3980    1.7731 333.94 333.9 138.2 10     0.0000    0.0275
M02          ?    BHZ  e P      c 20230319 1507   49.4991 GAU  1.39e-03 -1.00e+00 -1.00e+00 -1.00e+00    1.0000 >    0.8617    0.0099    1.4058  736.5970 9819.4060   -1.4960    1.9964 299.66 299.7 137.4 10     0.0000    0.0172
M02          ?    BHN  e S      ? 20230319 1507   50.0909 GAU  1.96e-03 -1.00e+00  2.48e+03 -1.00e+00    1.0000 >    1.4747   -0.0114    1.4815  736.5970 9819.4060   -1.4960    1.9964 299.66 299.7 135.3 10     0.0000    0.0295
M11          ?    BHZ  i P      c 20230319 1507   49.4124 GAU  2.19e-03 -1.00e+00 -1.00e+00 -1.00e+00    1.0000 >    0.8344   -0.0496    1.1991  738.4670 9820.4900   -1.3120    2.0762   3.73   3.7 133.8 10     0.0000    0.0167
M11          ?    BHN  e S      ? 20230319 1507   50.0281 GAU  1.92e-03 -1.00e+00 -1.00e+00 -1.00e+00    1.0000 >    1.4269   -0.0263    1.4586  738.4670 9820.4900   -1.3120    2.0762   3.73   3.7 131.5 10     0.0000    0.0285
M09          ?    BHZ  i P      c 20230319 1507   49.5024 GAU  3.34e-03 -1.00e+00  1.06e+02 -1.00e+00    1.0000 >    0.9222   -0.0474    1.2426  737.8820 9820.9850   -1.2700    2.6060 350.06 350.1 124.9 10     0.0000    0.0184
M09          ?    BHE  e S      ? 20230319 1507   50.2184 GAU  1.99e-03 -1.00e+00  3.09e+02 -1.00e+00    1.0000 >    1.5756    0.0151    1.2245  737.8820 9820.9850   -1.2700    2.6060 350.06 350.1 122.1 10     0.0000    0.0315
M13          ?    BHZ  i P      c 20230319 1507   49.6575 GAU  7.45e-04 -1.00e+00 -1.00e+00 -1.00e+00    1.0000 >    1.0610   -0.0312    1.4736  737.1780 9821.5410   -1.2220    3.3292 339.72 339.7 114.9 10     0.0000    0.0212
M13          ?    BHE  e S      ? 20230319 1507   50.4339 GAU  4.42e-03 -1.00e+00 -1.00e+00 -1.00e+00    1.0000 >    1.8099   -0.0037    1.3580  737.1780 9821.5410   -1.2220    3.3292 339.72 339.7 111.1 10     0.0000    0.0362
M10          ?    BHZ  i P      d 20230319 1507   49.8132 GAU  5.77e-03 -1.00e+00  6.09e+02 -1.00e+00    1.0000 >    1.0854    0.1002    0.2375  736.5490 9821.3650   -1.2200    3.4442 328.83 328.8 113.6 10     0.0000    0.0217
M10          ?    BHE  e S      ? 20230319 1507   50.7660 GAU  1.15e-03 -1.00e+00  8.07e+02 -1.00e+00    1.0000 >    1.8510    0.2874    0.0194  736.5490 9821.3650   -1.2200    3.4442 328.83 328.8 109.7 10     0.0000    0.0370
M08          ?    BHZ  i P      d 20230319 1507   49.7712 GAU  3.34e-03 -1.00e+00  2.35e+02 -1.00e+00    1.0000 >    1.1394    0.0042    1.4488  738.2480 9822.1600   -1.1510    3.7428 358.72 358.7 109.3 10     0.0000    0.0228
M08          ?    BHN  e S      ? 20230319 1507   50.7128 GAU  6.06e-04 -1.00e+00  2.66e+02 -1.00e+00    1.0000 >    1.9406    0.1445    0.1831  738.2480 9822.1600   -1.1510    3.7428 358.72 358.7 105.0 10     0.0000    0.0388
M05          ?    BHZ  e P      d 20230319 1507   49.9481 GAU  4.38e-03 -1.00e+00  3.50e+02 -1.00e+00    1.0000 >    1.2438    0.0767    0.3301  736.2660 9822.0830   -1.1500    4.2070 330.59 330.6 104.5 10     0.0000    0.0249
M05          ?    BHN  e S      ? 20230319 1507   50.9286 GAU  4.15e-03 -1.00e+00  2.44e+02 -1.00e+00    1.0000 >    2.1153    0.1856    0.1130  736.2660 9822.0830   -1.1500    4.2070 330.59 330.6 100.2  9     0.0000    0.0423
M12          ?    BHZ  e P      d 20230319 1507   50.0598 GAU  6.64e-03 -1.00e+00 -1.00e+00 -1.00e+00    1.0000 >    1.4457   -0.0135    1.4831  736.8520 9823.3800   -0.9890    5.1778 343.39 343.4  95.5  9     0.0000    0.0289
M12          ?    BHE  e S      ? 20230319 1507   51.0618 GAU  2.34e-03 -1.00e+00 -1.00e+00 -1.00e+00    1.0000 >    2.4434   -0.0092    1.2151  736.8520 9823.3800   -0.9890    5.1778 343.39 343.4  94.1  9     0.0000    0.0489
END_PHASE
END_NLLOC

