NLLOC "./loc/SEML.20230319.151415.grid0" "LOCATED" "Location completed."
PUBLIC_ID None
SIGNATURE "Arham Zakki Edelo - edelo.17034@mhs.its.ac.id   obs:./obs/2023_03.obs   NLLoc:v7.00.10(30Aug2020)   run:28Dec2023 19h56m29"
COMMENT "SEML"
GRID  2001 2001 1001  727 9811 -2  0.01 0.01 0.01 PROB_DENSITY
SEARCH OCTREE nInitial 4851 nEvaluated 20003 smallestNodeSide 0.029762/0.029762/0.028409 oct_tree_integral 8.044822e-02 scatter_volume 8.044822e-02
HYPOCENTER  x 737.432 y 9818.93 z 1.84943  OT 14.5445  ix -1 iy -1 iz -1 MAXIMUM_LIKELIHOOD
GEOGRAPHIC  OT 2023 03 19  15 14 14.544503  Lat 9818.931548 Long 737.431548 Depth 1.849432
QUALITY  Pmax 6.0029e+20 MFmin 28.1977 MFmax 37.6692 RMS 0.00852664 Nphs 8 Gap 288.34 Dist 0.897815 Mamp -9.90 0 Mdur -9.90 0
VPVSRATIO  VpVsRatio 1.73061  Npair 4  Diff 0.25415
STATISTICS  ExpectX 737.465356 Y 9818.828621 Z 1.524412  CovXX 0.719569 XY 0.142257 XZ -0.0060778 YY 0.216137 YZ 0.34032 ZZ 1.02008 EllAz1  167.589 Dip1  19.2261 Len1  0.472721 Az2  260.999 Dip2  9.68067 Len2  1.61967 Len3  2.014231e+00
STAT_GEOG  ExpectLat 9818.828621 Long 737.465356 Depth 1.524412
TRANSFORM  NONE
QML_OriginQuality  assocPhCt 8  usedPhCt 8  assocStaCt -1  usedStaCt 4  depthPhCt -1  stdErr 0.00852664  azGap 288.34  secAzGap 288.34  gtLevel -  minDist 0.897815 maxDist 2.10228 medDist 1.47867
QML_OriginUncertainty  horUnc -1  minHorUnc 0.641137  maxHorUnc 1.3195  azMaxHorUnc 75.2636
QML_ConfidenceEllipsoid  semiMajorAxisLength 2.01423  semiMinorAxisLength 0.472721  semiIntermediateAxisLength 1.61967  majorAxisPlunge 68.3  majorAxisAzimuth 16.3819  majorAxisRotation 290.356
FOCALMECH  Hyp  9818.931548 737.431548 1.849432 Mech  0 0 0 mf  0 nObs -1
PHASE ID Ins Cmp On Pha  FM Date     HrMn   Sec     Err  ErrMag    Coda      Amp       Per       PriorWt  >   TTpred    Res       Weight    StaLoc(X  Y         Z)        SDist    SAzim  RAz  RDip RQual    Tcorr       TTerr
M06          ?    BHZ  i P      d 20230319 1514   15.4082 GAU  5.09e-03 -1.00e+00 -1.00e+00 -1.00e+00    1.0000 >    0.8612    0.0026    1.5210  738.3100 9819.1170   -1.3960    0.8978  78.08  78.1 162.7 10     0.0000    0.0172
M06          ?    BHN  e S      ? 20230319 1514   16.0042 GAU  2.75e-03 -1.00e+00 -1.00e+00 -1.00e+00    1.0000 >    1.4615   -0.0018    1.2813  738.3100 9819.1170   -1.3960    0.8978  78.08  78.1 162.2 10     0.0000    0.0292
M14          ?    BHZ  e P      d 20230319 1514   15.4243 GAU  6.55e-03 -1.00e+00  3.67e+02 -1.00e+00    1.0000 >    0.8757    0.0040    1.4994  737.5530 9820.0110   -1.3980    1.0863   6.42   6.4 159.4 10     0.0000    0.0175
M14          ?    BHN  e S      ? 20230319 1514   16.0283 GAU  2.67e-03 -1.00e+00  3.23e+02 -1.00e+00    1.0000 >    1.4861   -0.0024    1.2693  737.5530 9820.0110   -1.3980    1.0863   6.42   6.4 158.8 10     0.0000    0.0297
M11          ?    BHZ  e P      c 20230319 1514   15.4699 GAU  4.15e-03 -1.00e+00 -1.00e+00 -1.00e+00    1.0000 >    0.9371   -0.0118    1.3674  738.4670 9820.4900   -1.3120    1.8711  33.60  33.6 145.9 10     0.0000    0.0187
M11          ?    BHN  e S      ? 20230319 1514   16.1538 GAU  6.92e-03 -1.00e+00 -1.00e+00 -1.00e+00    1.0000 >    1.5888    0.0205    1.0617  738.4670 9820.4900   -1.3120    1.8711  33.60  33.6 144.8 10     0.0000    0.0318
M09          ?    BHZ  e P      c 20230319 1514   15.7354 GAU  3.84e-03 -1.00e+00 -1.00e+00 -1.00e+00    1.0000 >    0.9584    0.2325    0.0000  737.8820 9820.9850   -1.2700    2.1023  12.37  12.4 142.1 10     0.0000    0.0192
M09          ?    BHN  e S      ? 20230319 1514   16.5855 GAU  5.20e-03 -1.00e+00  4.74e+02 -1.00e+00    1.0000 >    1.6241    0.4169    0.0000  737.8820 9820.9850   -1.2700    2.1023  12.37  12.4 140.9 10     0.0000    0.0325
END_PHASE
END_NLLOC

