NLLOC "./loc/SEML.20230330.103942.grid0" "LOCATED" "Location completed."
PUBLIC_ID None
SIGNATURE "Arham Zakki Edelo - edelo.17034@mhs.its.ac.id   obs:./obs/2023_03.obs   NLLoc:v7.00.10(30Aug2020)   run:28Dec2023 19h56m34"
COMMENT "SEML"
GRID  2001 2001 1001  727 9811 -2  0.01 0.01 0.01 PROB_DENSITY
SEARCH OCTREE nInitial 4851 nEvaluated 20011 smallestNodeSide 0.007440/0.007440/0.007102 oct_tree_integral 9.186630e-03 scatter_volume 9.186630e-03
HYPOCENTER  x 738.031 y 9818.46 z 0.602983  OT 42.122  ix -1 iy -1 iz -1 MAXIMUM_LIKELIHOOD
GEOGRAPHIC  OT 2023 03 30  10 39 42.121967  Lat 9818.459077 Long 738.030506 Depth 0.602983
QUALITY  Pmax 8.24982e+53 MFmin 63.3524 MFmax 75.0399 RMS 0.0154185 Nphs 16 Gap 280.431 Dist 0.714828 Mamp -9.90 0 Mdur -9.90 0
VPVSRATIO  VpVsRatio 1.73668  Npair 8  Diff 0.493458
STATISTICS  ExpectX 738.055869 Y 9818.439895 Z 0.573078  CovXX 0.0109372 XY -0.00356938 XZ -0.00505401 YY 0.00727362 YZ 0.00168061 ZZ 0.017161 EllAz1  36.282 Dip1  7.61997 Len1  0.131951 Az2  311.307 Dip2  -33.2153 Len2  0.184742 Len3  2.707802e-01
STAT_GEOG  ExpectLat 9818.439895 Long 738.055869 Depth 0.573078
TRANSFORM  NONE
QML_OriginQuality  assocPhCt 16  usedPhCt 16  assocStaCt -1  usedStaCt 8  depthPhCt -1  stdErr 0.0154185  azGap 280.431  secAzGap 280.431  gtLevel -  minDist 0.714828 maxDist 4.03067 medDist 1.89766
QML_OriginUncertainty  horUnc -1  minHorUnc 0.108235  maxHorUnc 0.173695  azMaxHorUnc 121.417
QML_ConfidenceEllipsoid  semiMajorAxisLength 0.27078  semiMinorAxisLength 0.131951  semiIntermediateAxisLength 0.184742  majorAxisPlunge -55.6943  majorAxisAzimuth 114.974  majorAxisRotation 213.575
FOCALMECH  Hyp  9818.459077 738.030506 0.602983 Mech  0 0 0 mf  0 nObs -1
PHASE ID Ins Cmp On Pha  FM Date     HrMn   Sec     Err  ErrMag    Coda      Amp       Per       PriorWt  >   TTpred    Res       Weight    StaLoc(X  Y         Z)        SDist    SAzim  RAz  RDip RQual    Tcorr       TTerr
M06          ?    BHZ  i P      c 20230330 1039   42.6925 GAU  2.10e-03 -1.00e+00 -1.00e+00 -1.00e+00    1.0000 >    0.5634    0.0072    1.3965  738.3100 9819.1170   -1.3960    0.7148  23.02  23.0 159.6 10     0.0000    0.0113
M06          ?    BHN  e S      ? 20230330 1039   43.1157 GAU  2.86e-03 -1.00e+00 -1.00e+00 -1.00e+00    1.0000 >    0.9783    0.0155    1.1149  738.3100 9819.1170   -1.3960    0.7148  23.02  23.0 157.8 10     0.0000    0.0196
M04          ?    BHZ  e P      c 20230330 1039   42.7705 GAU  2.07e-03 -1.00e+00 -1.00e+00 -1.00e+00    1.0000 >    0.6597   -0.0111    1.3522  737.1400 9819.2520   -1.5710    1.1924 311.68 311.7 150.1 10     0.0000    0.0132
M04          ?    BHN  e S      ? 20230330 1039   43.2228 GAU  2.80e-03 -1.00e+00  7.96e+02 -1.00e+00    1.0000 >    1.1448   -0.0440    0.5132  737.1400 9819.2520   -1.5710    1.1924 311.68 311.7 147.4 10     0.0000    0.0229
M14          ?    BHZ  e P      c 20230330 1039   42.8014 GAU  2.37e-03 -1.00e+00 -1.00e+00 -1.00e+00    1.0000 >    0.6834   -0.0040    1.4411  737.5530 9820.0110   -1.3980    1.6237 342.90 342.9 139.4 10     0.0000    0.0137
M14          ?    BHE  e S      ? 20230330 1039   43.2960 GAU  2.58e-03 -1.00e+00  4.75e+02 -1.00e+00    1.0000 >    1.1864   -0.0123    1.1550  737.5530 9820.0110   -1.3980    1.6237 342.90 342.9 135.3 10     0.0000    0.0237
M02          ?    BHZ  e P      c 20230330 1039   42.8525 GAU  1.55e-03 -1.00e+00 -1.00e+00 -1.00e+00    1.0000 >    0.7205    0.0100    1.3011  736.5970 9819.4060   -1.4960    1.7180 303.45 303.4 139.1 10     0.0000    0.0144
M02          ?    BHN  e S      ? 20230330 1039   43.3801 GAU  1.29e-03 -1.00e+00 -1.00e+00 -1.00e+00    1.0000 >    1.2505    0.0077    1.1486  736.5970 9819.4060   -1.4960    1.7180 303.45 303.4 134.8 10     0.0000    0.0250
M11          ?    BHZ  i P      c 20230330 1039   42.8477 GAU  2.08e-03 -1.00e+00 -1.00e+00 -1.00e+00    1.0000 >    0.7478   -0.0220    1.0487  738.4670 9820.4900   -1.3120    2.0773  12.13  12.1 130.5 10     0.0000    0.0150
M11          ?    BHE  e S      ? 20230330 1039   43.4171 GAU  2.46e-03 -1.00e+00 -1.00e+00 -1.00e+00    1.0000 >    1.2983   -0.0032    1.1681  738.4670 9820.4900   -1.3120    2.0773  12.13  12.1 124.6 10     0.0000    0.0260
M09          ?    BHZ  i P      c 20230330 1039   42.9423 GAU  2.31e-03 -1.00e+00  1.07e+02 -1.00e+00    1.0000 >    0.8325   -0.0122    1.2832  737.8820 9820.9850   -1.2700    2.5303 356.64 356.6 123.9 10     0.0000    0.0167
M09          ?    BHN  e S      ? 20230330 1039   43.5834 GAU  2.25e-03 -1.00e+00  4.74e+02 -1.00e+00    1.0000 >    1.4452    0.0162    0.9872  737.8820 9820.9850   -1.2700    2.5303 356.64 356.6 116.3 10     0.0000    0.0289
M13          ?    BHZ  e P      d 20230330 1039   43.0986 GAU  2.61e-03 -1.00e+00  2.16e+02 -1.00e+00    1.0000 >    0.9725    0.0041    1.2964  737.1780 9821.5410   -1.2220    3.1977 344.54 344.5 116.5 10     0.0000    0.0195
M13          ?    BHN  e S      ? 20230330 1039   43.8407 GAU  2.82e-03 -1.00e+00 -1.00e+00 -1.00e+00    1.0000 >    1.6871    0.0316    0.7350  737.1780 9821.5410   -1.2220    3.1977 344.54 344.5 105.9 10     0.0000    0.0337
M05          ?    BHZ  e P      c 20230330 1039   43.3980 GAU  2.41e-03 -1.00e+00 -1.00e+00 -1.00e+00    1.0000 >    1.1586    0.1175    0.0352  736.2660 9822.0830   -1.1500    4.0307 334.04 334.0 109.7 10     0.0000    0.0232
M05          ?    BHN  e S      ? 20230330 1039   44.3147 GAU  3.26e-03 -1.00e+00  2.66e+02 -1.00e+00    1.0000 >    2.0045    0.1882    0.0235  736.2660 9822.0830   -1.1500    4.0307 334.04 334.0  96.6  9     0.0000    0.0401
END_PHASE
END_NLLOC

