NLLOC "./loc/SEML.20230330.104130.grid0" "LOCATED" "Location completed."
PUBLIC_ID None
SIGNATURE "Arham Zakki Edelo - edelo.17034@mhs.its.ac.id   obs:./obs/2023_03.obs   NLLoc:v7.00.10(30Aug2020)   run:28Dec2023 19h56m40"
COMMENT "SEML"
GRID  2001 2001 1001  727 9811 -2  0.01 0.01 0.01 PROB_DENSITY
SEARCH OCTREE nInitial 4851 nEvaluated 20011 smallestNodeSide 0.029762/0.029762/0.028409 oct_tree_integral 2.350257e-01 scatter_volume 2.350257e-01
HYPOCENTER  x 737.193 y 9818.04 z 1.25284  OT 29.9322  ix -1 iy -1 iz -1 MAXIMUM_LIKELIHOOD
GEOGRAPHIC  OT 2023 03 30  10 41 29.932211  Lat 9818.038690 Long 737.193452 Depth 1.252841
QUALITY  Pmax 2.48877e+21 MFmin 28.1455 MFmax 33.7736 RMS 0.0183101 Nphs 8 Gap 324.333 Dist 1.55223 Mamp -9.90 0 Mdur -9.90 0
VPVSRATIO  VpVsRatio 1.82992  Npair 4  Diff 0.198732
STATISTICS  ExpectX 737.395463 Y 9817.821881 Z 1.039076  CovXX 0.407681 XY -0.0163368 XZ 0.0611982 YY 0.0658969 YZ 0.0785211 ZZ 0.244919 EllAz1  186.222 Dip1  21.7472 Len1  0.339272 Az2  320.773 Dip2  60.3772 Len2  0.9534 Len3  1.229722e+00
STAT_GEOG  ExpectLat 9817.821881 Long 737.395463 Depth 1.039076
TRANSFORM  NONE
QML_OriginQuality  assocPhCt 8  usedPhCt 8  assocStaCt -1  usedStaCt 4  depthPhCt -1  stdErr 0.0183101  azGap 324.333  secAzGap 324.333  gtLevel -  minDist 1.55223 maxDist 3.0257 medDist 2.38361
QML_OriginUncertainty  horUnc -1  minHorUnc 0.387003  maxHorUnc 0.969257  azMaxHorUnc 92.7304
QML_ConfidenceEllipsoid  semiMajorAxisLength 1.22972  semiMinorAxisLength 0.339272  semiIntermediateAxisLength 0.9534  majorAxisPlunge 19.0972  majorAxisAzimuth 88.2837  majorAxisRotation 28.472
FOCALMECH  Hyp  9818.038690 737.193452 1.252841 Mech  0 0 0 mf  0 nObs -1
PHASE ID Ins Cmp On Pha  FM Date     HrMn   Sec     Err  ErrMag    Coda      Amp       Per       PriorWt  >   TTpred    Res       Weight    StaLoc(X  Y         Z)        SDist    SAzim  RAz  RDip RQual    Tcorr       TTerr
M06          ?    BHZ  i P      c 20230330 1041   30.7357 GAU  2.47e-03 -1.00e+00 -1.00e+00 -1.00e+00    1.0000 >    0.8012    0.0023    1.3564  738.3100 9819.1170   -1.3960    1.5522  46.00  46.0 146.1 10     0.0000    0.0160
M06          ?    BHE  e S      ? 20230330 1041   31.3161 GAU  4.13e-03 -1.00e+00 -1.00e+00 -1.00e+00    1.0000 >    1.3683    0.0156    1.1462  738.3100 9819.1170   -1.3960    1.5522  46.00  46.0 144.7 10     0.0000    0.0274
M14          ?    BHZ  i P      c 20230330 1041   30.7987 GAU  4.81e-03 -1.00e+00 -1.00e+00 -1.00e+00    1.0000 >    0.8670   -0.0005    1.3327  737.5530 9820.0110   -1.3980    2.0048  10.33  10.3 138.3 10     0.0000    0.0173
M14          ?    BHE  e S      ? 20230330 1041   31.4087 GAU  5.77e-03 -1.00e+00  4.41e+02 -1.00e+00    1.0000 >    1.4801   -0.0036    1.1279  737.5530 9820.0110   -1.3980    2.0048  10.33  10.3 136.5 10     0.0000    0.0296
M11          ?    BHZ  e P      c 20230330 1041   30.9006 GAU  1.78e-03 -1.00e+00 -1.00e+00 -1.00e+00    1.0000 >    0.9808   -0.0124    1.1575  738.4670 9820.4900   -1.3120    2.7624  27.45  27.5 126.2 10     0.0000    0.0196
M11          ?    BHE  e S      ? 20230330 1041   31.6027 GAU  4.61e-03 -1.00e+00 -1.00e+00 -1.00e+00    1.0000 >    1.6722   -0.0017    1.0823  738.4670 9820.4900   -1.3120    2.7624  27.45  27.5 123.7 10     0.0000    0.0334
M09          ?    BHZ  i P      c 20230330 1041   30.9993 GAU  3.15e-03 -1.00e+00  2.83e+01 -1.00e+00    1.0000 >    1.0239    0.0432    0.6522  737.8820 9820.9850   -1.2700    3.0257  13.15  13.2 122.3 10     0.0000    0.0205
M09          ?    BHE  e S      ? 20230330 1041   31.7784 GAU  3.34e-03 -1.00e+00  3.95e+02 -1.00e+00    1.0000 >    1.7444    0.1018    0.1447  737.8820 9820.9850   -1.2700    3.0257  13.15  13.2 119.6 10     0.0000    0.0349
END_PHASE
END_NLLOC

