NLLOC "./loc/SEML.20230319.151716.grid0" "LOCATED" "Location completed."
PUBLIC_ID None
SIGNATURE "Arham Zakki Edelo - edelo.17034@mhs.its.ac.id   obs:./obs/2023_03.obs   NLLoc:v7.00.10(30Aug2020)   run:28Dec2023 19h56m30"
COMMENT "SEML"
GRID  2001 2001 1001  727 9811 -2  0.01 0.01 0.01 PROB_DENSITY
SEARCH OCTREE nInitial 4851 nEvaluated 20003 smallestNodeSide 0.014881/0.014881/0.014205 oct_tree_integral 1.320235e-02 scatter_volume 1.307604e-02
HYPOCENTER  x 738.51 y 9818.06 z 0.27983  OT 15.4264  ix -1 iy -1 iz -1 MAXIMUM_LIKELIHOOD
GEOGRAPHIC  OT 2023 03 19  15 17 15.426447  Lat 9818.061012 Long 738.510417 Depth 0.279830
QUALITY  Pmax 1.7519e+75 MFmin 80.3569 MFmax 97.0801 RMS 0.0324913 Nphs 22 Gap 306.128 Dist 1.07484 Mamp -9.90 0 Mdur -9.90 0
VPVSRATIO  VpVsRatio 1.71223  Npair 11  Diff 0.623011
STATISTICS  ExpectX 738.461089 Y 9818.020949 Z 0.298340  CovXX 0.0257485 XY 0.0049293 XZ -0.0121974 YY 0.0139542 YZ -0.00459824 ZZ 0.0159024 EllAz1  67.036 Dip1  56.9948 Len1  0.162085 Az2  338.982 Dip2  -1.26373 Len2  0.207259 Len3  3.564521e-01
STAT_GEOG  ExpectLat 9818.020949 Long 738.461089 Depth 0.298340
TRANSFORM  NONE
QML_OriginQuality  assocPhCt 22  usedPhCt 22  assocStaCt -1  usedStaCt 11  depthPhCt -1  stdErr 0.0324913  azGap 306.128  secAzGap 306.128  gtLevel -  minDist 1.07484 maxDist 5.57153 medDist 2.99075
QML_OriginUncertainty  horUnc -1  minHorUnc 0.167273  maxHorUnc 0.251666  azMaxHorUnc 70.0543
QML_ConfidenceEllipsoid  semiMajorAxisLength 0.356452  semiMinorAxisLength 0.162085  semiIntermediateAxisLength 0.207259  majorAxisPlunge -32.9747  majorAxisAzimuth 69.8023  majorAxisRotation 90.6141
FOCALMECH  Hyp  9818.061012 738.510417 0.279830 Mech  0 0 0 mf  0 nObs -1
PHASE ID Ins Cmp On Pha  FM Date     HrMn   Sec     Err  ErrMag    Coda      Amp       Per       PriorWt  >   TTpred    Res       Weight    StaLoc(X  Y         Z)        SDist    SAzim  RAz  RDip RQual    Tcorr       TTerr
M06          ?    BHZ  i P      d 20230319 1517   16.0821 GAU  2.52e-03 -1.00e+00 -1.00e+00 -1.00e+00    1.0000 >    0.5311    0.1246    0.2489  738.3100 9819.1170   -1.3960    1.0748 349.25 349.3 146.3 10     0.0000    0.0106
M06          ?    BHN  i S      ? 20230319 1517   16.6177 GAU  2.17e-03 -1.00e+00 -1.00e+00 -1.00e+00    1.0000 >    0.9276    0.2637    0.0101  738.3100 9819.1170   -1.3960    1.0748 349.25 349.3 145.7 10     0.0000    0.0186
M04          ?    BHZ  e P      c 20230319 1517   16.1265 GAU  2.48e-03 -1.00e+00 -1.00e+00 -1.00e+00    1.0000 >    0.6931    0.0070    1.6138  737.1400 9819.2520   -1.5710    1.8156 310.99 311.0 133.7 10     0.0000    0.0139
M04          ?    BHN  e S      ? 20230319 1517   16.6267 GAU  2.72e-03 -1.00e+00  7.79e+02 -1.00e+00    1.0000 >    1.2092   -0.0090    1.4455  737.1400 9819.2520   -1.5710    1.8156 310.99 311.0 132.8 10     0.0000    0.0242
M14          ?    BHZ  e P      c 20230319 1517   16.1598 GAU  2.70e-03 -1.00e+00 -1.00e+00 -1.00e+00    1.0000 >    0.7317    0.0016    1.6529  737.5530 9820.0110   -1.3980    2.1723 333.85 333.8 125.3 10     0.0000    0.0146
M14          ?    BHE  i S      ? 20230319 1517   16.7036 GAU  2.15e-03 -1.00e+00  4.57e+02 -1.00e+00    1.0000 >    1.2781   -0.0010    1.4519  737.5530 9820.0110   -1.3980    2.1723 333.85 333.8 124.0 10     0.0000    0.0256
M02          ?    BHZ  i P      d 20230319 1517   16.1856 GAU  2.53e-03 -1.00e+00  1.18e+02 -1.00e+00    1.0000 >    0.7841   -0.0249    1.2234  736.5970 9819.4060   -1.4960    2.3388 305.10 305.1 124.7 10     0.0000    0.0157
M02          ?    BHE  e S      ? 20230319 1517   16.8133 GAU  2.78e-03 -1.00e+00  2.52e+03 -1.00e+00    1.0000 >    1.3687    0.0182    1.2673  736.5970 9819.4060   -1.4960    2.3388 305.10 305.1 123.4 10     0.0000    0.0274
M11          ?    BHZ  e P      d 20230319 1517   16.1890 GAU  2.55e-03 -1.00e+00  2.55e+02 -1.00e+00    1.0000 >    0.7730   -0.0104    1.5657  738.4670 9820.4900   -1.3120    2.4294 358.98 359.0 120.7 10     0.0000    0.0155
M11          ?    BHE  i S      ? 20230319 1517   16.7712 GAU  4.60e-03 -1.00e+00 -1.00e+00 -1.00e+00    1.0000 >    1.3512   -0.0064    1.4042  738.4670 9820.4900   -1.3120    2.4294 358.98 359.0 119.0 10     0.0000    0.0270
M09          ?    BHZ  i P      d 20230319 1517   16.3534 GAU  6.21e-03 -1.00e+00  6.95e+02 -1.00e+00    1.0000 >    0.8954    0.0316    1.0073  737.8820 9820.9850   -1.2700    2.9908 347.87 347.9 114.5 10     0.0000    0.0179
M09          ?    BHE  i S      ? 20230319 1517   17.0653 GAU  2.45e-03 -1.00e+00  3.09e+02 -1.00e+00    1.0000 >    1.5659    0.0730    0.4314  737.8820 9820.9850   -1.2700    2.9908 347.87 347.9 112.2 10     0.0000    0.0313
M13          ?    BHZ  i P      c 20230319 1517   16.4280 GAU  2.19e-03 -1.00e+00 -1.00e+00 -1.00e+00    1.0000 >    1.0661   -0.0645    0.4067  737.1780 9821.5410   -1.2220    3.7263 339.05 339.0 108.6 10     0.0000    0.0213
M13          ?    BHN  e S      ? 20230319 1517   17.2130 GAU  2.41e-03 -1.00e+00 -1.00e+00 -1.00e+00    1.0000 >    1.8651   -0.0786    0.4015  737.1780 9821.5410   -1.2220    3.7263 339.05 339.0 105.5 10     0.0000    0.0373
M10          ?    BHZ  e P      d 20230319 1517   16.5250 GAU  4.28e-03 -1.00e+00  1.16e+03 -1.00e+00    1.0000 >    1.0943    0.0043    1.5047  736.5490 9821.3650   -1.2200    3.8423 329.30 329.3 108.0 10     0.0000    0.0219
M10          ?    BHN  e S      ? 20230319 1517   17.3656 GAU  4.59e-03 -1.00e+00  1.21e+03 -1.00e+00    1.0000 >    1.9145    0.0247    1.0746  736.5490 9821.3650   -1.2200    3.8423 329.30 329.3 104.8 10     0.0000    0.0383
M08          ?    BHZ  i P      d 20230319 1517   16.7010 GAU  3.09e-03 -1.00e+00  3.92e+02 -1.00e+00    1.0000 >    1.1517    0.1228    0.2668  738.2480 9822.1600   -1.1510    4.1074 356.34 356.3 105.9 10     0.0000    0.0230
M08          ?    BHN  e S      ? 20230319 1517   17.6134 GAU  2.25e-03 -1.00e+00  3.32e+02 -1.00e+00    1.0000 >    2.0158    0.1711    0.1293  738.2480 9822.1600   -1.1510    4.1074 356.34 356.3 102.3 10     0.0000    0.0403
M05          ?    BHZ  i P      d 20230319 1517   16.7014 GAU  2.02e-03 -1.00e+00  5.57e+02 -1.00e+00    1.0000 >    1.2761   -0.0012    1.4529  736.2660 9822.0830   -1.1500    4.6058 330.84 330.8 103.8 10     0.0000    0.0255
M05          ?    BHE  e S      ? 20230319 1517   17.6386 GAU  2.24e-03 -1.00e+00 -1.00e+00 -1.00e+00    1.0000 >    2.2332   -0.0210    1.0568  736.2660 9822.0830   -1.1500    4.6058 330.84 330.8  99.9 10     0.0000    0.0447
M12          ?    BHZ  i P      c 20230319 1517   16.9293 GAU  2.64e-03 -1.00e+00 -1.00e+00 -1.00e+00    1.0000 >    1.5037   -0.0009    1.3628  736.8520 9823.3800   -0.9890    5.5715 342.68 342.7  99.8 10     0.0000    0.0301
M12          ?    BHE  e S      ? 20230319 1517   18.0525 GAU  3.41e-03 -1.00e+00  2.30e+01 -1.00e+00    1.0000 >    2.6311   -0.0050    1.0212  736.8520 9823.3800   -0.9890    5.5715 342.68 342.7  93.6  9     0.0000    0.0526
END_PHASE
END_NLLOC

