NLLOC "./loc/SEML.20230319.151723.grid0" "LOCATED" "Location completed."
PUBLIC_ID None
SIGNATURE "Arham Zakki Edelo - edelo.17034@mhs.its.ac.id   obs:./obs/2023_03.obs   NLLoc:v7.00.10(30Aug2020)   run:28Dec2023 19h56m31"
COMMENT "SEML"
GRID  2001 2001 1001  727 9811 -2  0.01 0.01 0.01 PROB_DENSITY
SEARCH OCTREE nInitial 4851 nEvaluated 20019 smallestNodeSide 0.014881/0.014881/0.014205 oct_tree_integral 4.199721e-02 scatter_volume 4.193185e-02
HYPOCENTER  x 737.647 y 9818.24 z 0.294034  OT 23.2595  ix -1 iy -1 iz -1 MAXIMUM_LIKELIHOOD
GEOGRAPHIC  OT 2023 03 19  15 17 23.259535  Lat 9818.239583 Long 737.647321 Depth 0.294034
QUALITY  Pmax 1.20343e+35 MFmin 44.4263 MFmax 56.7539 RMS 0.0223287 Nphs 12 Gap 314.143 Dist 1.09955 Mamp -9.90 0 Mdur -9.90 0
VPVSRATIO  VpVsRatio 1.73899  Npair 6  Diff 0.631016
STATISTICS  ExpectX 737.918708 Y 9818.224927 Z 0.379166  CovXX 0.27143 XY -0.0377252 XZ 0.0973359 YY 0.0411844 YZ -0.0357449 ZZ 0.0889435 EllAz1  173.171 Dip1  -34.6425 Len1  0.271149 Az2  217.726 Dip2  45.8832 Len2  0.454845 Len3  1.066345e+00
STAT_GEOG  ExpectLat 9818.224927 Long 737.918708 Depth 0.379166
TRANSFORM  NONE
QML_OriginQuality  assocPhCt 12  usedPhCt 12  assocStaCt -1  usedStaCt 6  depthPhCt -1  stdErr 0.0223287  azGap 314.143  secAzGap 314.143  gtLevel -  minDist 1.09955 maxDist 5.20158 medDist 2.57524
QML_OriginUncertainty  horUnc -1  minHorUnc 0.284376  maxHorUnc 0.798838  azMaxHorUnc 99.0719
QML_ConfidenceEllipsoid  semiMajorAxisLength 1.06635  semiMinorAxisLength 0.271149  semiIntermediateAxisLength 0.454845  majorAxisPlunge 23.6912  majorAxisAzimuth 100.82  majorAxisRotation 310.535
FOCALMECH  Hyp  9818.239583 737.647321 0.294034 Mech  0 0 0 mf  0 nObs -1
PHASE ID Ins Cmp On Pha  FM Date     HrMn   Sec     Err  ErrMag    Coda      Amp       Per       PriorWt  >   TTpred    Res       Weight    StaLoc(X  Y         Z)        SDist    SAzim  RAz  RDip RQual    Tcorr       TTerr
M06          ?    BHZ  i P      d 20230319 1517   23.7983 GAU  1.23e-03 -1.00e+00 -1.00e+00 -1.00e+00    1.0000 >    0.5377    0.0011    1.5478  738.3100 9819.1170   -1.3960    1.0995  37.06  37.1 146.0 10     0.0000    0.0108
M06          ?    BHN  i S      ? 20230319 1517   24.3557 GAU  8.30e-03 -1.00e+00 -1.00e+00 -1.00e+00    1.0000 >    0.9390    0.1571    0.0084  738.3100 9819.1170   -1.3960    1.0995  37.06  37.1 145.3 10     0.0000    0.0188
M14          ?    BHZ  e P      c 20230319 1517   23.9487 GAU  4.15e-03 -1.00e+00 -1.00e+00 -1.00e+00    1.0000 >    0.6533    0.0359    0.8670  737.5530 9820.0110   -1.3980    1.7739 356.95 357.0 131.8 10     0.0000    0.0131
M14          ?    BHE  e S      ? 20230319 1517   24.3986 GAU  1.50e-03 -1.00e+00  4.37e+02 -1.00e+00    1.0000 >    1.1410   -0.0019    1.4317  737.5530 9820.0110   -1.3980    1.7739 356.95 357.0 130.7 10     0.0000    0.0228
M11          ?    BHZ  i P      c 20230319 1517   23.9409 GAU  2.32e-03 -1.00e+00 -1.00e+00 -1.00e+00    1.0000 >    0.7672   -0.0859    0.1561  738.4670 9820.4900   -1.3120    2.3950  20.01  20.0 121.3 10     0.0000    0.0153
M11          ?    BHN  i S      ? 20230319 1517   24.6186 GAU  4.67e-03 -1.00e+00 -1.00e+00 -1.00e+00    1.0000 >    1.3410    0.0181    1.2849  738.4670 9820.4900   -1.3120    2.3950  20.01  20.0 119.8 10     0.0000    0.0268
M09          ?    BHZ  e P      c 20230319 1517   24.0858 GAU  1.39e-03 -1.00e+00 -1.00e+00 -1.00e+00    1.0000 >    0.8421   -0.0159    1.2703  737.8820 9820.9850   -1.2700    2.7554   4.89   4.9 116.8 10     0.0000    0.0168
M09          ?    BHN  i S      ? 20230319 1517   24.6785 GAU  4.61e-03 -1.00e+00  4.61e+02 -1.00e+00    1.0000 >    1.4725   -0.0535    0.6067  737.8820 9820.9850   -1.2700    2.7554   4.89   4.9 114.8 10     0.0000    0.0294
M08          ?    BHZ  e P      c 20230319 1517   24.3759 GAU  2.67e-03 -1.00e+00  3.48e+00 -1.00e+00    1.0000 >    1.1177   -0.0013    1.4407  738.2480 9822.1600   -1.1510    3.9662   8.71   8.7 106.8 10     0.0000    0.0224
M08          ?    BHE  e S      ? 20230319 1517   25.2392 GAU  4.01e-03 -1.00e+00 -1.00e+00 -1.00e+00    1.0000 >    1.9560    0.0236    1.0799  738.2480 9822.1600   -1.1510    3.9662   8.71   8.7 103.4 10     0.0000    0.0391
M12          ?    BHZ  e P      d 20230319 1517   24.6743 GAU  1.35e-03 -1.00e+00 -1.00e+00 -1.00e+00    1.0000 >    1.4103    0.0045    1.3559  736.8520 9823.3800   -0.9890    5.2016 351.20 351.2 100.9 10     0.0000    0.0282
M12          ?    BHE  e S      ? 20230319 1517   25.7552 GAU  4.30e-03 -1.00e+00  2.13e+01 -1.00e+00    1.0000 >    2.4684    0.0273    0.9505  736.8520 9823.3800   -0.9890    5.2016 351.20 351.2  97.0 10     0.0000    0.0494
END_PHASE
END_NLLOC

