NLLOC "./loc/SEML.20230330.104043.grid0" "LOCATED" "Location completed."
PUBLIC_ID None
SIGNATURE "Arham Zakki Edelo - edelo.17034@mhs.its.ac.id   obs:./obs/2023_03.obs   NLLoc:v7.00.10(30Aug2020)   run:28Dec2023 19h56m39"
COMMENT "SEML"
GRID  2001 2001 1001  727 9811 -2  0.01 0.01 0.01 PROB_DENSITY
SEARCH OCTREE nInitial 4851 nEvaluated 20019 smallestNodeSide 0.014881/0.014881/0.014205 oct_tree_integral 6.522051e-02 scatter_volume 6.479650e-02
HYPOCENTER  x 738.972 y 9818.11 z -0.046875  OT 42.4441  ix -1 iy -1 iz -1 MAXIMUM_LIKELIHOOD
GEOGRAPHIC  OT 2023 03 30  10 40 42.444114  Lat 9818.105655 Long 738.971726 Depth -0.046875
QUALITY  Pmax 1.14738e+72 MFmin 79.7739 MFmax 96.1585 RMS 0.0393736 Nphs 22 Gap 308.825 Dist 1.20859 Mamp -9.90 0 Mdur -9.90 0
VPVSRATIO  VpVsRatio 1.75195  Npair 11  Diff 0.629696
STATISTICS  ExpectX 738.677474 Y 9818.163957 Z 0.206073  CovXX 0.118943 XY -0.041215 XZ -0.127739 YY 0.0311199 YZ 0.0563898 ZZ 0.194303 EllAz1  5.19823 Dip1  -13.846 Len1  0.217606 Az2  265.028 Dip2  -35.6188 Len2  0.287991 Len3  1.041786e+00
STAT_GEOG  ExpectLat 9818.163957 Long 738.677474 Depth 0.206073
TRANSFORM  NONE
QML_OriginQuality  assocPhCt 22  usedPhCt 22  assocStaCt -1  usedStaCt 11  depthPhCt -1  stdErr 0.0393736  azGap 308.825  secAzGap 308.825  gtLevel -  minDist 1.20859 maxDist 5.68436 medDist 3.07866
QML_OriginUncertainty  horUnc -1  minHorUnc 0.184547  maxHorUnc 0.557751  azMaxHorUnc 111.593
QML_ConfidenceEllipsoid  semiMajorAxisLength 1.04179  semiMinorAxisLength 0.217606  semiIntermediateAxisLength 0.287991  majorAxisPlunge -50.9764  majorAxisAzimuth 112.903  majorAxisRotation 116.748
FOCALMECH  Hyp  9818.105655 738.971726 -0.046875 Mech  0 0 0 mf  0 nObs -1
PHASE ID Ins Cmp On Pha  FM Date     HrMn   Sec     Err  ErrMag    Coda      Amp       Per       PriorWt  >   TTpred    Res       Weight    StaLoc(X  Y         Z)        SDist    SAzim  RAz  RDip RQual    Tcorr       TTerr
M06          ?    BHZ  i P      d 20230330 1040   43.0413 GAU  1.51e-03 -1.00e+00 -1.00e+00 -1.00e+00    1.0000 >    0.4865    0.1107    0.1431  738.3100 9819.1170   -1.3960    1.2086 326.80 326.8 136.5 10     0.0000    0.0097
M06          ?    BHN  i S      ? 20230330 1040   43.5394 GAU  3.46e-03 -1.00e+00  1.91e+01 -1.00e+00    1.0000 >    0.8517    0.2436    0.0029  738.3100 9819.1170   -1.3960    1.2086 326.80 326.8 137.7 10     0.0000    0.0170
M04          ?    BHZ  e P      c 20230330 1040   43.1598 GAU  5.54e-03 -1.00e+00 -1.00e+00 -1.00e+00    1.0000 >    0.7119    0.0038    1.7411  737.1400 9819.2520   -1.5710    2.1609 302.04 302.0 122.0 10     0.0000    0.0142
M04          ?    BHE  e S      ? 20230330 1040   43.7191 GAU  1.16e-03 -1.00e+00  3.21e+02 -1.00e+00    1.0000 >    1.2446    0.0304    1.2519  737.1400 9819.2520   -1.5710    2.1609 302.04 302.0 124.2 10     0.0000    0.0249
M14          ?    BHZ  i P      d 20230330 1040   43.1715 GAU  4.98e-03 -1.00e+00  7.27e+02 -1.00e+00    1.0000 >    0.7338   -0.0064    1.7141  737.5530 9820.0110   -1.3980    2.3755 323.33 323.3 116.0 10     0.0000    0.0147
M14          ?    BHN  e S      ? 20230330 1040   43.7135 GAU  4.81e-03 -1.00e+00  1.66e+02 -1.00e+00    1.0000 >    1.2854   -0.0161    1.5184  737.5530 9820.0110   -1.3980    2.3755 323.33 323.3 118.5 10     0.0000    0.0257
M11          ?    BHZ  i P      d 20230330 1040   43.1754 GAU  7.35e-03 -1.00e+00  5.16e+02 -1.00e+00    1.0000 >    0.7361   -0.0049    1.7207  738.4670 9820.4900   -1.3120    2.4372 348.05 348.0 113.7 10     0.0000    0.0147
M11          ?    BHE  e S      ? 20230330 1040   43.7604 GAU  5.74e-03 -1.00e+00  1.06e+01 -1.00e+00    1.0000 >    1.2910    0.0252    1.3469  738.4670 9820.4900   -1.3120    2.4372 348.05 348.0 116.3 10     0.0000    0.0258
M02          ?    BHZ  e P      c 20230330 1040   43.1923 GAU  1.51e-03 -1.00e+00 -1.00e+00 -1.00e+00    1.0000 >    0.8257   -0.0774    0.4880  736.5970 9819.4060   -1.4960    2.7074 298.70 298.7 114.2 10     0.0000    0.0165
M02          ?    BHN  e S      ? 20230330 1040   43.7625 GAU  1.39e-03 -1.00e+00 -1.00e+00 -1.00e+00    1.0000 >    1.4451   -0.1267    0.2438  736.5970 9819.4060   -1.4960    2.7074 298.70 298.7 116.9 10     0.0000    0.0289
M09          ?    BHZ  i P      d 20230330 1040   43.2971 GAU  2.77e-03 -1.00e+00  1.27e+02 -1.00e+00    1.0000 >    0.8865   -0.0335    1.2007  737.8820 9820.9850   -1.2700    3.0787 339.27 339.3 107.4 10     0.0000    0.0177
M09          ?    BHN  e S      ? 20230330 1040   43.9408 GAU  1.77e-03 -1.00e+00  4.04e+02 -1.00e+00    1.0000 >    1.5570   -0.0603    0.8668  737.8820 9820.9850   -1.2700    3.0787 339.27 339.3 110.3 10     0.0000    0.0311
M13          ?    BHZ  i P      c 20230330 1040   43.3500 GAU  5.54e-03 -1.00e+00 -1.00e+00 -1.00e+00    1.0000 >    1.0810   -0.1751    0.1779  737.1780 9821.5410   -1.2220    3.8754 332.43 332.4 102.2 10     0.0000    0.0216
M13          ?    BHE  i S      ? 20230330 1040   44.1550 GAU  3.12e-03 -1.00e+00 -1.00e+00 -1.00e+00    1.0000 >    1.9024   -0.1915    0.1674  737.1780 9821.5410   -1.2220    3.8754 332.43 332.4 105.2 10     0.0000    0.0380
M10          ?    BHZ  e P      d 20230330 1040   43.5249 GAU  6.86e-03 -1.00e+00  4.32e+02 -1.00e+00    1.0000 >    1.1279   -0.0471    1.0108  736.5490 9821.3650   -1.2200    4.0611 323.38 323.4 101.4 10     0.0000    0.0226
M10          ?    BHN  e S      ? 20230330 1040   44.4286 GAU  9.92e-03 -1.00e+00  5.91e+01 -1.00e+00    1.0000 >    1.9856   -0.0012    1.3837  736.5490 9821.3650   -1.2200    4.0611 323.38 323.4 104.4 10     0.0000    0.0397
M08          ?    BHZ  e P      d 20230330 1040   43.5992 GAU  1.22e-03 -1.00e+00  1.17e+03 -1.00e+00    1.0000 >    1.1354    0.0197    1.4724  738.2480 9822.1600   -1.1510    4.1184 349.88 349.9 100.6 10     0.0000    0.0227
M08          ?    BHE  e S      ? 20230330 1040   44.4288 GAU  1.93e-03 -1.00e+00 -1.00e+00 -1.00e+00    1.0000 >    2.0017   -0.0171    1.3575  738.2480 9822.1600   -1.1510    4.1184 349.88 349.9 103.3 10     0.0000    0.0400
M05          ?    BHZ  i P      d 20230330 1040   43.7791 GAU  2.61e-03 -1.00e+00  8.53e+02 -1.00e+00    1.0000 >    1.3121    0.0229    1.3885  736.2660 9822.0830   -1.1500    4.8104 325.77 325.8  98.5 10     0.0000    0.0262
M05          ?    BHN  e S      ? 20230330 1040   44.8711 GAU  1.43e-03 -1.00e+00  3.03e+02 -1.00e+00    1.0000 >    2.3163    0.1106    0.3392  736.2660 9822.0830   -1.1500    4.8104 325.77 325.8  96.8  9     0.0000    0.0463
M12          ?    BHZ  e P      d 20230330 1040   43.9957 GAU  1.34e-03 -1.00e+00  4.01e+02 -1.00e+00    1.0000 >    1.5215    0.0300    1.2419  736.8520 9823.3800   -0.9890    5.6844 338.11 338.1  96.1 10     0.0000    0.0304
M12          ?    BHE  e S      ? 20230330 1040   45.1235 GAU  5.18e-03 -1.00e+00  5.82e+00 -1.00e+00    1.0000 >    2.6807   -0.0013    1.2223  736.8520 9823.3800   -0.9890    5.6844 338.11 338.1  72.9 10     0.0000    0.0536
END_PHASE
END_NLLOC

