NLLOC "./loc/SEML.20230319.151208.grid0" "LOCATED" "Location completed."
PUBLIC_ID None
SIGNATURE "Arham Zakki Edelo - edelo.17034@mhs.its.ac.id   obs:./obs/2023_03.obs   NLLoc:v7.00.10(30Aug2020)   run:28Dec2023 19h56m28"
COMMENT "SEML"
GRID  2001 2001 1001  727 9811 -2  0.01 0.01 0.01 PROB_DENSITY
SEARCH OCTREE nInitial 4851 nEvaluated 20003 smallestNodeSide 0.029762/0.029762/0.028409 oct_tree_integral 5.303013e-01 scatter_volume 5.269220e-01
HYPOCENTER  x 739.098 y 9818.04 z 1.79261  OT 7.92338  ix -1 iy -1 iz -1 MAXIMUM_LIKELIHOOD
GEOGRAPHIC  OT 2023 03 19  15 12 7.923382  Lat 9818.038690 Long 739.098214 Depth 1.792614
QUALITY  Pmax 6.48122e+20 MFmin 26.8857 MFmax 33.8709 RMS 0.0190693 Nphs 8 Gap 336.363 Dist 1.33568 Mamp -9.90 0 Mdur -9.90 0
VPVSRATIO  VpVsRatio 0.512002  Npair 4  Diff 0.130036
STATISTICS  ExpectX 738.906362 Y 9818.574713 Z 1.826250  CovXX 0.984926 XY 0.102176 XZ -0.206066 YY 0.326378 YZ 0.0342013 ZZ 0.295546 EllAz1  329.315 Dip1  -56.3561 Len1  0.852723 Az2  1.27715 Dip2  29.4495 Len2  1.1083 Len3  1.927876e+00
STAT_GEOG  ExpectLat 9818.574713 Long 738.906362 Depth 1.826250
TRANSFORM  NONE
QML_OriginQuality  assocPhCt 8  usedPhCt 8  assocStaCt -1  usedStaCt 4  depthPhCt -1  stdErr 0.0190693  azGap 336.363  secAzGap 336.363  gtLevel -  minDist 1.33568 maxDist 3.18746 medDist 2.5184
QML_OriginUncertainty  horUnc -1  minHorUnc 0.845604  maxHorUnc 1.51689  azMaxHorUnc 81.3803
QML_ConfidenceEllipsoid  semiMajorAxisLength 1.92788  semiMinorAxisLength 0.852723  semiIntermediateAxisLength 1.1083  majorAxisPlunge -14.7965  majorAxisAzimuth 82.7001  majorAxisRotation 242.818
FOCALMECH  Hyp  9818.038690 739.098214 1.792614 Mech  0 0 0 mf  0 nObs -1
PHASE ID Ins Cmp On Pha  FM Date     HrMn   Sec     Err  ErrMag    Coda      Amp       Per       PriorWt  >   TTpred    Res       Weight    StaLoc(X  Y         Z)        SDist    SAzim  RAz  RDip RQual    Tcorr       TTerr
M06          ?    BHZ  i P      d 20230319 1512    8.8115 GAU  2.25e-03 -1.00e+00 -1.00e+00 -1.00e+00    1.0000 >    0.8856    0.0025    1.4146  738.3100 9819.1170   -1.3960    1.3357 323.83 323.8 154.7 10     0.0000    0.0177
M06          ?    BHN  e S      ? 20230319 1512    9.4144 GAU  1.64e-03 -1.00e+00 -1.00e+00 -1.00e+00    1.0000 >    1.5034   -0.0124    1.2096  738.3100 9819.1170   -1.3960    1.3357 323.83 323.8 153.8 10     0.0000    0.0301
M14          ?    BHZ  e P      c 20230319 1512    8.9634 GAU  1.34e-03 -1.00e+00 -1.00e+00 -1.00e+00    1.0000 >    1.0381    0.0019    1.3795  737.5530 9820.0110   -1.3980    2.5055 321.92 321.9 137.0 10     0.0000    0.0208
M14          ?    BHE  e S      ? 20230319 1512    9.6859 GAU  2.00e-03 -1.00e+00  3.90e+02 -1.00e+00    1.0000 >    1.7608    0.0017    1.1464  737.5530 9820.0110   -1.3980    2.5055 321.92 321.9 135.6 10     0.0000    0.0352
M11          ?    BHZ  e P      c 20230319 1512    8.9406 GAU  2.32e-03 -1.00e+00 -1.00e+00 -1.00e+00    1.0000 >    1.0229   -0.0057    1.3808  738.4670 9820.4900   -1.3120    2.5313 345.56 345.6 135.9 10     0.0000    0.0205
M11          ?    BHE  e S      ? 20230319 1512    9.6736 GAU  1.11e-03 -1.00e+00 -1.00e+00 -1.00e+00    1.0000 >    1.7341    0.0162    1.0403  738.4670 9820.4900   -1.3120    2.5313 345.56 345.6 134.4 10     0.0000    0.0347
M09          ?    BHZ  e P      c 20230319 1512    8.9850 GAU  1.16e-03 -1.00e+00 -1.00e+00 -1.00e+00    1.0000 >    1.1266   -0.0650    0.3479  737.8820 9820.9850   -1.2700    3.1875 337.57 337.6 127.6 10     0.0000    0.0225
M09          ?    BHN  e S      ? 20230319 1512    9.6952 GAU  4.97e-03 -1.00e+00  4.75e+02 -1.00e+00    1.0000 >    1.9079   -0.1360    0.0808  737.8820 9820.9850   -1.2700    3.1875 337.57 337.6 125.8 10     0.0000    0.0382
END_PHASE
END_NLLOC

