NLLOC "./loc/SEML.20230319.145842.grid0" "LOCATED" "Location completed."
PUBLIC_ID None
SIGNATURE "Arham Zakki Edelo - edelo.17034@mhs.its.ac.id   obs:./obs/2023_03.obs   NLLoc:v7.00.10(30Aug2020)   run:28Dec2023 19h56m23"
COMMENT "SEML"
GRID  2001 2001 1001  727 9811 -2  0.01 0.01 0.01 PROB_DENSITY
SEARCH OCTREE nInitial 4851 nEvaluated 20011 smallestNodeSide 0.014881/0.014881/0.014205 oct_tree_integral 6.194737e-02 scatter_volume 6.156232e-02
HYPOCENTER  x 738.243 y 9818.57 z 1.34517  OT 41.3943  ix -1 iy -1 iz -1 MAXIMUM_LIKELIHOOD
GEOGRAPHIC  OT 2023 03 19  14 58 41.394268  Lat 9818.566964 Long 738.242560 Depth 1.345170
QUALITY  Pmax 2.50981e+34 MFmin 44.4726 MFmax 56.7317 RMS 0.0262951 Nphs 12 Gap 290.026 Dist 0.554155 Mamp -9.90 0 Mdur -9.90 0
VPVSRATIO  VpVsRatio 1.72993  Npair 6  Diff 0.304436
STATISTICS  ExpectX 738.595248 Y 9818.207022 Z 0.623785  CovXX 0.164349 XY -0.0697272 XZ -0.247693 YY 0.0705403 YZ 0.124031 ZZ 0.455208 EllAz1  95.7533 Dip1  30.8882 Len1  0.281523 Az2  191.604 Dip2  9.6713 Len2  0.349702 Len3  1.494823e+00
STAT_GEOG  ExpectLat 9818.207022 Long 738.595248 Depth 0.623785
TRANSFORM  NONE
QML_OriginQuality  assocPhCt 12  usedPhCt 12  assocStaCt -1  usedStaCt 6  depthPhCt -1  stdErr 0.0262951  azGap 290.026  secAzGap 290.026  gtLevel -  minDist 0.554155 maxDist 3.15883 medDist 1.8916
QML_OriginUncertainty  horUnc -1  minHorUnc 0.277203  maxHorUnc 0.680737  azMaxHorUnc 118.036
QML_ConfidenceEllipsoid  semiMajorAxisLength 1.49482  semiMinorAxisLength 0.281523  semiIntermediateAxisLength 0.349702  majorAxisPlunge -57.3059  majorAxisAzimuth 117.002  majorAxisRotation 262.239
FOCALMECH  Hyp  9818.566964 738.242560 1.345170 Mech  0 0 0 mf  0 nObs -1
PHASE ID Ins Cmp On Pha  FM Date     HrMn   Sec     Err  ErrMag    Coda      Amp       Per       PriorWt  >   TTpred    Res       Weight    StaLoc(X  Y         Z)        SDist    SAzim  RAz  RDip RQual    Tcorr       TTerr
M06          ?    BHZ  i P      c 20230319 1458   42.1227 GAU  3.86e-03 -1.00e+00 -1.00e+00 -1.00e+00    1.0000 >    0.7276    0.0007    1.6907  738.3100 9819.1170   -1.3960    0.5542   6.99   7.0 167.3 10     0.0000    0.0146
M06          ?    BHN  e S      ? 20230319 1458   42.6417 GAU  1.83e-03 -1.00e+00 -1.00e+00 -1.00e+00    1.0000 >    1.2417    0.0058    1.4506  738.3100 9819.1170   -1.3960    0.5542   6.99   7.0 166.8 10     0.0000    0.0248
M04          ?    BHZ  e P      c 20230319 1458   42.1214 GAU  1.29e-03 -1.00e+00 -1.00e+00 -1.00e+00    1.0000 >    0.8332   -0.1060    0.2077  737.1400 9819.2520   -1.5710    1.2980 301.85 301.9 153.3 10     0.0000    0.0167
M04          ?    BHE  e S      ? 20230319 1458   42.6930 GAU  2.32e-03 -1.00e+00  3.04e+02 -1.00e+00    1.0000 >    1.4223   -0.1236    0.2083  737.1400 9819.2520   -1.5710    1.2980 301.85 301.9 152.3 10     0.0000    0.0284
M02          ?    BHZ  e P      c 20230319 1458   42.2756 GAU  3.12e-04 -1.00e+00 -1.00e+00 -1.00e+00    1.0000 >    0.8830   -0.0016    1.6353  736.5970 9819.4060   -1.4960    1.8471 297.02 297.0 143.1 10     0.0000    0.0177
M02          ?    BHE  e S      ? 20230319 1458   42.8992 GAU  1.16e-03 -1.00e+00 -1.00e+00 -1.00e+00    1.0000 >    1.5064   -0.0015    1.3463  736.5970 9819.4060   -1.4960    1.8471 297.02 297.0 141.6 10     0.0000    0.0301
M11          ?    BHZ  e P      c 20230319 1458   42.2543 GAU  7.45e-04 -1.00e+00 -1.00e+00 -1.00e+00    1.0000 >    0.8533    0.0067    1.6010  738.4670 9820.4900   -1.3120    1.9361   6.66   6.7 139.8 10     0.0000    0.0171
M11          ?    BHE  e S      ? 20230319 1458   42.8268 GAU  2.01e-03 -1.00e+00 -1.00e+00 -1.00e+00    1.0000 >    1.4544   -0.0219    1.1356  738.4670 9820.4900   -1.3120    1.9361   6.66   6.7 138.2 10     0.0000    0.0291
M09          ?    BHZ  i P      c 20230319 1458   42.3079 GAU  5.64e-03 -1.00e+00  2.43e+01 -1.00e+00    1.0000 >    0.9277   -0.0140    1.4097  737.8820 9820.9850   -1.2700    2.4448 351.52 351.5 131.6 10     0.0000    0.0186
M09          ?    BHE  e S      ? 20230319 1458   43.0056 GAU  2.24e-03 -1.00e+00  3.64e+02 -1.00e+00    1.0000 >    1.5800    0.0313    1.0251  737.8820 9820.9850   -1.2700    2.4448 351.52 351.5 129.6 10     0.0000    0.0316
M13          ?    BHZ  e P      d 20230319 1458   42.5161 GAU  1.72e-03 -1.00e+00  6.94e+01 -1.00e+00    1.0000 >    1.0529    0.0689    0.2612  737.1780 9821.5410   -1.2220    3.1588 340.31 340.3 121.9 10     0.0000    0.0211
M13          ?    BHE  e S      ? 20230319 1458   43.3396 GAU  1.05e-03 -1.00e+00 -1.00e+00 -1.00e+00    1.0000 >    1.7907    0.1547    0.0285  737.1780 9821.5410   -1.2220    3.1588 340.31 340.3 119.4 10     0.0000    0.0358
END_PHASE
END_NLLOC

