NLLOC "./loc/SEML.20230330.104037.grid0" "LOCATED" "Location completed."
PUBLIC_ID None
SIGNATURE "Arham Zakki Edelo - edelo.17034@mhs.its.ac.id   obs:./obs/2023_03.obs   NLLoc:v7.00.10(30Aug2020)   run:28Dec2023 19h56m38"
COMMENT "SEML"
GRID  2001 2001 1001  727 9811 -2  0.01 0.01 0.01 PROB_DENSITY
SEARCH OCTREE nInitial 4851 nEvaluated 20019 smallestNodeSide 0.014881/0.014881/0.014205 oct_tree_integral 1.058491e-02 scatter_volume 1.057763e-02
HYPOCENTER  x 738.049 y 9818.25 z 1.30256  OT 36.3876  ix -1 iy -1 iz -1 MAXIMUM_LIKELIHOOD
GEOGRAPHIC  OT 2023 03 30  10 40 36.387594  Lat 9818.254464 Long 738.049107 Depth 1.302557
QUALITY  Pmax 6.21262e+60 MFmin 71.6753 MFmax 90.7629 RMS 0.0631966 Nphs 20 Gap 291.586 Dist 0.901129 Mamp -9.90 0 Mdur -9.90 0
VPVSRATIO  VpVsRatio 1.71193  Npair 10  Diff 0.549198
STATISTICS  ExpectX 738.212775 Y 9818.032758 Z 0.705335  CovXX 0.154563 XY -0.134096 XZ -0.360521 YY 0.146492 YZ 0.373682 ZZ 1.06094 EllAz1  16.7039 Dip1  -13.6233 Len1  0.203205 Az2  280.973 Dip2  -22.392 Len2  0.321381 Len3  2.159460e+00
STAT_GEOG  ExpectLat 9818.032758 Long 738.212775 Depth 0.705335
TRANSFORM  NONE
QML_OriginQuality  assocPhCt 20  usedPhCt 20  assocStaCt -1  usedStaCt 10  depthPhCt -1  stdErr 0.0631966  azGap 291.586  secAzGap 291.586  gtLevel -  minDist 0.901129 maxDist 4.22341 medDist 2.50495
QML_OriginUncertainty  horUnc -1  minHorUnc 0.194042  maxHorUnc 0.809181  azMaxHorUnc 134.138
QML_ConfidenceEllipsoid  semiMajorAxisLength 2.15946  semiMinorAxisLength 0.203205  semiIntermediateAxisLength 0.321381  majorAxisPlunge -63.3924  majorAxisAzimuth 135.639  majorAxisRotation 134.082
FOCALMECH  Hyp  9818.254464 738.049107 1.302557 Mech  0 0 0 mf  0 nObs -1
PHASE ID Ins Cmp On Pha  FM Date     HrMn   Sec     Err  ErrMag    Coda      Amp       Per       PriorWt  >   TTpred    Res       Weight    StaLoc(X  Y         Z)        SDist    SAzim  RAz  RDip RQual    Tcorr       TTerr
M06          ?    BHZ  i P      d 20230330 1040   37.1254 GAU  1.34e-03 -1.00e+00 -1.00e+00 -1.00e+00    1.0000 >    0.7414   -0.0036    2.0036  738.3100 9819.1170   -1.3960    0.9011  16.83  16.8 159.5 10     0.0000    0.0148
M06          ?    BHN  i S      ? 20230330 1040   37.6656 GAU  2.24e-03 -1.00e+00 -1.00e+00 -1.00e+00    1.0000 >    1.2657    0.0123    1.6377  738.3100 9819.1170   -1.3960    0.9011  16.83  16.8 158.7 10     0.0000    0.0253
M04          ?    BHZ  e P      c 20230330 1040   37.1304 GAU  4.00e-03 -1.00e+00 -1.00e+00 -1.00e+00    1.0000 >    0.8298   -0.0870    0.2140  737.1400 9819.2520   -1.5710    1.3496 317.66 317.7 151.9 10     0.0000    0.0166
M04          ?    BHN  e S      ? 20230330 1040   37.6484 GAU  1.79e-03 -1.00e+00  7.25e+02 -1.00e+00    1.0000 >    1.4174   -0.1565    0.6251  737.1400 9819.2520   -1.5710    1.3496 317.66 317.7 150.8 10     0.0000    0.0283
M14          ?    BHZ  i P      c 20230330 1040   37.1118 GAU  4.81e-03 -1.00e+00 -1.00e+00 -1.00e+00    1.0000 >    0.8489   -0.1247    0.4898  737.5530 9820.0110   -1.3980    1.8253 344.23 344.2 142.0 10     0.0000    0.0170
M14          ?    BHN  e S      ? 20230330 1040   37.6674 GAU  1.66e-03 -1.00e+00  2.81e+02 -1.00e+00    1.0000 >    1.4485   -0.1687    0.5750  737.5530 9820.0110   -1.3980    1.8253 344.23 344.2 140.4 10     0.0000    0.0290
M02          ?    BHZ  e P      d 20230330 1040   37.2626 GAU  1.16e-03 -1.00e+00 -1.00e+00 -1.00e+00    1.0000 >    0.8758   -0.0008    1.9606  736.5970 9819.4060   -1.4960    1.8533 308.41 308.4 142.5 10     0.0000    0.0175
M02          ?    BHE  e S      ? 20230330 1040   37.8896 GAU  1.67e-03 -1.00e+00  3.10e+03 -1.00e+00    1.0000 >    1.4950    0.0069    1.5770  736.5970 9819.4060   -1.4960    1.8533 308.41 308.4 140.9 10     0.0000    0.0299
M11          ?    BHZ  i P      d 20230330 1040   37.2784 GAU  4.15e-03 -1.00e+00 -1.00e+00 -1.00e+00    1.0000 >    0.9004   -0.0096    1.8040  738.4670 9820.4900   -1.3120    2.2743  10.59  10.6 133.9 10     0.0000    0.0180
M11          ?    BHN  e S      ? 20230330 1040   37.9242 GAU  2.74e-03 -1.00e+00 -1.00e+00 -1.00e+00    1.0000 >    1.5350    0.0016    1.5720  738.4670 9820.4900   -1.3120    2.2743  10.59  10.6 131.9 10     0.0000    0.0307
M09          ?    BHZ  i P      c 20230330 1040   37.3736 GAU  1.92e-03 -1.00e+00  1.34e+02 -1.00e+00    1.0000 >    0.9744    0.0116    1.7887  737.8820 9820.9850   -1.2700    2.7356 356.50 356.5 126.9 10     0.0000    0.0195
M09          ?    BHN  e S      ? 20230330 1040   38.0222 GAU  4.01e-03 -1.00e+00  3.82e+02 -1.00e+00    1.0000 >    1.6597   -0.0251    1.2500  737.8820 9820.9850   -1.2700    2.7356 356.50 356.5 124.6 10     0.0000    0.0332
M13          ?    BHZ  i P      c 20230330 1040   37.4904 GAU  2.31e-03 -1.00e+00 -1.00e+00 -1.00e+00    1.0000 >    1.0970    0.0058    1.8094  737.1780 9821.5410   -1.2220    3.4000 345.15 345.2 118.5 10     0.0000    0.0219
M13          ?    BHE  i S      ? 20230330 1040   38.2738 GAU  1.55e-03 -1.00e+00 -1.00e+00 -1.00e+00    1.0000 >    1.8657    0.0205    1.2768  737.1780 9821.5410   -1.2220    3.4000 345.15 345.2 115.7 10     0.0000    0.0373
M10          ?    BHZ  e P      d 20230330 1040   37.3386 GAU  4.13e-03 -1.00e+00  1.95e+03 -1.00e+00    1.0000 >    1.1077   -0.1567    0.6280  736.5490 9821.3650   -1.2200    3.4534 334.25 334.3 117.9 10     0.0000    0.0222
M10          ?    BHN  e S      ? 20230330 1040   38.0740 GAU  4.32e-03 -1.00e+00 -1.00e+00 -1.00e+00    1.0000 >    1.8837   -0.1972    0.3755  736.5490 9821.3650   -1.2200    3.4534 334.25 334.3 115.0 10     0.0000    0.0377
M08          ?    BHZ  e P      d 20230330 1040   37.7682 GAU  5.30e-03 -1.00e+00  1.35e+03 -1.00e+00    1.0000 >    1.1931    0.1875    0.1519  738.2480 9822.1600   -1.1510    3.9106   2.92   2.9 112.6 10     0.0000    0.0239
M08          ?    BHN  e S      ? 20230330 1040   38.7196 GAU  6.27e-04 -1.00e+00  2.30e+02 -1.00e+00    1.0000 >    2.0256    0.3064    0.0609  738.2480 9822.1600   -1.1510    3.9106   2.92   2.9 109.7 10     0.0000    0.0405
M05          ?    BHZ  e P      d 20230330 1040   37.8650 GAU  2.58e-03 -1.00e+00  6.01e+02 -1.00e+00    1.0000 >    1.2615    0.2159    0.1701  736.2660 9822.0830   -1.1500    4.2234 335.03 335.0 109.9 10     0.0000    0.0252
M05          ?    BHE  e S      ? 20230330 1040   38.9322 GAU  1.30e-03 -1.00e+00 -1.00e+00 -1.00e+00    1.0000 >    2.1400    0.4046    0.0301  736.2660 9822.0830   -1.1500    4.2234 335.03 335.0 107.0 10     0.0000    0.0428
END_PHASE
END_NLLOC

