NLLOC "./loc/SEML.20230330.104912.grid0" "LOCATED" "Location completed."
PUBLIC_ID None
SIGNATURE "Arham Zakki Edelo - edelo.17034@mhs.its.ac.id   obs:./obs/2023_03.obs   NLLoc:v7.00.10(30Aug2020)   run:28Dec2023 19h56m42"
COMMENT "SEML"
GRID  2001 2001 1001  727 9811 -2  0.01 0.01 0.01 PROB_DENSITY
SEARCH OCTREE nInitial 4851 nEvaluated 20003 smallestNodeSide 0.029762/0.029762/0.028409 oct_tree_integral 9.188376e-02 scatter_volume 9.188376e-02
HYPOCENTER  x 737.015 y 9818.31 z 1.1108  OT 11.3287  ix -1 iy -1 iz -1 MAXIMUM_LIKELIHOOD
GEOGRAPHIC  OT 2023 03 30  10 49 11.328725  Lat 9818.306548 Long 737.014881 Depth 1.110795
QUALITY  Pmax 3.60288e+22 MFmin 28.7727 MFmax 36.2827 RMS 0.0129086 Nphs 8 Gap 319.559 Dist 1.5278 Mamp -9.90 0 Mdur -9.90 0
VPVSRATIO  VpVsRatio 2.13487  Npair 4  Diff 0.173406
STATISTICS  ExpectX 737.079665 Y 9818.291051 Z 1.129926  CovXX 0.0867545 XY -0.00533818 XZ 0.0514848 YY 0.019039 YZ -0.00471036 ZZ 0.0698672 EllAz1  182.117 Dip1  -3.13105 Len1  0.256127 Az2  268.435 Dip2  49.5771 Len2  0.30377 Len3  6.798564e-01
STAT_GEOG  ExpectLat 9818.291051 Long 737.079665 Depth 1.129926
TRANSFORM  NONE
QML_OriginQuality  assocPhCt 8  usedPhCt 8  assocStaCt -1  usedStaCt 4  depthPhCt -1  stdErr 0.0129086  azGap 319.559  secAzGap 319.559  gtLevel -  minDist 1.5278 maxDist 2.81532 medDist 2.20481
QML_OriginUncertainty  horUnc -1  minHorUnc 0.206948  maxHorUnc 0.447769  azMaxHorUnc 94.4799
QML_ConfidenceEllipsoid  semiMajorAxisLength 0.679856  semiMinorAxisLength 0.256127  semiIntermediateAxisLength 0.30377  majorAxisPlunge 40.2497  majorAxisAzimuth 94.7712  majorAxisRotation 336.506
FOCALMECH  Hyp  9818.306548 737.014881 1.110795 Mech  0 0 0 mf  0 nObs -1
PHASE ID Ins Cmp On Pha  FM Date     HrMn   Sec     Err  ErrMag    Coda      Amp       Per       PriorWt  >   TTpred    Res       Weight    StaLoc(X  Y         Z)        SDist    SAzim  RAz  RDip RQual    Tcorr       TTerr
M06          ?    BHZ  i P      d 20230330 1049   12.0928 GAU  2.03e-03 -1.00e+00  1.15e+02 -1.00e+00    1.0000 >    0.7704   -0.0063    1.2060  738.3100 9819.1170   -1.3960    1.5278  57.96  58.0 144.8 10     0.0000    0.0154
M06          ?    BHE  e S      ? 20230330 1049   12.6637 GAU  5.96e-03 -1.00e+00 -1.00e+00 -1.00e+00    1.0000 >    1.3184    0.0167    0.9357  738.3100 9819.1170   -1.3960    1.5278  57.96  58.0 143.2 10     0.0000    0.0264
M14          ?    BHZ  e P      d 20230330 1049   12.1457 GAU  1.63e-03 -1.00e+00  6.64e+02 -1.00e+00    1.0000 >    0.8082    0.0087    1.1688  737.5530 9820.0110   -1.3980    1.7874  17.52  17.5 139.9 10     0.0000    0.0162
M14          ?    BHE  e S      ? 20230330 1049   12.6741 GAU  1.15e-02 -1.00e+00  4.37e+02 -1.00e+00    1.0000 >    1.3828   -0.0375    0.6013  737.5530 9820.0110   -1.3980    1.7874  17.52  17.5 138.1 10     0.0000    0.0277
M11          ?    BHZ  e P      c 20230330 1049   12.2552 GAU  4.01e-03 -1.00e+00 -1.00e+00 -1.00e+00    1.0000 >    0.9345   -0.0081    1.1430  738.4670 9820.4900   -1.3120    2.6222  33.63  33.6 125.4 10     0.0000    0.0187
M11          ?    BHE  e S      ? 20230330 1049   12.9206 GAU  6.46e-03 -1.00e+00 -1.00e+00 -1.00e+00    1.0000 >    1.5968   -0.0050    0.9483  738.4670 9820.4900   -1.3120    2.6222  33.63  33.6 122.7 10     0.0000    0.0319
M09          ?    BHZ  e P      c 20230330 1049   12.2954 GAU  1.67e-03 -1.00e+00  2.80e+00 -1.00e+00    1.0000 >    0.9642    0.0025    1.1820  737.8820 9820.9850   -1.2700    2.8153  17.94  17.9 122.1 10     0.0000    0.0193
M09          ?    BHN  e S      ? 20230330 1049   12.9972 GAU  1.21e-03 -1.00e+00  4.84e+02 -1.00e+00    1.0000 >    1.6467    0.0218    0.8149  737.8820 9820.9850   -1.2700    2.8153  17.94  17.9 119.0 10     0.0000    0.0329
END_PHASE
END_NLLOC

