NLLOC "./loc/SEML.20230330.104203.grid0" "LOCATED" "Location completed."
PUBLIC_ID None
SIGNATURE "Arham Zakki Edelo - edelo.17034@mhs.its.ac.id   obs:./obs/2023_03.obs   NLLoc:v7.00.10(30Aug2020)   run:28Dec2023 19h56m41"
COMMENT "SEML"
GRID  2001 2001 1001  727 9811 -2  0.01 0.01 0.01 PROB_DENSITY
SEARCH OCTREE nInitial 4851 nEvaluated 20011 smallestNodeSide 0.014881/0.014881/0.014205 oct_tree_integral 2.092626e-02 scatter_volume 2.090312e-02
HYPOCENTER  x 737.126 y 9818.33 z 0.379261  OT 3.19027  ix -1 iy -1 iz -1 MAXIMUM_LIKELIHOOD
GEOGRAPHIC  OT 2023 03 30  10 42 3.190275  Lat 9818.328869 Long 737.126488 Depth 0.379261
QUALITY  Pmax 4.73323e+23 MFmin 31.4531 MFmax 43.2152 RMS 0.00667662 Nphs 8 Gap 317.888 Dist 1.42192 Mamp -9.90 0 Mdur -9.90 0
VPVSRATIO  VpVsRatio 1.5666  Npair 4  Diff 0.195732
STATISTICS  ExpectX 737.103480 Y 9818.318790 Z 0.360666  CovXX 0.027388 XY 0.00217042 XZ 0.0166894 YY 0.00865584 YZ 0.00107056 ZZ 0.0271231 EllAz1  164.373 Dip1  -10.4038 Len1  0.170683 Az2  244.317 Dip2  43.5618 Len2  0.195433 Len3  3.945280e-01
STAT_GEOG  ExpectLat 9818.318790 Long 737.103480 Depth 0.360666
TRANSFORM  NONE
QML_OriginQuality  assocPhCt 8  usedPhCt 8  assocStaCt -1  usedStaCt 4  depthPhCt -1  stdErr 0.00667662  azGap 317.888  secAzGap 317.888  gtLevel -  minDist 1.42192 maxDist 2.76149 medDist 2.13924
QML_OriginUncertainty  horUnc -1  minHorUnc 0.13906  maxHorUnc 0.252117  azMaxHorUnc 83.4765
QML_ConfidenceEllipsoid  semiMajorAxisLength 0.394528  semiMinorAxisLength 0.170683  semiIntermediateAxisLength 0.195433  majorAxisPlunge 44.5691  majorAxisAzimuth 84.7932  majorAxisRotation 273.285
FOCALMECH  Hyp  9818.328869 737.126488 0.379261 Mech  0 0 0 mf  0 nObs -1
PHASE ID Ins Cmp On Pha  FM Date     HrMn   Sec     Err  ErrMag    Coda      Amp       Per       PriorWt  >   TTpred    Res       Weight    StaLoc(X  Y         Z)        SDist    SAzim  RAz  RDip RQual    Tcorr       TTerr
M06          ?    BHZ  i P      c 20230330 1042    3.7996 GAU  7.35e-04 -1.00e+00 -1.00e+00 -1.00e+00    1.0000 >    0.6055    0.0038    1.1795  738.3100 9819.1170   -1.3960    1.4219  56.34  56.3 140.1 10     0.0000    0.0121
M06          ?    BHN  e S      ? 20230330 1042    4.2412 GAU  9.66e-04 -1.00e+00 -1.00e+00 -1.00e+00    1.0000 >    1.0566   -0.0058    0.9938  738.3100 9819.1170   -1.3960    1.4219  56.34  56.3 139.4 10     0.0000    0.0211
M14          ?    BHZ  e P      c 20230330 1042    3.8409 GAU  2.76e-03 -1.00e+00 -1.00e+00 -1.00e+00    1.0000 >    0.6610   -0.0104    1.0532  737.5530 9820.0110   -1.3980    1.7354  14.23  14.2 134.1 10     0.0000    0.0132
M14          ?    BHE  e S      ? 20230330 1042    4.3587 GAU  1.55e-03 -1.00e+00  3.94e+02 -1.00e+00    1.0000 >    1.1536    0.0148    0.8525  737.5530 9820.0110   -1.3980    1.7354  14.23  14.2 133.3 10     0.0000    0.0231
M11          ?    BHZ  e P      c 20230330 1042    4.0042 GAU  2.36e-03 -1.00e+00 -1.00e+00 -1.00e+00    1.0000 >    0.8114    0.0025    1.1151  738.4670 9820.4900   -1.3120    2.5431  31.81  31.8 121.3 10     0.0000    0.0162
M11          ?    BHN  e S      ? 20230330 1042    4.6053 GAU  3.18e-03 -1.00e+00 -1.00e+00 -1.00e+00    1.0000 >    1.4169   -0.0020    0.8634  738.4670 9820.4900   -1.3120    2.5431  31.81  31.8 119.8 10     0.0000    0.0283
M09          ?    BHZ  i P      c 20230330 1042    4.0445 GAU  1.80e-03 -1.00e+00  1.09e+01 -1.00e+00    1.0000 >    0.8537    0.0005    1.1048  737.8820 9820.9850   -1.2700    2.7615  15.88  15.9 118.4 10     0.0000    0.0171
M09          ?    BHE  e S      ? 20230330 1042    4.6818 GAU  3.34e-03 -1.00e+00  3.75e+02 -1.00e+00    1.0000 >    1.4913    0.0002    0.8378  737.8820 9820.9850   -1.2700    2.7615  15.88  15.9 116.7 10     0.0000    0.0298
END_PHASE
END_NLLOC

