NLLOC "./loc/SEML.20230319.151242.grid0" "LOCATED" "Location completed."
PUBLIC_ID None
SIGNATURE "Arham Zakki Edelo - edelo.17034@mhs.its.ac.id   obs:./obs/2023_03.obs   NLLoc:v7.00.10(30Aug2020)   run:28Dec2023 19h56m28"
COMMENT "SEML"
GRID  2001 2001 1001  727 9811 -2  0.01 0.01 0.01 PROB_DENSITY
SEARCH OCTREE nInitial 4851 nEvaluated 20019 smallestNodeSide 0.029762/0.029762/0.028409 oct_tree_integral 2.723009e-01 scatter_volume 2.723009e-01
HYPOCENTER  x 737.491 y 9818.57 z 1.48011  OT 41.6667  ix -1 iy -1 iz -1 MAXIMUM_LIKELIHOOD
GEOGRAPHIC  OT 2023 03 19  15 12 41.666715  Lat 9818.574405 Long 737.491071 Depth 1.480114
QUALITY  Pmax 1.12712e+21 MFmin 29.0249 MFmax 37.7456 RMS 0.0120856 Nphs 8 Gap 305.996 Dist 0.982371 Mamp -9.90 0 Mdur -9.90 0
VPVSRATIO  VpVsRatio 1.83072  Npair 4  Diff 0.1819
STATISTICS  ExpectX 738.447876 Y 9817.928472 Z 0.242080  CovXX 1.39963 XY 0.11108 XZ 0.0162817 YY 0.254874 YZ 0.459794 ZZ 1.08032 EllAz1  175.621 Dip1  23.7879 Len1  0.390038 Az2  312.611 Dip2  58.9178 Len2  2.10961 Len3  2.247523e+00
STAT_GEOG  ExpectLat 9817.928472 Long 738.447876 Depth 0.242080
TRANSFORM  NONE
QML_OriginQuality  assocPhCt 8  usedPhCt 8  assocStaCt -1  usedStaCt 4  depthPhCt -1  stdErr 0.0120856  azGap 305.996  secAzGap 305.996  gtLevel -  minDist 0.982371 maxDist 2.44209 medDist 1.7939
QML_OriginUncertainty  horUnc -1  minHorUnc 0.749432  maxHorUnc 1.80103  azMaxHorUnc 84.5086
QML_ConfidenceEllipsoid  semiMajorAxisLength 2.24752  semiMinorAxisLength 0.390038  semiIntermediateAxisLength 2.10961  majorAxisPlunge 18.7984  majorAxisAzimuth 76.9912  majorAxisRotation 30.728
FOCALMECH  Hyp  9818.574405 737.491071 1.480114 Mech  0 0 0 mf  0 nObs -1
PHASE ID Ins Cmp On Pha  FM Date     HrMn   Sec     Err  ErrMag    Coda      Amp       Per       PriorWt  >   TTpred    Res       Weight    StaLoc(X  Y         Z)        SDist    SAzim  RAz  RDip RQual    Tcorr       TTerr
M06          ?    BHZ  i P      d 20230319 1512   42.4486 GAU  1.16e-03 -1.00e+00 -1.00e+00 -1.00e+00    1.0000 >    0.7872   -0.0054    1.4761  738.3100 9819.1170   -1.3960    0.9824  56.47  56.5 159.3 10     0.0000    0.0157
M06          ?    BHN  e S      ? 20230319 1512   43.0178 GAU  1.54e-03 -1.00e+00 -1.00e+00 -1.00e+00    1.0000 >    1.3410    0.0101    1.2305  738.3100 9819.1170   -1.3960    0.9824  56.47  56.5 158.5 10     0.0000    0.0268
M14          ?    BHZ  e P      d 20230319 1512   42.5078 GAU  1.43e-03 -1.00e+00  1.31e+02 -1.00e+00    1.0000 >    0.8332    0.0079    1.4465  737.5530 9820.0110   -1.3980    1.4379   2.47   2.5 150.7 10     0.0000    0.0167
M14          ?    BHN  e S      ? 20230319 1512   43.0781 GAU  4.15e-03 -1.00e+00  3.18e+02 -1.00e+00    1.0000 >    1.4190   -0.0076    1.1927  737.5530 9820.0110   -1.3980    1.4379   2.47   2.5 149.6 10     0.0000    0.0284
M11          ?    BHZ  e P      c 20230319 1512   42.5733 GAU  4.15e-03 -1.00e+00 -1.00e+00 -1.00e+00    1.0000 >    0.9103   -0.0037    1.4470  738.4670 9820.4900   -1.3120    2.1499  27.00  27.0 138.3 10     0.0000    0.0182
M11          ?    BHN  e S      ? 20230319 1512   43.2242 GAU  3.34e-03 -1.00e+00 -1.00e+00 -1.00e+00    1.0000 >    1.5486    0.0089    1.1577  738.4670 9820.4900   -1.3120    2.1499  27.00  27.0 136.7 10     0.0000    0.0310
M09          ?    BHZ  e P      d 20230319 1512   42.7187 GAU  7.77e-04 -1.00e+00  1.28e+02 -1.00e+00    1.0000 >    0.9488    0.1032    0.0325  737.8820 9820.9850   -1.2700    2.4421   9.21   9.2 133.7 10     0.0000    0.0190
M09          ?    BHE  e S      ? 20230319 1512   43.4698 GAU  2.23e-03 -1.00e+00  3.59e+02 -1.00e+00    1.0000 >    1.6133    0.1898    0.0169  737.8820 9820.9850   -1.2700    2.4421   9.21   9.2 131.9 10     0.0000    0.0323
END_PHASE
END_NLLOC

