NLLOC "./loc/SEML.20230308.045344.grid0" "LOCATED" "Location completed."
PUBLIC_ID None
SIGNATURE "Arham Zakki Edelo - edelo.17034@mhs.its.ac.id   obs:./obs/2023_03.obs   NLLoc:v7.00.10(30Aug2020)   run:28Dec2023 19h56m21"
COMMENT "SEML"
GRID  2001 2001 1001  727 9811 -2  0.01 0.01 0.01 PROB_DENSITY
SEARCH OCTREE nInitial 4851 nEvaluated 20019 smallestNodeSide 0.014881/0.014881/0.014205 oct_tree_integral 2.223035e-02 scatter_volume 2.223035e-02
HYPOCENTER  x 737.945 y 9818.73 z 0.450284  OT 44.108  ix -1 iy -1 iz -1 MAXIMUM_LIKELIHOOD
GEOGRAPHIC  OT 2023 03 08  04 53 44.107957  Lat 9818.730655 Long 737.944940 Depth 0.450284
QUALITY  Pmax 5.65918e+52 MFmin 63.0753 MFmax 80.3121 RMS 0.0282465 Nphs 16 Gap 259.553 Dist 0.531537 Mamp -9.90 0 Mdur -9.90 0
VPVSRATIO  VpVsRatio 1.6904  Npair 8  Diff 0.563271
STATISTICS  ExpectX 738.008412 Y 9818.721191 Z 0.525237  CovXX 0.0242636 XY 0.00429624 XZ 0.00860886 YY 0.0104755 YZ -0.000471123 ZZ 0.0168815 EllAz1  150.467 Dip1  -27.0419 Len1  0.165563 Az2  208.361 Dip2  46.157 Len2  0.217102 Len3  3.281412e-01
STAT_GEOG  ExpectLat 9818.721191 Long 738.008412 Depth 0.525237
TRANSFORM  NONE
QML_OriginQuality  assocPhCt 16  usedPhCt 16  assocStaCt -1  usedStaCt 8  depthPhCt -1  stdErr 0.0282465  azGap 259.553  secAzGap 259.553  gtLevel -  minDist 0.531537 maxDist 4.77608 medDist 2.0452
QML_OriginUncertainty  horUnc -1  minHorUnc 0.145831  maxHorUnc 0.242143  azMaxHorUnc 74.0348
QML_ConfidenceEllipsoid  semiMajorAxisLength 0.328141  semiMinorAxisLength 0.165563  semiIntermediateAxisLength 0.217102  majorAxisPlunge 31.5069  majorAxisAzimuth 78.7005  majorAxisRotation 305.749
FOCALMECH  Hyp  9818.730655 737.944940 0.450284 Mech  0 0 0 mf  0 nObs -1
PHASE ID Ins Cmp On Pha  FM Date     HrMn   Sec     Err  ErrMag    Coda      Amp       Per       PriorWt  >   TTpred    Res       Weight    StaLoc(X  Y         Z)        SDist    SAzim  RAz  RDip RQual    Tcorr       TTerr
M06          ?    BHZ  e P      d 20230308 0453   44.6412 GAU  2.36e-03 -1.00e+00 -1.00e+00 -1.00e+00    1.0000 >    0.5112    0.0220    1.2122  738.3100 9819.1170   -1.3960    0.5315  43.38  43.4 163.5 10     0.0000    0.0102
M06          ?    BHN  e S      ? 20230308 0453   45.0531 GAU  2.88e-03 -1.00e+00 -1.00e+00 -1.00e+00    1.0000 >    0.8916    0.0535    0.7918  738.3100 9819.1170   -1.3960    0.5315  43.38  43.4 163.2 10     0.0000    0.0178
M04          ?    BHZ  e P      c 20230308 0453   44.7065 GAU  3.85e-03 -1.00e+00 -1.00e+00 -1.00e+00    1.0000 >    0.5969    0.0017    1.2626  737.1400 9819.2520   -1.5710    0.9590 302.93 302.9 153.8 10     0.0000    0.0119
M04          ?    BHN  e S      ? 20230308 0453   45.1391 GAU  1.07e-03 -1.00e+00  6.84e+02 -1.00e+00    1.0000 >    1.0400   -0.0089    1.0902  737.1400 9819.2520   -1.5710    0.9590 302.93 302.9 153.4 10     0.0000    0.0208
M14          ?    BHZ  i P      c 20230308 0453   44.7468 GAU  2.78e-03 -1.00e+00 -1.00e+00 -1.00e+00    1.0000 >    0.6070    0.0319    1.1261  737.5530 9820.0110   -1.3980    1.3390 342.98 343.0 143.0 10     0.0000    0.0121
M14          ?    BHN  e S      ? 20230308 0453   45.2193 GAU  4.81e-03 -1.00e+00  2.95e+02 -1.00e+00    1.0000 >    1.0587    0.0527    0.8250  737.5530 9820.0110   -1.3980    1.3390 342.98 343.0 142.4 10     0.0000    0.0212
M11          ?    BHZ  i P      d 20230308 0453   44.7745 GAU  4.98e-03 -1.00e+00 -1.00e+00 -1.00e+00    1.0000 >    0.6752   -0.0086    1.1306  738.4670 9820.4900   -1.3120    1.8352  16.53  16.5 132.3 10     0.0000    0.0135
M11          ?    BHN  i S      ? 20230308 0453   45.2837 GAU  4.98e-03 -1.00e+00 -1.00e+00 -1.00e+00    1.0000 >    1.1783   -0.0026    1.1435  738.4670 9820.4900   -1.3120    1.8352  16.53  16.5 131.3 10     0.0000    0.0236
M09          ?    BHZ  i P      c 20230308 0453   44.8548 GAU  2.23e-03 -1.00e+00  1.40e+02 -1.00e+00    1.0000 >    0.7521   -0.0053    1.1839  737.8820 9820.9850   -1.2700    2.2552 358.40 358.4 125.4 10     0.0000    0.0150
M09          ?    BHN  e S      ? 20230308 0453   45.4407 GAU  7.18e-03 -1.00e+00  5.07e+02 -1.00e+00    1.0000 >    1.3130    0.0198    1.1818  737.8820 9820.9850   -1.2700    2.2552 358.40 358.4 124.2 10     0.0000    0.0263
M13          ?    BHZ  i P      c 20230308 0453   44.9772 GAU  2.00e-03 -1.00e+00 -1.00e+00 -1.00e+00    1.0000 >    0.8897   -0.0204    0.8652  737.1780 9821.5410   -1.2220    2.9131 344.74 344.7 117.5 10     0.0000    0.0178
M13          ?    BHN  e S      ? 20230308 0453   45.6350 GAU  2.84e-03 -1.00e+00 -1.00e+00 -1.00e+00    1.0000 >    1.5536   -0.0266    0.7424  737.1780 9821.5410   -1.2220    2.9131 344.74 344.7 115.8 10     0.0000    0.0311
M05          ?    BHZ  i P      c 20230308 0453   45.2147 GAU  3.32e-03 -1.00e+00 -1.00e+00 -1.00e+00    1.0000 >    1.0773    0.0294    1.1645  736.2660 9822.0830   -1.1500    3.7493 333.40 333.4 110.5 10     0.0000    0.0215
M05          ?    BHN  e S      ? 20230308 0453   46.0382 GAU  3.61e-04 -1.00e+00  2.86e+02 -1.00e+00    1.0000 >    1.8820    0.0482    0.8627  736.2660 9822.0830   -1.1500    3.7493 333.40 333.4 108.1 10     0.0000    0.0376
M12          ?    BHZ  i P      c 20230308 0453   45.4769 GAU  2.31e-03 -1.00e+00 -1.00e+00 -1.00e+00    1.0000 >    1.3118    0.0571    0.7637  736.8520 9823.3800   -0.9890    4.7761 346.77 346.8 104.3 10     0.0000    0.0262
M12          ?    BHE  e S      ? 20230308 0453   46.4520 GAU  2.37e-03 -1.00e+00  6.55e+01 -1.00e+00    1.0000 >    2.2779    0.0662    0.6537  736.8520 9823.3800   -0.9890    4.7761 346.77 346.8  67.2 10     0.0000    0.0456
END_PHASE
END_NLLOC

