NLLOC "./loc/SEML.20230330.104029.grid0" "LOCATED" "Location completed."
PUBLIC_ID None
SIGNATURE "Arham Zakki Edelo - edelo.17034@mhs.its.ac.id   obs:./obs/2023_03.obs   NLLoc:v7.00.10(30Aug2020)   run:28Dec2023 19h56m38"
COMMENT "SEML"
GRID  2001 2001 1001  727 9811 -2  0.01 0.01 0.01 PROB_DENSITY
SEARCH OCTREE nInitial 4851 nEvaluated 20003 smallestNodeSide 0.014881/0.014881/0.014205 oct_tree_integral 1.174583e-02 scatter_volume 1.167602e-02
HYPOCENTER  x 737.632 y 9818.61 z 0.762784  OT 28.9218  ix -1 iy -1 iz -1 MAXIMUM_LIKELIHOOD
GEOGRAPHIC  OT 2023 03 30  10 40 28.921790  Lat 9818.611607 Long 737.632440 Depth 0.762784
QUALITY  Pmax 4.10455e+64 MFmin 77.9168 MFmax 91.0222 RMS 0.0356713 Nphs 20 Gap 254.215 Dist 0.807837 Mamp -9.90 0 Mdur -9.90 0
VPVSRATIO  VpVsRatio 1.70394  Npair 10  Diff 0.400476
STATISTICS  ExpectX 737.761632 Y 9818.419623 Z 0.502060  CovXX 0.0278813 XY -0.0096026 XZ -0.0278343 YY 0.0304275 YZ 0.012847 ZZ 0.0560982 EllAz1  83.8679 Dip1  30.059 Len1  0.19388 Az2  185.058 Dip2  18.5375 Len2  0.298568 Len3  5.264260e-01
STAT_GEOG  ExpectLat 9818.419623 Long 737.761632 Depth 0.502060
TRANSFORM  NONE
QML_OriginQuality  assocPhCt 20  usedPhCt 20  assocStaCt -1  usedStaCt 10  depthPhCt -1  stdErr 0.0356713  azGap 254.215  secAzGap 254.215  gtLevel -  minDist 0.807837 maxDist 3.73065 medDist 2.22096
QML_OriginUncertainty  horUnc -1  minHorUnc 0.211603  maxHorUnc 0.298889  azMaxHorUnc 138.776
QML_ConfidenceEllipsoid  semiMajorAxisLength 0.526426  semiMinorAxisLength 0.19388  semiIntermediateAxisLength 0.298568  majorAxisPlunge -53.6107  majorAxisAzimuth 122.123  majorAxisRotation 259.357
FOCALMECH  Hyp  9818.611607 737.632440 0.762784 Mech  0 0 0 mf  0 nObs -1
PHASE ID Ins Cmp On Pha  FM Date     HrMn   Sec     Err  ErrMag    Coda      Amp       Per       PriorWt  >   TTpred    Res       Weight    StaLoc(X  Y         Z)        SDist    SAzim  RAz  RDip RQual    Tcorr       TTerr
M04          ?    BHZ  e P      c 20230330 1040   29.5788 GAU  2.64e-03 -1.00e+00 -1.00e+00 -1.00e+00    1.0000 >    0.6554    0.0016    1.9702  737.1400 9819.2520   -1.5710    0.8078 322.44 322.4 160.2 10     0.0000    0.0131
M04          ?    BHE  e S      ? 20230330 1040   30.0594 GAU  2.11e-03 -1.00e+00  3.61e+02 -1.00e+00    1.0000 >    1.1317    0.0060    1.5789  737.1400 9819.2520   -1.5710    0.8078 322.44 322.4 158.6 10     0.0000    0.0226
M06          ?    BHZ  i P      d 20230330 1040   29.5343 GAU  2.26e-03 -1.00e+00 -1.00e+00 -1.00e+00    1.0000 >    0.6136   -0.0011    2.0048  738.3100 9819.1170   -1.3960    0.8453  53.28  53.3 157.9 10     0.0000    0.0123
M06          ?    BHN  e S      ? 20230330 1040   29.9888 GAU  2.17e-03 -1.00e+00 -1.00e+00 -1.00e+00    1.0000 >    1.0595    0.0075    1.6043  738.3100 9819.1170   -1.3960    0.8453  53.28  53.3 156.1 10     0.0000    0.0212
M02          ?    BHZ  e P      c 20230330 1040   29.6132 GAU  2.54e-03 -1.00e+00 -1.00e+00 -1.00e+00    1.0000 >    0.6914    0.0000    1.9474  736.5970 9819.4060   -1.4960    1.3051 307.50 307.5 148.9 10     0.0000    0.0138
M02          ?    BHN  e S      ? 20230330 1040   30.1108 GAU  2.32e-03 -1.00e+00  8.41e+02 -1.00e+00    1.0000 >    1.1936   -0.0046    1.5585  736.5970 9819.4060   -1.4960    1.3051 307.50 307.5 146.3 10     0.0000    0.0239
M14          ?    BHZ  e P      c 20230330 1040   29.5445 GAU  2.27e-03 -1.00e+00 -1.00e+00 -1.00e+00    1.0000 >    0.6814   -0.0587    0.3519  737.5530 9820.0110   -1.3980    1.4016 356.75 356.8 145.9 10     0.0000    0.0136
M14          ?    BHE  e S      ? 20230330 1040   30.0147 GAU  3.46e-03 -1.00e+00  5.07e+02 -1.00e+00    1.0000 >    1.1764   -0.0835    0.3604  737.5530 9820.0110   -1.3980    1.4016 356.75 356.8 142.9 10     0.0000    0.0235
M11          ?    BHZ  i P      d 20230330 1040   29.6896 GAU  2.05e-03 -1.00e+00  3.46e+01 -1.00e+00    1.0000 >    0.7710   -0.0032    1.8668  738.4670 9820.4900   -1.3120    2.0554  23.96  24.0 133.5 10     0.0000    0.0154
M11          ?    BHE  e S      ? 20230330 1040   30.2450 GAU  3.95e-03 -1.00e+00 -1.00e+00 -1.00e+00    1.0000 >    1.3305   -0.0073    1.4596  738.4670 9820.4900   -1.3120    2.0554  23.96  24.0 128.9 10     0.0000    0.0266
M09          ?    BHZ  i P      c 20230330 1040   29.7481 GAU  3.34e-03 -1.00e+00 -1.00e+00 -1.00e+00    1.0000 >    0.8269   -0.0005    1.8327  737.8820 9820.9850   -1.2700    2.3865   6.00   6.0 128.3 10     0.0000    0.0165
M09          ?    BHE  e S      ? 20230330 1040   30.3580 GAU  2.67e-03 -1.00e+00  3.27e+02 -1.00e+00    1.0000 >    1.4264    0.0099    1.3781  737.8820 9820.9850   -1.2700    2.3865   6.00   6.0 122.7 10     0.0000    0.0285
M10          ?    BHZ  e P      d 20230330 1040   29.9922 GAU  3.71e-03 -1.00e+00  1.55e+03 -1.00e+00    1.0000 >    0.9385    0.1319    0.3378  736.5490 9821.3650   -1.2200    2.9589 338.52 338.5 121.3 10     0.0000    0.0188
M10          ?    BHE  e S      ? 20230330 1040   30.7642 GAU  2.80e-03 -1.00e+00 -1.00e+00 -1.00e+00    1.0000 >    1.6175    0.2249    0.0765  736.5490 9821.3650   -1.2200    2.9589 338.52 338.5 114.2 10     0.0000    0.0323
M13          ?    BHZ  e P      c 20230330 1040   29.7731 GAU  3.34e-03 -1.00e+00 -1.00e+00 -1.00e+00    1.0000 >    0.9400   -0.0887    0.2997  737.1780 9821.5410   -1.2220    2.9644 351.18 351.2 121.2 10     0.0000    0.0188
M13          ?    BHN  e S      ? 20230330 1040   30.3710 GAU  2.04e-03 -1.00e+00 -1.00e+00 -1.00e+00    1.0000 >    1.6201   -0.1709    0.0264  737.1780 9821.5410   -1.2220    2.9644 351.18 351.2 114.1 10     0.0000    0.0324
M08          ?    BHZ  e P      c 20230330 1040   30.0787 GAU  2.26e-03 -1.00e+00 -1.00e+00 -1.00e+00    1.0000 >    1.0728    0.0842    0.3353  738.2480 9822.1600   -1.1510    3.6014   9.84   9.8 115.1 10     0.0000    0.0215
M08          ?    BHE  e S      ? 20230330 1040   30.9198 GAU  2.20e-03 -1.00e+00 -1.00e+00 -1.00e+00    1.0000 >    1.8457    0.1523    0.3249  738.2480 9822.1600   -1.1510    3.6014   9.84   9.8 106.4 10     0.0000    0.0369
M05          ?    BHZ  e P      c 20230330 1040   30.1124 GAU  2.46e-03 -1.00e+00 -1.00e+00 -1.00e+00    1.0000 >    1.1027    0.0879    0.3493  736.2660 9822.0830   -1.1500    3.7306 338.51 338.5 114.1 10     0.0000    0.0221
M05          ?    BHE  e S      ? 20230330 1040   30.9673 GAU  2.78e-03 -1.00e+00 -1.00e+00 -1.00e+00    1.0000 >    1.8965    0.1490    0.3365  736.2660 9822.0830   -1.1500    3.7306 338.51 338.5 105.2 10     0.0000    0.0379
END_PHASE
END_NLLOC

