NLLOC "./loc/SEML.20230319.151330.grid0" "LOCATED" "Location completed."
PUBLIC_ID None
SIGNATURE "Arham Zakki Edelo - edelo.17034@mhs.its.ac.id   obs:./obs/2023_03.obs   NLLoc:v7.00.10(30Aug2020)   run:28Dec2023 19h56m29"
COMMENT "SEML"
GRID  2001 2001 1001  727 9811 -2  0.01 0.01 0.01 PROB_DENSITY
SEARCH OCTREE nInitial 4851 nEvaluated 20011 smallestNodeSide 0.014881/0.014881/0.014205 oct_tree_integral 7.375693e-02 scatter_volume 7.348270e-02
HYPOCENTER  x 737.826 y 9817.91 z 1.40199  OT 29.2259  ix -1 iy -1 iz -1 MAXIMUM_LIKELIHOOD
GEOGRAPHIC  OT 2023 03 19  15 13 29.225885  Lat 9817.912202 Long 737.825893 Depth 1.401989
QUALITY  Pmax 9.45517e+22 MFmin 27.944 MFmax 33.9736 RMS 0.00690822 Nphs 8 Gap 330.701 Dist 1.29842 Mamp -9.90 0 Mdur -9.90 0
VPVSRATIO  VpVsRatio 2.02393  Npair 4  Diff 0.190266
STATISTICS  ExpectX 737.856591 Y 9817.901937 Z 1.410915  CovXX 0.0843374 XY 0.00808965 XZ 0.0168432 YY 0.022325 YZ 0.00457533 ZZ 0.0272476 EllAz1  183.767 Dip1  36.2097 Len1  0.262368 Az2  333.243 Dip2  49.6376 Len2  0.29273 Len3  5.640700e-01
STAT_GEOG  ExpectLat 9817.901937 Long 737.856591 Depth 1.410915
TRANSFORM  NONE
QML_OriginQuality  assocPhCt 8  usedPhCt 8  assocStaCt -1  usedStaCt 4  depthPhCt -1  stdErr 0.00690822  azGap 330.701  secAzGap 330.701  gtLevel -  minDist 1.29842 maxDist 3.07331 medDist 2.38639
QML_OriginUncertainty  horUnc -1  minHorUnc 0.22127  maxHorUnc 0.443129  azMaxHorUnc 82.6886
QML_ConfidenceEllipsoid  semiMajorAxisLength 0.56407  semiMinorAxisLength 0.262368  semiIntermediateAxisLength 0.29273  majorAxisPlunge 15.3905  majorAxisAzimuth 82.1401  majorAxisRotation 42.0635
FOCALMECH  Hyp  9817.912202 737.825893 1.401989 Mech  0 0 0 mf  0 nObs -1
PHASE ID Ins Cmp On Pha  FM Date     HrMn   Sec     Err  ErrMag    Coda      Amp       Per       PriorWt  >   TTpred    Res       Weight    StaLoc(X  Y         Z)        SDist    SAzim  RAz  RDip RQual    Tcorr       TTerr
M06          ?    BHZ  i P      d 20230319 1513   30.0273 GAU  1.34e-03 -1.00e+00  2.32e+01 -1.00e+00    1.0000 >    0.8009    0.0005    1.1835  738.3100 9819.1170   -1.3960    1.2984  21.89  21.9 152.5 10     0.0000    0.0160
M06          ?    BHN  e S      ? 20230319 1513   30.5936 GAU  1.08e-03 -1.00e+00 -1.00e+00 -1.00e+00    1.0000 >    1.3653    0.0024    0.9869  738.3100 9819.1170   -1.3960    1.2984  21.89  21.9 151.5 10     0.0000    0.0273
M14          ?    BHZ  e P      c 20230319 1513   30.1426 GAU  2.99e-03 -1.00e+00 -1.00e+00 -1.00e+00    1.0000 >    0.9107    0.0060    1.1227  737.5530 9820.0110   -1.3980    2.1165 352.59 352.6 138.7 10     0.0000    0.0182
M14          ?    BHN  e S      ? 20230319 1513   30.7680 GAU  1.67e-03 -1.00e+00  3.28e+02 -1.00e+00    1.0000 >    1.5516   -0.0094    0.8916  737.5530 9820.0110   -1.3980    2.1165 352.59 352.6 137.0 10     0.0000    0.0310
M11          ?    BHZ  e P      c 20230319 1513   30.2007 GAU  1.22e-03 -1.00e+00 -1.00e+00 -1.00e+00    1.0000 >    0.9829   -0.0081    1.0779  738.4670 9820.4900   -1.3120    2.6563  13.97  14.0 130.2 10     0.0000    0.0197
M11          ?    BHN  e S      ? 20230319 1513   30.9074 GAU  6.15e-03 -1.00e+00 -1.00e+00 -1.00e+00    1.0000 >    1.6728    0.0086    0.8604  738.4670 9820.4900   -1.3120    2.6563  13.97  14.0 128.1 10     0.0000    0.0335
M09          ?    BHZ  e P      c 20230319 1513   30.2753 GAU  4.61e-03 -1.00e+00 -1.00e+00 -1.00e+00    1.0000 >    1.0526   -0.0031    1.0853  737.8820 9820.9850   -1.2700    3.0733   1.05   1.0 124.4 10     0.0000    0.0211
M09          ?    BHE  e S      ? 20230319 1513   31.0319 GAU  2.78e-03 -1.00e+00  3.44e+02 -1.00e+00    1.0000 >    1.7898    0.0163    0.7918  737.8820 9820.9850   -1.2700    3.0733   1.05   1.0 122.2 10     0.0000    0.0358
END_PHASE
END_NLLOC

