NLLOC "./loc/SEML.20230330.104120.grid0" "LOCATED" "Location completed."
PUBLIC_ID None
SIGNATURE "Arham Zakki Edelo - edelo.17034@mhs.its.ac.id   obs:./obs/2023_03.obs   NLLoc:v7.00.10(30Aug2020)   run:28Dec2023 19h56m40"
COMMENT "SEML"
GRID  2001 2001 1001  727 9811 -2  0.01 0.01 0.01 PROB_DENSITY
SEARCH OCTREE nInitial 4851 nEvaluated 20003 smallestNodeSide 0.014881/0.014881/0.014205 oct_tree_integral 2.936415e-02 scatter_volume 2.877646e-02
HYPOCENTER  x 737.662 y 9818.54 z 1.07528  OT 20.1437  ix -1 iy -1 iz -1 MAXIMUM_LIKELIHOOD
GEOGRAPHIC  OT 2023 03 30  10 41 20.143743  Lat 9818.537202 Long 737.662202 Depth 1.075284
QUALITY  Pmax 5.73284e+44 MFmin 54.347 MFmax 67.4417 RMS 0.0230302 Nphs 14 Gap 261.031 Dist 0.869372 Mamp -9.90 0 Mdur -9.90 0
VPVSRATIO  VpVsRatio 1.75869  Npair 7  Diff 0.194473
STATISTICS  ExpectX 737.693765 Y 9818.535637 Z 1.043955  CovXX 0.0177086 XY 0.00176044 XZ -0.00447035 YY 0.0161278 YZ -0.0030277 ZZ 0.0208876 EllAz1  48.5237 Dip1  39.3875 Len1  0.225193 Az2  321.686 Dip2  -3.84403 Len2  0.230079 Len3  2.992120e-01
STAT_GEOG  ExpectLat 9818.535637 Long 737.693765 Depth 1.043955
TRANSFORM  NONE
QML_OriginQuality  assocPhCt 14  usedPhCt 14  assocStaCt -1  usedStaCt 7  depthPhCt -1  stdErr 0.0230302  azGap 261.031  secAzGap 261.031  gtLevel -  minDist 0.869372 maxDist 3.04257 medDist 1.47784
QML_OriginUncertainty  horUnc -1  minHorUnc 0.18567  maxHorUnc 0.208207  azMaxHorUnc 57.0893
QML_ConfidenceEllipsoid  semiMajorAxisLength 0.299212  semiMinorAxisLength 0.225193  semiIntermediateAxisLength 0.230079  majorAxisPlunge -50.3502  majorAxisAzimuth 56.3366  majorAxisRotation 268.876
FOCALMECH  Hyp  9818.537202 737.662202 1.075284 Mech  0 0 0 mf  0 nObs -1
PHASE ID Ins Cmp On Pha  FM Date     HrMn   Sec     Err  ErrMag    Coda      Amp       Per       PriorWt  >   TTpred    Res       Weight    StaLoc(X  Y         Z)        SDist    SAzim  RAz  RDip RQual    Tcorr       TTerr
M06          ?    BHZ  i P      c 20230330 1041   20.8302 GAU  1.07e-03 -1.00e+00 -1.00e+00 -1.00e+00    1.0000 >    0.6888   -0.0024    1.2731  738.3100 9819.1170   -1.3960    0.8694  48.17  48.2 158.3 10     0.0000    0.0138
M06          ?    BHN  e S      ? 20230330 1041   21.3410 GAU  1.67e-03 -1.00e+00 -1.00e+00 -1.00e+00    1.0000 >    1.1797    0.0175    1.1606  738.3100 9819.1170   -1.3960    0.8694  48.17  48.2 157.4 10     0.0000    0.0236
M04          ?    BHZ  e P      c 20230330 1041   20.8673 GAU  2.30e-03 -1.00e+00 -1.00e+00 -1.00e+00    1.0000 >    0.7358   -0.0122    1.1731  737.1400 9819.2520   -1.5710    0.8852 323.85 323.8 159.2 10     0.0000    0.0147
M04          ?    BHE  e S      ? 20230330 1041   21.3669 GAU  2.70e-03 -1.00e+00  2.81e+02 -1.00e+00    1.0000 >    1.2608   -0.0377    0.7394  737.1400 9819.2520   -1.5710    0.8852 323.85 323.8 158.3 10     0.0000    0.0252
M02          ?    BHZ  e P      d 20230330 1041   20.9383 GAU  2.82e-03 -1.00e+00  3.17e+02 -1.00e+00    1.0000 >    0.7677    0.0268    1.0766  736.5970 9819.4060   -1.4960    1.3746 309.20 309.2 148.3 10     0.0000    0.0154
M02          ?    BHE  e S      ? 20230330 1041   21.4601 GAU  1.30e-03 -1.00e+00 -1.00e+00 -1.00e+00    1.0000 >    1.3150    0.0014    1.1915  736.5970 9819.4060   -1.4960    1.3746 309.20 309.2 146.9 10     0.0000    0.0263
M14          ?    BHZ  e P      d 20230330 1041   20.9220 GAU  2.09e-03 -1.00e+00  4.13e+02 -1.00e+00    1.0000 >    0.7573    0.0209    1.1773  737.5530 9820.0110   -1.3980    1.4778 355.76 355.8 145.2 10     0.0000    0.0151
M14          ?    BHE  e S      ? 20230330 1041   21.4650 GAU  7.97e-03 -1.00e+00  4.34e+02 -1.00e+00    1.0000 >    1.2967    0.0246    1.0428  737.5530 9820.0110   -1.3980    1.4778 355.76 355.8 143.6 10     0.0000    0.0259
M11          ?    BHZ  i P      c 20230330 1041   20.9536 GAU  1.61e-03 -1.00e+00 -1.00e+00 -1.00e+00    1.0000 >    0.8360   -0.0261    0.9225  738.4670 9820.4900   -1.3120    2.1121  22.40  22.4 132.7 10     0.0000    0.0167
M11          ?    BHE  e S      ? 20230330 1041   21.5070 GAU  2.32e-03 -1.00e+00 -1.00e+00 -1.00e+00    1.0000 >    1.4302   -0.0669    0.3251  738.4670 9820.4900   -1.3120    2.1121  22.40  22.4 130.3 10     0.0000    0.0286
M09          ?    BHZ  i P      c 20230330 1041   21.0665 GAU  1.39e-03 -1.00e+00  1.23e+02 -1.00e+00    1.0000 >    0.8899    0.0328    0.9499  737.8820 9820.9850   -1.2700    2.4576   5.13   5.1 126.5 10     0.0000    0.0178
M09          ?    BHN  e S      ? 20230330 1041   21.7020 GAU  4.56e-03 -1.00e+00  4.72e+02 -1.00e+00    1.0000 >    1.5216    0.0367    0.8433  737.8820 9820.9850   -1.2700    2.4576   5.13   5.1 123.8 10     0.0000    0.0304
M13          ?    BHZ  i P      c 20230330 1041   21.1310 GAU  3.00e-03 -1.00e+00 -1.00e+00 -1.00e+00    1.0000 >    0.9976   -0.0103    1.1826  737.1780 9821.5410   -1.2220    3.0426 350.84 350.8 117.7 10     0.0000    0.0200
M13          ?    BHN  e S      ? 20230330 1041   21.8251 GAU  2.28e-03 -1.00e+00 -1.00e+00 -1.00e+00    1.0000 >    1.7035   -0.0221    0.9422  737.1780 9821.5410   -1.2220    3.0426 350.84 350.8 114.0 10     0.0000    0.0341
END_PHASE
END_NLLOC

