NLLOC "./loc/SEML.20230330.103756.grid0" "LOCATED" "Location completed."
PUBLIC_ID None
SIGNATURE "Arham Zakki Edelo - edelo.17034@mhs.its.ac.id   obs:./obs/2023_03.obs   NLLoc:v7.00.10(30Aug2020)   run:28Dec2023 19h56m32"
COMMENT "SEML"
GRID  2001 2001 1001  727 9811 -2  0.01 0.01 0.01 PROB_DENSITY
SEARCH OCTREE nInitial 4851 nEvaluated 20011 smallestNodeSide 0.014881/0.014881/0.014205 oct_tree_integral 1.372639e-02 scatter_volume 1.372639e-02
HYPOCENTER  x 738.057 y 9818.57 z 0.883523  OT 55.4261  ix -1 iy -1 iz -1 MAXIMUM_LIKELIHOOD
GEOGRAPHIC  OT 2023 03 30  10 37 55.426088  Lat 9818.574405 Long 738.056548 Depth 0.883523
QUALITY  Pmax 3.59738e+58 MFmin 67.8338 MFmax 80.8265 RMS 0.0258934 Nphs 18 Gap 274.635 Dist 0.598872 Mamp -9.90 0 Mdur -9.90 0
VPVSRATIO  VpVsRatio 1.70883  Npair 9  Diff 0.790367
STATISTICS  ExpectX 738.080769 Y 9818.475477 Z 0.973129  CovXX 0.0131212 XY -0.00428898 XZ 0.00658522 YY 0.019671 YZ -0.0129677 ZZ 0.0304471 EllAz1  110.422 Dip1  -28.6598 Len1  0.195953 Az2  32.4758 Dip2  20.91 Len2  0.197664 Len3  3.817936e-01
STAT_GEOG  ExpectLat 9818.475477 Long 738.080769 Depth 0.973129
TRANSFORM  NONE
QML_OriginQuality  assocPhCt 18  usedPhCt 18  assocStaCt -1  usedStaCt 9  depthPhCt -1  stdErr 0.0258934  azGap 274.635  secAzGap 274.635  gtLevel -  minDist 0.598872 maxDist 4.95426 medDist 1.95908
QML_OriginUncertainty  horUnc -1  minHorUnc 0.159058  maxHorUnc 0.223881  azMaxHorUnc 153.682
QML_ConfidenceEllipsoid  semiMajorAxisLength 0.381794  semiMinorAxisLength 0.195953  semiIntermediateAxisLength 0.197664  majorAxisPlunge 53.2853  majorAxisAzimuth 153.293  majorAxisRotation 101.982
FOCALMECH  Hyp  9818.574405 738.056548 0.883523 Mech  0 0 0 mf  0 nObs -1
PHASE ID Ins Cmp On Pha  FM Date     HrMn   Sec     Err  ErrMag    Coda      Amp       Per       PriorWt  >   TTpred    Res       Weight    StaLoc(X  Y         Z)        SDist    SAzim  RAz  RDip RQual    Tcorr       TTerr
M06          ?    BHZ  i P      c 20230330 1037   56.0520 GAU  2.00e-03 -1.00e+00 -1.00e+00 -1.00e+00    1.0000 >    0.6227    0.0032    1.8288  738.3100 9819.1170   -1.3960    0.5989  25.04  25.0 164.8 10     0.0000    0.0125
M06          ?    BHN  e S      ? 20230330 1037   56.4973 GAU  1.55e-03 -1.00e+00 -1.00e+00 -1.00e+00    1.0000 >    1.0713    0.0000    1.5562  738.3100 9819.1170   -1.3960    0.5989  25.04  25.0 163.6 10     0.0000    0.0214
M04          ?    BHZ  e P      c 20230330 1037   56.1451 GAU  6.09e-03 -1.00e+00 -1.00e+00 -1.00e+00    1.0000 >    0.7169    0.0021    1.7487  737.1400 9819.2520   -1.5710    1.1398 306.48 306.5 154.2 10     0.0000    0.0143
M04          ?    BHN  i S      ? 20230330 1037   56.6424 GAU  2.78e-03 -1.00e+00  7.05e+02 -1.00e+00    1.0000 >    1.2334   -0.0171    1.2569  737.1400 9819.2520   -1.5710    1.1398 306.48 306.5 152.2 10     0.0000    0.0247
M14          ?    BHZ  i P      c 20230330 1037   56.1480 GAU  2.88e-03 -1.00e+00 -1.00e+00 -1.00e+00    1.0000 >    0.7244   -0.0024    1.7848  737.5530 9820.0110   -1.3980    1.5223 340.68 340.7 145.2 10     0.0000    0.0145
M14          ?    BHE  e S      ? 20230330 1037   56.6735 GAU  2.32e-03 -1.00e+00  3.69e+02 -1.00e+00    1.0000 >    1.2458    0.0017    1.4434  737.5530 9820.0110   -1.3980    1.5223 340.68 340.7 142.4 10     0.0000    0.0249
M02          ?    BHZ  e P      c 20230330 1037   56.2030 GAU  8.48e-04 -1.00e+00 -1.00e+00 -1.00e+00    1.0000 >    0.7704    0.0065    1.6856  736.5970 9819.4060   -1.4960    1.6798 299.67 299.7 143.5 10     0.0000    0.0154
M02          ?    BHN  i S      ? 20230330 1037   56.8413 GAU  2.23e-03 -1.00e+00  1.40e+03 -1.00e+00    1.0000 >    1.3251    0.0901    0.3355  736.5970 9819.4060   -1.4960    1.6798 299.67 299.7 140.5 10     0.0000    0.0265
M11          ?    BHZ  i P      c 20230330 1037   56.1971 GAU  4.38e-03 -1.00e+00 -1.00e+00 -1.00e+00    1.0000 >    0.7756   -0.0046    1.7208  738.4670 9820.4900   -1.3120    1.9591  12.09  12.1 136.9 10     0.0000    0.0155
M11          ?    BHN  e S      ? 20230330 1037   56.8394 GAU  1.42e-03 -1.00e+00 -1.00e+00 -1.00e+00    1.0000 >    1.3332    0.0801    0.3792  738.4670 9820.4900   -1.3120    1.9591  12.09  12.1 133.1 10     0.0000    0.0267
M09          ?    BHZ  i P      c 20230330 1037   56.2754 GAU  2.15e-03 -1.00e+00 -1.00e+00 -1.00e+00    1.0000 >    0.8524   -0.0031    1.6975  737.8820 9820.9850   -1.2700    2.4169 355.86 355.9 129.8 10     0.0000    0.0170
M09          ?    BHN  e S      ? 20230330 1037   56.9748 GAU  1.75e-03 -1.00e+00  4.39e+02 -1.00e+00    1.0000 >    1.4643    0.0844    0.3749  737.8820 9820.9850   -1.2700    2.4169 355.86 355.9 125.0 10     0.0000    0.0293
M13          ?    BHZ  i P      c 20230330 1037   56.3879 GAU  1.55e-03 -1.00e+00 -1.00e+00 -1.00e+00    1.0000 >    0.9844   -0.0226    1.1626  737.1780 9821.5410   -1.2220    3.0940 343.50 343.5 121.9 10     0.0000    0.0197
M13          ?    BHE  e S      ? 20230330 1037   57.1551 GAU  2.67e-03 -1.00e+00 -1.00e+00 -1.00e+00    1.0000 >    1.6891    0.0399    0.8551  737.1780 9821.5410   -1.2220    3.0940 343.50 343.5 115.6 10     0.0000    0.0338
M05          ?    BHZ  i P      c 20230330 1037   56.7587 GAU  4.01e-03 -1.00e+00  4.17e+01 -1.00e+00    1.0000 >    1.1640    0.1686    0.0638  736.2660 9822.0830   -1.1500    3.9391 332.96 333.0 114.5 10     0.0000    0.0233
M05          ?    BHE  e S      ? 20230330 1037   57.7176 GAU  3.84e-03 -1.00e+00 -1.00e+00 -1.00e+00    1.0000 >    1.9923    0.2992    0.0374  736.2660 9822.0830   -1.1500    3.9391 332.96 333.0 106.9 10     0.0000    0.0398
M12          ?    BHZ  e P      c 20230330 1037   57.0403 GAU  2.11e-03 -1.00e+00 -1.00e+00 -1.00e+00    1.0000 >    1.3850    0.2292    0.0681  736.8520 9823.3800   -0.9890    4.9543 345.93 345.9 107.7 10     0.0000    0.0277
M12          ?    BHN  e S      ? 20230330 1037   58.2760 GAU  9.61e-03 -1.00e+00 -1.00e+00 -1.00e+00    1.0000 >    2.3571    0.4928    0.0006  736.8520 9823.3800   -0.9890    4.9543 345.93 345.9  99.9 10     0.0000    0.0471
END_PHASE
END_NLLOC

