NLLOC "./loc/SEML.20230319.151737.grid0" "LOCATED" "Location completed."
PUBLIC_ID None
SIGNATURE "Arham Zakki Edelo - edelo.17034@mhs.its.ac.id   obs:./obs/2023_03.obs   NLLoc:v7.00.10(30Aug2020)   run:28Dec2023 19h56m32"
COMMENT "SEML"
GRID  2001 2001 1001  727 9811 -2  0.01 0.01 0.01 PROB_DENSITY
SEARCH OCTREE nInitial 4851 nEvaluated 20003 smallestNodeSide 0.029762/0.029762/0.028409 oct_tree_integral 1.991749e-01 scatter_volume 1.983127e-01
HYPOCENTER  x 737.67 y 9818.46 z -0.0255682  OT 37.3384  ix -1 iy -1 iz -1 MAXIMUM_LIKELIHOOD
GEOGRAPHIC  OT 2023 03 19  15 17 37.338395  Lat 9818.455357 Long 737.669643 Depth -0.025568
QUALITY  Pmax 5.58504e+32 MFmin 46.4471 MFmax 54.9512 RMS 0.0383726 Nphs 12 Gap 306.51 Dist 0.920776 Mamp -9.90 0 Mdur -9.90 0
VPVSRATIO  VpVsRatio 2.07506  Npair 6  Diff 0.675396
STATISTICS  ExpectX 739.054517 Y 9818.444471 Z 0.744851  CovXX 1.65117 XY 0.192399 XZ 0.84057 YY 0.0705496 YZ 0.0985253 ZZ 0.681841 EllAz1  172.805 Dip1  -0.679751 Len1  0.409221 Az2  261.619 Dip2  60.1823 Len2  0.833939 Len3  2.760733e+00
STAT_GEOG  ExpectLat 9818.444471 Long 739.054517 Depth 0.744851
TRANSFORM  NONE
QML_OriginQuality  assocPhCt 12  usedPhCt 12  assocStaCt -1  usedStaCt 6  depthPhCt -1  stdErr 0.0383726  azGap 306.51  secAzGap 306.51  gtLevel -  minDist 0.920776 maxDist 4.99206 medDist 2.36192
QML_OriginUncertainty  horUnc -1  minHorUnc 0.330415  maxHorUnc 1.96234  azMaxHorUnc 83.1588
QML_ConfidenceEllipsoid  semiMajorAxisLength 2.76073  semiMinorAxisLength 0.409221  semiIntermediateAxisLength 0.833939  majorAxisPlunge 29.8083  majorAxisAzimuth 83.1946  majorAxisRotation 358.451
FOCALMECH  Hyp  9818.455357 737.669643 -0.025568 Mech  0 0 0 mf  0 nObs -1
PHASE ID Ins Cmp On Pha  FM Date     HrMn   Sec     Err  ErrMag    Coda      Amp       Per       PriorWt  >   TTpred    Res       Weight    StaLoc(X  Y         Z)        SDist    SAzim  RAz  RDip RQual    Tcorr       TTerr
M06          ?    BHZ  i P      d 20230319 1517   37.7803 GAU  4.81e-03 -1.00e+00 -1.00e+00 -1.00e+00    1.0000 >    0.4434   -0.0015    1.8729  738.3100 9819.1170   -1.3960    0.9208  44.06  44.1 144.9 10     0.0000    0.0089
M06          ?    BHE  i S      ? 20230319 1517   38.3443 GAU  4.99e-03 -1.00e+00 -1.00e+00 -1.00e+00    1.0000 >    0.7765    0.2294    0.1396  738.3100 9819.1170   -1.3960    0.9208  44.06  44.1 145.9 10     0.0000    0.0155
M14          ?    BHZ  e P      d 20230319 1517   37.9130 GAU  2.88e-03 -1.00e+00  6.75e+02 -1.00e+00    1.0000 >    0.5577    0.0169    1.4330  737.5530 9820.0110   -1.3980    1.5600 355.71 355.7 128.9 10     0.0000    0.0112
M14          ?    BHE  e S      ? 20230319 1517   38.3027 GAU  1.93e-03 -1.00e+00  4.16e+02 -1.00e+00    1.0000 >    0.9768   -0.0126    1.5787  737.5530 9820.0110   -1.3980    1.5600 355.71 355.7 130.5 10     0.0000    0.0195
M11          ?    BHZ  e P      c 20230319 1517   37.8642 GAU  5.98e-03 -1.00e+00 -1.00e+00 -1.00e+00    1.0000 >    0.6795   -0.1538    0.0241  738.4670 9820.4900   -1.3120    2.1853  21.40  21.4 117.2 10     0.0000    0.0136
M11          ?    BHN  i S      ? 20230319 1517   38.5329 GAU  7.11e-03 -1.00e+00 -1.00e+00 -1.00e+00    1.0000 >    1.1920    0.0025    1.5959  738.4670 9820.4900   -1.3120    2.1853  21.40  21.4 119.4 10     0.0000    0.0238
M09          ?    BHZ  i P      c 20230319 1517   38.0051 GAU  4.15e-03 -1.00e+00 -1.00e+00 -1.00e+00    1.0000 >    0.7567   -0.0900    0.3478  737.8820 9820.9850   -1.2700    2.5385   4.80   4.8 112.4 10     0.0000    0.0151
M09          ?    BHN  e S      ? 20230319 1517   38.6732 GAU  8.07e-03 -1.00e+00  4.61e+02 -1.00e+00    1.0000 >    1.3286    0.0062    1.4937  737.8820 9820.9850   -1.2700    2.5385   4.80   4.8 114.9 10     0.0000    0.0266
M08          ?    BHZ  i P      c 20230319 1517   38.3771 GAU  3.64e-03 -1.00e+00 -1.00e+00 -1.00e+00    1.0000 >    1.0428   -0.0041    1.6892  738.2480 9822.1600   -1.1510    3.7495   8.87   8.9 102.5 10     0.0000    0.0209
M08          ?    BHN  e S      ? 20230319 1517   39.3656 GAU  1.32e-03 -1.00e+00  2.71e+02 -1.00e+00    1.0000 >    1.8378    0.1894    0.1399  738.2480 9822.1600   -1.1510    3.7495   8.87   8.9 105.2 10     0.0000    0.0368
M12          ?    BHZ  i P      c 20230319 1517   38.6119 GAU  8.31e-03 -1.00e+00 -1.00e+00 -1.00e+00    1.0000 >    1.3441   -0.0706    0.5851  736.8520 9823.3800   -0.9890    4.9921 350.57 350.6  97.5 10     0.0000    0.0269
M12          ?    BHE  e S      ? 20230319 1517   39.6769 GAU  3.44e-03 -1.00e+00 -1.00e+00 -1.00e+00    1.0000 >    2.3701   -0.0315    1.1000  736.8520 9823.3800   -0.9890    4.9921 350.57 350.6  72.9 10     0.0000    0.0474
END_PHASE
END_NLLOC

