NLLOC "./loc/SEML.20230330.104015.grid0" "LOCATED" "Location completed."
PUBLIC_ID None
SIGNATURE "Arham Zakki Edelo - edelo.17034@mhs.its.ac.id   obs:./obs/2023_03.obs   NLLoc:v7.00.10(30Aug2020)   run:28Dec2023 19h56m37"
COMMENT "SEML"
GRID  2001 2001 1001  727 9811 -2  0.01 0.01 0.01 PROB_DENSITY
SEARCH OCTREE nInitial 4851 nEvaluated 20003 smallestNodeSide 0.014881/0.014881/0.014205 oct_tree_integral 3.645620e-02 scatter_volume 3.645620e-02
HYPOCENTER  x 738.064 y 9818.36 z 0.450284  OT 14.4945  ix -1 iy -1 iz -1 MAXIMUM_LIKELIHOOD
GEOGRAPHIC  OT 2023 03 30  10 40 14.494488  Lat 9818.358631 Long 738.063988 Depth 0.450284
QUALITY  Pmax 3.87218e+90 MFmin 97.3633 MFmax 114.19 RMS 0.0388141 Nphs 26 Gap 287.552 Dist 0.797274 Mamp -9.90 0 Mdur -9.90 0
VPVSRATIO  VpVsRatio 1.70648  Npair 13  Diff 0.631657
STATISTICS  ExpectX 737.934275 Y 9818.316703 Z 0.524402  CovXX 0.0567016 XY -0.00515736 XZ -0.0220904 YY 0.0134619 YZ -0.000129053 ZZ 0.0277029 EllAz1  19.6633 Dip1  25.0724 Len1  0.201962 Az2  324.579 Dip2  -50.7379 Len2  0.24729 Len3  4.934845e-01
STAT_GEOG  ExpectLat 9818.316703 Long 737.934275 Depth 0.524402
TRANSFORM  NONE
QML_OriginQuality  assocPhCt 26  usedPhCt 26  assocStaCt -1  usedStaCt 13  depthPhCt -1  stdErr 0.0388141  azGap 287.552  secAzGap 287.552  gtLevel -  minDist 0.797274 maxDist 5.16557 medDist 2.76201
QML_OriginUncertainty  horUnc -1  minHorUnc 0.171951  maxHorUnc 0.363055  azMaxHorUnc 96.7085
QML_ConfidenceEllipsoid  semiMajorAxisLength 0.493485  semiMinorAxisLength 0.201962  semiIntermediateAxisLength 0.24729  majorAxisPlunge -28.0377  majorAxisAzimuth 95.2359  majorAxisRotation 135.559
FOCALMECH  Hyp  9818.358631 738.063988 0.450284 Mech  0 0 0 mf  0 nObs -1
PHASE ID Ins Cmp On Pha  FM Date     HrMn   Sec     Err  ErrMag    Coda      Amp       Per       PriorWt  >   TTpred    Res       Weight    StaLoc(X  Y         Z)        SDist    SAzim  RAz  RDip RQual    Tcorr       TTerr
M06          ?    BHZ  i P      d 20230330 1040   15.0842 GAU  2.27e-03 -1.00e+00 -1.00e+00 -1.00e+00    1.0000 >    0.5351    0.0546    0.8771  738.3100 9819.1170   -1.3960    0.7973  17.97  18.0 156.0 10     0.0000    0.0107
M06          ?    BHE  i S      ? 20230330 1040   15.5861 GAU  2.93e-03 -1.00e+00 -1.00e+00 -1.00e+00    1.0000 >    0.9333    0.1583    0.0624  738.3100 9819.1170   -1.3960    0.7973  17.97  18.0 155.6 10     0.0000    0.0187
M04          ?    BHZ  i P      c 20230330 1040   15.1342 GAU  2.78e-03 -1.00e+00 -1.00e+00 -1.00e+00    1.0000 >    0.6389    0.0008    1.7051  737.1400 9819.2520   -1.5710    1.2852 314.03 314.0 146.5 10     0.0000    0.0128
M04          ?    BHN  e S      ? 20230330 1040   15.6064 GAU  2.58e-03 -1.00e+00  5.94e+02 -1.00e+00    1.0000 >    1.1132   -0.0014    1.5553  737.1400 9819.2520   -1.5710    1.2852 314.03 314.0 146.0 10     0.0000    0.0223
M14          ?    BHZ  i P      c 20230330 1040   15.1584 GAU  2.09e-03 -1.00e+00 -1.00e+00 -1.00e+00    1.0000 >    0.6729   -0.0090    1.6006  737.5530 9820.0110   -1.3980    1.7296 342.82 342.8 135.6 10     0.0000    0.0135
M14          ?    BHN  e S      ? 20230330 1040   15.6849 GAU  2.17e-03 -1.00e+00  1.99e+03 -1.00e+00    1.0000 >    1.1737    0.0167    1.4955  737.5530 9820.0110   -1.3980    1.7296 342.82 342.8 134.7 10     0.0000    0.0235
M02          ?    BHZ  i P      d 20230330 1040   15.2132 GAU  9.93e-04 -1.00e+00  2.77e+02 -1.00e+00    1.0000 >    0.7064    0.0123    1.5940  736.5970 9819.4060   -1.4960    1.8025 305.53 305.5 135.8 10     0.0000    0.0141
M02          ?    BHE  e S      ? 20230330 1040   15.7943 GAU  2.77e-03 -1.00e+00  1.63e+04 -1.00e+00    1.0000 >    1.2314    0.0684    0.7350  736.5970 9819.4060   -1.4960    1.8025 305.53 305.5 135.0 10     0.0000    0.0246
M11          ?    BHZ  i P      d 20230330 1040   15.2222 GAU  3.40e-03 -1.00e+00  4.34e+02 -1.00e+00    1.0000 >    0.7417   -0.0139    1.4802  738.4670 9820.4900   -1.3120    2.1691  10.71  10.7 127.1 10     0.0000    0.0148
M11          ?    BHN  e S      ? 20230330 1040   15.7850 GAU  3.83e-03 -1.00e+00  2.51e+02 -1.00e+00    1.0000 >    1.2944   -0.0039    1.4767  738.4670 9820.4900   -1.3120    2.1691  10.71  10.7 126.0 10     0.0000    0.0259
M09          ?    BHZ  i P      c 20230330 1040   15.3307 GAU  3.34e-03 -1.00e+00  6.38e+02 -1.00e+00    1.0000 >    0.8339    0.0024    1.6539  737.8820 9820.9850   -1.2700    2.6327 356.04 356.0 121.0 10     0.0000    0.0167
M09          ?    BHE  e S      ? 20230330 1040   16.0074 GAU  3.34e-03 -1.00e+00 -1.00e+00 -1.00e+00    1.0000 >    1.4557    0.0572    0.9334  737.8820 9820.9850   -1.2700    2.6327 356.04 356.0 119.5 10     0.0000    0.0291
M03          ?    BHZ  i P      c 20230330 1040   15.2433 GAU  3.79e-03 -1.00e+00 -1.00e+00 -1.00e+00    1.0000 >    0.8731   -0.1243    0.2006  736.8800 9820.8540   -1.3350    2.7620 334.62 334.6 120.5 10     0.0000    0.0175
M03          ?    BHE  e S      ? 20230330 1040   15.8394 GAU  2.46e-03 -1.00e+00  1.73e+02 -1.00e+00    1.0000 >    1.5235   -0.1786    0.1884  736.8800 9820.8540   -1.3350    2.7620 334.62 334.6 119.1 10     0.0000    0.0305
M13          ?    BHZ  i P      c 20230330 1040   15.4491 GAU  2.21e-03 -1.00e+00 -1.00e+00 -1.00e+00    1.0000 >    0.9804   -0.0258    1.1626  737.1780 9821.5410   -1.2220    3.3034 344.44 344.4 114.3 10     0.0000    0.0196
M13          ?    BHN  e S      ? 20230330 1040   16.1878 GAU  2.37e-03 -1.00e+00 -1.00e+00 -1.00e+00    1.0000 >    1.7120   -0.0187    1.2100  737.1780 9821.5410   -1.2220    3.3034 344.44 344.4 112.4 10     0.0000    0.0342
M10          ?    BHZ  e P      c 20230330 1040   15.4421 GAU  2.55e-03 -1.00e+00  2.81e+02 -1.00e+00    1.0000 >    0.9950   -0.0474    0.6155  736.5490 9821.3650   -1.2200    3.3665 333.26 333.3 113.8 10     0.0000    0.0199
M10          ?    BHE  e S      ? 20230330 1040   16.1750 GAU  2.32e-03 -1.00e+00  1.03e+02 -1.00e+00    1.0000 >    1.7375   -0.0571    0.6299  736.5490 9821.3650   -1.2200    3.3665 333.26 333.3 111.8 10     0.0000    0.0348
M08          ?    BHZ  i P      c 20230330 1040   15.6269 GAU  2.85e-03 -1.00e+00 -1.00e+00 -1.00e+00    1.0000 >    1.0912    0.0412    1.1643  738.2480 9822.1600   -1.1510    3.8058   2.77   2.8 110.1 10     0.0000    0.0218
M08          ?    BHE  e S      ? 20230330 1040   16.4671 GAU  2.67e-03 -1.00e+00 -1.00e+00 -1.00e+00    1.0000 >    1.9061    0.0664    0.8244  738.2480 9822.1600   -1.1510    3.8058   2.77   2.8 107.7 10     0.0000    0.0381
M05          ?    BHZ  e P      d 20230330 1040   15.5183 GAU  5.78e-03 -1.00e+00  6.46e+02 -1.00e+00    1.0000 >    1.1715   -0.1477    0.2475  736.2660 9822.0830   -1.1500    4.1357 334.23 334.2 108.4 10     0.0000    0.0234
M05          ?    BHE  e S      ? 20230330 1040   16.3602 GAU  2.90e-03 -1.00e+00 -1.00e+00 -1.00e+00    1.0000 >    2.0463   -0.1806    0.1902  736.2660 9822.0830   -1.1500    4.1357 334.23 334.2 105.8 10     0.0000    0.0409
M01          ?    BHZ  e P      d 20230330 1040   15.7671 GAU  2.02e-03 -1.00e+00  4.98e+03 -1.00e+00    1.0000 >    1.2511    0.0215    1.4372  736.4090 9822.5140   -1.1200    4.4728 338.28 338.3 106.6 10     0.0000    0.0250
M01          ?    BHN  e S      ? 20230330 1040   16.6918 GAU  2.42e-03 -1.00e+00  1.67e+03 -1.00e+00    1.0000 >    2.1843    0.0131    1.2524  736.4090 9822.5140   -1.1200    4.4728 338.28 338.3  78.3  8     0.0000    0.0437
M12          ?    BHZ  i P      c 20230330 1040   15.9376 GAU  2.64e-03 -1.00e+00 -1.00e+00 -1.00e+00    1.0000 >    1.4096    0.0335    1.2804  736.8520 9823.3800   -0.9890    5.1656 346.43 346.4 103.1 10     0.0000    0.0282
M12          ?    BHE  e S      ? 20230330 1040   17.0415 GAU  2.54e-03 -1.00e+00  2.62e+02 -1.00e+00    1.0000 >    2.4375    0.1094    0.4276  736.8520 9823.3800   -0.9890    5.1656 346.43 346.4  67.2 10     0.0000    0.0488
END_PHASE
END_NLLOC

