NLLOC "./loc/SEML.20230330.103856.grid0" "LOCATED" "Location completed."
PUBLIC_ID None
SIGNATURE "Arham Zakki Edelo - edelo.17034@mhs.its.ac.id   obs:./obs/2023_03.obs   NLLoc:v7.00.10(30Aug2020)   run:28Dec2023 19h56m34"
COMMENT "SEML"
GRID  2001 2001 1001  727 9811 -2  0.01 0.01 0.01 PROB_DENSITY
SEARCH OCTREE nInitial 4851 nEvaluated 20019 smallestNodeSide 0.029762/0.029762/0.028409 oct_tree_integral 1.856314e-01 scatter_volume 1.856314e-01
HYPOCENTER  x 737.938 y 9818.25 z 1.36648  OT 55.6388  ix -1 iy -1 iz -1 MAXIMUM_LIKELIHOOD
GEOGRAPHIC  OT 2023 03 30  10 38 55.638828  Lat 9818.247024 Long 737.937500 Depth 1.366477
QUALITY  Pmax 4.42692e+21 MFmin 28.9391 MFmax 37.0903 RMS 0.0181251 Nphs 8 Gap 324.524 Dist 0.946369 Mamp -9.90 0 Mdur -9.90 0
VPVSRATIO  VpVsRatio 2.21762  Npair 4  Diff 0.178936
STATISTICS  ExpectX 738.096548 Y 9818.134016 Z 1.355584  CovXX 0.222816 XY 0.00691905 XZ 0.0164007 YY 0.0464575 YZ 0.00981399 ZZ 0.0744954 EllAz1  179.413 Dip1  17.2057 Len1  0.391173 Az2  337.811 Dip2  71.5796 Len2  0.516111 Len3  8.911329e-01
STAT_GEOG  ExpectLat 9818.134016 Long 738.096548 Depth 1.355584
TRANSFORM  NONE
QML_OriginQuality  assocPhCt 8  usedPhCt 8  assocStaCt -1  usedStaCt 4  depthPhCt -1  stdErr 0.0181251  azGap 324.524  secAzGap 324.524  gtLevel -  minDist 0.946369 maxDist 2.73854 medDist 2.05501
QML_OriginUncertainty  horUnc -1  minHorUnc 0.325928  maxHorUnc 0.71631  azMaxHorUnc 87.7567
QML_ConfidenceEllipsoid  semiMajorAxisLength 0.891133  semiMinorAxisLength 0.391173  semiIntermediateAxisLength 0.516111  majorAxisPlunge 6.38004  majorAxisAzimuth 87.4283  majorAxisRotation 17.7277
FOCALMECH  Hyp  9818.247024 737.937500 1.366477 Mech  0 0 0 mf  0 nObs -1
PHASE ID Ins Cmp On Pha  FM Date     HrMn   Sec     Err  ErrMag    Coda      Amp       Per       PriorWt  >   TTpred    Res       Weight    StaLoc(X  Y         Z)        SDist    SAzim  RAz  RDip RQual    Tcorr       TTerr
M06          ?    BHZ  i P      c 20230330 1038   56.3941 GAU  8.20e-04 -1.00e+00 -1.00e+00 -1.00e+00    1.0000 >    0.7592   -0.0040    1.3191  738.3100 9819.1170   -1.3960    0.9464  23.18  23.2 159.0 10     0.0000    0.0152
M06          ?    BHE  e S      ? 20230330 1038   56.9675 GAU  1.29e-03 -1.00e+00 -1.00e+00 -1.00e+00    1.0000 >    1.2951    0.0336    0.8410  738.3100 9819.1170   -1.3960    0.9464  23.18  23.2 158.3 10     0.0000    0.0259
M14          ?    BHZ  e P      c 20230330 1038   56.5015 GAU  1.15e-03 -1.00e+00 -1.00e+00 -1.00e+00    1.0000 >    0.8580    0.0047    1.3280  737.5530 9820.0110   -1.3980    1.8054 347.70 347.7 143.1 10     0.0000    0.0172
M14          ?    BHE  e S      ? 20230330 1038   57.0810 GAU  4.59e-04 -1.00e+00  3.73e+02 -1.00e+00    1.0000 >    1.4628   -0.0207    0.9139  737.5530 9820.0110   -1.3980    1.8054 347.70 347.7 141.6 10     0.0000    0.0293
M11          ?    BHZ  e P      c 20230330 1038   56.5479 GAU  1.67e-03 -1.00e+00 -1.00e+00 -1.00e+00    1.0000 >    0.9160   -0.0069    1.2481  738.4670 9820.4900   -1.3120    2.3046  13.28  13.3 134.5 10     0.0000    0.0183
M11          ?    BHN  e S      ? 20230330 1038   57.1887 GAU  1.39e-03 -1.00e+00 -1.00e+00 -1.00e+00    1.0000 >    1.5603   -0.0104    1.0293  738.4670 9820.4900   -1.3120    2.3046  13.28  13.3 132.6 10     0.0000    0.0312
M09          ?    BHZ  e P      c 20230330 1038   56.6432 GAU  8.05e-04 -1.00e+00  1.56e+02 -1.00e+00    1.0000 >    0.9840    0.0204    1.0921  737.8820 9820.9850   -1.2700    2.7385 358.84 358.8 127.9 10     0.0000    0.0197
M09          ?    BHN  e S      ? 20230330 1038   57.3955 GAU  1.82e-03 -1.00e+00  4.86e+02 -1.00e+00    1.0000 >    1.6749    0.0818    0.2286  737.8820 9820.9850   -1.2700    2.7385 358.84 358.8 125.8 10     0.0000    0.0335
END_PHASE
END_NLLOC

