NLLOC "./loc/SEML.20230319.151728.grid0" "LOCATED" "Location completed."
PUBLIC_ID None
SIGNATURE "Arham Zakki Edelo - edelo.17034@mhs.its.ac.id   obs:./obs/2023_03.obs   NLLoc:v7.00.10(30Aug2020)   run:28Dec2023 19h56m31"
COMMENT "SEML"
GRID  2001 2001 1001  727 9811 -2  0.01 0.01 0.01 PROB_DENSITY
SEARCH OCTREE nInitial 4851 nEvaluated 20011 smallestNodeSide 0.029762/0.029762/0.028409 oct_tree_integral 2.050748e-01 scatter_volume 2.050748e-01
HYPOCENTER  x 737.312 y 9818.13 z 0.883523  OT 27.5604  ix -1 iy -1 iz -1 MAXIMUM_LIKELIHOOD
GEOGRAPHIC  OT 2023 03 19  15 17 27.560416  Lat 9818.127976 Long 737.312500 Depth 0.883523
QUALITY  Pmax 7.41189e+26 MFmin 36.0288 MFmax 44.4474 RMS 0.025831 Nphs 10 Gap 322.034 Dist 1.4047 Mamp -9.90 0 Mdur -9.90 0
VPVSRATIO  VpVsRatio 1.8346  Npair 5  Diff 0.428751
STATISTICS  ExpectX 737.465963 Y 9817.996261 Z 0.788080  CovXX 0.261387 XY -0.12051 XZ -0.230101 YY 0.152229 YZ 0.312438 ZZ 0.824687 EllAz1  10.1885 Dip1  -18.4444 Len1  0.295272 Az2  272.893 Dip2  -20.8454 Len2  0.796564 Len3  1.910370e+00
STAT_GEOG  ExpectLat 9817.996261 Long 737.465963 Depth 0.788080
TRANSFORM  NONE
QML_OriginQuality  assocPhCt 10  usedPhCt 10  assocStaCt -1  usedStaCt 5  depthPhCt -1  stdErr 0.025831  azGap 322.034  secAzGap 322.034  gtLevel -  minDist 1.4047 maxDist 4.13913 medDist 2.62907
QML_OriginUncertainty  horUnc -1  minHorUnc 0.413986  maxHorUnc 0.883138  azMaxHorUnc 122.817
QML_ConfidenceEllipsoid  semiMajorAxisLength 1.91037  semiMinorAxisLength 0.295272  semiIntermediateAxisLength 0.796564  majorAxisPlunge -61.5652  majorAxisAzimuth 138.208  majorAxisRotation 121.58
FOCALMECH  Hyp  9818.127976 737.312500 0.883523 Mech  0 0 0 mf  0 nObs -1
PHASE ID Ins Cmp On Pha  FM Date     HrMn   Sec     Err  ErrMag    Coda      Amp       Per       PriorWt  >   TTpred    Res       Weight    StaLoc(X  Y         Z)        SDist    SAzim  RAz  RDip RQual    Tcorr       TTerr
M06          ?    BHZ  i P      c 20230319 1517   28.2663 GAU  1.67e-03 -1.00e+00  1.90e+02 -1.00e+00    1.0000 >    0.7072   -0.0013    1.6699  738.3100 9819.1170   -1.3960    1.4047  45.24  45.2 147.3 10     0.0000    0.0141
M06          ?    BHE  e S      ? 20230319 1517   28.8695 GAU  1.77e-03 -1.00e+00 -1.00e+00 -1.00e+00    1.0000 >    1.2163    0.0928    0.3104  738.3100 9819.1170   -1.3960    1.4047  45.24  45.2 144.7 10     0.0000    0.0243
M14          ?    BHZ  e P      d 20230319 1517   28.3425 GAU  3.05e-03 -1.00e+00  3.22e+02 -1.00e+00    1.0000 >    0.7836   -0.0015    1.6501  737.5530 9820.0110   -1.3980    1.8983   7.28   7.3 138.9 10     0.0000    0.0157
M14          ?    BHE  e S      ? 20230319 1517   28.9028 GAU  2.88e-03 -1.00e+00  4.59e+02 -1.00e+00    1.0000 >    1.3473   -0.0049    1.4301  737.5530 9820.0110   -1.3980    1.8983   7.28   7.3 135.3 10     0.0000    0.0269
M11          ?    BHZ  e P      d 20230319 1517   28.4185 GAU  4.72e-03 -1.00e+00  1.40e+02 -1.00e+00    1.0000 >    0.9026   -0.0445    0.5872  738.4670 9820.4900   -1.3120    2.6291  26.05  26.0 127.7 10     0.0000    0.0181
M11          ?    BHN  e S      ? 20230319 1517   29.1108 GAU  6.73e-03 -1.00e+00 -1.00e+00 -1.00e+00    1.0000 >    1.5504   -0.0000    1.3394  738.4670 9820.4900   -1.3120    2.6291  26.05  26.0 122.6 10     0.0000    0.0310
M09          ?    BHZ  i P      d 20230319 1517   28.5271 GAU  1.41e-03 -1.00e+00  2.43e+02 -1.00e+00    1.0000 >    0.9539    0.0129    1.3991  737.8820 9820.9850   -1.2700    2.9132  11.27  11.3 124.2 10     0.0000    0.0191
M09          ?    BHN  e S      ? 20230319 1517   29.1942 GAU  1.96e-03 -1.00e+00  4.77e+02 -1.00e+00    1.0000 >    1.6376   -0.0038    1.3208  737.8820 9820.9850   -1.2700    2.9132  11.27  11.3 118.4 10     0.0000    0.0328
M08          ?    BHZ  e P      c 20230319 1517   28.8753 GAU  2.50e-03 -1.00e+00 -1.00e+00 -1.00e+00    1.0000 >    1.2109    0.1040    0.2849  738.2480 9822.1600   -1.1510    4.1391  13.06  13.1 113.3 10     0.0000    0.0242
M08          ?    BHN  e S      ? 20230319 1517   29.8644 GAU  8.44e-04 -1.00e+00  2.90e+02 -1.00e+00    1.0000 >    2.0714    0.2327    0.0082  738.2480 9822.1600   -1.1510    4.1391  13.06  13.1 105.4 10     0.0000    0.0414
END_PHASE
END_NLLOC

