NLLOC "./loc/SEML.20230319.151002.grid0" "LOCATED" "Location completed."
PUBLIC_ID None
SIGNATURE "Arham Zakki Edelo - edelo.17034@mhs.its.ac.id   obs:./obs/2023_03.obs   NLLoc:v7.00.10(30Aug2020)   run:28Dec2023 19h56m27"
COMMENT "SEML"
GRID  2001 2001 1001  727 9811 -2  0.01 0.01 0.01 PROB_DENSITY
SEARCH OCTREE nInitial 4851 nEvaluated 20011 smallestNodeSide 0.014881/0.014881/0.014205 oct_tree_integral 4.405880e-02 scatter_volume 4.405880e-02
HYPOCENTER  x 739.016 y 9818.34 z -0.231534  OT 1.90186  ix -1 iy -1 iz -1 MAXIMUM_LIKELIHOOD
GEOGRAPHIC  OT 2023 03 19  15 10 1.901861  Lat 9818.343750 Long 739.016369 Depth -0.231534
QUALITY  Pmax 8.59498e+69 MFmin 80.1829 MFmax 97.2627 RMS 0.0575703 Nphs 22 Gap 305.088 Dist 1.04732 Mamp -9.90 0 Mdur -9.90 0
VPVSRATIO  VpVsRatio 1.8372  Npair 11  Diff 0.678674
STATISTICS  ExpectX 738.991900 Y 9818.377899 Z -0.153323  CovXX 0.0240634 XY 0.000218148 XZ -0.0171269 YY 0.0265208 YZ -0.00255209 ZZ 0.037594 EllAz1  83.8268 Dip1  34.3759 Len1  0.208391 Az2  172.642 Dip2  -1.73066 Len2  0.30536 Len3  4.178490e-01
STAT_GEOG  ExpectLat 9818.377899 Long 738.991900 Depth -0.153323
TRANSFORM  NONE
QML_OriginQuality  assocPhCt 22  usedPhCt 22  assocStaCt -1  usedStaCt 11  depthPhCt -1  stdErr 0.0575703  azGap 305.088  secAzGap 305.088  gtLevel -  minDist 1.04732 maxDist 5.48163 medDist 2.87454
QML_OriginUncertainty  horUnc -1  minHorUnc 0.235163  maxHorUnc 0.247067  azMaxHorUnc 5.03374
QML_ConfidenceEllipsoid  semiMajorAxisLength 0.417849  semiMinorAxisLength 0.208391  semiIntermediateAxisLength 0.30536  majorAxisPlunge -55.5681  majorAxisAzimuth 80.1163  majorAxisRotation 271.105
FOCALMECH  Hyp  9818.343750 739.016369 -0.231534 Mech  0 0 0 mf  0 nObs -1
PHASE ID Ins Cmp On Pha  FM Date     HrMn   Sec     Err  ErrMag    Coda      Amp       Per       PriorWt  >   TTpred    Res       Weight    StaLoc(X  Y         Z)        SDist    SAzim  RAz  RDip RQual    Tcorr       TTerr
M06          ?    BHZ  i P      c 20230319 1510    2.5030 GAU  1.37e-03 -1.00e+00 -1.00e+00 -1.00e+00    1.0000 >    0.4231    0.1781    0.2172  738.3100 9819.1170   -1.3960    1.0473 317.59 317.6 136.0 10     0.0000    0.0085
M06          ?    BHN  e S      ? 20230319 1510    3.0705 GAU  1.31e-03 -1.00e+00 -1.00e+00 -1.00e+00    1.0000 >    0.7377    0.4310    0.0489  738.3100 9819.1170   -1.3960    1.0473 317.59 317.6 137.5 10     0.0000    0.0148
M04          ?    BHZ  i P      c 20230319 1510    2.6174 GAU  5.87e-04 -1.00e+00 -1.00e+00 -1.00e+00    1.0000 >    0.6707    0.0449    1.2440  737.1400 9819.2520   -1.5710    2.0846 295.83 295.8 118.6 10     0.0000    0.0134
M04          ?    BHE  e S      ? 20230319 1510    3.0701 GAU  2.00e-03 -1.00e+00  2.77e+02 -1.00e+00    1.0000 >    1.1683   -0.0000    1.7182  737.1400 9819.2520   -1.5710    2.0846 295.83 295.8 121.4 10     0.0000    0.0234
M11          ?    BHZ  i P      c 20230319 1510    2.5721 GAU  2.23e-03 -1.00e+00 -1.00e+00 -1.00e+00    1.0000 >    0.6647    0.0056    1.6795  738.4670 9820.4900   -1.3120    2.2154 345.64 345.6 111.2 10     0.0000    0.0133
M11          ?    BHE  e S      ? 20230319 1510    3.0302 GAU  9.66e-04 -1.00e+00 -1.00e+00 -1.00e+00    1.0000 >    1.1610   -0.0327    1.3288  738.4670 9820.4900   -1.3120    2.2154 345.64 345.6 114.5 10     0.0000    0.0232
M14          ?    BHZ  i P      c 20230319 1510    2.6151 GAU  1.85e-03 -1.00e+00 -1.00e+00 -1.00e+00    1.0000 >    0.6768    0.0364    1.4216  737.5530 9820.0110   -1.3980    2.2184 318.73 318.7 113.1 10     0.0000    0.0135
M14          ?    BHE  e S      ? 20230319 1510    3.1233 GAU  8.05e-04 -1.00e+00  3.47e+02 -1.00e+00    1.0000 >    1.1810    0.0405    1.3577  737.5530 9820.0110   -1.3980    2.2184 318.73 318.7 116.3 10     0.0000    0.0236
M02          ?    BHZ  e P      c 20230319 1510    2.6582 GAU  1.16e-03 -1.00e+00 -1.00e+00 -1.00e+00    1.0000 >    0.7918   -0.0355    1.2293  736.5970 9819.4060   -1.4960    2.6423 293.70 293.7 110.3 10     0.0000    0.0158
M02          ?    BHN  e S      ? 20230319 1510    3.2721 GAU  3.08e-03 -1.00e+00  3.17e+03 -1.00e+00    1.0000 >    1.3808   -0.0106    1.6260  736.5970 9819.4060   -1.4960    2.6423 293.70 293.7 113.9 10     0.0000    0.0276
M09          ?    BHZ  i P      c 20230319 1510    2.7160 GAU  3.52e-03 -1.00e+00  1.39e+02 -1.00e+00    1.0000 >    0.8226   -0.0084    1.6891  737.8820 9820.9850   -1.2700    2.8745 336.76 336.8 104.0 10     0.0000    0.0165
M09          ?    BHE  e S      ? 20230319 1510    3.4035 GAU  1.93e-03 -1.00e+00  3.05e+02 -1.00e+00    1.0000 >    1.4391    0.0626    0.8827  737.8820 9820.9850   -1.2700    2.8745 336.76 336.8 108.0 10     0.0000    0.0288
M13          ?    BHZ  i P      c 20230319 1510    2.8004 GAU  2.78e-03 -1.00e+00 -1.00e+00 -1.00e+00    1.0000 >    1.0245   -0.1260    0.1030  737.1780 9821.5410   -1.2220    3.6881 330.10 330.1  98.8 10     0.0000    0.0205
M13          ?    BHE  e S      ? 20230319 1510    3.6290 GAU  1.07e-03 -1.00e+00 -1.00e+00 -1.00e+00    1.0000 >    1.7970   -0.0699    0.7079  737.1780 9821.5410   -1.2220    3.6881 330.10 330.1 102.8 10     0.0000    0.0359
M08          ?    BHZ  e P      c 20230319 1510    3.0750 GAU  1.03e-01 -1.00e+00  5.99e+02 -1.00e+00    1.0000 >    1.0701    0.1030    0.6839  738.2480 9822.1600   -1.1510    3.8928 348.62 348.6  97.4 10     0.0000    0.0214
M08          ?    BHE  i S      ? 20230319 1510    4.1514 GAU  8.05e-04 -1.00e+00 -1.00e+00 -1.00e+00    1.0000 >    1.8811    0.3685    0.0822  738.2480 9822.1600   -1.1510    3.8928 348.62 348.6 100.9 10     0.0000    0.0376
M10          ?    BHZ  e P      c 20230319 1510    3.1826 GAU  2.22e-03 -1.00e+00 -1.00e+00 -1.00e+00    1.0000 >    1.0788    0.2020    0.2335  736.5490 9821.3650   -1.2200    3.9008 320.76 320.8  98.0 10     0.0000    0.0216
M10          ?    BHE  e S      ? 20230319 1510    4.0750 GAU  2.26e-03 -1.00e+00 -1.00e+00 -1.00e+00    1.0000 >    1.8934    0.2798    0.0828  736.5490 9821.3650   -1.2200    3.9008 320.76 320.8 101.8 10     0.0000    0.0379
M05          ?    BHZ  i P      c 20230319 1510    3.1789 GAU  1.11e-03 -1.00e+00 -1.00e+00 -1.00e+00    1.0000 >    1.2629    0.0142    1.6837  736.2660 9822.0830   -1.1500    4.6418 323.66 323.7  95.7 10     0.0000    0.0253
M05          ?    BHN  e S      ? 20230319 1510    4.1539 GAU  2.32e-03 -1.00e+00  2.47e+02 -1.00e+00    1.0000 >    2.2245    0.0276    1.3660  736.2660 9822.0830   -1.1500    4.6418 323.66 323.7  98.5 10     0.0000    0.0445
M12          ?    BHZ  i P      c 20230319 1510    3.3378 GAU  2.65e-03 -1.00e+00 -1.00e+00 -1.00e+00    1.0000 >    1.4650   -0.0290    1.3806  736.8520 9823.3800   -0.9890    5.4816 336.74 336.7  94.0 10     0.0000    0.0293
M12          ?    BHN  e S      ? 20230319 1510    4.4692 GAU  2.05e-03 -1.00e+00 -1.00e+00 -1.00e+00    1.0000 >    2.5958   -0.0285    1.2333  736.8520 9823.3800   -0.9890    5.4816 336.74 336.7  95.4 10     0.0000    0.0519
END_PHASE
END_NLLOC

