NLLOC "./loc/SEML.20230319.150057.grid0" "LOCATED" "Location completed."
PUBLIC_ID None
SIGNATURE "Arham Zakki Edelo - edelo.17034@mhs.its.ac.id   obs:./obs/2023_03.obs   NLLoc:v7.00.10(30Aug2020)   run:28Dec2023 19h56m24"
COMMENT "SEML"
GRID  2001 2001 1001  727 9811 -2  0.01 0.01 0.01 PROB_DENSITY
SEARCH OCTREE nInitial 4851 nEvaluated 20003 smallestNodeSide 0.029762/0.029762/0.028409 oct_tree_integral 1.703823e-01 scatter_volume 1.703823e-01
HYPOCENTER  x 736.985 y 9818.63 z 1.1392  OT 56.3431  ix -1 iy -1 iz -1 MAXIMUM_LIKELIHOOD
GEOGRAPHIC  OT 2023 03 19  15 00 56.343065  Lat 9818.633929 Long 736.985119 Depth 1.139205
QUALITY  Pmax 3.5818e+21 MFmin 29.665 MFmax 37.9718 RMS 0.0187117 Nphs 8 Gap 310.913 Dist 1.4102 Mamp -9.90 0 Mdur -9.90 0
VPVSRATIO  VpVsRatio 1.57202  Npair 4  Diff 0.135654
STATISTICS  ExpectX 737.090011 Y 9818.430601 Z 0.991441  CovXX 0.301947 XY -6.11342e-05 XZ 0.0828608 YY 0.0569552 YZ 0.0502355 ZZ 0.125823 EllAz1  191.033 Dip1  32.6547 Len1  0.29193 Az2  327.896 Dip2  48.7089 Len2  0.662988 Len3  1.089175e+00
STAT_GEOG  ExpectLat 9818.430601 Long 737.090011 Depth 0.991441
TRANSFORM  NONE
QML_OriginQuality  assocPhCt 8  usedPhCt 8  assocStaCt -1  usedStaCt 4  depthPhCt -1  stdErr 0.0187117  azGap 310.913  secAzGap 310.913  gtLevel -  minDist 1.4102 maxDist 2.51633 medDist 1.93232
QML_OriginUncertainty  horUnc -1  minHorUnc 0.361935  maxHorUnc 0.833354  azMaxHorUnc 90.0143
QML_ConfidenceEllipsoid  semiMajorAxisLength 1.08918  semiMinorAxisLength 0.29193  semiIntermediateAxisLength 0.662988  majorAxisPlunge 22.3261  majorAxisAzimuth 85.7738  majorAxisRotation 45.2701
FOCALMECH  Hyp  9818.633929 736.985119 1.139205 Mech  0 0 0 mf  0 nObs -1
PHASE ID Ins Cmp On Pha  FM Date     HrMn   Sec     Err  ErrMag    Coda      Amp       Per       PriorWt  >   TTpred    Res       Weight    StaLoc(X  Y         Z)        SDist    SAzim  RAz  RDip RQual    Tcorr       TTerr
M06          ?    BHZ  i P      c 20230319 1500   57.1096 GAU  3.91e-04 -1.00e+00 -1.00e+00 -1.00e+00    1.0000 >    0.7605    0.0060    1.3385  738.3100 9819.1170   -1.3960    1.4102  69.97  70.0 147.4 10     0.0000    0.0152
M06          ?    BHN  e S      ? 20230319 1500   57.6539 GAU  6.66e-04 -1.00e+00 -1.00e+00 -1.00e+00    1.0000 >    1.3010    0.0099    1.1800  738.3100 9819.1170   -1.3960    1.4102  69.97  70.0 146.0 10     0.0000    0.0260
M14          ?    BHZ  e P      c 20230319 1500   57.1067 GAU  1.39e-03 -1.00e+00 -1.00e+00 -1.00e+00    1.0000 >    0.7713   -0.0077    1.2612  737.5530 9820.0110   -1.3980    1.4896  22.41  22.4 145.9 10     0.0000    0.0154
M14          ?    BHE  e S      ? 20230319 1500   57.6677 GAU  1.07e-03 -1.00e+00  4.35e+02 -1.00e+00    1.0000 >    1.3193    0.0053    1.1865  737.5530 9820.0110   -1.3980    1.4896  22.41  22.4 144.3 10     0.0000    0.0264
M11          ?    BHZ  e P      c 20230319 1500   57.2334 GAU  2.26e-03 -1.00e+00 -1.00e+00 -1.00e+00    1.0000 >    0.8924   -0.0021    1.3063  738.4670 9820.4900   -1.3120    2.3751  38.60  38.6 129.7 10     0.0000    0.0178
M11          ?    BHN  e S      ? 20230319 1500   57.8517 GAU  2.32e-03 -1.00e+00 -1.00e+00 -1.00e+00    1.0000 >    1.5248   -0.0162    0.9506  738.4670 9820.4900   -1.3120    2.3751  38.60  38.6 127.2 10     0.0000    0.0305
M09          ?    BHZ  i P      c 20230319 1500   57.3001 GAU  2.67e-03 -1.00e+00  1.05e+02 -1.00e+00    1.0000 >    0.9100    0.0470    0.5316  737.8820 9820.9850   -1.2700    2.5163  20.88  20.9 126.9 10     0.0000    0.0182
M09          ?    BHN  e S      ? 20230319 1500   57.9800 GAU  2.02e-03 -1.00e+00  4.76e+02 -1.00e+00    1.0000 >    1.5542    0.0828    0.2454  737.8820 9820.9850   -1.2700    2.5163  20.88  20.9 124.4 10     0.0000    0.0311
END_PHASE
END_NLLOC

