NLLOC "./loc/SEML.20230330.104535.grid0" "LOCATED" "Location completed."
PUBLIC_ID None
SIGNATURE "Arham Zakki Edelo - edelo.17034@mhs.its.ac.id   obs:./obs/2023_03.obs   NLLoc:v7.00.10(30Aug2020)   run:28Dec2023 19h56m42"
COMMENT "SEML"
GRID  2001 2001 1001  727 9811 -2  0.01 0.01 0.01 PROB_DENSITY
SEARCH OCTREE nInitial 4851 nEvaluated 20011 smallestNodeSide 0.014881/0.014881/0.014205 oct_tree_integral 2.426979e-02 scatter_volume 2.426979e-02
HYPOCENTER  x 737.469 y 9818.97 z 1.20312  OT 34.4627  ix -1 iy -1 iz -1 MAXIMUM_LIKELIHOOD
GEOGRAPHIC  OT 2023 03 30  10 45 34.462742  Lat 9818.968750 Long 737.468750 Depth 1.203125
QUALITY  Pmax 6.27617e+28 MFmin 39.2127 MFmax 55.7192 RMS 0.0136779 Nphs 10 Gap 230.742 Dist 0.433944 Mamp -9.90 0 Mdur -9.90 0
VPVSRATIO  VpVsRatio 1.65655  Npair 5  Diff 0.168564
STATISTICS  ExpectX 737.674301 Y 9818.784966 Z 0.943639  CovXX 0.270709 XY -0.188787 XZ -0.32898 YY 0.167856 YZ 0.250683 ZZ 0.47321 EllAz1  39.9551 Dip1  2.4333 Len1  0.28859 Az2  312.217 Dip2  -42.8821 Len2  0.322545 Len3  1.741047e+00
STAT_GEOG  ExpectLat 9818.784966 Long 737.674301 Depth 0.943639
TRANSFORM  NONE
QML_OriginQuality  assocPhCt 10  usedPhCt 10  assocStaCt -1  usedStaCt 5  depthPhCt -1  stdErr 0.0136779  azGap 230.742  secAzGap 230.742  gtLevel -  minDist 0.433944 maxDist 2.05816 medDist 1.04565
QML_OriginUncertainty  horUnc -1  minHorUnc 0.233059  maxHorUnc 0.976925  azMaxHorUnc 127.381
QML_ConfidenceEllipsoid  semiMajorAxisLength 1.74105  semiMinorAxisLength 0.28859  semiIntermediateAxisLength 0.322545  majorAxisPlunge -47.0144  majorAxisAzimuth 127.342  majorAxisRotation 221.606
FOCALMECH  Hyp  9818.968750 737.468750 1.203125 Mech  0 0 0 mf  0 nObs -1
PHASE ID Ins Cmp On Pha  FM Date     HrMn   Sec     Err  ErrMag    Coda      Amp       Per       PriorWt  >   TTpred    Res       Weight    StaLoc(X  Y         Z)        SDist    SAzim  RAz  RDip RQual    Tcorr       TTerr
M04          ?    BHZ  e P      c 20230330 1045   35.1937 GAU  2.45e-03 -1.00e+00 -1.00e+00 -1.00e+00    1.0000 >    0.7366   -0.0057    1.4776  737.1400 9819.2520   -1.5710    0.4339 310.75 310.7 170.0 10     0.0000    0.0147
M04          ?    BHN  e S      ? 20230330 1045   35.7060 GAU  4.13e-03 -1.00e+00  7.35e+02 -1.00e+00    1.0000 >    1.2601   -0.0168    1.0991  737.1400 9819.2520   -1.5710    0.4339 310.75 310.7 169.6 10     0.0000    0.0252
M06          ?    BHZ  i P      c 20230330 1045   35.1835 GAU  8.17e-04 -1.00e+00 -1.00e+00 -1.00e+00    1.0000 >    0.7156    0.0051    1.4889  738.3100 9819.1170   -1.3960    0.8542  80.01  80.0 159.7 10     0.0000    0.0143
M06          ?    BHN  e S      ? 20230330 1045   35.6882 GAU  1.16e-03 -1.00e+00 -1.00e+00 -1.00e+00    1.0000 >    1.2233    0.0022    1.2818  738.3100 9819.1170   -1.3960    0.8542  80.01  80.0 158.9 10     0.0000    0.0245
M14          ?    BHZ  e P      c 20230330 1045   35.2051 GAU  2.52e-03 -1.00e+00 -1.00e+00 -1.00e+00    1.0000 >    0.7333    0.0091    1.4049  737.5530 9820.0110   -1.3980    1.0456   4.62   4.6 155.6 10     0.0000    0.0147
M14          ?    BHN  e S      ? 20230330 1045   35.7497 GAU  1.53e-03 -1.00e+00  3.37e+02 -1.00e+00    1.0000 >    1.2534    0.0335    0.7211  737.5530 9820.0110   -1.3980    1.0456   4.62   4.6 154.6 10     0.0000    0.0251
M11          ?    BHZ  e P      c 20230330 1045   35.2616 GAU  3.08e-03 -1.00e+00 -1.00e+00 -1.00e+00    1.0000 >    0.8101   -0.0112    1.3465  738.4670 9820.4900   -1.3120    1.8195  33.27  33.3 139.7 10     0.0000    0.0162
M11          ?    BHE  e S      ? 20230330 1045   35.8366 GAU  2.67e-03 -1.00e+00 -1.00e+00 -1.00e+00    1.0000 >    1.3835   -0.0097    1.1587  738.4670 9820.4900   -1.3120    1.8195  33.27  33.3 138.0 10     0.0000    0.0277
M09          ?    BHZ  i P      c 20230330 1045   35.4385 GAU  2.25e-03 -1.00e+00 -1.00e+00 -1.00e+00    1.0000 >    0.8386    0.1371    0.0110  737.8820 9820.9850   -1.2700    2.0582  11.58  11.6 135.3 10     0.0000    0.0168
M09          ?    BHE  e S      ? 20230330 1045   36.1118 GAU  8.33e-04 -1.00e+00  3.46e+02 -1.00e+00    1.0000 >    1.4317    0.2173    0.0104  737.8820 9820.9850   -1.2700    2.0582  11.58  11.6 133.2 10     0.0000    0.0286
END_PHASE
END_NLLOC

