NLLOC "./loc/SEML.20230330.104008.grid0" "LOCATED" "Location completed."
PUBLIC_ID None
SIGNATURE "Arham Zakki Edelo - edelo.17034@mhs.its.ac.id   obs:./obs/2023_03.obs   NLLoc:v7.00.10(30Aug2020)   run:28Dec2023 19h56m36"
COMMENT "SEML"
GRID  2001 2001 1001  727 9811 -2  0.01 0.01 0.01 PROB_DENSITY
SEARCH OCTREE nInitial 4851 nEvaluated 20003 smallestNodeSide 0.014881/0.014881/0.014205 oct_tree_integral 3.930013e-02 scatter_volume 3.930013e-02
HYPOCENTER  x 737.99 y 9818.54 z 0.606534  OT 7.73597  ix -1 iy -1 iz -1 MAXIMUM_LIKELIHOOD
GEOGRAPHIC  OT 2023 03 30  10 40 7.735971  Lat 9818.537202 Long 737.989583 Depth 0.606534
QUALITY  Pmax 3.06794e+81 MFmin 90.6892 MFmax 104.749 RMS 0.0403777 Nphs 24 Gap 273.032 Dist 0.662444 Mamp -9.90 0 Mdur -9.90 0
VPVSRATIO  VpVsRatio 1.73976  Npair 12  Diff 0.607955
STATISTICS  ExpectX 738.061429 Y 9818.454916 Z 0.633669  CovXX 0.0451274 XY -0.0219351 XZ -0.0347285 YY 0.030136 YZ 0.0186528 ZZ 0.0672084 EllAz1  46.3331 Dip1  12.7921 Len1  0.216591 Az2  327.229 Dip2  -39.7775 Len2  0.301718 Len3  6.041355e-01
STAT_GEOG  ExpectLat 9818.454916 Long 738.061429 Depth 0.633669
TRANSFORM  NONE
QML_OriginQuality  assocPhCt 24  usedPhCt 24  assocStaCt -1  usedStaCt 12  depthPhCt -1  stdErr 0.0403777  azGap 273.032  secAzGap 273.032  gtLevel -  minDist 0.662444 maxDist 4.97461 medDist 2.50948
QML_OriginUncertainty  horUnc -1  minHorUnc 0.182312  maxHorUnc 0.373989  azMaxHorUnc 125.567
QML_ConfidenceEllipsoid  semiMajorAxisLength 0.604135  semiMinorAxisLength 0.216591  semiIntermediateAxisLength 0.301718  majorAxisPlunge -47.3875  majorAxisAzimuth 122.044  majorAxisRotation 256.475
FOCALMECH  Hyp  9818.537202 737.989583 0.606534 Mech  0 0 0 mf  0 nObs -1
PHASE ID Ins Cmp On Pha  FM Date     HrMn   Sec     Err  ErrMag    Coda      Amp       Per       PriorWt  >   TTpred    Res       Weight    StaLoc(X  Y         Z)        SDist    SAzim  RAz  RDip RQual    Tcorr       TTerr
M06          ?    BHZ  i P      c 20230330 1040    8.3034 GAU  7.73e-04 -1.00e+00  2.57e+02 -1.00e+00    1.0000 >    0.5597    0.0078    1.5855  738.3100 9819.1170   -1.3960    0.6624  28.93  28.9 161.0 10     0.0000    0.0112
M06          ?    BHE  e S      ? 20230330 1040    8.8220 GAU  2.28e-03 -1.00e+00  1.07e+02 -1.00e+00    1.0000 >    0.9718    0.1143    0.4362  738.3100 9819.1170   -1.3960    0.6624  28.93  28.9 159.4 10     0.0000    0.0194
M04          ?    BHZ  e P      c 20230330 1040    8.3684 GAU  2.31e-03 -1.00e+00 -1.00e+00 -1.00e+00    1.0000 >    0.6503   -0.0178    1.5705  737.1400 9819.2520   -1.5710    1.1103 310.08 310.1 151.9 10     0.0000    0.0130
M04          ?    BHN  e S      ? 20230330 1040    8.8535 GAU  2.87e-03 -1.00e+00  5.76e+02 -1.00e+00    1.0000 >    1.1284   -0.0108    1.5589  737.1400 9819.2520   -1.5710    1.1103 310.08 310.1 149.4 10     0.0000    0.0226
M14          ?    BHZ  i P      c 20230330 1040    8.4088 GAU  2.44e-03 -1.00e+00 -1.00e+00 -1.00e+00    1.0000 >    0.6699    0.0029    1.6580  737.5530 9820.0110   -1.3980    1.5371 343.50 343.5 141.1 10     0.0000    0.0134
M14          ?    BHE  i S      ? 20230330 1040    8.9592 GAU  7.21e-03 -1.00e+00  5.55e+02 -1.00e+00    1.0000 >    1.1629    0.0603    0.7212  737.5530 9820.0110   -1.3980    1.5371 343.50 343.5 137.2 10     0.0000    0.0233
M02          ?    BHZ  e P      c 20230330 1040    8.4656 GAU  9.66e-04 -1.00e+00 -1.00e+00 -1.00e+00    1.0000 >    0.7085    0.0212    1.3094  736.5970 9819.4060   -1.4960    1.6414 301.96 302.0 140.4 10     0.0000    0.0142
M02          ?    BHE  e S      ? 20230330 1040    9.0372 GAU  2.32e-03 -1.00e+00  3.75e+03 -1.00e+00    1.0000 >    1.2295    0.0717    0.6183  736.5970 9819.4060   -1.4960    1.6414 301.96 302.0 136.5 10     0.0000    0.0246
M11          ?    BHZ  i P      c 20230330 1040    8.4462 GAU  4.81e-03 -1.00e+00 -1.00e+00 -1.00e+00    1.0000 >    0.7354   -0.0252    1.4028  738.4670 9820.4900   -1.3120    2.0103  13.74  13.7 131.6 10     0.0000    0.0147
M11          ?    BHE  e S      ? 20230330 1040    9.0279 GAU  1.39e-03 -1.00e+00 -1.00e+00 -1.00e+00    1.0000 >    1.2768    0.0152    1.4198  738.4670 9820.4900   -1.3120    2.0103  13.74  13.7 126.1 10     0.0000    0.0255
M09          ?    BHZ  i P      c 20230330 1040    8.5434 GAU  1.50e-03 -1.00e+00  3.11e+02 -1.00e+00    1.0000 >    0.8161   -0.0087    1.6631  737.8820 9820.9850   -1.2700    2.4502 357.48 357.5 124.9 10     0.0000    0.0163
M09          ?    BHE  e S      ? 20230330 1040    9.1134 GAU  3.75e-03 -1.00e+00  2.71e+02 -1.00e+00    1.0000 >    1.4166   -0.0392    1.0071  737.8820 9820.9850   -1.2700    2.4502 357.48 357.5 117.6 10     0.0000    0.0283
M03          ?    BHZ  i P      c 20230330 1040    8.5556 GAU  6.89e-03 -1.00e+00 -1.00e+00 -1.00e+00    1.0000 >    0.8526   -0.0329    1.1830  736.8800 9820.8540   -1.3350    2.5688 334.41 334.4 124.4 10     0.0000    0.0171
M03          ?    BHN  e S      ? 20230330 1040    9.1927 GAU  2.28e-03 -1.00e+00 -1.00e+00 -1.00e+00    1.0000 >    1.4795   -0.0228    1.3072  736.8800 9820.8540   -1.3350    2.5688 334.41 334.4 117.0 10     0.0000    0.0296
M13          ?    BHZ  i P      c 20230330 1040    8.6587 GAU  3.51e-03 -1.00e+00 -1.00e+00 -1.00e+00    1.0000 >    0.9533   -0.0306    1.2463  737.1780 9821.5410   -1.2220    3.1115 344.88 344.9 117.3 10     0.0000    0.0191
M13          ?    BHE  e S      ? 20230330 1040    9.4118 GAU  1.98e-03 -1.00e+00 -1.00e+00 -1.00e+00    1.0000 >    1.6536    0.0222    1.2817  737.1780 9821.5410   -1.2220    3.1115 344.88 344.9 107.2 10     0.0000    0.0331
M08          ?    BHZ  i P      c 20230330 1040    8.8254 GAU  5.73e-03 -1.00e+00 -1.00e+00 -1.00e+00    1.0000 >    1.0638    0.0256    1.2616  738.2480 9822.1600   -1.1510    3.6320   4.08   4.1 112.4 10     0.0000    0.0213
M08          ?    BHN  e S      ? 20230330 1040    9.7301 GAU  2.23e-03 -1.00e+00  2.56e+02 -1.00e+00    1.0000 >    1.8431    0.1510    0.3482  738.2480 9822.1600   -1.1510    3.6320   4.08   4.1  99.9  9     0.0000    0.0369
M05          ?    BHZ  i P      c 20230330 1040    9.0024 GAU  2.00e-03 -1.00e+00 -1.00e+00 -1.00e+00    1.0000 >    1.1377    0.1288    0.4214  736.2660 9822.0830   -1.1500    3.9425 334.08 334.1 110.3 10     0.0000    0.0228
M05          ?    BHN  e S      ? 20230330 1040    9.9671 GAU  2.46e-03 -1.00e+00  2.17e+02 -1.00e+00    1.0000 >    1.9688    0.2623    0.0342  736.2660 9822.0830   -1.1500    3.9425 334.08 334.1  97.4  9     0.0000    0.0394
M01          ?    BHZ  i P      c 20230330 1040    9.1096 GAU  2.88e-03 -1.00e+00 -1.00e+00 -1.00e+00    1.0000 >    1.2152    0.1584    0.2811  736.4090 9822.5140   -1.1200    4.2794 338.32 338.3 108.1 10     0.0000    0.0243
M01          ?    BHE  e S      ? 20230330 1040   10.2027 GAU  3.67e-03 -1.00e+00  3.47e+02 -1.00e+00    1.0000 >    2.0989    0.3678    0.0143  736.4090 9822.5140   -1.1200    4.2794 338.32 338.3  95.5  9     0.0000    0.0420
M12          ?    BHZ  e P      c 20230330 1040    9.1555 GAU  2.78e-03 -1.00e+00 -1.00e+00 -1.00e+00    1.0000 >    1.3707    0.0488    0.9076  736.8520 9823.3800   -0.9890    4.9746 346.78 346.8 103.6 10     0.0000    0.0274
M12          ?    BHE  e S      ? 20230330 1040   10.1655 GAU  3.70e-03 -1.00e+00  5.46e+01 -1.00e+00    1.0000 >    2.3522    0.0773    0.7627  736.8520 9823.3800   -0.9890    4.9746 346.78 346.8  93.3  9     0.0000    0.0470
END_PHASE
END_NLLOC

