NLLOC "./loc/SEML.20230319.145827.grid0" "LOCATED" "Location completed."
PUBLIC_ID None
SIGNATURE "Arham Zakki Edelo - edelo.17034@mhs.its.ac.id   obs:./obs/2023_03.obs   NLLoc:v7.00.10(30Aug2020)   run:28Dec2023 19h56m22"
COMMENT "SEML"
GRID  2001 2001 1001  727 9811 -2  0.01 0.01 0.01 PROB_DENSITY
SEARCH OCTREE nInitial 4851 nEvaluated 20011 smallestNodeSide 0.014881/0.014881/0.014205 oct_tree_integral 3.073303e-02 scatter_volume 3.058917e-02
HYPOCENTER  x 737.156 y 9818.51 z 1.04687  OT 26.798  ix -1 iy -1 iz -1 MAXIMUM_LIKELIHOOD
GEOGRAPHIC  OT 2023 03 19  14 58 26.798009  Lat 9818.507440 Long 737.156250 Depth 1.046875
QUALITY  Pmax 6.25329e+29 MFmin 37.9224 MFmax 46.6167 RMS 0.0138326 Nphs 10 Gap 296.599 Dist 0.744737 Mamp -9.90 0 Mdur -9.90 0
VPVSRATIO  VpVsRatio 1.7563  Npair 5  Diff 0.147253
STATISTICS  ExpectX 737.279049 Y 9818.453173 Z 1.152945  CovXX 0.0649107 XY -0.00285324 XZ 0.0265775 YY 0.0194383 YZ -0.00258237 ZZ 0.0373544 EllAz1  173.315 Dip1  -17.1107 Len1  0.25879 Az2  238.861 Dip2  53.3637 Len2  0.275048 Len3  5.357139e-01
STAT_GEOG  ExpectLat 9818.453173 Long 737.279049 Depth 1.152945
TRANSFORM  NONE
QML_OriginQuality  assocPhCt 10  usedPhCt 10  assocStaCt -1  usedStaCt 5  depthPhCt -1  stdErr 0.0138326  azGap 296.599  secAzGap 296.599  gtLevel -  minDist 0.744737 maxDist 2.58167 medDist 1.55502
QML_OriginUncertainty  horUnc -1  minHorUnc 0.210471  maxHorUnc 0.386917  azMaxHorUnc 93.5764
QML_ConfidenceEllipsoid  semiMajorAxisLength 0.535714  semiMinorAxisLength 0.25879  semiIntermediateAxisLength 0.275048  majorAxisPlunge 31.2758  majorAxisAzimuth 94.0922  majorAxisRotation 321.5
FOCALMECH  Hyp  9818.507440 737.156250 1.046875 Mech  0 0 0 mf  0 nObs -1
PHASE ID Ins Cmp On Pha  FM Date     HrMn   Sec     Err  ErrMag    Coda      Amp       Per       PriorWt  >   TTpred    Res       Weight    StaLoc(X  Y         Z)        SDist    SAzim  RAz  RDip RQual    Tcorr       TTerr
M04          ?    BHZ  e P      c 20230319 1458   27.5129 GAU  3.54e-03 -1.00e+00 -1.00e+00 -1.00e+00    1.0000 >    0.7185   -0.0036    1.2873  737.1400 9819.2520   -1.5710    0.7447 358.75 358.7 162.1 10     0.0000    0.0144
M04          ?    BHE  e S      ? 20230319 1458   28.0284 GAU  1.11e-03 -1.00e+00  3.33e+02 -1.00e+00    1.0000 >    1.2317   -0.0014    1.1309  737.1400 9819.2520   -1.5710    0.7447 358.75 358.7 161.3 10     0.0000    0.0246
M06          ?    BHZ  i P      c 20230319 1458   27.5301 GAU  5.26e-03 -1.00e+00 -1.00e+00 -1.00e+00    1.0000 >    0.7289    0.0032    1.3151  738.3100 9819.1170   -1.3960    1.3049  62.15  62.2 148.4 10     0.0000    0.0146
M06          ?    BHN  e S      ? 20230319 1458   28.0579 GAU  1.55e-03 -1.00e+00 -1.00e+00 -1.00e+00    1.0000 >    1.2487    0.0111    1.1160  738.3100 9819.1170   -1.3960    1.3049  62.15  62.2 146.9 10     0.0000    0.0250
M14          ?    BHZ  e P      c 20230319 1458   27.5948 GAU  2.46e-03 -1.00e+00 -1.00e+00 -1.00e+00    1.0000 >    0.7625    0.0343    0.6894  737.5530 9820.0110   -1.3980    1.5550  14.78  14.8 143.3 10     0.0000    0.0152
M14          ?    BHN  e S      ? 20230319 1458   28.1974 GAU  3.01e-03 -1.00e+00  3.22e+02 -1.00e+00    1.0000 >    1.3061    0.0933    0.0750  737.5530 9820.0110   -1.3980    1.5550  14.78  14.8 141.6 10     0.0000    0.0261
M11          ?    BHZ  e P      d 20230319 1458   27.6721 GAU  1.05e-02 -1.00e+00  1.21e+02 -1.00e+00    1.0000 >    0.8791   -0.0050    1.1792  738.4670 9820.4900   -1.3120    2.3767  33.47  33.5 127.8 10     0.0000    0.0176
M11          ?    BHN  e S      ? 20230319 1458   28.2949 GAU  1.48e-03 -1.00e+00 -1.00e+00 -1.00e+00    1.0000 >    1.5043   -0.0074    0.9896  738.4670 9820.4900   -1.3120    2.3767  33.47  33.5 125.1 10     0.0000    0.0301
M09          ?    BHZ  i P      c 20230319 1458   27.7068 GAU  2.77e-03 -1.00e+00 -1.00e+00 -1.00e+00    1.0000 >    0.9099   -0.0012    1.2521  737.8820 9820.9850   -1.2700    2.5817  16.33  16.3 124.0 10     0.0000    0.0182
M09          ?    BHN  e S      ? 20230319 1458   28.3695 GAU  1.10e-02 -1.00e+00  4.88e+02 -1.00e+00    1.0000 >    1.5561    0.0153    0.9653  737.8820 9820.9850   -1.2700    2.5817  16.33  16.3 121.0 10     0.0000    0.0311
END_PHASE
END_NLLOC

