NLLOC "./loc/SEML.20230330.104212.grid0" "LOCATED" "Location completed."
PUBLIC_ID None
SIGNATURE "Arham Zakki Edelo - edelo.17034@mhs.its.ac.id   obs:./obs/2023_03.obs   NLLoc:v7.00.10(30Aug2020)   run:28Dec2023 19h56m41"
COMMENT "SEML"
GRID  2001 2001 1001  727 9811 -2  0.01 0.01 0.01 PROB_DENSITY
SEARCH OCTREE nInitial 4851 nEvaluated 20011 smallestNodeSide 0.014881/0.014881/0.014205 oct_tree_integral 1.458205e-02 scatter_volume 1.453465e-02
HYPOCENTER  x 737.781 y 9818.36 z 0.819602  OT 11.6231  ix -1 iy -1 iz -1 MAXIMUM_LIKELIHOOD
GEOGRAPHIC  OT 2023 03 30  10 42 11.623057  Lat 9818.358631 Long 737.781250 Depth 0.819602
QUALITY  Pmax 1.23095e+46 MFmin 55.0577 MFmax 67.4781 RMS 0.0179251 Nphs 14 Gap 276.605 Dist 0.9245 Mamp -9.90 0 Mdur -9.90 0
VPVSRATIO  VpVsRatio 1.75548  Npair 7  Diff 0.280096
STATISTICS  ExpectX 737.792629 Y 9818.339065 Z 0.807182  CovXX 0.0104656 XY -0.000605824 XZ -0.0027076 YY 0.0118095 YZ -0.00135308 ZZ 0.0126007 EllAz1  246.028 Dip1  -34.3284 Len1  0.169852 Az2  334.008 Dip2  2.9556 Len2  0.206048 Len3  2.276094e-01
STAT_GEOG  ExpectLat 9818.339065 Long 737.792629 Depth 0.807182
TRANSFORM  NONE
QML_OriginQuality  assocPhCt 14  usedPhCt 14  assocStaCt -1  usedStaCt 7  depthPhCt -1  stdErr 0.0179251  azGap 276.605  secAzGap 276.605  gtLevel -  minDist 0.9245 maxDist 3.23904 medDist 1.66806
QML_OriginUncertainty  horUnc -1  minHorUnc 0.153413  maxHorUnc 0.166425  azMaxHorUnc 158.981
QML_ConfidenceEllipsoid  semiMajorAxisLength 0.227609  semiMinorAxisLength 0.169852  semiIntermediateAxisLength 0.206048  majorAxisPlunge 55.5082  majorAxisAzimuth 239.698  majorAxisRotation 88.1219
FOCALMECH  Hyp  9818.358631 737.781250 0.819602 Mech  0 0 0 mf  0 nObs -1
PHASE ID Ins Cmp On Pha  FM Date     HrMn   Sec     Err  ErrMag    Coda      Amp       Per       PriorWt  >   TTpred    Res       Weight    StaLoc(X  Y         Z)        SDist    SAzim  RAz  RDip RQual    Tcorr       TTerr
M06          ?    BHZ  i P      c 20230330 1042   12.2620 GAU  2.00e-03 -1.00e+00 -1.00e+00 -1.00e+00    1.0000 >    0.6348    0.0041    1.3163  738.3100 9819.1170   -1.3960    0.9245  34.88  34.9 156.6 10     0.0000    0.0127
M06          ?    BHN  e S      ? 20230330 1042   12.7401 GAU  3.09e-03 -1.00e+00 -1.00e+00 -1.00e+00    1.0000 >    1.0942    0.0228    0.9966  738.3100 9819.1170   -1.3960    0.9245  34.88  34.9 154.8 10     0.0000    0.0219
M04          ?    BHZ  i P      c 20230330 1042   12.3210 GAU  5.21e-03 -1.00e+00 -1.00e+00 -1.00e+00    1.0000 >    0.6977    0.0002    1.2978  737.1400 9819.2520   -1.5710    1.0997 324.33 324.3 154.4 10     0.0000    0.0140
M04          ?    BHN  e S      ? 20230330 1042   12.8172 GAU  2.93e-03 -1.00e+00  8.03e+02 -1.00e+00    1.0000 >    1.2026   -0.0084    1.0768  737.1400 9819.2520   -1.5710    1.0997 324.33 324.3 152.4 10     0.0000    0.0241
M02          ?    BHZ  e P      c 20230330 1042   12.3562 GAU  2.32e-03 -1.00e+00 -1.00e+00 -1.00e+00    1.0000 >    0.7423   -0.0092    1.2004  736.5970 9819.4060   -1.4960    1.5810 311.49 311.5 144.5 10     0.0000    0.0148
M02          ?    BHE  e S      ? 20230330 1042   12.9019 GAU  6.47e-04 -1.00e+00 -1.00e+00 -1.00e+00    1.0000 >    1.2792   -0.0004    1.1079  736.5970 9819.4060   -1.4960    1.5810 311.49 311.5 141.4 10     0.0000    0.0256
M14          ?    BHZ  i P      c 20230330 1042   12.3991 GAU  2.25e-03 -1.00e+00 -1.00e+00 -1.00e+00    1.0000 >    0.7334    0.0427    0.5538  737.5530 9820.0110   -1.3980    1.6681 352.14 352.1 141.8 10     0.0000    0.0147
M14          ?    BHE  e S      ? 20230330 1042   12.9108 GAU  1.93e-03 -1.00e+00  3.71e+02 -1.00e+00    1.0000 >    1.2637    0.0240    0.9575  737.5530 9820.0110   -1.3980    1.6681 352.14 352.1 138.4 10     0.0000    0.0253
M11          ?    BHZ  i P      c 20230330 1042   12.4246 GAU  2.58e-03 -1.00e+00 -1.00e+00 -1.00e+00    1.0000 >    0.8154   -0.0138    1.0941  738.4670 9820.4900   -1.3120    2.2390  17.84  17.8 131.7 10     0.0000    0.0163
M11          ?    BHN  e S      ? 20230330 1042   12.9974 GAU  1.75e-03 -1.00e+00 -1.00e+00 -1.00e+00    1.0000 >    1.4041   -0.0298    0.7195  738.4670 9820.4900   -1.3120    2.2390  17.84  17.8 127.1 10     0.0000    0.0281
M09          ?    BHZ  i P      c 20230330 1042   12.5087 GAU  2.06e-03 -1.00e+00  3.08e+01 -1.00e+00    1.0000 >    0.8849    0.0008    1.2510  737.8820 9820.9850   -1.2700    2.6283   2.20   2.2 126.3 10     0.0000    0.0177
M09          ?    BHE  e S      ? 20230330 1042   13.1279 GAU  2.22e-03 -1.00e+00  3.41e+02 -1.00e+00    1.0000 >    1.5230   -0.0181    0.8825  737.8820 9820.9850   -1.2700    2.6283   2.20   2.2 120.6 10     0.0000    0.0305
M13          ?    BHZ  i P      c 20230330 1042   12.6521 GAU  2.32e-03 -1.00e+00 -1.00e+00 -1.00e+00    1.0000 >    1.0080    0.0211    1.0352  737.1780 9821.5410   -1.2220    3.2390 349.27 349.3 119.6 10     0.0000    0.0202
M13          ?    BHE  e S      ? 20230330 1042   13.4102 GAU  3.70e-03 -1.00e+00 -1.00e+00 -1.00e+00    1.0000 >    1.7328    0.0544    0.5105  737.1780 9821.5410   -1.2220    3.2390 349.27 349.3 112.5 10     0.0000    0.0347
END_PHASE
END_NLLOC

