NLLOC "./loc/SEML.20230312.232924.grid0" "LOCATED" "Location completed."
PUBLIC_ID None
SIGNATURE "Arham Zakki Edelo - edelo.17034@mhs.its.ac.id   obs:./obs/2023_03.obs   NLLoc:v7.00.10(30Aug2020)   run:28Dec2023 19h56m22"
COMMENT "SEML"
GRID  2001 2001 1001  727 9811 -2  0.01 0.01 0.01 PROB_DENSITY
SEARCH OCTREE nInitial 4851 nEvaluated 20003 smallestNodeSide 0.014881/0.014881/0.014205 oct_tree_integral 8.043646e-02 scatter_volume 7.997226e-02
HYPOCENTER  x 737.632 y 9818.34 z 1.07528  OT 24.1195  ix -1 iy -1 iz -1 MAXIMUM_LIKELIHOOD
GEOGRAPHIC  OT 2023 03 12  23 29 24.119465  Lat 9818.343750 Long 737.632440 Depth 1.075284
QUALITY  Pmax 1.77788e+22 MFmin 29.8713 MFmax 37.1589 RMS 0.0160543 Nphs 8 Gap 316.046 Dist 1.02811 Mamp -9.90 0 Mdur -9.90 0
VPVSRATIO  VpVsRatio 2.05448  Npair 4  Diff 0.151117
STATISTICS  ExpectX 737.570562 Y 9818.345879 Z 1.048254  CovXX 0.124632 XY 0.00751244 XZ 0.0430954 YY 0.0326396 YZ 0.00532708 ZZ 0.059062 EllAz1  181.891 Dip1  13.7913 Len1  0.333879 Az2  296.79 Dip2  59.7571 Len2  0.366411 Len3  7.196703e-01
STAT_GEOG  ExpectLat 9818.345879 Long 737.570562 Depth 1.048254
TRANSFORM  NONE
QML_OriginQuality  assocPhCt 8  usedPhCt 8  assocStaCt -1  usedStaCt 4  depthPhCt -1  stdErr 0.0160543  azGap 316.046  secAzGap 316.046  gtLevel -  minDist 1.02811 maxDist 2.65301 medDist 1.98597
QML_OriginUncertainty  horUnc -1  minHorUnc 0.271421  maxHorUnc 0.536708  azMaxHorUnc 85.362
QML_ConfidenceEllipsoid  semiMajorAxisLength 0.71967  semiMinorAxisLength 0.333879  semiIntermediateAxisLength 0.366411  majorAxisPlunge 26.339  majorAxisAzimuth 84.9106  majorAxisRotation 24.4717
FOCALMECH  Hyp  9818.343750 737.632440 1.075284 Mech  0 0 0 mf  0 nObs -1
PHASE ID Ins Cmp On Pha  FM Date     HrMn   Sec     Err  ErrMag    Coda      Amp       Per       PriorWt  >   TTpred    Res       Weight    StaLoc(X  Y         Z)        SDist    SAzim  RAz  RDip RQual    Tcorr       TTerr
M06          ?    BHZ  i P      d 20230312 2329   24.8174 GAU  1.11e-03 -1.00e+00 -1.00e+00 -1.00e+00    1.0000 >    0.7037   -0.0058    1.2280  738.3100 9819.1170   -1.3960    1.0281  41.23  41.2 154.7 10     0.0000    0.0141
M06          ?    BHN  e S      ? 20230312 2329   25.3203 GAU  1.80e-03 -1.00e+00 -1.00e+00 -1.00e+00    1.0000 >    1.2052   -0.0043    1.1267  738.3100 9819.1170   -1.3960    1.0281  41.23  41.2 153.6 10     0.0000    0.0241
M14          ?    BHZ  i P      c 20230312 2329   24.9220 GAU  1.59e-03 -1.00e+00 -1.00e+00 -1.00e+00    1.0000 >    0.7842    0.0183    1.0393  737.5530 9820.0110   -1.3980    1.6691 357.27 357.3 141.6 10     0.0000    0.0157
M14          ?    BHN  e S      ? 20230312 2329   25.4643 GAU  2.88e-03 -1.00e+00  3.35e+02 -1.00e+00    1.0000 >    1.3425    0.0023    1.0942  737.5530 9820.0110   -1.3980    1.6691 357.27 357.3 139.7 10     0.0000    0.0268
M11          ?    BHZ  i P      c 20230312 2329   24.9999 GAU  2.99e-03 -1.00e+00 -1.00e+00 -1.00e+00    1.0000 >    0.8697    0.0107    1.1764  738.4670 9820.4900   -1.3120    2.3028  21.25  21.2 129.6 10     0.0000    0.0174
M11          ?    BHN  e S      ? 20230312 2329   25.6518 GAU  3.05e-03 -1.00e+00 -1.00e+00 -1.00e+00    1.0000 >    1.4877    0.0446    0.5444  738.4670 9820.4900   -1.3120    2.3028  21.25  21.2 127.0 10     0.0000    0.0298
M09          ?    BHZ  i P      c 20230312 2329   25.0276 GAU  9.36e-04 -1.00e+00  3.81e+01 -1.00e+00    1.0000 >    0.9276   -0.0195    0.9596  737.8820 9820.9850   -1.2700    2.6530   5.40   5.4 123.6 10     0.0000    0.0186
M09          ?    BHE  e S      ? 20230312 2329   25.6816 GAU  1.27e-03 -1.00e+00  3.55e+02 -1.00e+00    1.0000 >    1.5854   -0.0233    0.8313  737.8820 9820.9850   -1.2700    2.6530   5.40   5.4 120.6 10     0.0000    0.0317
END_PHASE
END_NLLOC

