#  2023   8 30  5 50  28.252857  -1.638333103  101.147109524   1.71804  0  0  0  0.03711410  3085
M06  0.52524300  1.000  P
M06  0.92284300  1.000  S
M11  0.67134300  1.000  P
M11  1.15674300  1.000  S
M14  0.55444300  1.000  P
M14  0.99524300  1.000  S
M09  0.77314300  1.000  P
M09  1.36844300  1.000  S
M13  0.81244300  1.000  P
M13  1.44774300  1.000  S
M05  1.18554300  1.000  P
M05  2.10814300  1.000  S
M07  1.19254300  1.000  P
M07  2.11994300  1.000  S
#  2023   8 30 14 17  58.832345  -1.643336501  101.154568150   3.19886  0  0  0  0.01008980  3086
M06  0.94225500  1.000  P
M06  1.62595500  1.000  S
M11  1.05935500  1.000  P
M11  1.78695500  1.000  S
M09  1.17685500  1.000  P
M09  1.97405500  1.000  S
M07  1.63755500  1.000  P
M07  2.83365500  1.000  S
#  2023   8 30 14 22  58.086284  -1.636211165  101.149881356   2.47443  0  0  0  0.01305440  3087
M06  0.71851600  1.000  P
M06  1.24231600  1.000  S
M11  0.78791600  1.000  P
M11  1.34861600  1.000  S
M09  0.89671600  1.000  P
M09  1.52631600  1.000  S
M07  1.39901600  1.000  P
M07  2.35771600  1.000  S
#  2023   8 30 14 35  52.645138  -1.643925961  101.138224974   0.74503  0  0  0  0.02366730  3088
M06  0.37076200  1.000  P
M06  0.75076200  1.000  S
M04  0.47336200  1.000  P
M04  0.80286200  1.000  S
M02  0.56196200  1.000  P
M02  0.96926200  1.000  S
M14  0.55366200  1.000  P
M14  0.97906200  1.000  S
M11  0.69556200  1.000  P
M11  1.23766200  1.000  S
M09  0.80466200  1.000  P
M09  1.37606200  1.000  S
M13  0.92606200  1.000  P
M13  1.67896200  1.000  S
M10  0.99806200  1.000  P
M10  1.81116200  1.000  S
M08  1.15726200  1.000  P
M08  2.08236200  1.000  S
M05  1.11446200  1.000  P
M05  1.90656200  1.000  S
M01  1.25366200  1.000  P
M01  2.18596200  1.000  S
M07  0.99416200  1.000  P
M07  1.80096200  1.000  S
M12  1.33186200  1.000  P
M12  2.29466200  1.000  S
