#  2023   8 10 22 25  12.096864  -1.613927129  101.103333157   6.65057  0  0  0  0.04098520  3038
M05  1.71553600  1.000  P
M05  2.90763600  1.000  S
M10  1.70383600  1.000  P
M10  2.87873600  1.000  S
M01  1.66173600  1.000  P
M01  2.76773600  1.000  S
M13  1.72473600  1.000  P
M13  2.87373600  1.000  S
M02  1.81853600  1.000  P
M02  3.03733600  1.000  S
M12  1.76053600  1.000  P
M12  2.95603600  1.000  S
M07  1.75753600  1.000  P
M07  2.91633600  1.000  S
M14  1.87283600  1.000  P
M14  3.10933600  1.000  S
M04  1.90223600  1.000  P
M04  3.19893600  1.000  S
M09  1.86513600  1.000  P
M09  3.15473600  1.000  S
M08  1.80773600  1.000  P
M08  3.06833600  1.000  S
M11  1.99113600  1.000  P
M11  3.35203600  1.000  S
M06  2.02033600  1.000  P
M06  3.40193600  1.000  S
#  2023   8 15 18 31  16.008597  -1.621208733  101.087564686   4.86079  0  0  0  0.06334630  3039
M05  1.55430300  1.000  P
M05  2.62000300  1.000  S
M13  2.06160300  1.000  P
M13  3.45970300  1.000  S
M12  1.68730300  1.000  P
M12  2.86810300  1.000  S
M07  1.78560300  1.000  P
M07  2.94440300  1.000  S
M09  1.87330300  1.000  P
M09  3.15950300  1.000  S
M11  2.18110300  1.000  P
M11  3.71600300  1.000  S
M06  1.94360300  1.000  P
M06  3.23480300  1.000  S
#  2023   8 21 20 43  14.745488  -1.635305587  101.116056235   5.86932  0  0  0  0.03314130  3040
M06  1.81321200  1.000  P
M06  3.04541200  1.000  S
M13  1.57941200  1.000  P
M13  2.62301200  1.000  S
M05  1.57871200  1.000  P
M05  2.65441200  1.000  S
M09  1.57851200  1.000  P
M09  2.64281200  1.000  S
M11  1.64461200  1.000  P
M11  2.74881200  1.000  S
M08  1.73401200  1.000  P
M08  2.90051200  1.000  S
M07  1.60091200  1.000  P
M07  2.69571200  1.000  S
M12  1.69941200  1.000  P
M12  2.85551200  1.000  S
#  2023   8 22 10 37  23.912445  -1.589963270  101.118549507   0.17329  0  0  0  0.02821460  3041
M05  0.98375500  1.000  P
M05  1.71675500  1.000  S
M10  0.79695500  1.000  P
M10  1.37555500  1.000  S
M13  0.91785500  1.000  P
M13  1.56485500  1.000  S
M09  1.05015500  1.000  P
M09  1.83345500  1.000  S
M11  1.25955500  1.000  P
M11  2.15215500  1.000  S
M06  1.58045500  1.000  P
M06  2.73645500  1.000  S
#  2023   8 25 22  0   2.962537  -1.642208633  101.140061415   2.82244  0  0  0  0.00563815  3042
M06  0.79166300  1.000  P
M06  1.34656300  1.000  S
M14  0.89026300  1.000  P
M14  1.52026300  1.000  S
M11  0.93176300  1.000  P
M11  1.58776300  1.000  S
M09  0.98816300  1.000  P
M09  1.68426300  1.000  S
#  2023   8 25 22  1  20.648910  -1.641198959  101.140661952   2.00568  0  0  0  0.03299890  3043
M06  0.64349000  1.000  P
M06  1.14819000  1.000  S
M14  0.72819000  1.000  P
M14  1.23089000  1.000  S
M11  0.74869000  1.000  P
M11  1.34419000  1.000  S
M09  0.79139000  1.000  P
M09  1.45699000  1.000  S
M13  0.97019000  1.000  P
M13  1.76199000  1.000  S
M07  1.25429000  1.000  P
M07  2.17939000  1.000  S
M12  1.44309000  1.000  P
M12  2.54719000  1.000  S
#  2023   8 25 22  1  29.573979  -1.652369147  101.137331551   0.37216  0  0  0  0.03094650  3044
M06  0.75042100  1.000  P
M06  1.37542100  1.000  S
M14  0.78282100  1.000  P
M14  1.33022100  1.000  S
M11  0.92372100  1.000  P
M11  1.70842100  1.000  S
M09  0.94522100  1.000  P
M09  1.73052100  1.000  S
M13  1.17262100  1.000  P
M13  2.12082100  1.000  S
M07  1.51242100  1.000  P
M07  2.62412100  1.000  S
M12  1.67992100  1.000  P
M12  2.95922100  1.000  S
#  2023   8 25 22  1  39.694023  -1.639085569  101.135479135   1.68963  0  0  0  0.02020810  3045
M04  0.60387700  1.000  S
M06  0.52337700  1.000  P
M06  0.94697700  1.000  S
M02  0.61637700  1.000  P
M02  1.05127700  1.000  S
M14  0.62067700  1.000  P
M14  1.05897700  1.000  S
M11  0.62367700  1.000  P
M11  1.13337700  1.000  S
M09  0.74637700  1.000  P
M09  1.32677700  1.000  S
M13  0.86807700  1.000  P
M13  1.49097700  1.000  S
M07  1.18247700  1.000  P
M07  2.06527700  1.000  S
M12  1.30347700  1.000  P
M12  2.26707700  1.000  S
#  2023   8 25 22  2  23.941055  -1.636832031  101.135510178   2.19744  0  0  0  0.00567119  3046
M06  0.65024500  1.000  P
M06  1.11314500  1.000  S
M14  0.67524500  1.000  P
M14  1.17814500  1.000  S
M11  0.76214500  1.000  P
M11  1.29194500  1.000  S
M09  0.78954500  1.000  P
M09  1.36654500  1.000  S
M13  1.02554500  1.000  P
M13  1.77814500  1.000  S
#  2023   8 25 22  2  28.142700  -1.640593905  101.140327082   2.06960  0  0  0  0.02038190  3047
M06  0.62350000  1.000  P
M06  1.06060000  1.000  S
M04  0.72990000  1.000  P
M04  1.21260000  1.000  S
M14  0.71950000  1.000  P
M14  1.23790000  1.000  S
M02  0.72820000  1.000  P
M02  1.20800000  1.000  S
M11  0.75570000  1.000  P
M11  1.31290000  1.000  S
M09  0.84130000  1.000  P
M09  1.48820000  1.000  S
M13  0.95760000  1.000  P
M13  1.70090000  1.000  S
M10  0.99570000  1.000  P
M10  1.75860000  1.000  S
M08  1.07170000  1.000  P
M08  1.85580000  1.000  S
M07  1.24300000  1.000  P
M07  2.10800000  1.000  S
M01  1.28660000  1.000  P
M01  2.17550000  1.000  S
M12  1.45030000  1.000  P
M12  2.50520000  1.000  S
#  2023   8 25 22  2  42.262208  -1.644558484  101.144275219   1.22443  0  0  0  0.02761160  3048
M06  0.68819200  1.000  P
M06  1.22439200  1.000  S
M14  0.67499200  1.000  P
M14  1.22729200  1.000  S
M11  0.72669200  1.000  P
M11  1.28209200  1.000  S
M09  0.93559200  1.000  P
M09  1.57009200  1.000  S
M13  1.07519200  1.000  P
M13  1.80599200  1.000  S
M07  1.32549200  1.000  P
M07  2.33519200  1.000  S
M12  1.51689200  1.000  P
M12  2.61119200  1.000  S
#  2023   8 25 22  2  51.506194  -1.644607857  101.129669357   1.38423  0  0  0  0.02520670  3049
M02  0.56230600  1.000  P
M02  0.99670600  1.000  S
M06  0.62070600  1.000  P
M06  1.06470600  1.000  S
M14  0.67750600  1.000  P
M14  1.19710600  1.000  S
M11  0.72590600  1.000  P
M11  1.29840600  1.000  S
M09  0.80620600  1.000  P
M09  1.46490600  1.000  S
M13  0.96020600  1.000  P
M13  1.69800600  1.000  S
M01  1.22150600  1.000  P
M01  2.14750600  1.000  S
M07  1.29810600  1.000  P
M07  2.29290600  1.000  S
M12  1.46290600  1.000  P
M12  2.54030600  1.000  S
#  2023   8 25 22  2  58.448171  -1.640594481  101.139792313   2.05540  0  0  0  0.03000960  3050
M06  0.60912900  1.000  P
M06  1.12192900  1.000  S
M04  0.70082900  1.000  P
M04  1.11552900  1.000  S
M14  0.71682900  1.000  P
M14  1.22402900  1.000  S
M02  0.77072900  1.000  P
M02  1.29052900  1.000  S
M11  0.73752900  1.000  P
M11  1.31392900  1.000  S
M09  0.83232900  1.000  P
M09  1.48932900  1.000  S
M03  0.96312900  1.000  P
M03  1.70872900  1.000  S
M13  0.95312900  1.000  P
M13  1.69982900  1.000  S
M10  0.95052900  1.000  P
M10  1.67972900  1.000  S
M08  1.04812900  1.000  P
M08  1.85522900  1.000  S
M01  1.30962900  1.000  P
M01  2.27542900  1.000  S
M07  1.25342900  1.000  P
M07  2.17422900  1.000  S
M12  1.39372900  1.000  P
M12  2.44082900  1.000  S
#  2023   8 25 22  3  24.913441  -1.636292877  101.136445446   2.06960  0  0  0  0.01229610  3052
M06  0.60635900  1.000  P
M06  1.06115900  1.000  S
M14  0.64485900  1.000  P
M14  1.10825900  1.000  S
M11  0.71515900  1.000  P
M11  1.22665900  1.000  S
M09  0.80885900  1.000  P
M09  1.40915900  1.000  S
#  2023   8 25 22  3  32.502748  -1.645301974  101.141000559   1.88494  0  0  0  0.03306380  3054
M06  0.60555200  1.000  P
M06  1.06785200  1.000  S
M14  0.77695200  1.000  P
M14  1.36055200  1.000  S
M11  0.84895200  1.000  P
M11  1.44265200  1.000  S
M09  0.81865200  1.000  P
M09  1.52755200  1.000  S
M13  1.08155200  1.000  P
M13  1.82015200  1.000  S
M07  1.39115200  1.000  P
M07  2.41355200  1.000  S
M12  1.42765200  1.000  P
M12  2.54165200  1.000  S
#  2023   8 25 22  3  45.512488  -1.642617284  101.135382619   2.50994  0  0  0  0.02634590  3055
M04  0.79151200  1.000  P
M04  1.34971200  1.000  S
M06  0.75491200  1.000  P
M06  1.27501200  1.000  S
M14  0.79821200  1.000  P
M14  1.39341200  1.000  S
M11  0.88241200  1.000  P
M11  1.55611200  1.000  S
M09  0.96611200  1.000  P
M09  1.64261200  1.000  S
M07  1.43001200  1.000  P
M07  2.44881200  1.000  S
M12  1.58321200  1.000  P
M12  2.74021200  1.000  S
#  2023   8 25 22  4  22.104416  -1.647202629  101.125093102   1.14631  0  0  0  0.01466230  3056
M06  0.70278400  1.000  P
M06  1.25088400  1.000  S
M14  0.75178400  1.000  P
M14  1.31368400  1.000  S
M11  0.96408400  1.000  P
M11  1.67718400  1.000  S
M09  0.91438400  1.000  P
M09  1.59888400  1.000  S
M07  1.39228400  1.000  P
M07  2.44068400  1.000  S
#  2023   8 25 22  4  39.359058  -1.643751551  101.144006973   2.75852  0  0  0  0.03299450  3057
M06  0.81044200  1.000  P
M06  1.35904200  1.000  S
M14  0.91474200  1.000  P
M14  1.56064200  1.000  S
M11  0.92974200  1.000  P
M11  1.61194200  1.000  S
M09  1.02014200  1.000  P
M09  1.73724200  1.000  S
M13  1.17414200  1.000  P
M13  2.02714200  1.000  S
M07  1.53104200  1.000  P
M07  2.60114200  1.000  S
M12  1.63354200  1.000  P
M12  2.77564200  1.000  S
#  2023   8 25 22  4  42.739926  -1.641735956  101.141732063   2.74432  0  0  0  0.02467810  3058
M06  0.76377400  1.000  P
M06  1.32777400  1.000  S
M14  0.76727400  1.000  P
M14  1.37117400  1.000  S
M11  0.90617400  1.000  P
M11  1.53517400  1.000  S
M09  0.98377400  1.000  P
M09  1.65237400  1.000  S
M13  1.11317400  1.000  P
M13  1.86777400  1.000  S
M07  1.30167400  1.000  P
M07  2.27257400  1.000  S
M12  1.54927400  1.000  P
M12  2.70217400  1.000  S
#  2023   8 25 22  5  22.650483  -1.642132202  101.148550757   1.28125  0  0  0  0.01111140  3059
M06  0.63111700  1.000  P
M06  1.12001700  1.000  S
M11  0.68801700  1.000  P
M11  1.21681700  1.000  S
M14  0.71131700  1.000  P
M14  1.23811700  1.000  S
M09  0.82161700  1.000  P
M09  1.47591700  1.000  S
M07  1.31601700  1.000  P
M07  2.26821700  1.000  S
M12  1.46001700  1.000  P
M12  2.57661700  1.000  S
#  2023   8 25 22  5  45.808236  -1.634519717  101.158903654   1.50142  0  0  0  0.01391840  3060
M06  0.67116400  1.000  P
M06  1.16096400  1.000  S
M11  0.70026400  1.000  P
M11  1.25006400  1.000  S
M09  0.90816400  1.000  P
M09  1.54106400  1.000  S
M07  1.24556400  1.000  P
M07  2.15866400  1.000  S
#  2023   8 25 22  7  34.091778  -1.641606458  101.137052702   2.47443  0  0  0  0.01813060  3061
M06  0.72132200  1.000  P
M06  1.21722200  1.000  S
M11  0.87312200  1.000  P
M11  1.48822200  1.000  S
M09  0.94532200  1.000  P
M09  1.62112200  1.000  S
M07  1.25122200  1.000  P
M07  2.13632200  1.000  S
#  2023   8 25 22  9  17.423317  -1.643286374  101.138725635   1.57244  0  0  0  0.05680780  3062
M06  0.62548300  1.000  P
M06  1.17438300  1.000  S
M04  0.56068300  1.000  P
M04  1.06448300  1.000  S
M02  0.78938300  1.000  P
M02  1.41618300  1.000  S
M14  0.67558300  1.000  P
M14  1.23488300  1.000  S
M11  0.74688300  1.000  P
M11  1.31578300  1.000  S
M09  0.84498300  1.000  P
M09  1.45498300  1.000  S
M03  0.81008300  1.000  P
M03  1.37858300  1.000  S
M13  0.97568300  1.000  P
M13  1.73498300  1.000  S
M10  1.08558300  1.000  P
M10  1.92728300  1.000  S
M08  1.12568300  1.000  P
M08  1.95698300  1.000  S
M01  1.36148300  1.000  P
M01  2.41308300  1.000  S
M07  1.27508300  1.000  P
M07  2.20578300  1.000  S
M12  1.39318300  1.000  P
M12  2.47318300  1.000  S
#  2023   8 25 22  9  21.903733  -1.645165993  101.142337331   1.60085  0  0  0  0.04861370  3063
M06  0.63046700  1.000  P
M06  1.11196700  1.000  S
M04  0.80006700  1.000  P
M04  1.27786700  1.000  S
M14  0.78016700  1.000  P
M14  1.28886700  1.000  S
M02  0.75276700  1.000  P
M02  1.35586700  1.000  S
M11  0.78636700  1.000  P
M11  1.37956700  1.000  S
M09  0.89526700  1.000  P
M09  1.55236700  1.000  S
M03  1.02806700  1.000  P
M03  1.77246700  1.000  S
M13  0.96006700  1.000  P
M13  1.58746700  1.000  S
M10  1.05976700  1.000  P
M10  1.88666700  1.000  S
M08  1.18576700  1.000  P
M08  2.09916700  1.000  S
M07  1.36876700  1.000  P
M07  2.39376700  1.000  S
M01  1.37326700  1.000  P
M01  2.41616700  1.000  S
M12  1.52676700  1.000  P
M12  2.67246700  1.000  S
#  2023   8 25 22  9  33.668598  -1.639926105  101.135780841   2.26847  0  0  0  0.02844980  3064
M04  0.71080200  1.000  P
M04  1.22040200  1.000  S
M06  0.68140200  1.000  P
M06  1.25140200  1.000  S
M02  0.72320200  1.000  P
M02  1.27820200  1.000  S
M14  0.75300200  1.000  P
M14  1.31590200  1.000  S
M11  0.77740200  1.000  P
M11  1.35410200  1.000  S
M09  0.87450200  1.000  P
M09  1.49910200  1.000  S
M13  0.95660200  1.000  P
M13  1.63850200  1.000  S
M01  1.21510200  1.000  P
M01  2.13690200  1.000  S
M07  1.37260200  1.000  P
M07  2.42840200  1.000  S
M12  1.18320200  1.000  P
M12  2.11950200  1.000  S
#  2023   8 25 22 11  54.895181  -1.640979585  101.156905215   1.68608  0  0  0  0.01554950  3066
M06  0.67711900  1.000  P
M06  1.18491900  1.000  S
M11  0.81571900  1.000  P
M11  1.40901900  1.000  S
M09  0.96361900  1.000  P
M09  1.70701900  1.000  S
M07  1.46981900  1.000  P
M07  2.55911900  1.000  S
M12  1.55461900  1.000  P
M12  2.70651900  1.000  S
#  2023   8 25 22 12  15.200615  -1.634870405  101.145601821   3.24148  0  0  0  0.00938587  3067
M06  0.87818500  1.000  P
M06  1.45998500  1.000  S
M11  0.90258500  1.000  P
M11  1.54318500  1.000  S
M09  0.96158500  1.000  P
M09  1.65738500  1.000  S
M07  1.54458500  1.000  P
M07  2.61718500  1.000  S
#  2023   8 25 22 14  11.648705  -1.640572211  101.160380732   1.25994  0  0  0  0.01540710  3068
M06  0.68249500  1.000  P
M06  1.20209500  1.000  S
M11  0.80849500  1.000  P
M11  1.42129500  1.000  S
M09  0.93689500  1.000  P
M09  1.55779500  1.000  S
M07  1.39899500  1.000  P
M07  2.46139500  1.000  S
M12  1.63299500  1.000  P
M12  2.79469500  1.000  S
#  2023   8 28 21 39  39.093500  -1.635734725  101.155027941   1.88494  0  0  0  0.01040980  3069
M06  0.66110000  1.000  P
M06  1.15090000  1.000  S
M11  0.72130000  1.000  P
M11  1.27150000  1.000  S
M09  0.86780000  1.000  P
M09  1.46940000  1.000  S
M02  0.68470000  1.000  P
M02  1.13940000  1.000  S
M05  1.31450000  1.000  P
M05  2.25210000  1.000  S
#  2023   8 28 22  8  57.285625  -1.649214379  101.130977758   0.97585  0  0  0  0.01820000  3070
M06  0.79887500  1.000  P
M06  1.36327500  1.000  S
M14  0.72857500  1.000  P
M14  1.29377500  1.000  S
M11  0.92357500  1.000  P
M11  1.57707500  1.000  S
M09  0.96897500  1.000  P
M09  1.72657500  1.000  S
M13  1.09947500  1.000  P
M13  1.90537500  1.000  S
M07  1.45587500  1.000  P
M07  2.52047500  1.000  S
M12  1.52827500  1.000  P
M12  2.62867500  1.000  S
#  2023   8 29 14 22  51.032129  -1.637232920  101.138050751   1.65767  0  0  0  0.03566090  3071
M06  0.55527100  1.000  P
M06  0.97907100  1.000  S
M04  0.56907100  1.000  P
M04  1.02377100  1.000  S
M14  0.56567100  1.000  P
M14  0.97987100  1.000  S
M02  0.68527100  1.000  P
M02  1.26367100  1.000  S
M09  0.70797100  1.000  P
M09  1.28397100  1.000  S
M13  0.83417100  1.000  P
M13  1.48937100  1.000  S
M10  0.80967100  1.000  P
M10  1.52407100  1.000  S
M08  0.87087100  1.000  P
M08  1.59247100  1.000  S
M05  1.03577100  1.000  P
M05  1.80877100  1.000  S
M07  1.13827100  1.000  P
M07  1.98467100  1.000  S
M12  1.29697100  1.000  P
M12  2.32787100  1.000  S
#  2023   8 29 18 13  50.738221  -1.641407880  101.134044405   2.18324  0  0  0  0.02065590  3072
M04  0.70117900  1.000  P
M04  1.19987900  1.000  S
M06  0.68277900  1.000  P
M06  1.19777900  1.000  S
M14  0.78797900  1.000  P
M14  1.27827900  1.000  S
M11  0.83277900  1.000  P
M11  1.45707900  1.000  S
M09  0.87887900  1.000  P
M09  1.55447900  1.000  S
M13  0.98177900  1.000  P
M13  1.65537900  1.000  S
M05  1.16257900  1.000  P
M05  1.98247900  1.000  S
M07  1.27357900  1.000  P
M07  2.17157900  1.000  S
M12  1.48987900  1.000  P
M12  2.54817900  1.000  S
#  2023   8 30  1 31  17.674201  -1.639450126  101.140526400   2.58807  0  0  0  0.01044160  3074
M06  0.73529900  1.000  P
M06  1.22089900  1.000  S
M14  0.80319900  1.000  P
M14  1.38759900  1.000  S
M11  0.83029900  1.000  P
M11  1.44499900  1.000  S
M07  1.47039900  1.000  P
M07  2.52939900  1.000  S
#  2023   8 30  5 46  14.454757  -1.642194035  101.153564245   1.33097  0  0  0  0.00244346  3075
M06  0.56254300  1.000  P
M06  0.98474300  1.000  S
M11  0.74224300  1.000  P
M11  1.30994300  1.000  S
M09  0.67904300  1.000  P
M09  1.13464300  1.000  S
M07  1.34954300  1.000  P
M07  2.36044300  1.000  S
#  2023   8 30  5 46  27.077692  -1.636211453  101.149613974   1.62216  0  0  0  0.02369320  3076
M06  0.51610800  1.000  P
M06  0.94610800  1.000  S
M11  0.65920800  1.000  P
M11  1.08880800  1.000  S
M09  0.76210800  1.000  P
M09  1.35060800  1.000  S
M07  1.19930800  1.000  P
M07  2.03940800  1.000  S
#  2023   8 30  5 47   3.690605  -1.639235694  101.152224176   1.77131  0  0  0  0.02081290  3077
M06  0.60629500  1.000  P
M06  1.04369500  1.000  S
M11  0.71899500  1.000  P
M11  1.28529500  1.000  S
M14  0.67049500  1.000  P
M14  1.21739500  1.000  S
M09  0.89349500  1.000  P
M09  1.51729500  1.000  S
M07  1.26949500  1.000  P
M07  2.22039500  1.000  S
#  2023   8 30  5 47   5.547472  -1.640066667  101.130165900   1.99858  0  0  0  0.01200970  3078
M06  0.68212800  1.000  P
M06  1.18542800  1.000  S
M14  0.68862800  1.000  P
M14  1.20882800  1.000  S
M11  0.83142800  1.000  P
M11  1.42772800  1.000  S
M09  0.87572800  1.000  P
M09  1.56672800  1.000  S
M07  1.42152800  1.000  P
M07  2.45632800  1.000  S
#  2023   8 30  5 47  14.060769  -1.637575781  101.131968110   1.99148  0  0  0  0.01419190  3079
M06  0.61543100  1.000  P
M06  1.12013100  1.000  S
M11  0.77063100  1.000  P
M11  1.31443100  1.000  S
M09  0.79353100  1.000  P
M09  1.34943100  1.000  S
M07  1.36073100  1.000  P
M07  2.36003100  1.000  S
#  2023   8 30  5 47  22.737172  -1.641393475  101.147413592   2.49574  0  0  0  0.01151220  3080
M06  0.71582800  1.000  P
M06  1.26752800  1.000  S
M14  0.87682800  1.000  P
M14  1.49352800  1.000  S
M11  0.86732800  1.000  P
M11  1.45372800  1.000  S
M09  0.97442800  1.000  P
M09  1.52302800  1.000  S
M07  1.60622800  1.000  P
M07  2.74522800  1.000  S
#  2023   8 30  5 47  28.443030  -1.636147278  101.146739552   1.55824  0  0  0  0.01949860  3081
M06  0.47247000  1.000  P
M06  0.85427000  1.000  S
M11  0.59627000  1.000  P
M11  1.02247000  1.000  S
M14  0.66647000  1.000  P
M14  1.09067000  1.000  S
M04  0.42247000  1.000  P
M04  0.73157000  1.000  S
M09  0.71507000  1.000  P
M09  1.28037000  1.000  S
M13  0.88387000  1.000  P
M13  1.56717000  1.000  S
M07  1.16807000  1.000  P
M07  2.06917000  1.000  S
#  2023   8 30  5 47  37.996001  -1.639651424  101.140994542   2.02699  0  0  0  0.00166102  3082
M06  0.58999900  1.000  P
M06  1.01799900  1.000  S
M11  0.73749900  1.000  P
M11  1.27949900  1.000  S
M09  0.82429900  1.000  P
M09  1.42409900  1.000  S
M07  1.59759900  1.000  P
M07  2.71769900  1.000  S
#  2023   8 30  5 47  51.206836  -1.641927571  101.151157522   1.00426  0  0  0  0.00802552  3083
M06  0.45586400  1.000  P
M06  0.81056400  1.000  S
M11  0.68916400  1.000  P
M11  1.17346400  1.000  S
M09  0.48886400  1.000  P
M09  0.88886400  1.000  S
M07  1.29966400  1.000  P
M07  2.29966400  1.000  S
#  2023   8 30  5 50  21.999360  -1.644366699  101.134983398   1.91335  0  0  0  0.01220630  3084
M06  0.64364000  1.000  P
M06  1.11024000  1.000  S
M11  0.84134000  1.000  P
M11  1.50154000  1.000  S
M09  0.91324000  1.000  P
M09  1.55954000  1.000  S
M13  1.04514000  1.000  P
M13  1.79334000  1.000  S
M05  1.41454000  1.000  P
M05  2.45004000  1.000  S
M07  1.31144000  1.000  P
M07  2.29394000  1.000  S
