NLLOC "./loc/SEML.20230830.143553.grid0" "LOCATED" "Location completed."
PUBLIC_ID None
SIGNATURE "Arham Zakki Edelo - edelo.17034@mhs.its.ac.id   obs:./obs/2023_08.obs   NLLoc:v7.00.10(30Aug2020)   run:28Dec2023 20h10m09"
COMMENT "SEML"
GRID  2001 2001 1001  727 9811 -2  0.01 0.01 0.01 PROB_DENSITY
SEARCH OCTREE nInitial 4851 nEvaluated 20011 smallestNodeSide 0.007440/0.007440/0.007102 oct_tree_integral 4.292275e-03 scatter_volume 4.285250e-03
HYPOCENTER  x 737.889 y 9818.17 z -0.504972  OT 52.6451  ix -1 iy -1 iz -1 MAXIMUM_LIKELIHOOD
GEOGRAPHIC  OT 2023 08 30  14 35 52.645138  Lat 9818.168899 Long 737.889137 Depth -0.504972
QUALITY  Pmax 5.58004e+92 MFmin 100.146 MFmax 123.567 RMS 0.0236673 Nphs 26 Gap 289.817 Dist 1.03731 Mamp -9.90 0 Mdur -9.90 0
VPVSRATIO  VpVsRatio 1.83202  Npair 13  Diff 0.63327
STATISTICS  ExpectX 737.826061 Y 9818.165037 Z -0.438848  CovXX 0.00749701 XY -0.00140366 XZ -0.00683148 YY 0.00520971 YZ 0.00208973 ZZ 0.0130955 EllAz1  89.9516 Dip1  33.8523 Len1  0.101413 Az2  186.143 Dip2  9.13477 Len2  0.129089 Len3  2.532453e-01
STAT_GEOG  ExpectLat 9818.165037 Long 737.826061 Depth -0.438848
TRANSFORM  NONE
QML_OriginQuality  assocPhCt 26  usedPhCt 26  assocStaCt -1  usedStaCt 13  depthPhCt -1  stdErr 0.0236673  azGap 289.817  secAzGap 289.817  gtLevel -  minDist 1.03731 maxDist 5.31331 medDist 3.44627
QML_OriginUncertainty  horUnc -1  minHorUnc 0.102217  maxHorUnc 0.137029  azMaxHorUnc 115.414
QML_ConfidenceEllipsoid  semiMajorAxisLength 0.253245  semiMinorAxisLength 0.101413  semiIntermediateAxisLength 0.129089  majorAxisPlunge -54.6033  majorAxisAzimuth 109.222  majorAxisRotation 264.644
FOCALMECH  Hyp  9818.168899 737.889137 -0.504972 Mech  0 0 0 mf  0 nObs -1
PHASE ID Ins Cmp On Pha  FM Date     HrMn   Sec     Err  ErrMag    Coda      Amp       Per       PriorWt  >   TTpred    Res       Weight    StaLoc(X  Y         Z)        SDist    SAzim  RAz  RDip RQual    Tcorr       TTerr
M06          ?    BHZ  i P      c 20230830 1435   53.0159 GAU  6.47e-04 -1.00e+00  2.37e+02 -1.00e+00    1.0000 >    0.3740   -0.0033    1.9975  738.3100 9819.1170   -1.3960    1.0373  23.94  23.9 129.4  9     0.0000    0.0075
M06          ?    BHE  e S      ? 20230830 1435   53.3959 GAU  1.35e-03 -1.00e+00 -1.00e+00 -1.00e+00    1.0000 >    0.6465    0.1043    0.1451  738.3100 9819.1170   -1.3960    1.0373  23.94  23.9 130.1 10     0.0000    0.0129
M04          ?    BHZ  i P      c 20230830 1435   53.1185 GAU  3.71e-03 -1.00e+00 -1.00e+00 -1.00e+00    1.0000 >    0.4638    0.0096    1.8353  737.1400 9819.2520   -1.5710    1.3169 325.33 325.3 127.7  9     0.0000    0.0093
M04          ?    BHN  e S      ? 20230830 1435   53.4480 GAU  1.26e-03 -1.00e+00  8.26e+02 -1.00e+00    1.0000 >    0.8014    0.0015    1.8050  737.1400 9819.2520   -1.5710    1.3169 325.33 325.3 128.5 10     0.0000    0.0160
M02          ?    BHZ  i P      d 20230830 1435   53.2071 GAU  6.24e-04 -1.00e+00  1.54e+02 -1.00e+00    1.0000 >    0.5598    0.0021    1.9699  736.5970 9819.4060   -1.4960    1.7889 313.75 313.8 117.0  9     0.0000    0.0112
M02          ?    BHN  e S      ? 20230830 1435   53.6144 GAU  1.08e-03 -1.00e+00 -1.00e+00 -1.00e+00    1.0000 >    0.9674    0.0018    1.6923  736.5970 9819.4060   -1.4960    1.7889 313.75 313.8 118.3  9     0.0000    0.0193
M14          ?    BHZ  e P      c 20230830 1435   53.1988 GAU  2.68e-03 -1.00e+00 -1.00e+00 -1.00e+00    1.0000 >    0.5677   -0.0140    1.5265  737.5530 9820.0110   -1.3980    1.8725 349.66 349.7 113.3  9     0.0000    0.0114
M14          ?    BHN  e S      ? 20230830 1435   53.6242 GAU  2.72e-03 -1.00e+00  1.50e+02 -1.00e+00    1.0000 >    0.9813   -0.0023    1.6630  737.5530 9820.0110   -1.3980    1.8725 349.66 349.7 114.8  9     0.0000    0.0196
M11          ?    BHZ  e P      d 20230830 1435   53.3407 GAU  2.68e-03 -1.00e+00  1.34e+02 -1.00e+00    1.0000 >    0.6906    0.0050    1.8528  738.4670 9820.4900   -1.3120    2.3920  13.98  14.0 104.9  9     0.0000    0.0138
M11          ?    BHE  e S      ? 20230830 1435   53.8828 GAU  9.73e-04 -1.00e+00 -1.00e+00 -1.00e+00    1.0000 >    1.1939    0.0438    0.7900  738.4670 9820.4900   -1.3120    2.3920  13.98  14.0 107.7  9     0.0000    0.0239
M09          ?    BHZ  e P      c 20230830 1435   53.4498 GAU  5.01e-03 -1.00e+00  1.30e+02 -1.00e+00    1.0000 >    0.7973    0.0073    1.7390  737.8820 9820.9850   -1.2700    2.8161 359.85 359.9  87.5  9     0.0000    0.0159
M09          ?    BHE  e S      ? 20230830 1435   54.0212 GAU  1.37e-03 -1.00e+00  3.51e+02 -1.00e+00    1.0000 >    1.3798   -0.0037    1.4323  737.8820 9820.9850   -1.2700    2.8161 359.85 359.9 104.1  9     0.0000    0.0276
M13          ?    BHZ  i P      c 20230830 1435   53.5712 GAU  8.63e-04 -1.00e+00 -1.00e+00 -1.00e+00    1.0000 >    0.9564   -0.0303    0.9407  737.1780 9821.5410   -1.2220    3.4463 348.09 348.1  76.5  8     0.0000    0.0191
M13          ?    BHN  e S      ? 20230830 1435   54.3241 GAU  3.08e-04 -1.00e+00 -1.00e+00 -1.00e+00    1.0000 >    1.6638    0.0151    1.2645  737.1780 9821.5410   -1.2220    3.4463 348.09 348.1 100.3  9     0.0000    0.0333
M10          ?    BHZ  e P      c 20230830 1435   53.6432 GAU  2.68e-03 -1.00e+00  6.76e+02 -1.00e+00    1.0000 >    0.9612    0.0368    0.8946  736.5490 9821.3650   -1.2200    3.4657 337.25 337.3  76.5  8     0.0000    0.0192
M10          ?    BHE  e S      ? 20230830 1435   54.4563 GAU  6.47e-04 -1.00e+00 -1.00e+00 -1.00e+00    1.0000 >    1.6726    0.1386    0.1484  736.5490 9821.3650   -1.2200    3.4657 337.25 337.3 100.2  9     0.0000    0.0335
M08          ?    BHZ  e P      c 20230830 1435   53.8024 GAU  6.36e-04 -1.00e+00 -1.00e+00 -1.00e+00    1.0000 >    1.0953    0.0620    0.4349  738.2480 9822.1600   -1.1510    4.0072   5.14   5.1  76.5  8     0.0000    0.0219
M08          ?    BHN  e S      ? 20230830 1435   54.7275 GAU  1.31e-04 -1.00e+00  2.75e+02 -1.00e+00    1.0000 >    1.9176    0.1647    0.0975  738.2480 9822.1600   -1.1510    4.0072   5.14   5.1  96.5  9     0.0000    0.0384
M05          ?    BHZ  e P      d 20230830 1435   53.7596 GAU  3.76e-03 -1.00e+00  2.51e+02 -1.00e+00    1.0000 >    1.1548   -0.0403    0.7253  736.2660 9822.0830   -1.1500    4.2373 337.48 337.5  76.5  8     0.0000    0.0231
M05          ?    BHE  e S      ? 20230830 1435   54.5517 GAU  7.76e-04 -1.00e+00 -1.00e+00 -1.00e+00    1.0000 >    2.0247   -0.1181    0.1381  736.2660 9822.0830   -1.1500    4.2373 337.48 337.5  94.3  9     0.0000    0.0405
M01          ?    BHZ  e P      c 20230830 1435   53.8988 GAU  1.40e-03 -1.00e+00 -1.00e+00 -1.00e+00    1.0000 >    1.2435    0.0101    1.4824  736.4090 9822.5140   -1.1200    4.5903 341.19 341.2  76.5  8     0.0000    0.0249
M01          ?    BHE  e S      ? 20230830 1435   54.8311 GAU  1.09e-03 -1.00e+00  4.33e+02 -1.00e+00    1.0000 >    2.1867   -0.0008    1.1251  736.4090 9822.5140   -1.1200    4.5903 341.19 341.2  87.2  9     0.0000    0.0437
M07          ?    BHZ  e P      c 20230830 1435   53.6393 GAU  1.32e-03 -1.00e+00 -1.00e+00 -1.00e+00    1.0000 >    1.2597   -0.2656    0.0433  737.4430 9822.8030   -1.1120    4.6555 354.50 354.5  76.5  8     0.0000    0.0252
M07          ?    BHE  e S      ? 20230830 1435   54.4461 GAU  6.24e-04 -1.00e+00 -1.00e+00 -1.00e+00    1.0000 >    2.2164   -0.4154    0.0015  737.4430 9822.8030   -1.1120    4.6555 354.50 354.5  86.1  9     0.0000    0.0443
M12          ?    BHZ  e P      c 20230830 1435   53.9770 GAU  5.10e-03 -1.00e+00 -1.00e+00 -1.00e+00    1.0000 >    1.4192   -0.0873    0.1904  736.8520 9823.3800   -0.9890    5.3133 348.74 348.7  76.5  8     0.0000    0.0284
M12          ?    BHE  e S      ? 20230830 1435   54.9398 GAU  1.24e-03 -1.00e+00  8.76e+01 -1.00e+00    1.0000 >    2.5115   -0.2168    0.0647  736.8520 9823.3800   -0.9890    5.3133 348.74 348.7  82.9  9     0.0000    0.0502
END_PHASE
END_NLLOC

