NLLOC "./loc/SEML.20230821.204316.grid0" "LOCATED" "Location completed."
PUBLIC_ID None
SIGNATURE "Arham Zakki Edelo - edelo.17034@mhs.its.ac.id   obs:./obs/2023_08.obs   NLLoc:v7.00.10(30Aug2020)   run:28Dec2023 20h09m45"
COMMENT "SEML"
GRID  2001 2001 1001  727 9811 -2  0.01 0.01 0.01 PROB_DENSITY
SEARCH OCTREE nInitial 4851 nEvaluated 20003 smallestNodeSide 0.059524/0.059524/0.056818 oct_tree_integral 7.549594e-01 scatter_volume 7.527943e-01
HYPOCENTER  x 735.423 y 9819.13 z 4.61932  OT 14.7455  ix -1 iy -1 iz -1 MAXIMUM_LIKELIHOOD
GEOGRAPHIC  OT 2023 08 21  20 43 14.745488  Lat 9819.125000 Long 735.422619 Depth 4.619318
QUALITY  Pmax 8.43054e+47 MFmin 44.2543 MFmax 50.0269 RMS 0.0331413 Nphs 16 Gap 285.755 Dist 2.88739 Mamp -9.90 0 Mdur -9.90 0
VPVSRATIO  VpVsRatio 1.72739  Npair 8  Diff 0.188585
STATISTICS  ExpectX 735.748697 Y 9819.600294 Z 4.783853  CovXX 0.478628 XY 0.391476 XZ 0.221443 YY 0.555274 YZ 0.24035 ZZ 0.191267 EllAz1  228.664 Dip1  68.7438 Len1  0.478399 Az2  313.102 Dip2  -2.15939 Len2  0.660804 Len3  1.912934e+00
STAT_GEOG  ExpectLat 9819.600294 Long 735.748697 Depth 4.783853
TRANSFORM  NONE
QML_OriginQuality  assocPhCt 16  usedPhCt 16  assocStaCt -1  usedStaCt 8  depthPhCt -1  stdErr 0.0331413  azGap 285.755  secAzGap 285.755  gtLevel -  minDist 2.88739 maxDist 4.48867 medDist 3.20996
QML_OriginUncertainty  horUnc -1  minHorUnc 0.533186  maxHorUnc 1.44696  azMaxHorUnc 42.2045
QML_ConfidenceEllipsoid  semiMajorAxisLength 1.91293  semiMinorAxisLength 0.478399  semiIntermediateAxisLength 0.660804  majorAxisPlunge 21.1356  majorAxisAzimuth 42.2669  majorAxisRotation 91.7136
FOCALMECH  Hyp  9819.125000 735.422619 4.619318 Mech  0 0 0 mf  0 nObs -1
PHASE ID Ins Cmp On Pha  FM Date     HrMn   Sec     Err  ErrMag    Coda      Amp       Per       PriorWt  >   TTpred    Res       Weight    StaLoc(X  Y         Z)        SDist    SAzim  RAz  RDip RQual    Tcorr       TTerr
M06          ?    BHZ  e P      c 20230821 2043   16.5587 GAU  7.28e-04 -1.00e+00 -1.00e+00 -1.00e+00    1.0000 >    1.6119    0.2013    0.0223  738.3100 9819.1170   -1.3960    2.8874  90.16  90.2 152.4 10     0.0000    0.0322
M06          ?    BHE  e S      ? 20230821 2043   17.7909 GAU  5.68e-04 -1.00e+00 -1.00e+00 -1.00e+00    1.0000 >    2.6974    0.3481    0.0083  738.3100 9819.1170   -1.3960    2.8874  90.16  90.2 152.0 10     0.0000    0.0539
M13          ?    BHZ  e P      d 20230821 2043   16.3249 GAU  5.54e-04 -1.00e+00  1.57e+01 -1.00e+00    1.0000 >    1.5785    0.0009    1.4875  737.1780 9821.5410   -1.2220    2.9864  36.00  36.0 150.9 10     0.0000    0.0316
M13          ?    BHN  e S      ? 20230821 2043   17.3685 GAU  6.77e-04 -1.00e+00 -1.00e+00 -1.00e+00    1.0000 >    2.6386   -0.0156    1.2339  737.1780 9821.5410   -1.2220    2.9864  36.00  36.0 150.5 10     0.0000    0.0528
M05          ?    BHZ  e P      d 20230821 2043   16.3242 GAU  1.12e-03 -1.00e+00  1.98e+02 -1.00e+00    1.0000 >    1.5703    0.0084    1.4673  736.2660 9822.0830   -1.1500    3.0759  15.91  15.9 149.9 10     0.0000    0.0314
M05          ?    BHE  e S      ? 20230821 2043   17.3999 GAU  1.82e-04 -1.00e+00 -1.00e+00 -1.00e+00    1.0000 >    2.6237    0.0307    1.1180  736.2660 9822.0830   -1.1500    3.0759  15.91  15.9 149.5 10     0.0000    0.0525
M09          ?    BHZ  e P      c 20230821 2043   16.3240 GAU  3.35e-03 -1.00e+00  9.17e+01 -1.00e+00    1.0000 >    1.6012   -0.0227    1.3722  737.8820 9820.9850   -1.2700    3.0835  52.90  52.9 150.4 10     0.0000    0.0320
M09          ?    BHE  e S      ? 20230821 2043   17.3883 GAU  8.54e-04 -1.00e+00  3.37e+02 -1.00e+00    1.0000 >    2.6772   -0.0344    1.1403  737.8820 9820.9850   -1.2700    3.0835  52.90  52.9 149.9 10     0.0000    0.0535
M11          ?    BHZ  e P      c 20230821 2043   16.3901 GAU  1.13e-03 -1.00e+00 -1.00e+00 -1.00e+00    1.0000 >    1.6405    0.0042    1.4681  738.4670 9820.4900   -1.3120    3.3364  65.85  65.9 148.4 10     0.0000    0.0328
M11          ?    BHE  e S      ? 20230821 2043   17.4943 GAU  6.07e-04 -1.00e+00 -1.00e+00 -1.00e+00    1.0000 >    2.7434    0.0055    1.2193  738.4670 9820.4900   -1.3120    3.3364  65.85  65.9 148.0 10     0.0000    0.0549
M08          ?    BHZ  e P      d 20230821 2043   16.4795 GAU  4.81e-04 -1.00e+00  6.64e+02 -1.00e+00    1.0000 >    1.7054    0.0286    1.2636  738.2480 9822.1600   -1.1510    4.1466  42.95  43.0 141.7 10     0.0000    0.0341
M08          ?    BHN  e S      ? 20230821 2043   17.6460 GAU  2.43e-04 -1.00e+00  2.62e+02 -1.00e+00    1.0000 >    2.8482    0.0523    0.9128  738.2480 9822.1600   -1.1510    4.1466  42.95  43.0 141.2 10     0.0000    0.0570
M07          ?    BHZ  e P      c 20230821 2043   16.3464 GAU  1.53e-03 -1.00e+00 -1.00e+00 -1.00e+00    1.0000 >    1.7032   -0.1022    0.4207  737.4430 9822.8030   -1.1120    4.1964  28.78  28.8 141.2 10     0.0000    0.0341
M07          ?    BHE  e S      ? 20230821 2043   17.4412 GAU  9.23e-04 -1.00e+00 -1.00e+00 -1.00e+00    1.0000 >    2.8437   -0.1481    0.2618  737.4430 9822.8030   -1.1120    4.1964  28.78  28.8 140.7 10     0.0000    0.0569
M12          ?    BHZ  e P      d 20230821 2043   16.4449 GAU  4.33e-04 -1.00e+00 -1.00e+00 -1.00e+00    1.0000 >    1.7167   -0.0173    1.4015  736.8520 9823.3800   -0.9890    4.4887  18.57  18.6 138.7 10     0.0000    0.0343
M12          ?    BHN  e S      ? 20230821 2043   17.6010 GAU  1.14e-03 -1.00e+00 -1.00e+00 -1.00e+00    1.0000 >    2.8636   -0.0081    1.2026  736.8520 9823.3800   -0.9890    4.4887  18.57  18.6 138.2 10     0.0000    0.0573
END_PHASE
END_NLLOC

