NLLOC "./loc/SEML.20230825.220003.grid0" "LOCATED" "Location completed."
PUBLIC_ID None
SIGNATURE "Arham Zakki Edelo - edelo.17034@mhs.its.ac.id   obs:./obs/2023_08.obs   NLLoc:v7.00.10(30Aug2020)   run:28Dec2023 20h09m46"
COMMENT "SEML"
GRID  2001 2001 1001  727 9811 -2  0.01 0.01 0.01 PROB_DENSITY
SEARCH OCTREE nInitial 4851 nEvaluated 20027 smallestNodeSide 0.014881/0.014881/0.014205 oct_tree_integral 5.819632e-02 scatter_volume 5.815239e-02
HYPOCENTER  x 738.094 y 9818.36 z 1.57244  OT 2.96254  ix -1 iy -1 iz -1 MAXIMUM_LIKELIHOOD
GEOGRAPHIC  OT 2023 08 25  22 00 2.962537  Lat 9818.358631 Long 738.093750 Depth 1.572443
QUALITY  Pmax 1.52093e+23 MFmin 28.5789 MFmax 34.1913 RMS 0.00563815 Nphs 8 Gap 325.963 Dist 0.788599 Mamp -9.90 0 Mdur -9.90 0
VPVSRATIO  VpVsRatio 1.67535  Npair 4  Diff 0.141106
STATISTICS  ExpectX 738.092896 Y 9818.359290 Z 1.581883  CovXX 0.0716399 XY 0.00744519 XZ 0.0049807 YY 0.0207909 YZ 0.00242744 ZZ 0.0201104 EllAz1  177.542 Dip1  45.8801 Len1  0.251832 Az2  346.235 Dip2  43.5589 Len2  0.274486 Len3  5.084373e-01
STAT_GEOG  ExpectLat 9818.359290 Long 738.092896 Depth 1.581883
TRANSFORM  NONE
QML_OriginQuality  assocPhCt 8  usedPhCt 8  assocStaCt -1  usedStaCt 4  depthPhCt -1  stdErr 0.00563815  azGap 325.963  secAzGap 325.963  gtLevel -  minDist 0.788599 maxDist 2.63489 medDist 1.9512
QML_OriginUncertainty  horUnc -1  minHorUnc 0.212987  maxHorUnc 0.408934  azMaxHorUnc 81.839
QML_ConfidenceEllipsoid  semiMajorAxisLength 0.508437  semiMinorAxisLength 0.251832  semiIntermediateAxisLength 0.274486  majorAxisPlunge 5.67644  majorAxisAzimuth 81.6586  majorAxisRotation 46.7374
FOCALMECH  Hyp  9818.358631 738.093750 1.572443 Mech  0 0 0 mf  0 nObs -1
PHASE ID Ins Cmp On Pha  FM Date     HrMn   Sec     Err  ErrMag    Coda      Amp       Per       PriorWt  >   TTpred    Res       Weight    StaLoc(X  Y         Z)        SDist    SAzim  RAz  RDip RQual    Tcorr       TTerr
M06          ?    BHZ  i P      c 20230825 2200    3.7542 GAU  5.89e-04 -1.00e+00 -1.00e+00 -1.00e+00    1.0000 >    0.7929   -0.0013    1.1686  738.3100 9819.1170   -1.3960    0.7886  15.92  15.9 163.3 10     0.0000    0.0159
M06          ?    BHN  e S      ? 20230825 2200    4.3091 GAU  1.60e-04 -1.00e+00 -1.00e+00 -1.00e+00    1.0000 >    1.3494   -0.0028    0.9621  738.3100 9819.1170   -1.3960    0.7886  15.92  15.9 162.7 10     0.0000    0.0270
M14          ?    BHZ  e P      d 20230825 2200    3.8528 GAU  6.21e-04 -1.00e+00  6.25e+02 -1.00e+00    1.0000 >    0.8881    0.0021    1.1355  737.5530 9820.0110   -1.3980    1.7386 341.88 341.9 145.7 10     0.0000    0.0178
M14          ?    BHE  e S      ? 20230825 2200    4.4828 GAU  1.26e-03 -1.00e+00  4.01e+02 -1.00e+00    1.0000 >    1.5107    0.0096    0.8796  737.5530 9820.0110   -1.3980    1.7386 341.88 341.9 144.5 10     0.0000    0.0302
M11          ?    BHZ  e P      d 20230825 2200    3.8943 GAU  3.20e-03 -1.00e+00  7.79e+01 -1.00e+00    1.0000 >    0.9283    0.0035    1.1109  738.4670 9820.4900   -1.3120    2.1638   9.93   9.9 138.2 10     0.0000    0.0186
M11          ?    BHN  e S      ? 20230825 2200    4.5503 GAU  1.19e-04 -1.00e+00 -1.00e+00 -1.00e+00    1.0000 >    1.5776    0.0101    0.8569  738.4670 9820.4900   -1.3120    2.1638   9.93   9.9 136.7 10     0.0000    0.0316
M09          ?    BHZ  e P      c 20230825 2200    3.9507 GAU  4.49e-04 -1.00e+00  2.63e+01 -1.00e+00    1.0000 >    0.9962   -0.0080    1.0535  737.8820 9820.9850   -1.2700    2.6349 355.39 355.4 131.0 10     0.0000    0.0199
M09          ?    BHN  e S      ? 20230825 2200    4.6468 GAU  1.18e-04 -1.00e+00  4.91e+02 -1.00e+00    1.0000 >    1.6917   -0.0075    0.8329  737.8820 9820.9850   -1.2700    2.6349 355.39 355.4 129.2 10     0.0000    0.0338
END_PHASE
END_NLLOC

