NLLOC "./loc/SEML.20230825.220130.grid0" "LOCATED" "Location completed."
PUBLIC_ID None
SIGNATURE "Arham Zakki Edelo - edelo.17034@mhs.its.ac.id   obs:./obs/2023_08.obs   NLLoc:v7.00.10(30Aug2020)   run:28Dec2023 20h09m47"
COMMENT "SEML"
GRID  2001 2001 1001  727 9811 -2  0.01 0.01 0.01 PROB_DENSITY
SEARCH OCTREE nInitial 4851 nEvaluated 20019 smallestNodeSide 0.029762/0.029762/0.028409 oct_tree_integral 3.950048e-01 scatter_volume 3.950048e-01
HYPOCENTER  x 737.789 y 9817.24 z -0.877841  OT 29.574  ix -1 iy -1 iz -1 MAXIMUM_LIKELIHOOD
GEOGRAPHIC  OT 2023 08 25  22 01 29.573979  Lat 9817.235119 Long 737.788690 Depth -0.877841
QUALITY  Pmax 2.16434e+40 MFmin 47.4758 MFmax 57.3214 RMS 0.0309465 Nphs 14 Gap 335.849 Dist 1.95275 Mamp -9.90 0 Mdur -9.90 0
VPVSRATIO  VpVsRatio 1.73175  Npair 7  Diff 0.731947
STATISTICS  ExpectX 737.695232 Y 9817.152562 Z -1.252279  CovXX 0.323985 XY 0.0412325 XZ 0.0191531 YY 0.0338716 YZ 0.00610576 ZZ 0.183083 EllAz1  172.149 Dip1  1.2683 Len1  0.314668 Az2  271.613 Dip2  82.331 Len2  0.798289 Len3  1.083160e+00
STAT_GEOG  ExpectLat 9817.152562 Long 737.695232 Depth -1.252279
TRANSFORM  NONE
QML_OriginQuality  assocPhCt 14  usedPhCt 14  assocStaCt -1  usedStaCt 7  depthPhCt -1  stdErr 0.0309465  azGap 335.849  secAzGap 335.849  gtLevel -  minDist 1.95275 maxDist 6.21586 medDist 3.75104
QML_OriginUncertainty  horUnc -1  minHorUnc 0.254338  maxHorUnc 0.870851  azMaxHorUnc 82.0661
QML_ConfidenceEllipsoid  semiMajorAxisLength 1.08316  semiMinorAxisLength 0.314668  semiIntermediateAxisLength 0.798289  majorAxisPlunge 7.56215  majorAxisAzimuth 81.981  majorAxisRotation 1.32533
FOCALMECH  Hyp  9817.235119 737.788690 -0.877841 Mech  0 0 0 mf  0 nObs -1
PHASE ID Ins Cmp On Pha  FM Date     HrMn   Sec     Err  ErrMag    Coda      Amp       Per       PriorWt  >   TTpred    Res       Weight    StaLoc(X  Y         Z)        SDist    SAzim  RAz  RDip RQual    Tcorr       TTerr
M06          ?    BHZ  e P      c 20230825 2201   30.3244 GAU  2.61e-03 -1.00e+00 -1.00e+00 -1.00e+00    1.0000 >    0.5543    0.1961    0.0252  738.3100 9819.1170   -1.3960    1.9528  15.48  15.5 103.5 10     0.0000    0.0111
M06          ?    BHE  e S      ? 20230825 2201   30.9494 GAU  4.81e-04 -1.00e+00 -1.00e+00 -1.00e+00    1.0000 >    0.9571    0.4184    0.0000  738.3100 9819.1170   -1.3960    1.9528  15.48  15.5 104.1 10     0.0000    0.0191
M14          ?    BHZ  e P      c 20230825 2201   30.3568 GAU  1.21e-03 -1.00e+00 -1.00e+00 -1.00e+00    1.0000 >    0.7773    0.0054    1.6817  737.5530 9820.0110   -1.3980    2.7859 355.15 355.1  98.8 10     0.0000    0.0155
M14          ?    BHE  e S      ? 20230825 2201   30.9042 GAU  5.78e-04 -1.00e+00  3.95e+02 -1.00e+00    1.0000 >    1.3423   -0.0120    1.5802  737.5530 9820.0110   -1.3980    2.7859 355.15 355.1  99.6 10     0.0000    0.0268
M11          ?    BHZ  e P      d 20230825 2201   30.4977 GAU  3.22e-03 -1.00e+00  6.04e+01 -1.00e+00    1.0000 >    0.9191    0.0047    1.6684  738.4670 9820.4900   -1.3120    3.3248  11.77  11.8  95.3  9     0.0000    0.0184
M11          ?    BHN  e S      ? 20230825 2201   31.2824 GAU  1.05e-03 -1.00e+00 -1.00e+00 -1.00e+00    1.0000 >    1.5875    0.1210    0.1710  738.4670 9820.4900   -1.3120    3.3248  11.77  11.8  96.2 10     0.0000    0.0317
M09          ?    BHZ  e P      c 20230825 2201   30.5192 GAU  9.70e-04 -1.00e+00 -1.00e+00 -1.00e+00    1.0000 >    1.0331   -0.0879    0.3471  737.8820 9820.9850   -1.2700    3.7510   1.43   1.4  93.8  9     0.0000    0.0207
M09          ?    BHE  e S      ? 20230825 2201   31.3045 GAU  1.61e-04 -1.00e+00  3.68e+02 -1.00e+00    1.0000 >    1.7851   -0.0545    0.9855  737.8820 9820.9850   -1.2700    3.7510   1.43   1.4  94.5  9     0.0000    0.0357
M13          ?    BHZ  e P      d 20230825 2201   30.7466 GAU  4.68e-04 -1.00e+00  2.00e+02 -1.00e+00    1.0000 >    1.1940   -0.0214    1.5105  737.1780 9821.5410   -1.2220    4.3490 351.93 351.9  92.7  9     0.0000    0.0239
M13          ?    BHN  e S      ? 20230825 2201   31.6948 GAU  2.08e-04 -1.00e+00 -1.00e+00 -1.00e+00    1.0000 >    2.0639    0.0569    0.7451  737.1780 9821.5410   -1.2220    4.3490 351.93 351.9  93.1  9     0.0000    0.0413
M07          ?    BHZ  e P      c 20230825 2201   31.0864 GAU  1.61e-03 -1.00e+00 -1.00e+00 -1.00e+00    1.0000 >    1.5248   -0.0124    1.5248  737.4430 9822.8030   -1.1120    5.5786 356.45 356.4  91.7  9     0.0000    0.0305
M07          ?    BHE  e S      ? 20230825 2201   32.1981 GAU  4.30e-04 -1.00e+00 -1.00e+00 -1.00e+00    1.0000 >    2.6380   -0.0139    1.2238  737.4430 9822.8030   -1.1120    5.5786 356.45 356.4  91.7  9     0.0000    0.0528
M12          ?    BHZ  e P      c 20230825 2201   31.2539 GAU  9.73e-04 -1.00e+00 -1.00e+00 -1.00e+00    1.0000 >    1.6845   -0.0046    1.4873  736.8520 9823.3800   -0.9890    6.2159 351.33 351.3  72.0 10     0.0000    0.0337
M12          ?    BHE  e S      ? 20230825 2201   32.5332 GAU  3.03e-04 -1.00e+00  2.07e+01 -1.00e+00    1.0000 >    2.9327    0.0266    1.0493  736.8520 9823.3800   -0.9890    6.2159 351.33 351.3  91.2  9     0.0000    0.0587
END_PHASE
END_NLLOC

