NLLOC "./loc/SEML.20230825.220922.grid0" "LOCATED" "Location completed."
PUBLIC_ID None
SIGNATURE "Arham Zakki Edelo - edelo.17034@mhs.its.ac.id   obs:./obs/2023_08.obs   NLLoc:v7.00.10(30Aug2020)   run:28Dec2023 20h09m58"
COMMENT "SEML"
GRID  2001 2001 1001  727 9811 -2  0.01 0.01 0.01 PROB_DENSITY
SEARCH OCTREE nInitial 4851 nEvaluated 20019 smallestNodeSide 0.014881/0.014881/0.014205 oct_tree_integral 4.457088e-02 scatter_volume 4.457088e-02
HYPOCENTER  x 738.347 y 9818.03 z 0.350852  OT 21.9037  ix -1 iy -1 iz -1 MAXIMUM_LIKELIHOOD
GEOGRAPHIC  OT 2023 08 25  22 09 21.903733  Lat 9818.031250 Long 738.346726 Depth 0.350852
QUALITY  Pmax 4.30279e+90 MFmin 93.5399 MFmax 107.08 RMS 0.0486137 Nphs 26 Gap 305.356 Dist 1.08637 Mamp -9.90 0 Mdur -9.90 0
VPVSRATIO  VpVsRatio 1.78108  Npair 13  Diff 0.667807
STATISTICS  ExpectX 738.363337 Y 9818.009126 Z 0.402783  CovXX 0.0342325 XY 0.0112917 XZ -0.0185315 YY 0.0343877 YZ -0.0136423 ZZ 0.0392576 EllAz1  85.4158 Dip1  42.644 Len1  0.252185 Az2  156.694 Dip2  -19.2149 Len2  0.293158 Len3  4.809054e-01
STAT_GEOG  ExpectLat 9818.009126 Long 738.363337 Depth 0.402783
TRANSFORM  NONE
QML_OriginQuality  assocPhCt 26  usedPhCt 26  assocStaCt -1  usedStaCt 13  depthPhCt -1  stdErr 0.0486137  azGap 305.356  secAzGap 305.356  gtLevel -  minDist 1.08637 maxDist 5.55368 medDist 3.18107
QML_OriginUncertainty  horUnc -1  minHorUnc 0.230091  maxHorUnc 0.323859  azMaxHorUnc 44.8031
QML_ConfidenceEllipsoid  semiMajorAxisLength 0.480905  semiMinorAxisLength 0.252185  semiIntermediateAxisLength 0.293158  majorAxisPlunge -41.1357  majorAxisAzimuth 48.9701  majorAxisRotation 86.262
FOCALMECH  Hyp  9818.031250 738.346726 0.350852 Mech  0 0 0 mf  0 nObs -1
PHASE ID Ins Cmp On Pha  FM Date     HrMn   Sec     Err  ErrMag    Coda      Amp       Per       PriorWt  >   TTpred    Res       Weight    StaLoc(X  Y         Z)        SDist    SAzim  RAz  RDip RQual    Tcorr       TTerr
M06          ?    BHZ  i P      c 20230825 2209   22.5342 GAU  4.83e-03 -1.00e+00 -1.00e+00 -1.00e+00    1.0000 >    0.5481    0.0824    0.8620  738.3100 9819.1170   -1.3960    1.0864 358.06 358.1 147.2 10     0.0000    0.0110
M06          ?    BHE  e S      ? 20230825 2209   23.0157 GAU  2.07e-03 -1.00e+00  4.51e+02 -1.00e+00    1.0000 >    0.9567    0.1553    0.1256  738.3100 9819.1170   -1.3960    1.0864 358.06 358.1 146.6 10     0.0000    0.0191
M04          ?    BHZ  i P      c 20230825 2209   22.7038 GAU  2.57e-03 -1.00e+00 -1.00e+00 -1.00e+00    1.0000 >    0.6881    0.1119    0.4805  737.1400 9819.2520   -1.5710    1.7165 315.33 315.3 136.7 10     0.0000    0.0138
M04          ?    BHN  e S      ? 20230825 2209   23.1816 GAU  2.07e-03 -1.00e+00  7.97e+02 -1.00e+00    1.0000 >    1.1998    0.0781    0.9689  737.1400 9819.2520   -1.5710    1.7165 315.33 315.3 135.9 10     0.0000    0.0240
M14          ?    BHZ  i P      c 20230825 2209   22.6839 GAU  3.48e-03 -1.00e+00  4.18e+02 -1.00e+00    1.0000 >    0.7343    0.0458    1.1721  737.5530 9820.0110   -1.3980    2.1329 338.15 338.2 127.2 10     0.0000    0.0147
M14          ?    BHN  e S      ? 20230825 2209   23.1926 GAU  1.29e-03 -1.00e+00  8.99e+02 -1.00e+00    1.0000 >    1.2819    0.0070    1.3627  737.5530 9820.0110   -1.3980    2.1329 338.15 338.2 126.1 10     0.0000    0.0256
M02          ?    BHZ  e P      c 20230825 2209   22.6565 GAU  9.73e-04 -1.00e+00 -1.00e+00 -1.00e+00    1.0000 >    0.7712   -0.0184    1.1529  736.5970 9819.4060   -1.4960    2.2252 308.16 308.2 127.5 10     0.0000    0.0154
M02          ?    BHE  e S      ? 20230825 2209   23.2596 GAU  7.49e-04 -1.00e+00 -1.00e+00 -1.00e+00    1.0000 >    1.3453    0.0105    1.3617  736.5970 9819.4060   -1.4960    2.2252 308.16 308.2 126.4 10     0.0000    0.0269
M11          ?    BHZ  i P      c 20230825 2209   22.6901 GAU  6.12e-03 -1.00e+00 -1.00e+00 -1.00e+00    1.0000 >    0.7896   -0.0033    1.3772  738.4670 9820.4900   -1.3120    2.4617   2.80   2.8 121.7 10     0.0000    0.0158
M11          ?    BHN  e S      ? 20230825 2209   23.2833 GAU  2.43e-03 -1.00e+00  7.18e+01 -1.00e+00    1.0000 >    1.3793    0.0003    1.3073  738.4670 9820.4900   -1.3120    2.4617   2.80   2.8 120.2 10     0.0000    0.0276
M09          ?    BHZ  i P      c 20230825 2209   22.7990 GAU  4.17e-03 -1.00e+00 -1.00e+00 -1.00e+00    1.0000 >    0.9030   -0.0077    1.3202  737.8820 9820.9850   -1.2700    2.9901 351.06 351.1 115.7 10     0.0000    0.0181
M09          ?    BHE  e S      ? 20230825 2209   23.4561 GAU  1.37e-03 -1.00e+00  4.79e+02 -1.00e+00    1.0000 >    1.5779   -0.0255    0.9600  737.8820 9820.9850   -1.2700    2.9901 351.06 351.1 113.8 10     0.0000    0.0316
M03          ?    BHZ  e P      c 20230825 2209   22.9318 GAU  1.68e-03 -1.00e+00 -1.00e+00 -1.00e+00    1.0000 >    0.9570    0.0711    1.0201  736.8800 9820.8540   -1.3350    3.1811 332.54 332.5 115.0 10     0.0000    0.0191
M03          ?    BHN  e S      ? 20230825 2209   23.6762 GAU  3.76e-03 -1.00e+00 -1.00e+00 -1.00e+00    1.0000 >    1.6715    0.1010    0.7375  736.8800 9820.8540   -1.3350    3.1811 332.54 332.5 113.0 10     0.0000    0.0334
M13          ?    BHZ  i P      c 20230825 2209   22.8638 GAU  1.71e-03 -1.00e+00 -1.00e+00 -1.00e+00    1.0000 >    1.0655   -0.1054    0.0307  737.1780 9821.5410   -1.2220    3.6992 341.58 341.6 110.0 10     0.0000    0.0213
M13          ?    BHE  e S      ? 20230825 2209   23.4912 GAU  2.86e-03 -1.00e+00 -1.00e+00 -1.00e+00    1.0000 >    1.8625   -0.2750    0.0000  737.1780 9821.5410   -1.2220    3.6992 341.58 341.6 107.3 10     0.0000    0.0373
M10          ?    BHZ  i P      c 20230825 2209   22.9635 GAU  2.70e-03 -1.00e+00 -1.00e+00 -1.00e+00    1.0000 >    1.0868   -0.0270    0.9503  736.5490 9821.3650   -1.2200    3.7876 331.66 331.7 109.4 10     0.0000    0.0217
M10          ?    BHE  e S      ? 20230825 2209   23.7904 GAU  1.24e-03 -1.00e+00 -1.00e+00 -1.00e+00    1.0000 >    1.8997   -0.0130    1.0883  736.5490 9821.3650   -1.2200    3.7876 331.66 331.7 106.7 10     0.0000    0.0380
M08          ?    BHZ  i P      c 20230825 2209   23.0895 GAU  3.25e-04 -1.00e+00 -1.00e+00 -1.00e+00    1.0000 >    1.1624    0.0233    1.3664  738.2480 9822.1600   -1.1510    4.1299 358.63 358.6 106.9 10     0.0000    0.0232
M08          ?    BHN  e S      ? 20230825 2209   24.0029 GAU  6.50e-04 -1.00e+00  2.15e+02 -1.00e+00    1.0000 >    2.0328    0.0664    1.0673  738.2480 9822.1600   -1.1510    4.1299 358.63 358.6 103.8 10     0.0000    0.0407
M07          ?    BHZ  i P      c 20230825 2209   23.2725 GAU  2.91e-03 -1.00e+00 -1.00e+00 -1.00e+00    1.0000 >    1.3393    0.0295    1.3341  737.4430 9822.8030   -1.1120    4.8566 349.28 349.3 103.6 10     0.0000    0.0268
M07          ?    BHE  e S      ? 20230825 2209   24.2975 GAU  7.49e-04 -1.00e+00  3.42e+00 -1.00e+00    1.0000 >    2.3417    0.0522    1.1314  737.4430 9822.8030   -1.1120    4.8566 349.28 349.3 100.1 10     0.0000    0.0468
M01          ?    BHZ  i P      c 20230825 2209   23.2770 GAU  1.68e-03 -1.00e+00 -1.00e+00 -1.00e+00    1.0000 >    1.3469    0.0263    1.3464  736.4090 9822.5140   -1.1200    4.8836 336.62 336.6 103.6 10     0.0000    0.0269
M01          ?    BHN  e S      ? 20230825 2209   24.3199 GAU  2.00e-03 -1.00e+00  1.54e+03 -1.00e+00    1.0000 >    2.3549    0.0613    1.0778  736.4090 9822.5140   -1.1200    4.8836 336.62 336.6 100.1 10     0.0000    0.0471
M12          ?    BHZ  i P      c 20230825 2209   23.4305 GAU  5.01e-03 -1.00e+00 -1.00e+00 -1.00e+00    1.0000 >    1.5025    0.0243    1.3354  736.8520 9823.3800   -0.9890    5.5537 344.39 344.4 100.8 10     0.0000    0.0300
M12          ?    BHE  e S      ? 20230825 2209   24.5762 GAU  2.58e-03 -1.00e+00  1.54e+02 -1.00e+00    1.0000 >    2.6137    0.0588    1.0634  736.8520 9823.3800   -0.9890    5.5537 344.39 344.4  67.2 10     0.0000    0.0523
END_PHASE
END_NLLOC

