NLLOC "./loc/SEML.20230825.220546.grid0" "LOCATED" "Location completed."
PUBLIC_ID None
SIGNATURE "Arham Zakki Edelo - edelo.17034@mhs.its.ac.id   obs:./obs/2023_08.obs   NLLoc:v7.00.10(30Aug2020)   run:28Dec2023 20h09m54"
COMMENT "SEML"
GRID  2001 2001 1001  727 9811 -2  0.01 0.01 0.01 PROB_DENSITY
SEARCH OCTREE nInitial 4851 nEvaluated 20003 smallestNodeSide 0.014881/0.014881/0.014205 oct_tree_integral 6.185662e-02 scatter_volume 6.185662e-02
HYPOCENTER  x 740.192 y 9819.21 z 0.25142  OT 45.8082  ix -1 iy -1 iz -1 MAXIMUM_LIKELIHOOD
GEOGRAPHIC  OT 2023 08 25  22 05 45.808236  Lat 9819.206845 Long 740.191964 Depth 0.251420
QUALITY  Pmax 2.76637e+22 MFmin 29.047 MFmax 34.746 RMS 0.0139184 Nphs 8 Gap 304.662 Dist 1.88411 Mamp -9.90 0 Mdur -9.90 0
VPVSRATIO  VpVsRatio 1.80528  Npair 4  Diff 0.423248
STATISTICS  ExpectX 740.208657 Y 9819.203847 Z 0.056432  CovXX 0.261542 XY 0.0805218 XZ -0.202914 YY 0.0422984 YZ -0.0795746 ZZ 0.363674 EllAz1  345.084 Dip1  4.04614 Len1  0.23029 Az2  258.459 Dip2  -39.7666 Len2  0.61066 Len3  1.389383e+00
STAT_GEOG  ExpectLat 9819.203847 Long 740.208657 Depth 0.056432
TRANSFORM  NONE
QML_OriginQuality  assocPhCt 8  usedPhCt 8  assocStaCt -1  usedStaCt 4  depthPhCt -1  stdErr 0.0139184  azGap 304.662  secAzGap 304.662  gtLevel -  minDist 1.88411 maxDist 4.52649 medDist 2.53249
QML_OriginUncertainty  horUnc -1  minHorUnc 0.19125  maxHorUnc 0.813791  azMaxHorUnc 71.8506
QML_ConfidenceEllipsoid  semiMajorAxisLength 1.38938  semiMinorAxisLength 0.23029  semiIntermediateAxisLength 0.61066  majorAxisPlunge -49.9435  majorAxisAzimuth 70.2577  majorAxisRotation 212.717
FOCALMECH  Hyp  9819.206845 740.191964 0.251420 Mech  0 0 0 mf  0 nObs -1
PHASE ID Ins Cmp On Pha  FM Date     HrMn   Sec     Err  ErrMag    Coda      Amp       Per       PriorWt  >   TTpred    Res       Weight    StaLoc(X  Y         Z)        SDist    SAzim  RAz  RDip RQual    Tcorr       TTerr
M06          ?    BHZ  i P      c 20230825 2205   46.4794 GAU  6.24e-04 -1.00e+00 -1.00e+00 -1.00e+00    1.0000 >    0.6675    0.0036    1.2672  738.3100 9819.1170   -1.3960    1.8841 267.27 267.3 129.0 10     0.0000    0.0134
M06          ?    BHN  e S      ? 20230825 2205   46.9692 GAU  9.36e-04 -1.00e+00 -1.00e+00 -1.00e+00    1.0000 >    1.1663   -0.0053    1.0988  738.3100 9819.1170   -1.3960    1.8841 267.27 267.3 127.8 10     0.0000    0.0233
M11          ?    BHZ  e P      c 20230825 2205   46.5085 GAU  1.71e-03 -1.00e+00 -1.00e+00 -1.00e+00    1.0000 >    0.7079   -0.0076    1.1762  738.4670 9820.4900   -1.3120    2.1499 306.64 306.6 123.6 10     0.0000    0.0142
M11          ?    BHN  e S      ? 20230825 2205   47.0583 GAU  1.06e-04 -1.00e+00 -1.00e+00 -1.00e+00    1.0000 >    1.2377    0.0124    1.0698  738.4670 9820.4900   -1.3120    2.1499 306.64 306.6 122.1 10     0.0000    0.0248
M09          ?    BHZ  e P      c 20230825 2205   46.7164 GAU  3.01e-04 -1.00e+00  1.01e+02 -1.00e+00    1.0000 >    0.8745    0.0336    0.6791  737.8820 9820.9850   -1.2700    2.9151 307.59 307.6 114.6 10     0.0000    0.0175
M09          ?    BHE  e S      ? 20230825 2205   47.3493 GAU  2.27e-04 -1.00e+00  3.66e+02 -1.00e+00    1.0000 >    1.5300    0.0111    0.9903  737.8820 9820.9850   -1.2700    2.9151 307.59 307.6 112.3 10     0.0000    0.0306
M07          ?    BHZ  e P      c 20230825 2205   47.0538 GAU  3.25e-04 -1.00e+00 -1.00e+00 -1.00e+00    1.0000 >    1.2503   -0.0048    1.0770  737.4430 9822.8030   -1.1120    4.5265 322.61 322.6 103.3 10     0.0000    0.0250
M07          ?    BHE  e S      ? 20230825 2205   47.9669 GAU  4.93e-04 -1.00e+00 -1.00e+00 -1.00e+00    1.0000 >    2.1896   -0.0310    0.6416  737.4430 9822.8030   -1.1120    4.5265 322.61 322.6  99.1 10     0.0000    0.0438
END_PHASE
END_NLLOC

