NLLOC "./loc/SEML.20230830.141759.grid0" "LOCATED" "Location completed."
PUBLIC_ID None
SIGNATURE "Arham Zakki Edelo - edelo.17034@mhs.its.ac.id   obs:./obs/2023_08.obs   NLLoc:v7.00.10(30Aug2020)   run:28Dec2023 20h10m08"
COMMENT "SEML"
GRID  2001 2001 1001  727 9811 -2  0.01 0.01 0.01 PROB_DENSITY
SEARCH OCTREE nInitial 4851 nEvaluated 20003 smallestNodeSide 0.059524/0.059524/0.056818 oct_tree_integral 5.662227e-01 scatter_volume 5.630631e-01
HYPOCENTER  x 739.708 y 9818.23 z 1.94886  OT 58.8323  ix -1 iy -1 iz -1 MAXIMUM_LIKELIHOOD
GEOGRAPHIC  OT 2023 08 30  14 17 58.832345  Lat 9818.232143 Long 739.708333 Depth 1.948864
QUALITY  Pmax 2.51061e+20 MFmin 25.208 MFmax 33.4732 RMS 0.0100898 Nphs 8 Gap 328.689 Dist 1.65478 Mamp -9.90 0 Mdur -9.90 0
VPVSRATIO  VpVsRatio 1.82937  Npair 4  Diff 0.512494
STATISTICS  ExpectX 739.820541 Y 9817.990018 Z 0.496896  CovXX 1.91191 XY 0.687481 XZ -0.029973 YY 0.337518 YZ 0.218963 ZZ 1.66772 EllAz1  159.61 Dip1  7.59816 Len1  0.42358 Az2  302.058 Dip2  80.4488 Len2  2.4436 Len3  2.770730e+00
STAT_GEOG  ExpectLat 9817.990018 Long 739.820541 Depth 0.496896
TRANSFORM  NONE
QML_OriginQuality  assocPhCt 8  usedPhCt 8  assocStaCt -1  usedStaCt 4  depthPhCt -1  stdErr 0.0100898  azGap 328.689  secAzGap 328.689  gtLevel -  minDist 1.65478 maxDist 5.10142 medDist 2.94009
QML_OriginUncertainty  horUnc -1  minHorUnc 0.427823  maxHorUnc 2.23398  azMaxHorUnc 69.4342
QML_ConfidenceEllipsoid  semiMajorAxisLength 2.77073  semiMinorAxisLength 0.42358  semiIntermediateAxisLength 2.4436  majorAxisPlunge 5.75323  majorAxisAzimuth 68.8403  majorAxisRotation 7.79158
FOCALMECH  Hyp  9818.232143 739.708333 1.948864 Mech  0 0 0 mf  0 nObs -1
PHASE ID Ins Cmp On Pha  FM Date     HrMn   Sec     Err  ErrMag    Coda      Amp       Per       PriorWt  >   TTpred    Res       Weight    StaLoc(X  Y         Z)        SDist    SAzim  RAz  RDip RQual    Tcorr       TTerr
M06          ?    BHZ  e P      c 20230830 1417   59.7746 GAU  3.22e-03 -1.00e+00 -1.00e+00 -1.00e+00    1.0000 >    0.9512   -0.0089    1.4428  738.3100 9819.1170   -1.3960    1.6548 302.33 302.3 150.8 10     0.0000    0.0190
M06          ?    BHE  e S      ? 20230830 1418    0.4583 GAU  2.30e-04 -1.00e+00 -1.00e+00 -1.00e+00    1.0000 >    1.6123    0.0136    1.2328  738.3100 9819.1170   -1.3960    1.6548 302.33 302.3 149.9 10     0.0000    0.0322
M11          ?    BHZ  e P      c 20230830 1417   59.8917 GAU  1.14e-03 -1.00e+00 -1.00e+00 -1.00e+00    1.0000 >    1.0561    0.0033    1.4966  738.4670 9820.4900   -1.3120    2.5766 331.20 331.2 137.2 10     0.0000    0.0211
M11          ?    BHN  e S      ? 20230830 1418    0.6193 GAU  3.26e-04 -1.00e+00 -1.00e+00 -1.00e+00    1.0000 >    1.7879   -0.0010    1.2240  738.4670 9820.4900   -1.3120    2.5766 331.20 331.2 135.9 10     0.0000    0.0358
M09          ?    BHZ  e P      d 20230830 1418    0.0092 GAU  1.27e-03 -1.00e+00  2.32e+02 -1.00e+00    1.0000 >    1.1697    0.0071    1.4376  737.8820 9820.9850   -1.2700    3.3036 326.44 326.4 128.5 10     0.0000    0.0234
M09          ?    BHE  e S      ? 20230830 1418    0.8064 GAU  2.79e-04 -1.00e+00  3.55e+02 -1.00e+00    1.0000 >    1.9781   -0.0040    1.1497  737.8820 9820.9850   -1.2700    3.3036 326.44 326.4 126.9 10     0.0000    0.0396
M07          ?    BHZ  e P      c 20230830 1418    0.4699 GAU  3.61e-04 -1.00e+00 -1.00e+00 -1.00e+00    1.0000 >    1.4981    0.1394    0.0139  737.4430 9822.8030   -1.1120    5.1014 333.64 333.6 112.2 10     0.0000    0.0300
M07          ?    BHN  e S      ? 20230830 1418    1.6660 GAU  1.21e-04 -1.00e+00 -1.00e+00 -1.00e+00    1.0000 >    2.5222    0.3115    0.0026  737.4430 9822.8030   -1.1120    5.1014 333.64 333.6 110.5 10     0.0000    0.0504
END_PHASE
END_NLLOC

