NLLOC "./loc/SEML.20230825.221155.grid0" "LOCATED" "Location completed."
PUBLIC_ID None
SIGNATURE "Arham Zakki Edelo - edelo.17034@mhs.its.ac.id   obs:./obs/2023_08.obs   NLLoc:v7.00.10(30Aug2020)   run:28Dec2023 20h09m59"
COMMENT "SEML"
GRID  2001 2001 1001  727 9811 -2  0.01 0.01 0.01 PROB_DENSITY
SEARCH OCTREE nInitial 4851 nEvaluated 20003 smallestNodeSide 0.014881/0.014881/0.014205 oct_tree_integral 4.291079e-02 scatter_volume 4.291079e-02
HYPOCENTER  x 739.969 y 9818.49 z 0.43608  OT 54.8952  ix -1 iy -1 iz -1 MAXIMUM_LIKELIHOOD
GEOGRAPHIC  OT 2023 08 25  22 11 54.895181  Lat 9818.492560 Long 739.968750 Depth 0.436080
QUALITY  Pmax 4.07453e+28 MFmin 33.4091 MFmax 40.3157 RMS 0.0155495 Nphs 10 Gap 320.998 Dist 1.77239 Mamp -9.90 0 Mdur -9.90 0
VPVSRATIO  VpVsRatio 1.69347  Npair 5  Diff 0.643982
STATISTICS  ExpectX 739.964238 Y 9818.451967 Z 0.362008  CovXX 0.122111 XY 0.0373906 XZ -0.0923584 YY 0.0314909 YZ -0.0203796 ZZ 0.178039 EllAz1  334.065 Dip1  -7.77371 Len1  0.24061 Az2  238.05 Dip2  -37.5075 Len2  0.467394 Len3  9.456979e-01
STAT_GEOG  ExpectLat 9818.451967 Long 739.964238 Depth 0.362008
TRANSFORM  NONE
QML_OriginQuality  assocPhCt 10  usedPhCt 10  assocStaCt -1  usedStaCt 5  depthPhCt -1  stdErr 0.0155495  azGap 320.998  secAzGap 320.998  gtLevel -  minDist 1.77239 maxDist 5.79665 medDist 3.25066
QML_OriginUncertainty  horUnc -1  minHorUnc 0.203782  maxHorUnc 0.558353  azMaxHorUnc 70.2351
QML_ConfidenceEllipsoid  semiMajorAxisLength 0.945698  semiMinorAxisLength 0.24061  semiIntermediateAxisLength 0.467394  majorAxisPlunge -51.4126  majorAxisAzimuth 73.9158  majorAxisRotation 134.977
FOCALMECH  Hyp  9818.492560 739.968750 0.436080 Mech  0 0 0 mf  0 nObs -1
PHASE ID Ins Cmp On Pha  FM Date     HrMn   Sec     Err  ErrMag    Coda      Amp       Per       PriorWt  >   TTpred    Res       Weight    StaLoc(X  Y         Z)        SDist    SAzim  RAz  RDip RQual    Tcorr       TTerr
M06          ?    BHZ  i P      d 20230825 2211   55.5723 GAU  9.53e-04 -1.00e+00 -1.00e+00 -1.00e+00    1.0000 >    0.6777   -0.0006    1.5072  738.3100 9819.1170   -1.3960    1.7724 290.63 290.6 134.4 10     0.0000    0.0136
M06          ?    BHE  e S      ? 20230825 2211   56.0801 GAU  3.09e-04 -1.00e+00 -1.00e+00 -1.00e+00    1.0000 >    1.1822    0.0027    1.3030  738.3100 9819.1170   -1.3960    1.7724 290.63 290.6 133.7 10     0.0000    0.0236
M11          ?    BHZ  e P      c 20230825 2211   55.7109 GAU  2.05e-03 -1.00e+00 -1.00e+00 -1.00e+00    1.0000 >    0.8095    0.0062    1.4150  738.4670 9820.4900   -1.3120    2.4990 323.06 323.1 122.8 10     0.0000    0.0162
M11          ?    BHN  e S      ? 20230825 2211   56.3042 GAU  3.76e-04 -1.00e+00 -1.00e+00 -1.00e+00    1.0000 >    1.4129   -0.0039    1.2047  738.4670 9820.4900   -1.3120    2.4990 323.06 323.1 121.4 10     0.0000    0.0283
M09          ?    BHZ  i P      c 20230825 2211   55.8588 GAU  2.93e-04 -1.00e+00  4.10e+01 -1.00e+00    1.0000 >    0.9733   -0.0097    1.3284  737.8820 9820.9850   -1.2700    3.2507 320.06 320.1 115.1 10     0.0000    0.0195
M09          ?    BHE  e S      ? 20230825 2211   56.6022 GAU  2.44e-04 -1.00e+00  3.50e+02 -1.00e+00    1.0000 >    1.6993    0.0077    1.0872  737.8820 9820.9850   -1.2700    3.2507 320.06 320.1 113.2 10     0.0000    0.0340
M07          ?    BHZ  e P      c 20230825 2211   56.3650 GAU  4.51e-04 -1.00e+00 -1.00e+00 -1.00e+00    1.0000 >    1.3795    0.0903    0.1646  737.4430 9822.8030   -1.1120    4.9959 329.63 329.6 104.3 10     0.0000    0.0276
M07          ?    BHN  e S      ? 20230825 2211   57.4543 GAU  6.06e-04 -1.00e+00 -1.00e+00 -1.00e+00    1.0000 >    2.3993    0.1598    0.0766  737.4430 9822.8030   -1.1120    4.9959 329.63 329.6  67.2 10     0.0000    0.0480
M12          ?    BHZ  e P      d 20230825 2211   56.4498 GAU  2.56e-04 -1.00e+00 -1.00e+00 -1.00e+00    1.0000 >    1.5683   -0.0137    1.0793  736.8520 9823.3800   -0.9890    5.7967 327.47 327.5 101.3 10     0.0000    0.0314
M12          ?    BHE  e S      ? 20230825 2211   57.6017 GAU  2.25e-04 -1.00e+00  8.12e+00 -1.00e+00    1.0000 >    2.6986    0.0078    0.8339  736.8520 9823.3800   -0.9890    5.7967 327.47 327.5  67.2 10     0.0000    0.0540
END_PHASE
END_NLLOC

