NLLOC "./loc/SEML.20230825.220252.grid0" "LOCATED" "Location completed."
PUBLIC_ID None
SIGNATURE "Arham Zakki Edelo - edelo.17034@mhs.its.ac.id   obs:./obs/2023_08.obs   NLLoc:v7.00.10(30Aug2020)   run:28Dec2023 20h09m49"
COMMENT "SEML"
GRID  2001 2001 1001  727 9811 -2  0.01 0.01 0.01 PROB_DENSITY
SEARCH OCTREE nInitial 4851 nEvaluated 20019 smallestNodeSide 0.007440/0.007440/0.007102 oct_tree_integral 7.575195e-03 scatter_volume 7.575195e-03
HYPOCENTER  x 736.937 y 9818.09 z 0.134233  OT 51.5062  ix -1 iy -1 iz -1 MAXIMUM_LIKELIHOOD
GEOGRAPHIC  OT 2023 08 25  22 02 51.506194  Lat 9818.094494 Long 736.936756 Depth 0.134233
QUALITY  Pmax 4.61368e+59 MFmin 65.9321 MFmax 77.7629 RMS 0.0252067 Nphs 18 Gap 292.147 Dist 1.3548 Mamp -9.90 0 Mdur -9.90 0
VPVSRATIO  VpVsRatio 1.71831  Npair 9  Diff 0.643074
STATISTICS  ExpectX 737.116113 Y 9818.089942 Z 0.064249  CovXX 0.103882 XY -0.00353906 XZ -0.0365529 YY 0.0099041 YZ 0.00475607 ZZ 0.0322642 EllAz1  354.419 Dip1  -19.2856 Len1  0.17401 Az2  228.222 Dip2  -59.3534 Len2  0.252009 Len3  6.494373e-01
STAT_GEOG  ExpectLat 9818.089942 Long 737.116113 Depth 0.064249
TRANSFORM  NONE
QML_OriginQuality  assocPhCt 18  usedPhCt 18  assocStaCt -1  usedStaCt 9  depthPhCt -1  stdErr 0.0252067  azGap 292.147  secAzGap 292.147  gtLevel -  minDist 1.3548 maxDist 5.28619 medDist 3.04114
QML_OriginUncertainty  horUnc -1  minHorUnc 0.149911  maxHorUnc 0.489116  azMaxHorUnc 92.1536
QML_ConfidenceEllipsoid  semiMajorAxisLength 0.649437  semiMinorAxisLength 0.17401  semiIntermediateAxisLength 0.252009  majorAxisPlunge -22.8468  majorAxisAzimuth 92.8971  majorAxisRotation 208.793
FOCALMECH  Hyp  9818.094494 736.936756 0.134233 Mech  0 0 0 mf  0 nObs -1
PHASE ID Ins Cmp On Pha  FM Date     HrMn   Sec     Err  ErrMag    Coda      Amp       Per       PriorWt  >   TTpred    Res       Weight    StaLoc(X  Y         Z)        SDist    SAzim  RAz  RDip RQual    Tcorr       TTerr
M02          ?    BHZ  e P      c 20230825 2202   52.0685 GAU  9.36e-04 -1.00e+00 -1.00e+00 -1.00e+00    1.0000 >    0.5678   -0.0055    1.6413  736.5970 9819.4060   -1.4960    1.3548 345.48 345.5 138.7 10     0.0000    0.0114
M02          ?    BHN  e S      ? 20230825 2202   52.5029 GAU  1.88e-03 -1.00e+00 -1.00e+00 -1.00e+00    1.0000 >    0.9923    0.0043    1.4767  736.5970 9819.4060   -1.4960    1.3548 345.48 345.5 137.8 10     0.0000    0.0198
M06          ?    BHZ  i P      c 20230825 2202   52.1269 GAU  9.88e-04 -1.00e+00 -1.00e+00 -1.00e+00    1.0000 >    0.6139    0.0068    1.6005  738.3100 9819.1170   -1.3960    1.7121  53.33  53.3 129.5 10     0.0000    0.0123
M06          ?    BHE  e S      ? 20230825 2202   52.5709 GAU  3.28e-04 -1.00e+00 -1.00e+00 -1.00e+00    1.0000 >    1.0740   -0.0093    1.3990  738.3100 9819.1170   -1.3960    1.7121  53.33  53.3 128.2 10     0.0000    0.0215
M14          ?    BHZ  e P      c 20230825 2202   52.1837 GAU  2.10e-03 -1.00e+00 -1.00e+00 -1.00e+00    1.0000 >    0.6764    0.0011    1.6428  737.5530 9820.0110   -1.3980    2.0131  17.82  17.8 124.6 10     0.0000    0.0135
M14          ?    BHN  e S      ? 20230825 2202   52.7033 GAU  8.99e-04 -1.00e+00  3.15e+02 -1.00e+00    1.0000 >    1.1834    0.0138    1.2858  737.5530 9820.0110   -1.3980    2.0131  17.82  17.8 123.1 10     0.0000    0.0237
M11          ?    BHZ  i P      c 20230825 2202   52.2321 GAU  2.33e-03 -1.00e+00 -1.00e+00 -1.00e+00    1.0000 >    0.8510   -0.1250    0.1712  738.4670 9820.4900   -1.3120    2.8426  32.57  32.6 113.5 10     0.0000    0.0170
M11          ?    BHE  e S      ? 20230825 2202   52.8046 GAU  4.69e-04 -1.00e+00 -1.00e+00 -1.00e+00    1.0000 >    1.4905   -0.1921    0.0295  738.4670 9820.4900   -1.3120    2.8426  32.57  32.6 110.8 10     0.0000    0.0298
M09          ?    BHZ  i P      c 20230825 2202   52.3124 GAU  5.78e-04 -1.00e+00  2.77e+01 -1.00e+00    1.0000 >    0.8928   -0.0866    0.2586  737.8820 9820.9850   -1.2700    3.0411  18.11  18.1 111.2 10     0.0000    0.0179
M09          ?    BHE  e S      ? 20230825 2202   52.9711 GAU  2.09e-04 -1.00e+00  3.51e+02 -1.00e+00    1.0000 >    1.5646   -0.0997    0.3124  737.8820 9820.9850   -1.2700    3.0411  18.11  18.1 108.0 10     0.0000    0.0313
M13          ?    BHZ  e P      d 20230825 2202   52.4664 GAU  3.83e-04 -1.00e+00  1.45e+02 -1.00e+00    1.0000 >    0.9877   -0.0275    1.0218  737.1780 9821.5410   -1.2220    3.4549   4.00   4.0 107.6 10     0.0000    0.0198
M13          ?    BHN  e S      ? 20230825 2202   53.2042 GAU  2.93e-04 -1.00e+00 -1.00e+00 -1.00e+00    1.0000 >    1.7321   -0.0340    0.9237  737.1780 9821.5410   -1.2220    3.4549   4.00   4.0 103.4 10     0.0000    0.0346
M01          ?    BHZ  i P      c 20230825 2202   52.7277 GAU  1.92e-04 -1.00e+00 -1.00e+00 -1.00e+00    1.0000 >    1.2255   -0.0040    1.3757  736.4090 9822.5140   -1.1200    4.4509 353.19 353.2 101.7 10     0.0000    0.0245
M01          ?    BHN  e S      ? 20230825 2202   53.6537 GAU  5.63e-04 -1.00e+00  1.72e+03 -1.00e+00    1.0000 >    2.1507   -0.0032    1.0474  736.4090 9822.5140   -1.1200    4.4509 353.19 353.2  96.0  9     0.0000    0.0430
M07          ?    BHZ  i P      c 20230825 2202   52.8043 GAU  4.21e-04 -1.00e+00 -1.00e+00 -1.00e+00    1.0000 >    1.2969    0.0012    1.3491  737.4430 9822.8030   -1.1120    4.7356   6.14   6.1 100.7 10     0.0000    0.0259
M07          ?    BHN  e S      ? 20230825 2202   53.7991 GAU  2.70e-04 -1.00e+00 -1.00e+00 -1.00e+00    1.0000 >    2.2754    0.0175    0.9478  737.4430 9822.8030   -1.1120    4.7356   6.14   6.1  95.1  9     0.0000    0.0455
M12          ?    BHZ  e P      c 20230825 2202   52.9691 GAU  1.40e-04 -1.00e+00 -1.00e+00 -1.00e+00    1.0000 >    1.4249    0.0380    0.7910  736.8520 9823.3800   -0.9890    5.2862 359.08 359.1  98.4 10     0.0000    0.0285
M12          ?    BHN  e S      ? 20230825 2202   54.0465 GAU  9.86e-04 -1.00e+00 -1.00e+00 -1.00e+00    1.0000 >    2.4993    0.0410    0.7257  736.8520 9823.3800   -0.9890    5.2862 359.08 359.1  93.5  9     0.0000    0.0500
END_PHASE
END_NLLOC

