NLLOC "./loc/SEML.20230825.221412.grid0" "LOCATED" "Location completed."
PUBLIC_ID None
SIGNATURE "Arham Zakki Edelo - edelo.17034@mhs.its.ac.id   obs:./obs/2023_08.obs   NLLoc:v7.00.10(30Aug2020)   run:28Dec2023 20h10m00"
COMMENT "SEML"
GRID  2001 2001 1001  727 9811 -2  0.01 0.01 0.01 PROB_DENSITY
SEARCH OCTREE nInitial 4851 nEvaluated 20003 smallestNodeSide 0.014881/0.014881/0.014205 oct_tree_integral 5.755563e-02 scatter_volume 5.755563e-02
HYPOCENTER  x 740.356 y 9818.54 z 0.00994318  OT 11.6487  ix -1 iy -1 iz -1 MAXIMUM_LIKELIHOOD
GEOGRAPHIC  OT 2023 08 25  22 14 11.648705  Lat 9818.537202 Long 740.355655 Depth 0.009943
QUALITY  Pmax 1.67513e+28 MFmin 33.1201 MFmax 45.8107 RMS 0.0154071 Nphs 10 Gap 320.149 Dist 2.12623 Mamp -9.90 0 Mdur -9.90 0
VPVSRATIO  VpVsRatio 1.84833  Npair 5  Diff 0.642158
STATISTICS  ExpectX 740.202968 Y 9818.474164 Z -0.256395  CovXX 0.598794 XY 0.208601 XZ 0.0954726 YY 0.093969 YZ 0.0116779 ZZ 0.393424 EllAz1  159.732 Dip1  -3.36865 Len1  0.249761 Az2  238.82 Dip2  72.7271 Len2  1.13688 Len3  1.574600e+00
STAT_GEOG  ExpectLat 9818.474164 Long 740.202968 Depth -0.256395
TRANSFORM  NONE
QML_OriginQuality  assocPhCt 10  usedPhCt 10  assocStaCt -1  usedStaCt 5  depthPhCt -1  stdErr 0.0154071  azGap 320.149  secAzGap 320.149  gtLevel -  minDist 2.12623 maxDist 5.97731 medDist 3.48004
QML_OriginUncertainty  horUnc -1  minHorUnc 0.208644  maxHorUnc 1.24492  azMaxHorUnc 70.2143
QML_ConfidenceEllipsoid  semiMajorAxisLength 1.5746  semiMinorAxisLength 0.249761  semiIntermediateAxisLength 1.13688  majorAxisPlunge 16.9209  majorAxisAzimuth 70.7583  majorAxisRotation 355.763
FOCALMECH  Hyp  9818.537202 740.355655 0.009943 Mech  0 0 0 mf  0 nObs -1
PHASE ID Ins Cmp On Pha  FM Date     HrMn   Sec     Err  ErrMag    Coda      Amp       Per       PriorWt  >   TTpred    Res       Weight    StaLoc(X  Y         Z)        SDist    SAzim  RAz  RDip RQual    Tcorr       TTerr
M06          ?    BHZ  i P      d 20230825 2214   12.3312 GAU  8.24e-04 -1.00e+00 -1.00e+00 -1.00e+00    1.0000 >    0.6835   -0.0011    1.5004  738.3100 9819.1170   -1.3960    2.1262 285.82 285.8 120.2 10     0.0000    0.0137
M06          ?    BHE  e S      ? 20230825 2214   12.8508 GAU  5.74e-04 -1.00e+00 -1.00e+00 -1.00e+00    1.0000 >    1.1979    0.0041    1.3397  738.3100 9819.1170   -1.3960    2.1262 285.82 285.8 118.1  9     0.0000    0.0240
M11          ?    BHZ  e P      d 20230825 2214   12.4572 GAU  1.55e-03 -1.00e+00 -1.00e+00 -1.00e+00    1.0000 >    0.8085   -0.0000    1.4769  738.4670 9820.4900   -1.3120    2.7167 315.96 316.0 111.9 10     0.0000    0.0162
M11          ?    BHN  e S      ? 20230825 2214   13.0700 GAU  6.24e-04 -1.00e+00 -1.00e+00 -1.00e+00    1.0000 >    1.4192    0.0021    1.2702  738.4670 9820.4900   -1.3120    2.7167 315.96 316.0 108.4  9     0.0000    0.0284
M09          ?    BHZ  e P      c 20230825 2214   12.5856 GAU  2.50e-04 -1.00e+00  1.40e+02 -1.00e+00    1.0000 >    0.9904   -0.0536    0.4271  737.8820 9820.9850   -1.2700    3.4800 314.70 314.7 105.5 10     0.0000    0.0198
M09          ?    BHN  e S      ? 20230825 2214   13.2065 GAU  2.03e-04 -1.00e+00  4.89e+02 -1.00e+00    1.0000 >    1.7410   -0.1833    0.0059  737.8820 9820.9850   -1.2700    3.4800 314.70 314.7  98.5  9     0.0000    0.0348
M07          ?    BHZ  i P      c 20230825 2214   13.0477 GAU  1.88e-04 -1.00e+00 -1.00e+00 -1.00e+00    1.0000 >    1.4015   -0.0026    1.2782  737.4430 9822.8030   -1.1120    5.1653 325.68 325.7  97.3  9     0.0000    0.0280
M07          ?    BHN  e S      ? 20230825 2214   14.1101 GAU  3.55e-04 -1.00e+00 -1.00e+00 -1.00e+00    1.0000 >    2.4633   -0.0020    0.9677  737.4430 9822.8030   -1.1120    5.1653 325.68 325.7  90.7  8     0.0000    0.0493
M12          ?    BHZ  e P      c 20230825 2214   13.2817 GAU  4.99e-04 -1.00e+00 -1.00e+00 -1.00e+00    1.0000 >    1.5985    0.0344    0.8477  736.8520 9823.3800   -0.9890    5.9773 324.12 324.1  95.0  9     0.0000    0.0320
M12          ?    BHE  e S      ? 20230825 2214   14.4434 GAU  1.50e-04 -1.00e+00  5.04e+00 -1.00e+00    1.0000 >    2.8045   -0.0097    0.8860  736.8520 9823.3800   -0.9890    5.9773 324.12 324.1  90.4  8     0.0000    0.0561
END_PHASE
END_NLLOC

