NLLOC "./loc/SEML.20230830.054738.grid0" "LOCATED" "Location completed."
PUBLIC_ID None
SIGNATURE "Arham Zakki Edelo - edelo.17034@mhs.its.ac.id   obs:./obs/2023_08.obs   NLLoc:v7.00.10(30Aug2020)   run:28Dec2023 20h10m07"
COMMENT "SEML"
GRID  2001 2001 1001  727 9811 -2  0.01 0.01 0.01 PROB_DENSITY
SEARCH OCTREE nInitial 4851 nEvaluated 20019 smallestNodeSide 0.014881/0.014881/0.014205 oct_tree_integral 2.580425e-02 scatter_volume 2.566696e-02
HYPOCENTER  x 738.198 y 9818.64 z 0.776989  OT 37.996  ix -1 iy -1 iz -1 MAXIMUM_LIKELIHOOD
GEOGRAPHIC  OT 2023 08 30  05 47 37.996001  Lat 9818.641369 Long 738.197917 Depth 0.776989
QUALITY  Pmax 7.51992e+21 MFmin 29.6945 MFmax 37.2578 RMS 0.00166102 Nphs 8 Gap 336.458 Dist 0.488659 Mamp -9.90 0 Mdur -9.90 0
VPVSRATIO  VpVsRatio 1.67268  Npair 4  Diff 0.692036
STATISTICS  ExpectX 738.210624 Y 9818.649970 Z 0.760691  CovXX 0.106739 XY 0.0217529 XZ 0.0094569 YY 0.0278278 YZ -0.00733828 ZZ 0.019344 EllAz1  340.624 Dip1  50.0074 Len1  0.196199 Az2  349.797 Dip2  -39.6299 Len2  0.325898 Len3  6.313488e-01
STAT_GEOG  ExpectLat 9818.649970 Long 738.210624 Depth 0.760691
TRANSFORM  NONE
QML_OriginQuality  assocPhCt 8  usedPhCt 8  assocStaCt -1  usedStaCt 4  depthPhCt -1  stdErr 0.00166102  azGap 336.458  secAzGap 336.458  gtLevel -  minDist 0.488659 maxDist 4.22955 medDist 2.11647
QML_OriginUncertainty  horUnc -1  minHorUnc 0.22611  maxHorUnc 0.508308  azMaxHorUnc 75.5654
QML_ConfidenceEllipsoid  semiMajorAxisLength 0.631349  semiMinorAxisLength 0.196199  semiIntermediateAxisLength 0.325898  majorAxisPlunge 4.52592  majorAxisAzimuth 76.0387  majorAxisRotation 129.426
FOCALMECH  Hyp  9818.641369 738.197917 0.776989 Mech  0 0 0 mf  0 nObs -1
PHASE ID Ins Cmp On Pha  FM Date     HrMn   Sec     Err  ErrMag    Coda      Amp       Per       PriorWt  >   TTpred    Res       Weight    StaLoc(X  Y         Z)        SDist    SAzim  RAz  RDip RQual    Tcorr       TTerr
M06          ?    BHZ  i P      c 20230830 0547   38.5860 GAU  3.86e-03 -1.00e+00 -1.00e+00 -1.00e+00    1.0000 >    0.5893    0.0007    1.5360  738.3100 9819.1170   -1.3960    0.4887  13.26  13.3 166.8 10     0.0000    0.0118
M06          ?    BHN  e S      ? 20230830 0547   39.0140 GAU  1.12e-03 -1.00e+00 -1.00e+00 -1.00e+00    1.0000 >    1.0172    0.0008    1.3143  738.3100 9819.1170   -1.3960    0.4887  13.26  13.3 165.8 10     0.0000    0.0203
M11          ?    BHZ  e P      c 20230830 0547   38.7335 GAU  2.05e-03 -1.00e+00 -1.00e+00 -1.00e+00    1.0000 >    0.7398   -0.0023    1.4666  738.4670 9820.4900   -1.3120    1.8681   8.28   8.3 136.8 10     0.0000    0.0148
M11          ?    BHN  e S      ? 20230830 0547   39.2755 GAU  1.84e-04 -1.00e+00 -1.00e+00 -1.00e+00    1.0000 >    1.2762    0.0033    1.1614  738.4670 9820.4900   -1.3120    1.8681   8.28   8.3 132.7 10     0.0000    0.0255
M09          ?    BHZ  e P      d 20230830 0547   38.8203 GAU  5.31e-04 -1.00e+00  2.51e+02 -1.00e+00    1.0000 >    0.8248   -0.0005    1.4307  737.8820 9820.9850   -1.2700    2.3648 352.32 352.3 128.8 10     0.0000    0.0165
M09          ?    BHE  e S      ? 20230830 0547   39.4201 GAU  2.90e-04 -1.00e+00  3.83e+02 -1.00e+00    1.0000 >    1.4221    0.0020    1.0910  737.8820 9820.9850   -1.2700    2.3648 352.32 352.3 123.4 10     0.0000    0.0284
M07          ?    BHZ  e P      c 20230830 0547   39.5936 GAU  1.33e-04 -1.00e+00 -1.00e+00 -1.00e+00    1.0000 >    1.2167    0.3809    0.0000  737.4430 9822.8030   -1.1120    4.2295 349.72 349.7 110.9 10     0.0000    0.0243
M07          ?    BHN  e S      ? 20230830 0547   40.7137 GAU  1.46e-04 -1.00e+00 -1.00e+00 -1.00e+00    1.0000 >    2.0873    0.6304    0.0000  737.4430 9822.8030   -1.1120    4.2295 349.72 349.7 101.6 10     0.0000    0.0417
END_PHASE
END_NLLOC

