NLLOC "./loc/SEML.20230825.220333.grid0" "LOCATED" "Location completed."
PUBLIC_ID None
SIGNATURE "Arham Zakki Edelo - edelo.17034@mhs.its.ac.id   obs:./obs/2023_08.obs   NLLoc:v7.00.10(30Aug2020)   run:28Dec2023 20h09m52"
COMMENT "SEML"
GRID  2001 2001 1001  727 9811 -2  0.01 0.01 0.01 PROB_DENSITY
SEARCH OCTREE nInitial 4851 nEvaluated 20003 smallestNodeSide 0.014881/0.014881/0.014205 oct_tree_integral 4.982800e-02 scatter_volume 4.978086e-02
HYPOCENTER  x 738.198 y 9818.02 z 0.634943  OT 32.5027  ix -1 iy -1 iz -1 MAXIMUM_LIKELIHOOD
GEOGRAPHIC  OT 2023 08 25  22 03 32.502748  Lat 9818.016369 Long 738.197917 Depth 0.634943
QUALITY  Pmax 2.66606e+42 MFmin 49.1723 MFmax 60.5972 RMS 0.0330638 Nphs 14 Gap 335.874 Dist 1.10632 Mamp -9.90 0 Mdur -9.90 0
VPVSRATIO  VpVsRatio 1.76367  Npair 7  Diff 0.65181
STATISTICS  ExpectX 738.199827 Y 9818.055650 Z 0.651433  CovXX 0.0783114 XY 0.0199496 XZ 0.0172271 YY 0.0327191 YZ 0.000488985 ZZ 0.02253 EllAz1  137.52 Dip1  -58.1161 Len1  0.234043 Az2  348.126 Dip2  -28.1645 Len2  0.315827 Len3  5.629791e-01
STAT_GEOG  ExpectLat 9818.055650 Long 738.199827 Depth 0.651433
TRANSFORM  NONE
QML_OriginQuality  assocPhCt 14  usedPhCt 14  assocStaCt -1  usedStaCt 7  depthPhCt -1  stdErr 0.0330638  azGap 335.874  secAzGap 335.874  gtLevel -  minDist 1.10632 maxDist 5.52992 medDist 2.98539
QML_OriginUncertainty  horUnc -1  minHorUnc 0.240856  maxHorUnc 0.44425  azMaxHorUnc 69.4049
QML_ConfidenceEllipsoid  semiMajorAxisLength 0.562979  semiMinorAxisLength 0.234043  semiIntermediateAxisLength 0.315827  majorAxisPlunge 13.7143  majorAxisAzimuth 70.6182  majorAxisRotation 296.261
FOCALMECH  Hyp  9818.016369 738.197917 0.634943 Mech  0 0 0 mf  0 nObs -1
PHASE ID Ins Cmp On Pha  FM Date     HrMn   Sec     Err  ErrMag    Coda      Amp       Per       PriorWt  >   TTpred    Res       Weight    StaLoc(X  Y         Z)        SDist    SAzim  RAz  RDip RQual    Tcorr       TTerr
M06          ?    BHZ  e P      c 20230825 2203   33.1083 GAU  8.11e-04 -1.00e+00 -1.00e+00 -1.00e+00    1.0000 >    0.6133   -0.0077    1.4794  738.3100 9819.1170   -1.3960    1.1063   5.81   5.8 150.4 10     0.0000    0.0123
M06          ?    BHE  e S      ? 20230825 2203   33.5706 GAU  8.98e-04 -1.00e+00 -1.00e+00 -1.00e+00    1.0000 >    1.0636    0.0043    1.4521  738.3100 9819.1170   -1.3960    1.1063   5.81   5.8 147.7 10     0.0000    0.0213
M14          ?    BHZ  e P      c 20230825 2203   33.2797 GAU  2.61e-03 -1.00e+00 -1.00e+00 -1.00e+00    1.0000 >    0.7737    0.0033    1.5622  737.5530 9820.0110   -1.3980    2.0963 342.08 342.1 132.0 10     0.0000    0.0155
M14          ?    BHN  e S      ? 20230825 2203   33.8633 GAU  4.51e-04 -1.00e+00  3.27e+02 -1.00e+00    1.0000 >    1.3413    0.0192    1.2087  737.5530 9820.0110   -1.3980    2.0963 342.08 342.1 126.8 10     0.0000    0.0268
M11          ?    BHZ  i P      c 20230825 2203   33.3517 GAU  5.63e-04 -1.00e+00 -1.00e+00 -1.00e+00    1.0000 >    0.8357    0.0132    1.4341  738.4670 9820.4900   -1.3120    2.4882   6.21   6.2 125.5 10     0.0000    0.0167
M11          ?    BHN  e S      ? 20230825 2203   33.9454 GAU  8.46e-04 -1.00e+00 -1.00e+00 -1.00e+00    1.0000 >    1.4487   -0.0061    1.2780  738.4670 9820.4900   -1.3120    2.4882   6.21   6.2 118.7 10     0.0000    0.0290
M09          ?    BHZ  e P      c 20230825 2203   33.3214 GAU  9.06e-04 -1.00e+00  2.25e+01 -1.00e+00    1.0000 >    0.9359   -0.1172    0.3302  737.8820 9820.9850   -1.2700    2.9854 353.93 353.9 119.6 10     0.0000    0.0187
M09          ?    BHE  e S      ? 20230825 2203   34.0303 GAU  6.50e-04 -1.00e+00  3.61e+02 -1.00e+00    1.0000 >    1.6216   -0.0940    0.4743  737.8820 9820.9850   -1.2700    2.9854 353.93 353.9 110.8 10     0.0000    0.0324
M13          ?    BHZ  e P      c 20230825 2203   33.5843 GAU  5.42e-04 -1.00e+00 -1.00e+00 -1.00e+00    1.0000 >    1.0854   -0.0039    1.4197  737.1780 9821.5410   -1.2220    3.6692 343.86 343.9 113.4 10     0.0000    0.0217
M13          ?    BHE  e S      ? 20230825 2203   34.3229 GAU  5.68e-04 -1.00e+00 -1.00e+00 -1.00e+00    1.0000 >    1.8780   -0.0578    0.7275  737.1780 9821.5410   -1.2220    3.6692 343.86 343.9 102.1 10     0.0000    0.0376
M07          ?    BHZ  e P      c 20230825 2203   33.8939 GAU  7.49e-04 -1.00e+00 -1.00e+00 -1.00e+00    1.0000 >    1.3550    0.0361    0.8926  737.4430 9822.8030   -1.1120    4.8458 351.04 351.0 105.7 10     0.0000    0.0271
M07          ?    BHN  e S      ? 20230825 2203   34.9163 GAU  4.18e-04 -1.00e+00 -1.00e+00 -1.00e+00    1.0000 >    2.3293    0.0843    0.3378  737.4430 9822.8030   -1.1120    4.8458 351.04 351.0  94.7  9     0.0000    0.0466
M12          ?    BHZ  e P      c 20230825 2203   33.9304 GAU  8.11e-04 -1.00e+00 -1.00e+00 -1.00e+00    1.0000 >    1.5108   -0.0832    0.5055  736.8520 9823.3800   -0.9890    5.5299 345.91 345.9 102.1 10     0.0000    0.0302
M12          ?    BHN  e S      ? 20230825 2203   35.0444 GAU  6.24e-04 -1.00e+00 -1.00e+00 -1.00e+00    1.0000 >    2.5801   -0.0384    0.8980  736.8520 9823.3800   -0.9890    5.5299 345.91 345.9  93.2  9     0.0000    0.0516
END_PHASE
END_NLLOC

