NLLOC "./loc/SEML.20230810.222513.grid0" "LOCATED" "Location completed."
PUBLIC_ID None
SIGNATURE "Arham Zakki Edelo - edelo.17034@mhs.its.ac.id   obs:./obs/2023_08.obs   NLLoc:v7.00.10(30Aug2020)   run:28Dec2023 20h09m44"
COMMENT "SEML"
GRID  2001 2001 1001  727 9811 -2  0.01 0.01 0.01 PROB_DENSITY
SEARCH OCTREE nInitial 4851 nEvaluated 20003 smallestNodeSide 0.029762/0.029762/0.028409 oct_tree_integral 4.944122e-01 scatter_volume 4.944122e-01
HYPOCENTER  x 734.009 y 9821.49 z 5.40057  OT 12.0969  ix -1 iy -1 iz -1 MAXIMUM_LIKELIHOOD
GEOGRAPHIC  OT 2023 08 10  22 25 12.096864  Lat 9821.491071 Long 734.008929 Depth 5.400568
QUALITY  Pmax 1.34391e+91 MFmin 69.446 MFmax 75.4356 RMS 0.0409852 Nphs 26 Gap 287.544 Dist 2.3334 Mamp -9.90 0 Mdur -9.90 0
VPVSRATIO  VpVsRatio 1.8174  Npair 13  Diff 0.275588
STATISTICS  ExpectX 733.968902 Y 9821.456368 Z 5.405140  CovXX 0.300108 XY 0.0350462 XZ 0.132295 YY 0.0643491 YZ 0.0100542 ZZ 0.119134 EllAz1  134.291 Dip1  -50.0091 Len1  0.40116 Az2  7.66097 Dip2  -26.5871 Len2  0.475258 Len3  1.149034e+00
STAT_GEOG  ExpectLat 9821.456368 Long 733.968902 Depth 5.405140
TRANSFORM  NONE
QML_OriginQuality  assocPhCt 26  usedPhCt 26  assocStaCt -1  usedStaCt 13  depthPhCt -1  stdErr 0.0409852  azGap 287.544  secAzGap 287.544  gtLevel -  minDist 2.3334 maxDist 4.91278 medDist 3.67614
QML_OriginUncertainty  horUnc -1  minHorUnc 0.369153  maxHorUnc 0.837841  azMaxHorUnc 81.7213
QML_ConfidenceEllipsoid  semiMajorAxisLength 1.14903  semiMinorAxisLength 0.40116  semiIntermediateAxisLength 0.475258  majorAxisPlunge 27.465  majorAxisAzimuth 82.5822  majorAxisRotation 288.554
FOCALMECH  Hyp  9821.491071 734.008929 5.400568 Mech  0 0 0 mf  0 nObs -1
PHASE ID Ins Cmp On Pha  FM Date     HrMn   Sec     Err  ErrMag    Coda      Amp       Per       PriorWt  >   TTpred    Res       Weight    StaLoc(X  Y         Z)        SDist    SAzim  RAz  RDip RQual    Tcorr       TTerr
M05          ?    BHZ  e P      c 20230810 2225   13.8124 GAU  2.85e-03 -1.00e+00  1.98e+02 -1.00e+00    1.0000 >    1.6565    0.0590    0.9520  736.2660 9822.0830   -1.1500    2.3334  75.30  75.3 159.1 10     0.0000    0.0331
M05          ?    BHE  e S      ? 20230810 2225   15.0045 GAU  3.13e-03 -1.00e+00 -1.00e+00 -1.00e+00    1.0000 >    2.7633    0.1444    0.3272  736.2660 9822.0830   -1.1500    2.3334  75.30  75.3 158.8 10     0.0000    0.0553
M10          ?    BHZ  e P      c 20230810 2225   13.8007 GAU  2.24e-03 -1.00e+00 -1.00e+00 -1.00e+00    1.0000 >    1.6921    0.0118    1.2860  736.5490 9821.3650   -1.2200    2.5432  92.84  92.8 157.5 10     0.0000    0.0338
M10          ?    BHN  e S      ? 20230810 2225   14.9756 GAU  1.49e-03 -1.00e+00 -1.00e+00 -1.00e+00    1.0000 >    2.8236    0.0551    0.9448  736.5490 9821.3650   -1.2200    2.5432  92.84  92.8 157.2 10     0.0000    0.0565
M01          ?    BHZ  e P      d 20230810 2225   13.7586 GAU  8.91e-04 -1.00e+00  2.55e+02 -1.00e+00    1.0000 >    1.6718   -0.0101    1.2692  736.4090 9822.5140   -1.1200    2.6090  66.92  66.9 156.7 10     0.0000    0.0334
M01          ?    BHN  e S      ? 20230810 2225   14.8646 GAU  1.83e-03 -1.00e+00  1.72e+03 -1.00e+00    1.0000 >    2.7881   -0.0204    1.0595  736.4090 9822.5140   -1.1200    2.6090  66.92  66.9 156.4 10     0.0000    0.0558
M13          ?    BHZ  i P      d 20230810 2225   13.8216 GAU  6.24e-04 -1.00e+00  3.08e+02 -1.00e+00    1.0000 >    1.7513   -0.0265    1.1591  737.1780 9821.5410   -1.2220    3.1695  89.10  89.1 152.6 10     0.0000    0.0350
M13          ?    BHN  e S      ? 20230810 2225   14.9706 GAU  1.16e-03 -1.00e+00 -1.00e+00 -1.00e+00    1.0000 >    2.9220   -0.0483    0.8824  737.1780 9821.5410   -1.2220    3.1695  89.10  89.1 152.3 10     0.0000    0.0584
M02          ?    BHZ  i P      c 20230810 2225   13.9154 GAU  1.12e-03 -1.00e+00 -1.00e+00 -1.00e+00    1.0000 >    1.8367   -0.0182    1.2063  736.5970 9819.4060   -1.4960    3.3235 128.86 128.9 152.3 10     0.0000    0.0367
M02          ?    BHE  e S      ? 20230810 2225   15.1342 GAU  1.27e-03 -1.00e+00 -1.00e+00 -1.00e+00    1.0000 >    3.0691   -0.0318    0.9690  736.5970 9819.4060   -1.4960    3.3235 128.86 128.9 151.9 10     0.0000    0.0614
M12          ?    BHZ  e P      c 20230810 2225   13.8574 GAU  1.40e-03 -1.00e+00 -1.00e+00 -1.00e+00    1.0000 >    1.7187    0.0419    1.1139  736.8520 9823.3800   -0.9890    3.4134  56.40  56.4 150.1 10     0.0000    0.0344
M12          ?    BHN  e S      ? 20230810 2225   15.0529 GAU  1.61e-03 -1.00e+00 -1.00e+00 -1.00e+00    1.0000 >    2.8634    0.0926    0.6785  736.8520 9823.3800   -0.9890    3.4134  56.40  56.4 149.7 10     0.0000    0.0573
M07          ?    BHZ  e P      d 20230810 2225   13.8544 GAU  7.55e-04 -1.00e+00 -1.00e+00 -1.00e+00    1.0000 >    1.7790   -0.0215    1.1928  737.4430 9822.8030   -1.1120    3.6761  69.09  69.1 148.5 10     0.0000    0.0356
M07          ?    BHN  e S      ? 20230810 2225   15.0132 GAU  7.49e-04 -1.00e+00 -1.00e+00 -1.00e+00    1.0000 >    2.9660   -0.0497    0.8698  737.4430 9822.8030   -1.1120    3.6761  69.09  69.1 148.1 10     0.0000    0.0593
M14          ?    BHZ  i P      d 20230810 2225   13.9697 GAU  4.83e-03 -1.00e+00  5.20e+02 -1.00e+00    1.0000 >    1.8691    0.0038    1.2661  737.5530 9820.0110   -1.3980    3.8407 112.67 112.7 148.3 10     0.0000    0.0374
M14          ?    BHN  e S      ? 20230810 2225   15.2062 GAU  5.24e-04 -1.00e+00  3.17e+02 -1.00e+00    1.0000 >    3.1210   -0.0117    1.0400  737.5530 9820.0110   -1.3980    3.8407 112.67 112.7 147.9 10     0.0000    0.0624
M04          ?    BHZ  i P      d 20230810 2225   13.9991 GAU  3.26e-03 -1.00e+00  7.17e+02 -1.00e+00    1.0000 >    1.9131   -0.0109    1.2303  737.1400 9819.2520   -1.5710    3.8493 125.57 125.6 148.8 10     0.0000    0.0383
M04          ?    BHN  e S      ? 20230810 2225   15.2958 GAU  1.55e-03 -1.00e+00  7.41e+02 -1.00e+00    1.0000 >    3.1975    0.0015    1.0502  737.1400 9819.2520   -1.5710    3.8493 125.57 125.6 148.4 10     0.0000    0.0639
M09          ?    BHZ  i P      d 20230810 2225   13.9620 GAU  3.58e-03 -1.00e+00  2.69e+02 -1.00e+00    1.0000 >    1.8451    0.0200    1.2401  737.8820 9820.9850   -1.2700    3.9060  97.44  97.4 147.4 10     0.0000    0.0369
M09          ?    BHE  e S      ? 20230810 2225   15.2516 GAU  9.36e-04 -1.00e+00  3.24e+02 -1.00e+00    1.0000 >    3.0788    0.0760    0.7968  737.8820 9820.9850   -1.2700    3.9060  97.44  97.4 147.0 10     0.0000    0.0616
M08          ?    BHZ  i P      c 20230810 2225   13.9046 GAU  1.31e-04 -1.00e+00 -1.00e+00 -1.00e+00    1.0000 >    1.8641   -0.0564    0.8508  738.2480 9822.1600   -1.1510    4.2915  81.03  81.0 144.5 10     0.0000    0.0373
M08          ?    BHE  e S      ? 20230810 2225   15.1652 GAU  1.55e-03 -1.00e+00 -1.00e+00 -1.00e+00    1.0000 >    3.1079   -0.0395    0.9225  738.2480 9822.1600   -1.1510    4.2915  81.03  81.0 144.0 10     0.0000    0.0622
M11          ?    BHZ  i P      c 20230810 2225   14.0880 GAU  6.95e-03 -1.00e+00 -1.00e+00 -1.00e+00    1.0000 >    1.9392    0.0519    1.0168  738.4670 9820.4900   -1.3120    4.5691 102.66 102.7 143.2 10     0.0000    0.0388
M11          ?    BHN  e S      ? 20230810 2225   15.4489 GAU  2.26e-03 -1.00e+00 -1.00e+00 -1.00e+00    1.0000 >    3.2358    0.1162    0.5291  738.4670 9820.4900   -1.3120    4.5691 102.66 102.7 142.7 10     0.0000    0.0647
M06          ?    BHZ  i P      d 20230810 2225   14.1172 GAU  4.49e-04 -1.00e+00 -1.00e+00 -1.00e+00    1.0000 >    2.0059    0.0144    1.2360  738.3100 9819.1170   -1.3960    4.9128 118.90 118.9 141.4 10     0.0000    0.0401
M06          ?    BHN  e S      ? 20230810 2225   15.4988 GAU  2.66e-03 -1.00e+00 -1.00e+00 -1.00e+00    1.0000 >    3.3483    0.0536    0.9108  738.3100 9819.1170   -1.3960    4.9128 118.90 118.9 140.9 10     0.0000    0.0670
END_PHASE
END_NLLOC

