NLLOC "./loc/SEML.20230830.054615.grid0" "LOCATED" "Location completed."
PUBLIC_ID None
SIGNATURE "Arham Zakki Edelo - edelo.17034@mhs.its.ac.id   obs:./obs/2023_08.obs   NLLoc:v7.00.10(30Aug2020)   run:28Dec2023 20h10m03"
COMMENT "SEML"
GRID  2001 2001 1001  727 9811 -2  0.01 0.01 0.01 PROB_DENSITY
SEARCH OCTREE nInitial 4851 nEvaluated 20011 smallestNodeSide 0.014881/0.014881/0.014205 oct_tree_integral 2.973993e-02 scatter_volume 2.973993e-02
HYPOCENTER  x 739.597 y 9818.36 z 0.0809659  OT 14.4548  ix -1 iy -1 iz -1 MAXIMUM_LIKELIHOOD
GEOGRAPHIC  OT 2023 08 30  05 46 14.454757  Lat 9818.358631 Long 739.596726 Depth 0.080966
QUALITY  Pmax 1.78258e+21 MFmin 28.9291 MFmax 40.3423 RMS 0.00244346 Nphs 8 Gap 326.369 Dist 1.49358 Mamp -9.90 0 Mdur -9.90 0
VPVSRATIO  VpVsRatio 1.78039  Npair 4  Diff 0.588619
STATISTICS  ExpectX 739.441598 Y 9818.398155 Z -0.022199  CovXX 0.591035 XY -0.0997191 XZ 0.093518 YY 0.0966341 YZ -0.0436221 ZZ 0.163322 EllAz1  187.493 Dip1  -18.229 Len1  0.49363 Az2  223.349 Dip2  67.8855 Len2  0.727976 Len3  1.493446e+00
STAT_GEOG  ExpectLat 9818.398155 Long 739.441598 Depth -0.022199
TRANSFORM  NONE
QML_OriginQuality  assocPhCt 8  usedPhCt 8  assocStaCt -1  usedStaCt 4  depthPhCt -1  stdErr 0.00244346  azGap 326.369  secAzGap 326.369  gtLevel -  minDist 1.49358 maxDist 4.93872 medDist 2.77442
QML_OriginUncertainty  horUnc -1  minHorUnc 0.421594  maxHorUnc 1.18486  azMaxHorUnc 100.984
QML_ConfidenceEllipsoid  semiMajorAxisLength 1.49345  semiMinorAxisLength 0.49363  semiIntermediateAxisLength 0.727976  majorAxisPlunge 12.0898  majorAxisAzimuth 101.538  majorAxisRotation 339.689
FOCALMECH  Hyp  9818.358631 739.596726 0.080966 Mech  0 0 0 mf  0 nObs -1
PHASE ID Ins Cmp On Pha  FM Date     HrMn   Sec     Err  ErrMag    Coda      Amp       Per       PriorWt  >   TTpred    Res       Weight    StaLoc(X  Y         Z)        SDist    SAzim  RAz  RDip RQual    Tcorr       TTerr
M06          ?    BHZ  i P      c 20230830 0546   15.0173 GAU  2.60e-04 -1.00e+00  7.25e+00 -1.00e+00    1.0000 >    0.5623    0.0003    1.6429  738.3100 9819.1170   -1.3960    1.4936 300.51 300.5 132.6 10     0.0000    0.0112
M06          ?    BHN  e S      ? 20230830 0546   15.4395 GAU  4.31e-04 -1.00e+00  5.86e+00 -1.00e+00    1.0000 >    0.9842    0.0006    1.4451  738.3100 9819.1170   -1.3960    1.4936 300.51 300.5 131.4 10     0.0000    0.0197
M11          ?    BHZ  i P      d 20230830 0546   15.1970 GAU  1.24e-03 -1.00e+00  1.78e+01 -1.00e+00    1.0000 >    0.7444   -0.0021    1.5660  738.4670 9820.4900   -1.3120    2.4123 332.07 332.1 116.7 10     0.0000    0.0149
M11          ?    BHN  e S      ? 20230830 0546   15.7647 GAU  2.09e-04 -1.00e+00 -1.00e+00 -1.00e+00    1.0000 >    1.3046    0.0053    1.2525  738.4670 9820.4900   -1.3120    2.4123 332.07 332.1 114.3 10     0.0000    0.0261
M09          ?    BHZ  i P      c 20230830 0546   15.1338 GAU  1.35e-03 -1.00e+00  7.87e+01 -1.00e+00    1.0000 >    0.9112   -0.2321    0.0000  737.8820 9820.9850   -1.2700    3.1366 326.86 326.9 109.4 10     0.0000    0.0182
M09          ?    BHN  e S      ? 20230830 0546   15.5894 GAU  3.67e-04 -1.00e+00  5.19e+02 -1.00e+00    1.0000 >    1.5984   -0.4638    0.0000  737.8820 9820.9850   -1.2700    3.1366 326.86 326.9 105.4 10     0.0000    0.0320
M07          ?    BHZ  e P      d 20230830 0546   15.8043 GAU  4.33e-04 -1.00e+00 -1.00e+00 -1.00e+00    1.0000 >    1.3462    0.0034    1.2411  737.4430 9822.8030   -1.1120    4.9387 334.15 334.1  99.2 10     0.0000    0.0269
M07          ?    BHE  e S      ? 20230830 0546   16.8152 GAU  7.70e-05 -1.00e+00 -1.00e+00 -1.00e+00    1.0000 >    2.3637   -0.0033    0.8523  737.4430 9822.8030   -1.1120    4.9387 334.15 334.1  93.0  9     0.0000    0.0473
END_PHASE
END_NLLOC

