NLLOC "./loc/SEML.20230825.220917.grid0" "LOCATED" "Location completed."
PUBLIC_ID None
SIGNATURE "Arham Zakki Edelo - edelo.17034@mhs.its.ac.id   obs:./obs/2023_08.obs   NLLoc:v7.00.10(30Aug2020)   run:28Dec2023 20h09m56"
COMMENT "SEML"
GRID  2001 2001 1001  727 9811 -2  0.01 0.01 0.01 PROB_DENSITY
SEARCH OCTREE nInitial 4851 nEvaluated 20003 smallestNodeSide 0.014881/0.014881/0.014205 oct_tree_integral 5.531110e-02 scatter_volume 5.531110e-02
HYPOCENTER  x 737.945 y 9818.24 z 0.322443  OT 17.4233  ix -1 iy -1 iz -1 MAXIMUM_LIKELIHOOD
GEOGRAPHIC  OT 2023 08 25  22 09 17.423317  Lat 9818.239583 Long 737.944940 Depth 0.322443
QUALITY  Pmax 1.40619e+88 MFmin 97.2983 MFmax 113.931 RMS 0.0568078 Nphs 26 Gap 288.28 Dist 0.950331 Mamp -9.90 0 Mdur -9.90 0
VPVSRATIO  VpVsRatio 1.70532  Npair 13  Diff 0.576315
STATISTICS  ExpectX 738.177704 Y 9818.250017 Z 0.430577  CovXX 0.206259 XY 0.019988 XZ 0.000480849 YY 0.0257361 YZ 0.00427367 ZZ 0.0351185 EllAz1  173.851 Dip1  17.9839 Len1  0.27986 Az2  172.789 Dip2  -72.0132 Len2  0.358829 Len3  8.578055e-01
STAT_GEOG  ExpectLat 9818.250017 Long 738.177704 Depth 0.430577
TRANSFORM  NONE
QML_OriginQuality  assocPhCt 26  usedPhCt 26  assocStaCt -1  usedStaCt 13  depthPhCt -1  stdErr 0.0568078  azGap 288.28  secAzGap 288.28  gtLevel -  minDist 0.950331 maxDist 5.25532 medDist 2.82299
QML_OriginUncertainty  horUnc -1  minHorUnc 0.232731  maxHorUnc 0.692405  azMaxHorUnc 83.7568
QML_ConfidenceEllipsoid  semiMajorAxisLength 0.857806  semiMinorAxisLength 0.27986  semiIntermediateAxisLength 0.358829  majorAxisPlunge 0.3118  majorAxisAzimuth 83.7497  majorAxisRotation 17.9852
FOCALMECH  Hyp  9818.239583 737.944940 0.322443 Mech  0 0 0 mf  0 nObs -1
PHASE ID Ins Cmp On Pha  FM Date     HrMn   Sec     Err  ErrMag    Coda      Amp       Per       PriorWt  >   TTpred    Res       Weight    StaLoc(X  Y         Z)        SDist    SAzim  RAz  RDip RQual    Tcorr       TTerr
M06          ?    BHZ  i P      c 20230825 2209   18.0488 GAU  4.49e-04 -1.00e+00  3.36e+02 -1.00e+00    1.0000 >    0.5235    0.1019    0.6954  738.3100 9819.1170   -1.3960    0.9503  22.59  22.6 150.2 10     0.0000    0.0105
M06          ?    BHN  i S      ? 20230825 2209   18.5977 GAU  1.24e-03 -1.00e+00 -1.00e+00 -1.00e+00    1.0000 >    0.9140    0.2604    0.1643  738.3100 9819.1170   -1.3960    0.9503  22.59  22.6 149.7 10     0.0000    0.0183
M04          ?    BHZ  e P      c 20230825 2209   17.9840 GAU  2.06e-03 -1.00e+00 -1.00e+00 -1.00e+00    1.0000 >    0.6128   -0.0521    0.7608  737.1400 9819.2520   -1.5710    1.2934 321.51 321.5 144.5 10     0.0000    0.0123
M04          ?    BHE  e S      ? 20230825 2209   18.4878 GAU  1.55e-03 -1.00e+00  3.24e+02 -1.00e+00    1.0000 >    1.0688   -0.0043    1.6427  737.1400 9819.2520   -1.5710    1.2934 321.51 321.5 143.9 10     0.0000    0.0214
M02          ?    BHZ  e P      d 20230825 2209   18.2127 GAU  1.29e-03 -1.00e+00  1.17e+01 -1.00e+00    1.0000 >    0.6794    0.1100    0.6176  736.5970 9819.4060   -1.4960    1.7825 310.87 310.9 133.8 10     0.0000    0.0136
M02          ?    BHE  e S      ? 20230825 2209   18.8395 GAU  1.08e-03 -1.00e+00  3.68e+03 -1.00e+00    1.0000 >    1.1855    0.2307    0.2344  736.5970 9819.4060   -1.4960    1.7825 310.87 310.9 133.0 10     0.0000    0.0237
M14          ?    BHZ  e P      c 20230825 2209   18.0989 GAU  4.74e-03 -1.00e+00 -1.00e+00 -1.00e+00    1.0000 >    0.6660    0.0096    1.6430  737.5530 9820.0110   -1.3980    1.8143 347.52 347.5 131.6 10     0.0000    0.0133
M14          ?    BHN  e S      ? 20230825 2209   18.6582 GAU  1.71e-03 -1.00e+00  2.42e+02 -1.00e+00    1.0000 >    1.1628    0.0721    0.5871  737.5530 9820.0110   -1.3980    1.8143 347.52 347.5 130.6 10     0.0000    0.0233
M11          ?    BHZ  i P      c 20230825 2209   18.1702 GAU  2.97e-03 -1.00e+00 -1.00e+00 -1.00e+00    1.0000 >    0.7526   -0.0057    1.7448  738.4670 9820.4900   -1.3120    2.3102  13.06  13.1 122.9 10     0.0000    0.0151
M11          ?    BHN  e S      ? 20230825 2209   18.7391 GAU  1.24e-03 -1.00e+00 -1.00e+00 -1.00e+00    1.0000 >    1.3149    0.0008    1.5356  738.4670 9820.4900   -1.3120    2.3102  13.06  13.1 121.4 10     0.0000    0.0263
M09          ?    BHZ  i P      c 20230825 2209   18.2683 GAU  2.32e-03 -1.00e+00  1.70e+02 -1.00e+00    1.0000 >    0.8433    0.0016    1.7162  737.8820 9820.9850   -1.2700    2.7461 358.69 358.7 117.5 10     0.0000    0.0169
M09          ?    BHN  e S      ? 20230825 2209   18.8783 GAU  5.72e-04 -1.00e+00  4.14e+02 -1.00e+00    1.0000 >    1.4741   -0.0191    1.4208  737.8820 9820.9850   -1.2700    2.7461 358.69 358.7 115.6 10     0.0000    0.0295
M03          ?    BHZ  e P      c 20230825 2209   18.2334 GAU  1.08e-03 -1.00e+00 -1.00e+00 -1.00e+00    1.0000 >    0.8708   -0.0607    0.6476  736.8800 9820.8540   -1.3350    2.8230 337.84 337.8 117.7 10     0.0000    0.0174
M03          ?    BHN  e S      ? 20230825 2209   18.8019 GAU  2.48e-03 -1.00e+00 -1.00e+00 -1.00e+00    1.0000 >    1.5213   -0.1427    0.0324  736.8800 9820.8540   -1.3350    2.8230 337.84 337.8 115.8 10     0.0000    0.0304
M13          ?    BHZ  i P      c 20230825 2209   18.3990 GAU  1.83e-03 -1.00e+00 -1.00e+00 -1.00e+00    1.0000 >    0.9880   -0.0124    1.6170  737.1780 9821.5410   -1.2220    3.3893 346.92 346.9 111.5 10     0.0000    0.0198
M13          ?    BHN  e S      ? 20230825 2209   19.1583 GAU  6.47e-04 -1.00e+00 -1.00e+00 -1.00e+00    1.0000 >    1.7277    0.0074    1.3629  737.1780 9821.5410   -1.2220    3.3893 346.92 346.9 109.0 10     0.0000    0.0346
M10          ?    BHZ  i P      c 20230825 2209   18.5089 GAU  2.24e-03 -1.00e+00 -1.00e+00 -1.00e+00    1.0000 >    0.9959    0.0897    0.6381  736.5490 9821.3650   -1.2200    3.4230 335.93 335.9 111.2 10     0.0000    0.0199
M10          ?    BHN  e S      ? 20230825 2209   19.3506 GAU  1.68e-03 -1.00e+00 -1.00e+00 -1.00e+00    1.0000 >    1.7414    0.1859    0.2020  736.5490 9821.3650   -1.2200    3.4230 335.93 335.9 108.7 10     0.0000    0.0348
M08          ?    BHZ  i P      c 20230825 2209   18.5490 GAU  2.17e-04 -1.00e+00 -1.00e+00 -1.00e+00    1.0000 >    1.1114    0.0142    1.4441  738.2480 9822.1600   -1.1510    3.9321   4.42   4.4 107.4 10     0.0000    0.0222
M08          ?    BHE  e S      ? 20230825 2209   19.3803 GAU  8.73e-04 -1.00e+00 -1.00e+00 -1.00e+00    1.0000 >    1.9444    0.0126    1.2783  738.2480 9822.1600   -1.1510    3.9321   4.42   4.4 104.3 10     0.0000    0.0389
M01          ?    BHZ  e P      d 20230825 2209   18.7848 GAU  2.15e-03 -1.00e+00  1.00e+03 -1.00e+00    1.0000 >    1.2595    0.1020    0.6097  736.4090 9822.5140   -1.1200    4.5420 340.23 340.2 104.4 10     0.0000    0.0252
M01          ?    BHN  e S      ? 20230825 2209   19.8364 GAU  2.17e-03 -1.00e+00  1.62e+03 -1.00e+00    1.0000 >    2.2033    0.2099    0.2403  736.4090 9822.5140   -1.1200    4.5420 340.23 340.2 100.8 10     0.0000    0.0441
M07          ?    BHZ  e P      d 20230825 2209   18.6984 GAU  1.61e-03 -1.00e+00 -1.00e+00 -1.00e+00    1.0000 >    1.2708    0.0043    1.5294  737.4430 9822.8030   -1.1120    4.5909 353.72 353.7 104.1 10     0.0000    0.0254
M07          ?    BHE  e S      ? 20230825 2209   19.6291 GAU  9.73e-04 -1.00e+00 -1.00e+00 -1.00e+00    1.0000 >    2.2232   -0.0174    1.2269  737.4430 9822.8030   -1.1120    4.5909 353.72 353.7 100.5 10     0.0000    0.0445
M12          ?    BHZ  e P      d 20230825 2209   18.8165 GAU  1.40e-03 -1.00e+00 -1.00e+00 -1.00e+00    1.0000 >    1.4254   -0.0322    1.2587  736.8520 9823.3800   -0.9890    5.2553 348.00 348.0 101.1 10     0.0000    0.0285
M12          ?    BHN  e S      ? 20230825 2209   19.8965 GAU  1.56e-03 -1.00e+00 -1.00e+00 -1.00e+00    1.0000 >    2.4937   -0.0204    1.1499  736.8520 9823.3800   -0.9890    5.2553 348.00 348.0  95.1  9     0.0000    0.0499
END_PHASE
END_NLLOC

