NLLOC "./loc/SEML.20230825.220523.grid0" "LOCATED" "Location completed."
PUBLIC_ID None
SIGNATURE "Arham Zakki Edelo - edelo.17034@mhs.its.ac.id   obs:./obs/2023_08.obs   NLLoc:v7.00.10(30Aug2020)   run:28Dec2023 20h09m54"
COMMENT "SEML"
GRID  2001 2001 1001  727 9811 -2  0.01 0.01 0.01 PROB_DENSITY
SEARCH OCTREE nInitial 4851 nEvaluated 20003 smallestNodeSide 0.014881/0.014881/0.014205 oct_tree_integral 2.262801e-02 scatter_volume 2.262801e-02
HYPOCENTER  x 739.039 y 9818.37 z 0.03125  OT 22.6505  ix -1 iy -1 iz -1 MAXIMUM_LIKELIHOOD
GEOGRAPHIC  OT 2023 08 25  22 05 22.650483  Lat 9818.366071 Long 739.038690 Depth 0.031250
QUALITY  Pmax 1.75953e+36 MFmin 44.4737 MFmax 57.4604 RMS 0.0111114 Nphs 12 Gap 330.926 Dist 1.04637 Mamp -9.90 0 Mdur -9.90 0
VPVSRATIO  VpVsRatio 1.7341  Npair 6  Diff 0.627676
STATISTICS  ExpectX 739.043195 Y 9818.360772 Z 0.027942  CovXX 0.0520089 XY 0.0159855 XZ -0.0169892 YY 0.0179327 YZ -0.00105639 ZZ 0.0302783 EllAz1  331.785 Dip1  -19.1001 Len1  0.18572 Az2  208.315 Dip2  -57.8753 Len2  0.294889 Len3  4.820003e-01
STAT_GEOG  ExpectLat 9818.360772 Long 739.043195 Depth 0.027942
TRANSFORM  NONE
QML_OriginQuality  assocPhCt 12  usedPhCt 12  assocStaCt -1  usedStaCt 6  depthPhCt -1  stdErr 0.0111114  azGap 330.926  secAzGap 330.926  gtLevel -  minDist 1.04637 maxDist 5.47002 medDist 2.53977
QML_OriginUncertainty  horUnc -1  minHorUnc 0.163395  maxHorUnc 0.366289  azMaxHorUnc 68.4128
QML_ConfidenceEllipsoid  semiMajorAxisLength 0.482  semiMinorAxisLength 0.18572  semiIntermediateAxisLength 0.294889  majorAxisPlunge -24.7819  majorAxisAzimuth 70.9846  majorAxisRotation 210.783
FOCALMECH  Hyp  9818.366071 739.038690 0.031250 Mech  0 0 0 mf  0 nObs -1
PHASE ID Ins Cmp On Pha  FM Date     HrMn   Sec     Err  ErrMag    Coda      Amp       Per       PriorWt  >   TTpred    Res       Weight    StaLoc(X  Y         Z)        SDist    SAzim  RAz  RDip RQual    Tcorr       TTerr
M06          ?    BHZ  i P      c 20230825 2205   23.2816 GAU  6.74e-04 -1.00e+00 -1.00e+00 -1.00e+00    1.0000 >    0.4746    0.1566    0.0016  738.3100 9819.1170   -1.3960    1.0464 315.86 315.9 142.3 10     0.0000    0.0095
M06          ?    BHE  i S      ? 20230825 2205   23.7705 GAU  2.92e-04 -1.00e+00 -1.00e+00 -1.00e+00    1.0000 >    0.8310    0.2890    0.0000  738.3100 9819.1170   -1.3960    1.0464 315.86 315.9 141.5 10     0.0000    0.0166
M11          ?    BHZ  e P      c 20230825 2205   23.3385 GAU  1.37e-03 -1.00e+00 -1.00e+00 -1.00e+00    1.0000 >    0.6896   -0.0016    1.5325  738.4670 9820.4900   -1.3120    2.1995 344.93 344.9 118.1 10     0.0000    0.0138
M11          ?    BHE  e S      ? 20230825 2205   23.8673 GAU  8.84e-04 -1.00e+00 -1.00e+00 -1.00e+00    1.0000 >    1.2095    0.0072    1.3041  738.4670 9820.4900   -1.3120    2.1995 344.93 344.9 115.7 10     0.0000    0.0242
M14          ?    BHZ  e P      c 20230825 2205   23.3618 GAU  8.70e-04 -1.00e+00 -1.00e+00 -1.00e+00    1.0000 >    0.7068    0.0045    1.5059  737.5530 9820.0110   -1.3980    2.2165 317.91 317.9 119.6 10     0.0000    0.0141
M14          ?    BHE  e S      ? 20230825 2205   23.8886 GAU  1.19e-03 -1.00e+00  4.03e+02 -1.00e+00    1.0000 >    1.2384   -0.0003    1.3198  737.5530 9820.0110   -1.3980    2.2165 317.91 317.9 117.4 10     0.0000    0.0248
M09          ?    BHZ  i P      c 20230825 2205   23.4721 GAU  8.98e-04 -1.00e+00  1.20e+02 -1.00e+00    1.0000 >    0.8403   -0.0187    1.1849  737.8820 9820.9850   -1.2700    2.8630 336.17 336.2 110.4 10     0.0000    0.0168
M09          ?    BHN  e S      ? 20230825 2205   24.1264 GAU  9.10e-04 -1.00e+00  4.73e+02 -1.00e+00    1.0000 >    1.4754    0.0005    1.2204  737.8820 9820.9850   -1.2700    2.8630 336.17 336.2 106.4 10     0.0000    0.0295
M07          ?    BHZ  i P      c 20230825 2205   23.9665 GAU  5.20e-04 -1.00e+00 -1.00e+00 -1.00e+00    1.0000 >    1.2871    0.0289    0.9327  737.4430 9822.8030   -1.1120    4.7151 340.22 340.2  98.9 10     0.0000    0.0257
M07          ?    BHN  e S      ? 20230825 2205   24.9187 GAU  7.80e-04 -1.00e+00 -1.00e+00 -1.00e+00    1.0000 >    2.2635    0.0047    0.9456  737.4430 9822.8030   -1.1120    4.7151 340.22 340.2  91.7  9     0.0000    0.0453
M12          ?    BHZ  e P      c 20230825 2205   24.1105 GAU  6.51e-04 -1.00e+00 -1.00e+00 -1.00e+00    1.0000 >    1.4686   -0.0086    1.1891  736.8520 9823.3800   -0.9890    5.4700 336.44 336.4  96.3 10     0.0000    0.0294
M12          ?    BHN  e S      ? 20230825 2205   25.2271 GAU  5.39e-04 -1.00e+00 -1.00e+00 -1.00e+00    1.0000 >    2.5792   -0.0025    0.8633  736.8520 9823.3800   -0.9890    5.4700 336.44 336.4  91.0  9     0.0000    0.0516
END_PHASE
END_NLLOC

