NLLOC "./loc/SEML.20230830.054751.grid0" "LOCATED" "Location completed."
PUBLIC_ID None
SIGNATURE "Arham Zakki Edelo - edelo.17034@mhs.its.ac.id   obs:./obs/2023_08.obs   NLLoc:v7.00.10(30Aug2020)   run:28Dec2023 20h10m07"
COMMENT "SEML"
GRID  2001 2001 1001  727 9811 -2  0.01 0.01 0.01 PROB_DENSITY
SEARCH OCTREE nInitial 4851 nEvaluated 20019 smallestNodeSide 0.014881/0.014881/0.014205 oct_tree_integral 2.687050e-02 scatter_volume 2.680854e-02
HYPOCENTER  x 739.329 y 9818.39 z -0.245739  OT 51.2068  ix -1 iy -1 iz -1 MAXIMUM_LIKELIHOOD
GEOGRAPHIC  OT 2023 08 30  05 47 51.206836  Lat 9818.388393 Long 739.328869 Depth -0.245739
QUALITY  Pmax 1.44387e+21 MFmin 30.3318 MFmax 44.3467 RMS 0.00802552 Nphs 8 Gap 327.868 Dist 1.25258 Mamp -9.90 0 Mdur -9.90 0
VPVSRATIO  VpVsRatio 1.74422  Npair 4  Diff 0.645287
STATISTICS  ExpectX 739.285679 Y 9818.413292 Z -0.312033  CovXX 0.162061 XY -0.0831997 XZ -0.0548144 YY 0.151199 YZ -0.0335959 ZZ 0.0953724 EllAz1  226.895 Dip1  -40.1784 Len1  0.270914 Az2  211.271 Dip2  48.7552 Len2  0.716666 Len3  9.249141e-01
STAT_GEOG  ExpectLat 9818.413292 Long 739.285679 Depth -0.312033
TRANSFORM  NONE
QML_OriginQuality  assocPhCt 8  usedPhCt 8  assocStaCt -1  usedStaCt 4  depthPhCt -1  stdErr 0.00802552  azGap 327.868  secAzGap 327.868  gtLevel -  minDist 1.25258 maxDist 4.80055 medDist 2.62199
QML_OriginUncertainty  horUnc -1  minHorUnc 0.410466  maxHorUnc 0.742977  azMaxHorUnc 133.133
QML_ConfidenceEllipsoid  semiMajorAxisLength 0.924914  semiMinorAxisLength 0.270914  semiIntermediateAxisLength 0.716666  majorAxisPlunge -7.79663  majorAxisAzimuth 130.255  majorAxisRotation 318.304
FOCALMECH  Hyp  9818.388393 739.328869 -0.245739 Mech  0 0 0 mf  0 nObs -1
PHASE ID Ins Cmp On Pha  FM Date     HrMn   Sec     Err  ErrMag    Coda      Amp       Per       PriorWt  >   TTpred    Res       Weight    StaLoc(X  Y         Z)        SDist    SAzim  RAz  RDip RQual    Tcorr       TTerr
M06          ?    BHZ  i P      c 20230830 0547   51.6627 GAU  7.37e-04 -1.00e+00 -1.00e+00 -1.00e+00    1.0000 >    0.4596   -0.0037    1.5693  738.3100 9819.1170   -1.3960    1.2526 305.57 305.6 129.8 10     0.0000    0.0092
M06          ?    BHN  e S      ? 20230830 0547   52.0174 GAU  2.17e-04 -1.00e+00 -1.00e+00 -1.00e+00    1.0000 >    0.8011    0.0095    1.5155  738.3100 9819.1170   -1.3960    1.2526 305.57 305.6 131.6 10     0.0000    0.0160
M11          ?    BHZ  e P      c 20230830 0547   51.8960 GAU  1.51e-03 -1.00e+00 -1.00e+00 -1.00e+00    1.0000 >    0.6770    0.0122    1.4713  738.4670 9820.4900   -1.3120    2.2715 337.70 337.7 110.1 10     0.0000    0.0135
M11          ?    BHN  e S      ? 20230830 0547   52.3803 GAU  6.05e-05 -1.00e+00 -1.00e+00 -1.00e+00    1.0000 >    1.1821   -0.0086    1.2602  738.4670 9820.4900   -1.3120    2.2715 337.70 337.7 113.6 10     0.0000    0.0236
M09          ?    BHZ  e P      c 20230830 0547   51.6957 GAU  3.97e-04 -1.00e+00  9.45e+01 -1.00e+00    1.0000 >    0.8465   -0.3576    0.0000  737.8820 9820.9850   -1.2700    2.9725 330.87 330.9 102.9 10     0.0000    0.0169
M09          ?    BHE  e S      ? 20230830 0547   52.0957 GAU  1.92e-04 -1.00e+00  3.80e+02 -1.00e+00    1.0000 >    1.4806   -0.5917    0.0000  737.8820 9820.9850   -1.2700    2.9725 330.87 330.9 107.1 10     0.0000    0.0296
M07          ?    BHZ  e P      d 20230830 0547   52.5065 GAU  1.71e-04 -1.00e+00 -1.00e+00 -1.00e+00    1.0000 >    1.3000   -0.0003    1.2940  737.4430 9822.8030   -1.1120    4.8005 336.87 336.9  95.0 10     0.0000    0.0260
M07          ?    BHN  e S      ? 20230830 0547   53.5065 GAU  2.32e-04 -1.00e+00 -1.00e+00 -1.00e+00    1.0000 >    2.2926    0.0071    0.8896  737.4430 9822.8030   -1.1120    4.8005 336.87 336.9  97.4 10     0.0000    0.0459
END_PHASE
END_NLLOC

