NLLOC "./loc/SEML.20230825.220242.grid0" "LOCATED" "Location completed."
PUBLIC_ID None
SIGNATURE "Arham Zakki Edelo - edelo.17034@mhs.its.ac.id   obs:./obs/2023_08.obs   NLLoc:v7.00.10(30Aug2020)   run:28Dec2023 20h09m49"
COMMENT "SEML"
GRID  2001 2001 1001  727 9811 -2  0.01 0.01 0.01 PROB_DENSITY
SEARCH OCTREE nInitial 4851 nEvaluated 20003 smallestNodeSide 0.014881/0.014881/0.014205 oct_tree_integral 6.560959e-02 scatter_volume 6.560959e-02
HYPOCENTER  x 738.563 y 9818.1 z -0.0255682  OT 42.2622  ix -1 iy -1 iz -1 MAXIMUM_LIKELIHOOD
GEOGRAPHIC  OT 2023 08 25  22 02 42.262208  Lat 9818.098214 Long 738.562500 Depth -0.025568
QUALITY  Pmax 1.35036e+42 MFmin 51.2055 MFmax 60.5283 RMS 0.0276116 Nphs 14 Gap 334.463 Dist 1.04961 Mamp -9.90 0 Mdur -9.90 0
VPVSRATIO  VpVsRatio 1.75  Npair 7  Diff 0.55801
STATISTICS  ExpectX 738.405262 Y 9818.141904 Z -0.209574  CovXX 1.00884 XY 0.215557 XZ 0.181394 YY 0.112221 YZ 0.00718999 ZZ 0.186532 EllAz1  163.864 Dip1  -17.9561 Len1  0.429595 Az2  197.818 Dip2  68.6598 Len2  0.756616 Len3  1.964376e+00
STAT_GEOG  ExpectLat 9818.141904 Long 738.405262 Depth -0.209574
TRANSFORM  NONE
QML_OriginQuality  assocPhCt 14  usedPhCt 14  assocStaCt -1  usedStaCt 7  depthPhCt -1  stdErr 0.0276116  azGap 334.463  secAzGap 334.463  gtLevel -  minDist 1.04961 maxDist 5.55185 medDist 2.96591
QML_OriginUncertainty  horUnc -1  minHorUnc 0.380931  maxHorUnc 1.55991  azMaxHorUnc 77.1604
QML_ConfidenceEllipsoid  semiMajorAxisLength 1.96438  semiMinorAxisLength 0.429595  semiIntermediateAxisLength 0.756616  majorAxisPlunge 11.1484  majorAxisAzimuth 77.5254  majorAxisRotation 340.316
FOCALMECH  Hyp  9818.098214 738.562500 -0.025568 Mech  0 0 0 mf  0 nObs -1
PHASE ID Ins Cmp On Pha  FM Date     HrMn   Sec     Err  ErrMag    Coda      Amp       Per       PriorWt  >   TTpred    Res       Weight    StaLoc(X  Y         Z)        SDist    SAzim  RAz  RDip RQual    Tcorr       TTerr
M06          ?    BHZ  i P      c 20230825 2202   42.9504 GAU  2.64e-03 -1.00e+00 -1.00e+00 -1.00e+00    1.0000 >    0.4635    0.2246    0.0000  738.3100 9819.1170   -1.3960    1.0496 346.08 346.1 141.1 10     0.0000    0.0093
M06          ?    BHE  e S      ? 20230825 2202   43.4866 GAU  3.13e-04 -1.00e+00 -1.00e+00 -1.00e+00    1.0000 >    0.8117    0.4127    0.0000  738.3100 9819.1170   -1.3960    1.0496 346.08 346.1 142.2 10     0.0000    0.0162
M14          ?    BHZ  e P      d 20230825 2202   42.9372 GAU  1.40e-03 -1.00e+00  6.51e+02 -1.00e+00    1.0000 >    0.6875   -0.0125    1.2612  737.5530 9820.0110   -1.3980    2.1628 332.18 332.2 119.2 10     0.0000    0.0137
M14          ?    BHE  e S      ? 20230825 2202   43.4895 GAU  3.73e-04 -1.00e+00  3.91e+02 -1.00e+00    1.0000 >    1.2046    0.0227    1.3927  737.5530 9820.0110   -1.3980    2.1628 332.18 332.2 121.4 10     0.0000    0.0241
M11          ?    BHZ  e P      c 20230825 2202   42.9889 GAU  2.47e-03 -1.00e+00 -1.00e+00 -1.00e+00    1.0000 >    0.7281   -0.0014    1.4778  738.4670 9820.4900   -1.3120    2.3937 357.71 357.7 114.8 10     0.0000    0.0146
M11          ?    BHE  e S      ? 20230825 2202   43.5443 GAU  3.74e-04 -1.00e+00 -1.00e+00 -1.00e+00    1.0000 >    1.2774    0.0046    1.4149  738.4670 9820.4900   -1.3120    2.3937 357.71 357.7 117.2 10     0.0000    0.0255
M09          ?    BHZ  e P      c 20230825 2202   43.1978 GAU  1.08e-03 -1.00e+00 -1.00e+00 -1.00e+00    1.0000 >    0.8605    0.0751    0.5081  737.8820 9820.9850   -1.2700    2.9659 346.74 346.7 108.7 10     0.0000    0.0172
M09          ?    BHN  e S      ? 20230825 2202   43.8323 GAU  2.26e-04 -1.00e+00  4.90e+02 -1.00e+00    1.0000 >    1.5115    0.0586    0.9013  737.8820 9820.9850   -1.2700    2.9659 346.74 346.7 111.4 10     0.0000    0.0302
M13          ?    BHZ  e P      d 20230825 2202   43.3374 GAU  8.11e-04 -1.00e+00  1.59e+02 -1.00e+00    1.0000 >    1.0406    0.0346    1.2482  737.1780 9821.5410   -1.2220    3.7107 338.09 338.1 103.4 10     0.0000    0.0208
M13          ?    BHE  e S      ? 20230825 2202   44.0682 GAU  9.88e-04 -1.00e+00 -1.00e+00 -1.00e+00    1.0000 >    1.8313   -0.0253    0.9342  737.1780 9821.5410   -1.2220    3.7107 338.09 338.1 106.3 10     0.0000    0.0366
M07          ?    BHZ  e P      d 20230825 2202   43.5877 GAU  9.06e-04 -1.00e+00 -1.00e+00 -1.00e+00    1.0000 >    1.3159    0.0097    1.4200  737.4430 9822.8030   -1.1120    4.8361 346.62 346.6  98.6 10     0.0000    0.0263
M07          ?    BHE  e S      ? 20230825 2202   44.5974 GAU  1.64e-04 -1.00e+00 -1.00e+00 -1.00e+00    1.0000 >    2.3205    0.0147    1.1457  737.4430 9822.8030   -1.1120    4.8361 346.62 346.6  72.9 10     0.0000    0.0464
M12          ?    BHZ  i P      c 20230825 2202   43.7791 GAU  1.40e-03 -1.00e+00 -1.00e+00 -1.00e+00    1.0000 >    1.4880    0.0289    1.2982  736.8520 9823.3800   -0.9890    5.5519 342.06 342.1  96.6 10     0.0000    0.0298
M12          ?    BHN  e S      ? 20230825 2202   44.8734 GAU  1.15e-03 -1.00e+00 -1.00e+00 -1.00e+00    1.0000 >    2.6189   -0.0077    0.9975  736.8520 9823.3800   -0.9890    5.5519 342.06 342.1  72.9 10     0.0000    0.0524
END_PHASE
END_NLLOC

