NLLOC "./loc/SEML.20230825.220320.grid0" "LOCATED" "Location completed."
PUBLIC_ID None
SIGNATURE "Arham Zakki Edelo - edelo.17034@mhs.its.ac.id   obs:./obs/2023_08.obs   NLLoc:v7.00.10(30Aug2020)   run:28Dec2023 20h09m51"
COMMENT "SEML"
GRID  2001 2001 1001  727 9811 -2  0.01 0.01 0.01 PROB_DENSITY
SEARCH OCTREE nInitial 4851 nEvaluated 20011 smallestNodeSide 0.029762/0.029762/0.028409 oct_tree_integral 9.056442e-02 scatter_volume 9.008753e-02
HYPOCENTER  x 739.351 y 9819.3 z -1.97159  OT 19.8784  ix -1 iy -1 iz -1 MAXIMUM_LIKELIHOOD
GEOGRAPHIC  OT 2023 08 25  22 03 19.878403  Lat 9819.303571 Long 739.351190 Depth -1.971591
QUALITY  Pmax 4.69546e+20 MFmin 35.1634 MFmax 48.2936 RMS 0.017963 Nphs 8 Gap 288.444 Dist 1.05777 Mamp -9.90 0 Mdur -9.90 0
VPVSRATIO  VpVsRatio 1.71423  Npair 4  Diff 0.527531
STATISTICS  ExpectX 739.126807 Y 9819.059693 Z -1.127624  CovXX 0.220871 XY 0.0938484 XZ -0.00779701 YY 0.073756 YZ 0.0472792 ZZ 0.433462 EllAz1  154.405 Dip1  6.39437 Len1  0.284484 Az2  244.902 Dip2  4.42347 Len2  0.96809 Len3  1.245804e+00
STAT_GEOG  ExpectLat 9819.059693 Long 739.126807 Depth -1.127624
TRANSFORM  NONE
QML_OriginQuality  assocPhCt 8  usedPhCt 8  assocStaCt -1  usedStaCt 4  depthPhCt -1  stdErr 0.017963  azGap 288.444  secAzGap 288.444  gtLevel -  minDist 1.05777 maxDist 3.98587 medDist 1.85627
QML_OriginUncertainty  horUnc -1  minHorUnc 0.254103  maxHorUnc 0.78299  azMaxHorUnc 64.0445
QML_ConfidenceEllipsoid  semiMajorAxisLength 1.2458  semiMinorAxisLength 0.284484  semiIntermediateAxisLength 0.96809  majorAxisPlunge -82.2142  majorAxisAzimuth 189.358  majorAxisRotation 236.292
FOCALMECH  Hyp  9819.303571 739.351190 -1.971591 Mech  0 0 0 mf  0 nObs -1
PHASE ID Ins Cmp On Pha  FM Date     HrMn   Sec     Err  ErrMag    Coda      Amp       Per       PriorWt  >   TTpred    Res       Weight    StaLoc(X  Y         Z)        SDist    SAzim  RAz  RDip RQual    Tcorr       TTerr
M06          ?    BHZ  i P      c 20230825 2203   20.2105 GAU  9.73e-04 -1.00e+00 -1.00e+00 -1.00e+00    1.0000 >    0.3311    0.0010    1.8962  738.3100 9819.1170   -1.3960    1.0578 259.84 259.8  61.6 10     0.0000    0.0066
M06          ?    BHE  e S      ? 20230825 2203   20.5682 GAU  5.84e-04 -1.00e+00 -1.00e+00 -1.00e+00    1.0000 >    0.5711    0.1187    0.0810  738.3100 9819.1170   -1.3960    1.0578 259.84 259.8  61.6 10     0.0000    0.0114
M11          ?    BHZ  e P      c 20230825 2203   20.3193 GAU  1.03e-03 -1.00e+00 -1.00e+00 -1.00e+00    1.0000 >    0.4455   -0.0046    1.7899  738.4670 9820.4900   -1.3120    1.4797 323.30 323.3  66.0 10     0.0000    0.0089
M11          ?    BHN  e S      ? 20230825 2203   20.6546 GAU  2.41e-04 -1.00e+00 -1.00e+00 -1.00e+00    1.0000 >    0.7685    0.0078    1.5256  738.4670 9820.4900   -1.3120    1.4797 323.30 323.3  66.0 10     0.0000    0.0154
M09          ?    BHZ  e P      c 20230825 2203   20.4514 GAU  9.98e-04 -1.00e+00  6.16e+01 -1.00e+00    1.0000 >    0.6435   -0.0705    0.0987  737.8820 9820.9850   -1.2700    2.2329 318.85 318.9  72.5 10     0.0000    0.0129
M09          ?    BHE  e S      ? 20230825 2203   20.9604 GAU  1.39e-04 -1.00e+00  3.47e+02 -1.00e+00    1.0000 >    1.1102   -0.0282    0.8377  737.8820 9820.9850   -1.2700    2.2329 318.85 318.9  72.5 10     0.0000    0.0222
M07          ?    BHZ  e P      c 20230825 2203   21.0093 GAU  4.33e-04 -1.00e+00 -1.00e+00 -1.00e+00    1.0000 >    1.1210    0.0100    1.3029  737.4430 9822.8030   -1.1120    3.9859 331.40 331.4  77.7 10     0.0000    0.0224
M07          ?    BHN  e S      ? 20230825 2203   21.8722 GAU  1.10e-04 -1.00e+00 -1.00e+00 -1.00e+00    1.0000 >    1.9338    0.0600    0.4681  737.4430 9822.8030   -1.1120    3.9859 331.40 331.4  77.7 10     0.0000    0.0387
END_PHASE
END_NLLOC

