NLLOC "./loc/SEML.20230825.220951.grid0" "LOCATED" "Location completed."
PUBLIC_ID None
SIGNATURE "Arham Zakki Edelo - edelo.17034@mhs.its.ac.id   obs:./obs/2023_08.obs   NLLoc:v7.00.10(30Aug2020)   run:28Dec2023 20h09m59"
COMMENT "SEML"
GRID  2001 2001 1001  727 9811 -2  0.01 0.01 0.01 PROB_DENSITY
SEARCH OCTREE nInitial 4851 nEvaluated 20019 smallestNodeSide 0.029762/0.029762/0.028409 oct_tree_integral 1.566422e-01 scatter_volume 1.554472e-01
HYPOCENTER  x 741.107 y 9820.11 z -1.375  OT 50.9788  ix -1 iy -1 iz -1 MAXIMUM_LIKELIHOOD
GEOGRAPHIC  OT 2023 08 25  22 09 50.978840  Lat 9820.107143 Long 741.107143 Depth -1.375000
QUALITY  Pmax 1.20286e+21 MFmin 28.1965 MFmax 36.5157 RMS 0.0143987 Nphs 8 Gap 304.163 Dist 2.66776 Mamp -9.90 0 Mdur -9.90 0
VPVSRATIO  VpVsRatio 1.76813  Npair 4  Diff 0.456276
STATISTICS  ExpectX 740.635303 Y 9819.325252 Z -1.035476  CovXX 0.215298 XY 0.264427 XZ -0.146768 YY 0.43163 YZ -0.144932 ZZ 0.305008 EllAz1  119.879 Dip1  11.3028 Len1  0.322921 Az2  189 Dip2  -60.7161 Len2  0.864781 Len3  1.583733e+00
STAT_GEOG  ExpectLat 9819.325252 Long 740.635303 Depth -1.035476
TRANSFORM  NONE
QML_OriginQuality  assocPhCt 8  usedPhCt 8  assocStaCt -1  usedStaCt 4  depthPhCt -1  stdErr 0.0143987  azGap 304.163  secAzGap 304.163  gtLevel -  minDist 2.66776 maxDist 4.54902 medDist 3.15485
QML_OriginUncertainty  horUnc -1  minHorUnc 0.294734  maxHorUnc 1.18367  azMaxHorUnc 33.8763
QML_ConfidenceEllipsoid  semiMajorAxisLength 1.58373  semiMinorAxisLength 0.322921  semiIntermediateAxisLength 0.864781  majorAxisPlunge -26.6253  majorAxisAzimuth 35.6299  majorAxisRotation 20.5847
FOCALMECH  Hyp  9820.107143 741.107143 -1.375000 Mech  0 0 0 mf  0 nObs -1
PHASE ID Ins Cmp On Pha  FM Date     HrMn   Sec     Err  ErrMag    Coda      Amp       Per       PriorWt  >   TTpred    Res       Weight    StaLoc(X  Y         Z)        SDist    SAzim  RAz  RDip RQual    Tcorr       TTerr
M11          ?    BHZ  e P      c 20230825 2209   51.7005 GAU  7.49e-04 -1.00e+00 -1.00e+00 -1.00e+00    1.0000 >    0.7332   -0.0115    1.3321  738.4670 9820.4900   -1.3120    2.6678 278.25 278.3  88.4  9     0.0000    0.0147
M11          ?    BHE  e S      ? 20230825 2209   52.2426 GAU  2.72e-04 -1.00e+00 -1.00e+00 -1.00e+00    1.0000 >    1.2648   -0.0011    1.3029  738.4670 9820.4900   -1.3120    2.6678 278.25 278.3  88.4  9     0.0000    0.0253
M06          ?    BHZ  i P      c 20230825 2209   51.7985 GAU  2.71e-04 -1.00e+00 -1.00e+00 -1.00e+00    1.0000 >    0.8152    0.0045    1.4855  738.3100 9819.1170   -1.3960    2.9672 250.51 250.5  90.6  9     0.0000    0.0163
M06          ?    BHE  e S      ? 20230825 2209   52.3865 GAU  5.04e-05 -1.00e+00 -1.00e+00 -1.00e+00    1.0000 >    1.4063    0.0014    1.2422  738.3100 9819.1170   -1.3960    2.9672 250.51 250.5  90.6  9     0.0000    0.0281
M09          ?    BHZ  e P      c 20230825 2209   51.9069 GAU  1.11e-03 -1.00e+00 -1.00e+00 -1.00e+00    1.0000 >    0.9188    0.0093    1.3907  737.8820 9820.9850   -1.2700    3.3425 285.23 285.2  88.0  9     0.0000    0.0184
M09          ?    BHE  e S      ? 20230825 2209   52.5730 GAU  3.91e-04 -1.00e+00  3.48e+02 -1.00e+00    1.0000 >    1.5851    0.0091    1.1448  737.8820 9820.9850   -1.2700    3.3425 285.23 285.2  88.0  9     0.0000    0.0317
M07          ?    BHZ  e P      c 20230825 2209   52.3329 GAU  1.88e-04 -1.00e+00 -1.00e+00 -1.00e+00    1.0000 >    1.2521    0.1020    0.0660  737.4430 9822.8030   -1.1120    4.5490 306.34 306.3  86.5 10     0.0000    0.0250
M07          ?    BHE  e S      ? 20230825 2209   53.3312 GAU  2.10e-04 -1.00e+00 -1.00e+00 -1.00e+00    1.0000 >    2.1600    0.1924    0.0357  737.4430 9822.8030   -1.1120    4.5490 306.34 306.3  86.5 10     0.0000    0.0432
END_PHASE
END_NLLOC

