NLLOC "./loc/SEML.20230829.181351.grid0" "LOCATED" "Location completed."
PUBLIC_ID None
SIGNATURE "Arham Zakki Edelo - edelo.17034@mhs.its.ac.id   obs:./obs/2023_08.obs   NLLoc:v7.00.10(30Aug2020)   run:28Dec2023 20h10m02"
COMMENT "SEML"
GRID  2001 2001 1001  727 9811 -2  0.01 0.01 0.01 PROB_DENSITY
SEARCH OCTREE nInitial 4851 nEvaluated 20003 smallestNodeSide 0.014881/0.014881/0.014205 oct_tree_integral 1.154639e-02 scatter_volume 1.150185e-02
HYPOCENTER  x 737.424 y 9818.45 z 0.933239  OT 50.7382  ix -1 iy -1 iz -1 MAXIMUM_LIKELIHOOD
GEOGRAPHIC  OT 2023 08 29  18 13 50.738221  Lat 9818.447917 Long 737.424107 Depth 0.933239
QUALITY  Pmax 2.1135e+61 MFmin 65.5479 MFmax 78.6119 RMS 0.0206559 Nphs 18 Gap 287.603 Dist 0.852799 Mamp -9.90 0 Mdur -9.90 0
VPVSRATIO  VpVsRatio 1.67266  Npair 9  Diff 0.568043
STATISTICS  ExpectX 737.439355 Y 9818.441006 Z 0.928907  CovXX 0.01252 XY 0.000302532 XZ 0.00263628 YY 0.0086612 YZ -0.00339479 ZZ 0.010064 EllAz1  158.809 Dip1  -41.1877 Len1  0.137525 Az2  225.606 Dip2  24.2397 Len2  0.198437 Len3  2.280468e-01
STAT_GEOG  ExpectLat 9818.441006 Long 737.439355 Depth 0.928907
TRANSFORM  NONE
QML_OriginQuality  assocPhCt 18  usedPhCt 18  assocStaCt -1  usedStaCt 9  depthPhCt -1  stdErr 0.0206559  azGap 287.603  secAzGap 287.603  gtLevel -  minDist 0.852799 maxDist 4.96515 medDist 2.57807
QML_OriginUncertainty  horUnc -1  minHorUnc 0.140949  maxHorUnc 0.169854  azMaxHorUnc 85.5443
QML_ConfidenceEllipsoid  semiMajorAxisLength 0.228047  semiMinorAxisLength 0.137525  semiIntermediateAxisLength 0.198437  majorAxisPlunge 39.1019  majorAxisAzimuth 114.141  majorAxisRotation 277.263
FOCALMECH  Hyp  9818.447917 737.424107 0.933239 Mech  0 0 0 mf  0 nObs -1
PHASE ID Ins Cmp On Pha  FM Date     HrMn   Sec     Err  ErrMag    Coda      Amp       Per       PriorWt  >   TTpred    Res       Weight    StaLoc(X  Y         Z)        SDist    SAzim  RAz  RDip RQual    Tcorr       TTerr
M04          ?    BHZ  e P      c 20230829 1813   51.4394 GAU  1.37e-03 -1.00e+00 -1.00e+00 -1.00e+00    1.0000 >    0.7004    0.0008    1.4409  737.1400 9819.2520   -1.5710    0.8528 340.54 340.5 160.5 10     0.0000    0.0140
M04          ?    BHN  e S      ? 20230829 1813   51.9381 GAU  5.24e-04 -1.00e+00  7.83e+02 -1.00e+00    1.0000 >    1.2035   -0.0037    1.2421  737.1400 9819.2520   -1.5710    0.8528 340.54 340.5 159.1 10     0.0000    0.0241
M06          ?    BHZ  i P      c 20230829 1813   51.4210 GAU  1.04e-03 -1.00e+00 -1.00e+00 -1.00e+00    1.0000 >    0.6812    0.0016    1.4471  738.3100 9819.1170   -1.3960    1.1102  52.94  52.9 153.7 10     0.0000    0.0136
M06          ?    BHE  e S      ? 20230829 1813   51.9360 GAU  9.39e-04 -1.00e+00 -1.00e+00 -1.00e+00    1.0000 >    1.1701    0.0277    1.0732  738.3100 9819.1170   -1.3960    1.1102  52.94  52.9 151.7 10     0.0000    0.0234
M14          ?    BHZ  e P      c 20230829 1813   51.5262 GAU  2.05e-03 -1.00e+00 -1.00e+00 -1.00e+00    1.0000 >    0.7415    0.0465    0.6622  737.5530 9820.0110   -1.3980    1.5684   4.71   4.7 145.0 10     0.0000    0.0148
M14          ?    BHN  i S      ? 20230829 1813   52.0165 GAU  1.19e-03 -1.00e+00  3.81e+02 -1.00e+00    1.0000 >    1.2735    0.0049    1.2494  737.5530 9820.0110   -1.3980    1.5684   4.71   4.7 142.2 10     0.0000    0.0255
M11          ?    BHZ  e P      c 20230829 1813   51.5710 GAU  8.36e-04 -1.00e+00 -1.00e+00 -1.00e+00    1.0000 >    0.8451   -0.0124    1.2327  738.4670 9820.4900   -1.3120    2.2930  27.05  27.1 132.7 10     0.0000    0.0169
M11          ?    BHN  e S      ? 20230829 1813   52.1953 GAU  1.61e-04 -1.00e+00 -1.00e+00 -1.00e+00    1.0000 >    1.4502    0.0069    1.1873  738.4670 9820.4900   -1.3120    2.2930  27.05  27.1 128.5 10     0.0000    0.0290
M09          ?    BHZ  i P      c 20230829 1813   51.6171 GAU  9.88e-04 -1.00e+00  8.90e+01 -1.00e+00    1.0000 >    0.8923   -0.0134    1.1997  737.8820 9820.9850   -1.2700    2.5781  10.23  10.2 128.6 10     0.0000    0.0178
M09          ?    BHN  e S      ? 20230829 1813   52.2927 GAU  1.45e-04 -1.00e+00  4.66e+02 -1.00e+00    1.0000 >    1.5303    0.0242    1.0646  737.8820 9820.9850   -1.2700    2.5781  10.23  10.2 123.7 10     0.0000    0.0306
M13          ?    BHZ  i P      c 20230829 1813   51.7200 GAU  8.98e-04 -1.00e+00 -1.00e+00 -1.00e+00    1.0000 >    0.9931   -0.0113    1.2159  737.1780 9821.5410   -1.2220    3.1029 355.45 355.5 122.5 10     0.0000    0.0199
M13          ?    BHN  e S      ? 20230829 1813   52.3936 GAU  2.36e-04 -1.00e+00 -1.00e+00 -1.00e+00    1.0000 >    1.7014   -0.0460    0.5388  737.1780 9821.5410   -1.2220    3.1029 355.45 355.5 116.6 10     0.0000    0.0340
M05          ?    BHZ  e P      d 20230829 1813   51.9008 GAU  7.55e-04 -1.00e+00  3.06e+02 -1.00e+00    1.0000 >    1.1407    0.0218    1.1652  736.2660 9822.0830   -1.1500    3.8151 342.33 342.3 116.0 10     0.0000    0.0228
M05          ?    BHN  e S      ? 20230829 1813   52.7207 GAU  1.15e-03 -1.00e+00  2.65e+02 -1.00e+00    1.0000 >    1.9502    0.0322    0.9115  736.2660 9822.0830   -1.1500    3.8151 342.33 342.3 109.0 10     0.0000    0.0390
M07          ?    BHZ  e P      d 20230829 1813   52.0118 GAU  3.61e-04 -1.00e+00 -1.00e+00 -1.00e+00    1.0000 >    1.2613    0.0123    1.2321  737.4430 9822.8030   -1.1120    4.3551   0.25   0.2 112.4 10     0.0000    0.0252
M07          ?    BHN  e S      ? 20230829 1813   52.9098 GAU  2.09e-04 -1.00e+00 -1.00e+00 -1.00e+00    1.0000 >    2.1521    0.0195    0.9496  737.4430 9822.8030   -1.1120    4.3551   0.25   0.2 104.8 10     0.0000    0.0430
M12          ?    BHZ  i P      c 20230829 1813   52.2281 GAU  3.47e-04 -1.00e+00 -1.00e+00 -1.00e+00    1.0000 >    1.3915    0.0983    0.1584  736.8520 9823.3800   -0.9890    4.9652 353.38 353.4 108.3 10     0.0000    0.0278
M12          ?    BHE  e S      ? 20230829 1813   53.2864 GAU  5.42e-04 -1.00e+00  4.15e+01 -1.00e+00    1.0000 >    2.3652    0.1831    0.0293  736.8520 9823.3800   -0.9890    4.9652 353.38 353.4 100.5  9     0.0000    0.0473
END_PHASE
END_NLLOC

