NLLOC "./loc/SEML.20230830.055028.grid0" "LOCATED" "Location completed."
PUBLIC_ID None
SIGNATURE "Arham Zakki Edelo - edelo.17034@mhs.its.ac.id   obs:./obs/2023_08.obs   NLLoc:v7.00.10(30Aug2020)   run:28Dec2023 20h10m08"
COMMENT "SEML"
GRID  2001 2001 1001  727 9811 -2  0.01 0.01 0.01 PROB_DENSITY
SEARCH OCTREE nInitial 4851 nEvaluated 20027 smallestNodeSide 0.007440/0.007440/0.007102 oct_tree_integral 8.414381e-03 scatter_volume 8.414381e-03
HYPOCENTER  x 738.879 y 9818.79 z 0.46804  OT 28.2529  ix -1 iy -1 iz -1 MAXIMUM_LIKELIHOOD
GEOGRAPHIC  OT 2023 08 30  05 50 28.252857  Lat 9818.786458 Long 738.878720 Depth 0.468040
QUALITY  Pmax 3.67746e+42 MFmin 53.1855 MFmax 69.3984 RMS 0.0371141 Nphs 14 Gap 313.752 Dist 0.6578 Mamp -9.90 0 Mdur -9.90 0
VPVSRATIO  VpVsRatio 1.77773  Npair 7  Diff 0.529787
STATISTICS  ExpectX 738.428625 Y 9818.699646 Z 0.350900  CovXX 0.630783 XY 0.090663 XZ 0.176273 YY 0.0283679 YZ 0.037577 ZZ 0.0836856 EllAz1  179.565 Dip1  25.9904 Len1  0.181758 Az2  322.599 Dip2  58.6097 Len2  0.359302 Len3  1.568464e+00
STAT_GEOG  ExpectLat 9818.699646 Long 738.428625 Depth 0.350900
TRANSFORM  NONE
QML_OriginQuality  assocPhCt 14  usedPhCt 14  assocStaCt -1  usedStaCt 7  depthPhCt -1  stdErr 0.0371141  azGap 313.752  secAzGap 313.752  gtLevel -  minDist 0.6578 maxDist 4.26543 medDist 2.41393
QML_OriginUncertainty  horUnc -1  minHorUnc 0.185859  maxHorUnc 1.21717  azMaxHorUnc 81.6241
QML_ConfidenceEllipsoid  semiMajorAxisLength 1.56846  semiMinorAxisLength 0.181758  semiIntermediateAxisLength 0.359302  majorAxisPlunge 16.3519  majorAxisAzimuth 81.3406  majorAxisRotation 31.386
FOCALMECH  Hyp  9818.786458 738.878720 0.468040 Mech  0 0 0 mf  0 nObs -1
PHASE ID Ins Cmp On Pha  FM Date     HrMn   Sec     Err  ErrMag    Coda      Amp       Per       PriorWt  >   TTpred    Res       Weight    StaLoc(X  Y         Z)        SDist    SAzim  RAz  RDip RQual    Tcorr       TTerr
M06          ?    BHZ  i P      c 20230830 0550   28.7781 GAU  6.07e-04 -1.00e+00 -1.00e+00 -1.00e+00    1.0000 >    0.5258   -0.0006    1.7450  738.3100 9819.1170   -1.3960    0.6578 300.17 300.2 159.9 10     0.0000    0.0105
M06          ?    BHN  e S      ? 20230830 0550   29.1757 GAU  1.67e-03 -1.00e+00 -1.00e+00 -1.00e+00    1.0000 >    0.9170    0.0058    1.5208  738.3100 9819.1170   -1.3960    0.6578 300.17 300.2 159.7 10     0.0000    0.0183
M11          ?    BHZ  i P      c 20230830 0550   28.9242 GAU  3.84e-03 -1.00e+00 -1.00e+00 -1.00e+00    1.0000 >    0.6628    0.0086    1.5662  738.4670 9820.4900   -1.3120    1.7526 346.41 346.4 134.0 10     0.0000    0.0133
M11          ?    BHN  e S      ? 20230830 0550   29.4096 GAU  1.16e-03 -1.00e+00 -1.00e+00 -1.00e+00    1.0000 >    1.1565    0.0003    1.4248  738.4670 9820.4900   -1.3120    1.7526 346.41 346.4 133.2 10     0.0000    0.0231
M14          ?    BHZ  e P      c 20230830 0550   28.8073 GAU  6.74e-04 -1.00e+00 -1.00e+00 -1.00e+00    1.0000 >    0.6899   -0.1354    0.1774  737.5530 9820.0110   -1.3980    1.8047 312.73 312.7 134.5 10     0.0000    0.0138
M14          ?    BHN  e S      ? 20230830 0550   29.2481 GAU  1.83e-03 -1.00e+00  2.87e+02 -1.00e+00    1.0000 >    1.2031   -0.2079    0.1436  737.5530 9820.0110   -1.3980    1.8047 312.73 312.7 133.7 10     0.0000    0.0241
M09          ?    BHZ  i P      c 20230830 0550   29.0260 GAU  1.09e-04 -1.00e+00  4.78e+01 -1.00e+00    1.0000 >    0.7885   -0.0154    1.3554  737.8820 9820.9850   -1.2700    2.4139 335.61 335.6 123.7 10     0.0000    0.0158
M09          ?    BHE  e S      ? 20230830 0550   29.6213 GAU  8.74e-04 -1.00e+00  3.71e+02 -1.00e+00    1.0000 >    1.3763   -0.0078    1.2739  737.8820 9820.9850   -1.2700    2.4139 335.61 335.6 122.4 10     0.0000    0.0275
M13          ?    BHZ  e P      c 20230830 0550   29.0653 GAU  2.09e-04 -1.00e+00 -1.00e+00 -1.00e+00    1.0000 >    0.9668   -0.1543    0.2200  737.1780 9821.5410   -1.2220    3.2373 328.31 328.3 115.1 10     0.0000    0.0193
M13          ?    BHE  e S      ? 20230830 0550   29.7006 GAU  6.86e-04 -1.00e+00 -1.00e+00 -1.00e+00    1.0000 >    1.6880   -0.2403    0.1123  737.1780 9821.5410   -1.2220    3.2373 328.31 328.3 113.3 10     0.0000    0.0338
M05          ?    BHZ  e P      c 20230830 0550   29.4384 GAU  7.58e-04 -1.00e+00 -1.00e+00 -1.00e+00    1.0000 >    1.1903   -0.0048    1.3913  736.2660 9822.0830   -1.1500    4.2064 321.60 321.6 108.3 10     0.0000    0.0238
M05          ?    BHN  e S      ? 20230830 0550   30.3610 GAU  1.40e-04 -1.00e+00  3.02e+02 -1.00e+00    1.0000 >    2.0785    0.0296    0.8342  736.2660 9822.0830   -1.1500    4.2064 321.60 321.6  88.8  9     0.0000    0.0416
M07          ?    BHZ  e P      d 20230830 0550   29.4454 GAU  2.72e-04 -1.00e+00 -1.00e+00 -1.00e+00    1.0000 >    1.2002   -0.0077    1.3617  737.4430 9822.8030   -1.1120    4.2654 340.33 340.3 107.7 10     0.0000    0.0240
M07          ?    BHN  e S      ? 20230830 0550   30.3728 GAU  3.71e-04 -1.00e+00 -1.00e+00 -1.00e+00    1.0000 >    2.0943    0.0256    0.8733  737.4430 9822.8030   -1.1120    4.2654 340.33 340.3  72.5  9     0.0000    0.0419
END_PHASE
END_NLLOC

