NLLOC "./loc/SEML.20230825.220328.grid0" "LOCATED" "Location completed."
PUBLIC_ID None
SIGNATURE "Arham Zakki Edelo - edelo.17034@mhs.its.ac.id   obs:./obs/2023_08.obs   NLLoc:v7.00.10(30Aug2020)   run:28Dec2023 20h09m51"
COMMENT "SEML"
GRID  2001 2001 1001  727 9811 -2  0.01 0.01 0.01 PROB_DENSITY
SEARCH OCTREE nInitial 4851 nEvaluated 20019 smallestNodeSide 0.029762/0.029762/0.028409 oct_tree_integral 9.471446e-02 scatter_volume 9.471446e-02
HYPOCENTER  x 740.408 y 9818.93 z -1.9858  OT 27.5052  ix -1 iy -1 iz -1 MAXIMUM_LIKELIHOOD
GEOGRAPHIC  OT 2023 08 25  22 03 27.505235  Lat 9818.931548 Long 740.407738 Depth -1.985795
QUALITY  Pmax 1.95463e+22 MFmin 28.9543 MFmax 40.1457 RMS 0.0146066 Nphs 8 Gap 312.497 Dist 2.10592 Mamp -9.90 0 Mdur -9.90 0
VPVSRATIO  VpVsRatio 1.75789  Npair 4  Diff 0.536968
STATISTICS  ExpectX 740.221476 Y 9818.811300 Z -0.963877  CovXX 0.133462 XY 0.0456922 XZ -0.127596 YY 0.0319837 YZ -0.0403975 ZZ 0.36796 EllAz1  336.991 Dip1  -2.05413 Len1  0.223529 Az2  246.017 Dip2  -25.3753 Len2  0.555926 Len3  1.234464e+00
STAT_GEOG  ExpectLat 9818.811300 Long 740.221476 Depth -0.963877
TRANSFORM  NONE
QML_OriginQuality  assocPhCt 8  usedPhCt 8  assocStaCt -1  usedStaCt 4  depthPhCt -1  stdErr 0.0146066  azGap 312.497  secAzGap 312.497  gtLevel -  minDist 2.10592 maxDist 4.87625 medDist 2.87209
QML_OriginUncertainty  horUnc -1  minHorUnc 0.182255  maxHorUnc 0.589328  azMaxHorUnc 68.9979
QML_ConfidenceEllipsoid  semiMajorAxisLength 1.23446  semiMinorAxisLength 0.223529  semiIntermediateAxisLength 0.555926  majorAxisPlunge -64.5298  majorAxisAzimuth 71.3096  majorAxisRotation 172.439
FOCALMECH  Hyp  9818.931548 740.407738 -1.985795 Mech  0 0 0 mf  0 nObs -1
PHASE ID Ins Cmp On Pha  FM Date     HrMn   Sec     Err  ErrMag    Coda      Amp       Per       PriorWt  >   TTpred    Res       Weight    StaLoc(X  Y         Z)        SDist    SAzim  RAz  RDip RQual    Tcorr       TTerr
M06          ?    BHZ  i P      c 20230825 2203   28.1009 GAU  7.36e-04 -1.00e+00 -1.00e+00 -1.00e+00    1.0000 >    0.6012   -0.0055    1.2343  738.3100 9819.1170   -1.3960    2.1059 275.05 275.1  74.3 10     0.0000    0.0120
M06          ?    BHN  e S      ? 20230825 2203   28.5555 GAU  1.55e-03 -1.00e+00 -1.00e+00 -1.00e+00    1.0000 >    1.0372    0.0131    1.1342  738.3100 9819.1170   -1.3960    2.1059 275.05 275.1  74.3 10     0.0000    0.0207
M11          ?    BHZ  e P      c 20230825 2203   28.2314 GAU  6.07e-04 -1.00e+00 -1.00e+00 -1.00e+00    1.0000 >    0.7089    0.0172    1.0925  738.4670 9820.4900   -1.3120    2.4890 308.77 308.8  74.8 10     0.0000    0.0142
M11          ?    BHN  e S      ? 20230825 2203   28.7314 GAU  1.26e-03 -1.00e+00 -1.00e+00 -1.00e+00    1.0000 >    1.2230    0.0032    1.1421  738.4670 9820.4900   -1.3120    2.4890 308.77 308.8  74.8 10     0.0000    0.0245
M09          ?    BHZ  e P      c 20230825 2203   28.4089 GAU  5.34e-04 -1.00e+00 -1.00e+00 -1.00e+00    1.0000 >    0.9162   -0.0126    1.0854  737.8820 9820.9850   -1.2700    3.2552 309.11 309.1  77.5 10     0.0000    0.0183
M09          ?    BHE  e S      ? 20230825 2203   29.0415 GAU  4.89e-04 -1.00e+00  3.50e+02 -1.00e+00    1.0000 >    1.5805   -0.0443    0.5040  737.8820 9820.9850   -1.2700    3.2552 309.11 309.1  77.5 10     0.0000    0.0316
M07          ?    BHZ  e P      d 20230825 2203   28.8798 GAU  1.86e-03 -1.00e+00 -1.00e+00 -1.00e+00    1.0000 >    1.3617    0.0129    1.0431  737.4430 9822.8030   -1.1120    4.8763 322.56 322.6  79.7 10     0.0000    0.0272
M07          ?    BHN  e S      ? 20230825 2203   29.8714 GAU  2.41e-04 -1.00e+00 -1.00e+00 -1.00e+00    1.0000 >    2.3491    0.0171    0.7644  737.4430 9822.8030   -1.1120    4.8763 322.56 322.6  79.7 10     0.0000    0.0470
END_PHASE
END_NLLOC

