NLLOC "./loc/SEML.20230825.220443.grid0" "LOCATED" "Location completed."
PUBLIC_ID None
SIGNATURE "Arham Zakki Edelo - edelo.17034@mhs.its.ac.id   obs:./obs/2023_08.obs   NLLoc:v7.00.10(30Aug2020)   run:28Dec2023 20h09m54"
COMMENT "SEML"
GRID  2001 2001 1001  727 9811 -2  0.01 0.01 0.01 PROB_DENSITY
SEARCH OCTREE nInitial 4851 nEvaluated 20003 smallestNodeSide 0.029762/0.029762/0.028409 oct_tree_integral 9.894417e-02 scatter_volume 9.894417e-02
HYPOCENTER  x 738.28 y 9818.41 z 1.49432  OT 42.7399  ix -1 iy -1 iz -1 MAXIMUM_LIKELIHOOD
GEOGRAPHIC  OT 2023 08 25  22 04 42.739926  Lat 9818.410714 Long 738.279762 Depth 1.494318
QUALITY  Pmax 2.53405e+42 MFmin 48.0677 MFmax 59.5391 RMS 0.0246781 Nphs 14 Gap 330.429 Dist 0.706933 Mamp -9.90 0 Mdur -9.90 0
VPVSRATIO  VpVsRatio 1.88023  Npair 7  Diff 0.588966
STATISTICS  ExpectX 737.927551 Y 9818.299928 Z 1.151371  CovXX 0.21937 XY 0.0567294 XZ 0.128819 YY 0.0380831 YZ 0.0501982 ZZ 0.167944 EllAz1  171.491 Dip1  11.6165 Len1  0.260078 Az2  275.42 Dip2  49.5022 Len2  0.469599 Len3  1.101584e+00
STAT_GEOG  ExpectLat 9818.299928 Long 737.927551 Depth 1.151371
TRANSFORM  NONE
QML_OriginQuality  assocPhCt 14  usedPhCt 14  assocStaCt -1  usedStaCt 7  depthPhCt -1  stdErr 0.0246781  azGap 330.429  secAzGap 330.429  gtLevel -  minDist 0.706933 maxDist 5.17033 medDist 2.60483
QML_OriginUncertainty  horUnc -1  minHorUnc 0.223891  maxHorUnc 0.736217  azMaxHorUnc 73.9798
QML_ConfidenceEllipsoid  semiMajorAxisLength 1.10158  semiMinorAxisLength 0.260078  semiIntermediateAxisLength 0.469599  majorAxisPlunge 38.1275  majorAxisAzimuth 72.206  majorAxisRotation 48.0983
FOCALMECH  Hyp  9818.410714 738.279762 1.494318 Mech  0 0 0 mf  0 nObs -1
PHASE ID Ins Cmp On Pha  FM Date     HrMn   Sec     Err  ErrMag    Coda      Amp       Per       PriorWt  >   TTpred    Res       Weight    StaLoc(X  Y         Z)        SDist    SAzim  RAz  RDip RQual    Tcorr       TTerr
M06          ?    BHZ  i P      c 20230825 2204   43.5037 GAU  1.05e-03 -1.00e+00 -1.00e+00 -1.00e+00    1.0000 >    0.7704   -0.0067    1.5934  738.3100 9819.1170   -1.3960    0.7069   2.45   2.5 164.7 10     0.0000    0.0154
M06          ?    BHN  e S      ? 20230825 2204   44.0677 GAU  6.24e-04 -1.00e+00 -1.00e+00 -1.00e+00    1.0000 >    1.3122    0.0156    1.3241  738.3100 9819.1170   -1.3960    0.7069   2.45   2.5 164.2 10     0.0000    0.0262
M14          ?    BHZ  e P      c 20230825 2204   43.5072 GAU  1.86e-03 -1.00e+00 -1.00e+00 -1.00e+00    1.0000 >    0.8759   -0.1086    0.1936  737.5530 9820.0110   -1.3980    1.7576 335.58 335.6 145.2 10     0.0000    0.0175
M14          ?    BHE  e S      ? 20230825 2204   44.1111 GAU  6.76e-04 -1.00e+00  3.71e+02 -1.00e+00    1.0000 >    1.4911   -0.1199    0.2023  737.5530 9820.0110   -1.3980    1.7576 335.58 335.6 143.9 10     0.0000    0.0298
M11          ?    BHZ  e P      d 20230825 2204   43.6461 GAU  1.84e-03 -1.00e+00  5.89e+02 -1.00e+00    1.0000 >    0.9032    0.0031    1.5974  738.4670 9820.4900   -1.3120    2.0877   5.15   5.1 139.2 10     0.0000    0.0181
M11          ?    BHN  e S      ? 20230825 2204   44.2751 GAU  6.74e-04 -1.00e+00 -1.00e+00 -1.00e+00    1.0000 >    1.5364   -0.0012    1.3352  738.4670 9820.4900   -1.3120    2.0877   5.15   5.1 137.6 10     0.0000    0.0307
M09          ?    BHZ  i P      c 20230825 2204   43.7237 GAU  1.19e-03 -1.00e+00  1.83e+02 -1.00e+00    1.0000 >    0.9792    0.0046    1.5611  737.8820 9820.9850   -1.2700    2.6048 351.22 351.2 131.4  9     0.0000    0.0196
M09          ?    BHE  e S      ? 20230825 2204   44.3923 GAU  2.72e-04 -1.00e+00  3.32e+02 -1.00e+00    1.0000 >    1.6644   -0.0120    1.2305  737.8820 9820.9850   -1.2700    2.6048 351.22 351.2 129.5  9     0.0000    0.0333
M13          ?    BHZ  i P      c 20230825 2204   43.8531 GAU  4.77e-04 -1.00e+00 -1.00e+00 -1.00e+00    1.0000 >    1.1035    0.0097    1.4674  737.1780 9821.5410   -1.2220    3.3185 340.61 340.6 122.2  9     0.0000    0.0221
M13          ?    BHN  e S      ? 20230825 2204   44.6077 GAU  6.02e-04 -1.00e+00 -1.00e+00 -1.00e+00    1.0000 >    1.8729   -0.0051    1.2041  737.1780 9821.5410   -1.2220    3.3185 340.61 340.6 120.0  9     0.0000    0.0375
M07          ?    BHZ  i P      c 20230825 2204   44.0416 GAU  3.97e-04 -1.00e+00 -1.00e+00 -1.00e+00    1.0000 >    1.3259   -0.0242    1.1282  737.4430 9822.8030   -1.1120    4.4713 349.21 349.2 110.7  9     0.0000    0.0265
M07          ?    BHN  e S      ? 20230825 2204   45.0125 GAU  3.34e-04 -1.00e+00 -1.00e+00 -1.00e+00    1.0000 >    2.2427    0.0299    0.9637  737.4430 9822.8030   -1.1120    4.4713 349.21 349.2 108.3  9     0.0000    0.0449
M12          ?    BHZ  i P      c 20230825 2204   44.2892 GAU  1.06e-03 -1.00e+00 -1.00e+00 -1.00e+00    1.0000 >    1.4622    0.0870    0.1945  736.8520 9823.3800   -0.9890    5.1703 343.97 344.0 104.8  9     0.0000    0.0292
M12          ?    BHN  e S      ? 20230825 2204   45.4421 GAU  2.57e-03 -1.00e+00 -1.00e+00 -1.00e+00    1.0000 >    2.4654    0.2368    0.0045  736.8520 9823.3800   -0.9890    5.1703 343.97 344.0 102.7  9     0.0000    0.0493
END_PHASE
END_NLLOC

