NLLOC "./loc/SEML.20230830.054714.grid0" "LOCATED" "Location completed."
PUBLIC_ID None
SIGNATURE "Arham Zakki Edelo - edelo.17034@mhs.its.ac.id   obs:./obs/2023_08.obs   NLLoc:v7.00.10(30Aug2020)   run:28Dec2023 20h10m05"
COMMENT "SEML"
GRID  2001 2001 1001  727 9811 -2  0.01 0.01 0.01 PROB_DENSITY
SEARCH OCTREE nInitial 4851 nEvaluated 20051 smallestNodeSide 0.029762/0.029762/0.028409 oct_tree_integral 1.004025e-01 scatter_volume 1.004025e-01
HYPOCENTER  x 737.193 y 9818.87 z 0.741477  OT 14.0608  ix -1 iy -1 iz -1 MAXIMUM_LIKELIHOOD
GEOGRAPHIC  OT 2023 08 30  05 47 14.060769  Lat 9818.872024 Long 737.193452 Depth 0.741477
QUALITY  Pmax 5.30029e+20 MFmin 29.7504 MFmax 37.4609 RMS 0.0141919 Nphs 8 Gap 286.007 Dist 1.14311 Mamp -9.90 0 Mdur -9.90 0
VPVSRATIO  VpVsRatio 1.78088  Npair 4  Diff 0.494596
STATISTICS  ExpectX 737.752199 Y 9818.837684 Z 0.490214  CovXX 1.4584 XY -0.0344994 XZ -0.233661 YY 0.133692 YZ 0.0268611 ZZ 0.231405 EllAz1  358.235 Dip1  -17.9112 Len1  0.667101 Az2  210.492 Dip2  -69.0835 Len2  0.829536 Len3  2.302994e+00
STAT_GEOG  ExpectLat 9818.837684 Long 737.752199 Depth 0.490214
TRANSFORM  NONE
QML_OriginQuality  assocPhCt 8  usedPhCt 8  assocStaCt -1  usedStaCt 4  depthPhCt -1  stdErr 0.0141919  azGap 286.007  secAzGap 286.007  gtLevel -  minDist 1.14311 maxDist 3.93889 medDist 2.1407
QML_OriginUncertainty  horUnc -1  minHorUnc 0.552653  maxHorUnc 1.83204  azMaxHorUnc 91.4908
QML_ConfidenceEllipsoid  semiMajorAxisLength 2.30299  semiMinorAxisLength 0.667101  semiIntermediateAxisLength 0.829536  majorAxisPlunge -10.4458  majorAxisAzimuth 91.651  majorAxisRotation 199.413
FOCALMECH  Hyp  9818.872024 737.193452 0.741477 Mech  0 0 0 mf  0 nObs -1
PHASE ID Ins Cmp On Pha  FM Date     HrMn   Sec     Err  ErrMag    Coda      Amp       Per       PriorWt  >   TTpred    Res       Weight    StaLoc(X  Y         Z)        SDist    SAzim  RAz  RDip RQual    Tcorr       TTerr
M06          ?    BHZ  i P      c 20230830 0547   14.6762 GAU  6.74e-04 -1.00e+00 -1.00e+00 -1.00e+00    1.0000 >    0.6416   -0.0262    1.0860  738.3100 9819.1170   -1.3960    1.1431  77.63  77.6 151.0 10     0.0000    0.0128
M06          ?    BHN  e S      ? 20230830 0547   15.1809 GAU  6.72e-05 -1.00e+00 -1.00e+00 -1.00e+00    1.0000 >    1.1086    0.0115    1.2495  738.3100 9819.1170   -1.3960    1.1431  77.63  77.6 148.5 10     0.0000    0.0222
M11          ?    BHZ  e P      c 20230830 0547   14.8314 GAU  2.32e-03 -1.00e+00 -1.00e+00 -1.00e+00    1.0000 >    0.7679    0.0027    1.5104  738.4670 9820.4900   -1.3120    2.0591  38.21  38.2 133.1 10     0.0000    0.0154
M11          ?    BHN  e S      ? 20230830 0547   15.3752 GAU  3.47e-04 -1.00e+00 -1.00e+00 -1.00e+00    1.0000 >    1.3262   -0.0118    1.3510  738.4670 9820.4900   -1.3120    2.0591  38.21  38.2 128.4 10     0.0000    0.0265
M09          ?    BHZ  e P      c 20230830 0547   14.8543 GAU  5.78e-04 -1.00e+00  1.41e+02 -1.00e+00    1.0000 >    0.7909    0.0027    1.5097  737.8820 9820.9850   -1.2700    2.2223  18.05  18.0 130.1 10     0.0000    0.0158
M09          ?    BHN  e S      ? 20230830 0547   15.4102 GAU  2.68e-04 -1.00e+00  5.05e+02 -1.00e+00    1.0000 >    1.3656   -0.0161    1.2931  737.8820 9820.9850   -1.2700    2.2223  18.05  18.0 124.9 10     0.0000    0.0273
M07          ?    BHZ  e P      c 20230830 0547   15.4215 GAU  2.61e-04 -1.00e+00 -1.00e+00 -1.00e+00    1.0000 >    1.1442    0.2166    0.0001  737.4430 9822.8030   -1.1120    3.9389   3.63   3.6 112.0 10     0.0000    0.0229
M07          ?    BHN  e S      ? 20230830 0547   16.4208 GAU  2.56e-04 -1.00e+00 -1.00e+00 -1.00e+00    1.0000 >    1.9677    0.3924    0.0001  737.4430 9822.8030   -1.1120    3.9389   3.63   3.6 102.4 10     0.0000    0.0394
END_PHASE
END_NLLOC

