NLLOC "./loc/SEML.20230825.220934.grid0" "LOCATED" "Location completed."
PUBLIC_ID None
SIGNATURE "Arham Zakki Edelo - edelo.17034@mhs.its.ac.id   obs:./obs/2023_08.obs   NLLoc:v7.00.10(30Aug2020)   run:28Dec2023 20h09m58"
COMMENT "SEML"
GRID  2001 2001 1001  727 9811 -2  0.01 0.01 0.01 PROB_DENSITY
SEARCH OCTREE nInitial 4851 nEvaluated 20003 smallestNodeSide 0.014881/0.014881/0.014205 oct_tree_integral 2.958659e-02 scatter_volume 2.902266e-02
HYPOCENTER  x 737.618 y 9818.61 z 1.01847  OT 33.6686  ix -1 iy -1 iz -1 MAXIMUM_LIKELIHOOD
GEOGRAPHIC  OT 2023 08 25  22 09 33.668598  Lat 9818.611607 Long 737.617560 Depth 1.018466
QUALITY  Pmax 6.51859e+65 MFmin 74.1916 MFmax 88.2903 RMS 0.0284498 Nphs 20 Gap 254.021 Dist 0.798853 Mamp -9.90 0 Mdur -9.90 0
VPVSRATIO  VpVsRatio 1.77117  Npair 10  Diff 0.546181
STATISTICS  ExpectX 737.538637 Y 9818.565510 Z 1.115269  CovXX 0.0276091 XY 0.00116066 XZ -0.0116483 YY 0.0119295 YZ -0.00358599 ZZ 0.0191134 EllAz1  29.5166 Dip1  41.1704 Len1  0.178071 Az2  328.29 Dip2  -28.8292 Len2  0.218563 Len3  3.571586e-01
STAT_GEOG  ExpectLat 9818.565510 Long 737.538637 Depth 1.115269
TRANSFORM  NONE
QML_OriginQuality  assocPhCt 20  usedPhCt 20  assocStaCt -1  usedStaCt 10  depthPhCt -1  stdErr 0.0284498  azGap 254.021  secAzGap 254.021  gtLevel -  minDist 0.798853 maxDist 4.82946 medDist 2.2248
QML_OriginUncertainty  horUnc -1  minHorUnc 0.165049  maxHorUnc 0.252383  azMaxHorUnc 85.7893
QML_ConfidenceEllipsoid  semiMajorAxisLength 0.357159  semiMinorAxisLength 0.178071  semiIntermediateAxisLength 0.218563  majorAxisPlunge -35.3123  majorAxisAzimuth 81.2385  majorAxisRotation 103.659
FOCALMECH  Hyp  9818.611607 737.617560 1.018466 Mech  0 0 0 mf  0 nObs -1
PHASE ID Ins Cmp On Pha  FM Date     HrMn   Sec     Err  ErrMag    Coda      Amp       Per       PriorWt  >   TTpred    Res       Weight    StaLoc(X  Y         Z)        SDist    SAzim  RAz  RDip RQual    Tcorr       TTerr
M04          ?    BHZ  e P      d 20230825 2209   34.3794 GAU  1.10e-03 -1.00e+00  1.28e+03 -1.00e+00    1.0000 >    0.7162   -0.0054    1.7477  737.1400 9819.2520   -1.5710    0.7989 323.29 323.3 160.7 10     0.0000    0.0143
M04          ?    BHE  e S      ? 20230825 2209   34.8890 GAU  6.55e-04 -1.00e+00  2.81e+02 -1.00e+00    1.0000 >    1.2283   -0.0080    1.5617  737.1400 9819.2520   -1.5710    0.7989 323.29 323.3 159.8 10     0.0000    0.0246
M06          ?    BHZ  i P      c 20230825 2209   34.3500 GAU  1.08e-03 -1.00e+00 -1.00e+00 -1.00e+00    1.0000 >    0.6753    0.0061    1.6848  738.3100 9819.1170   -1.3960    0.8573  53.88  53.9 158.0 10     0.0000    0.0135
M06          ?    BHE  e S      ? 20230825 2209   34.9200 GAU  8.32e-04 -1.00e+00 -1.00e+00 -1.00e+00    1.0000 >    1.1576    0.0938    0.2553  738.3100 9819.1170   -1.3960    0.8573  53.88  53.9 157.0 10     0.0000    0.0232
M02          ?    BHZ  e P      c 20230825 2209   34.3918 GAU  6.07e-04 -1.00e+00 -1.00e+00 -1.00e+00    1.0000 >    0.7464   -0.0232    1.4354  736.5970 9819.4060   -1.4960    1.2933 307.90 307.9 149.2 10     0.0000    0.0149
M02          ?    BHE  e S      ? 20230825 2209   34.9468 GAU  6.76e-04 -1.00e+00  1.22e+03 -1.00e+00    1.0000 >    1.2796   -0.0013    1.5449  736.5970 9819.4060   -1.4960    1.2933 307.90 307.9 147.8 10     0.0000    0.0256
M14          ?    BHZ  e P      c 20230825 2209   34.4216 GAU  9.06e-04 -1.00e+00 -1.00e+00 -1.00e+00    1.0000 >    0.7360    0.0169    1.3985  737.5530 9820.0110   -1.3980    1.4009 357.36 357.4 146.0 10     0.0000    0.0147
M14          ?    BHN  e S      ? 20230825 2209   34.9845 GAU  1.65e-03 -1.00e+00  4.32e+02 -1.00e+00    1.0000 >    1.2615    0.0545    0.5775  737.5530 9820.0110   -1.3980    1.4009 357.36 357.4 144.4 10     0.0000    0.0252
M11          ?    BHZ  i P      c 20230825 2209   34.4460 GAU  1.56e-03 -1.00e+00 -1.00e+00 -1.00e+00    1.0000 >    0.8182   -0.0407    0.9201  738.4670 9820.4900   -1.3120    2.0615  24.33  24.3 132.5 10     0.0000    0.0164
M11          ?    BHE  e S      ? 20230825 2209   35.0227 GAU  8.88e-04 -1.00e+00 -1.00e+00 -1.00e+00    1.0000 >    1.4011   -0.0470    0.8554  738.4670 9820.4900   -1.3120    2.0615  24.33  24.3 129.9 10     0.0000    0.0280
M09          ?    BHZ  i P      c 20230825 2209   34.5431 GAU  7.49e-04 -1.00e+00 -1.00e+00 -1.00e+00    1.0000 >    0.8688    0.0057    1.6446  737.8820 9820.9850   -1.2700    2.3881   6.36   6.4 126.4 10     0.0000    0.0174
M09          ?    BHE  e S      ? 20230825 2209   35.1677 GAU  3.13e-04 -1.00e+00  3.36e+02 -1.00e+00    1.0000 >    1.4871    0.0120    1.3629  737.8820 9820.9850   -1.2700    2.3881   6.36   6.4 123.5 10     0.0000    0.0297
M13          ?    BHZ  e P      c 20230825 2209   34.6252 GAU  1.06e-03 -1.00e+00 -1.00e+00 -1.00e+00    1.0000 >    0.9746   -0.0180    1.5354  737.1780 9821.5410   -1.2220    2.9622 351.47 351.5 117.3 10     0.0000    0.0195
M13          ?    BHN  e S      ? 20230825 2209   35.3071 GAU  7.28e-04 -1.00e+00 -1.00e+00 -1.00e+00    1.0000 >    1.6662   -0.0277    1.2067  737.1780 9821.5410   -1.2220    2.9622 351.47 351.5 113.3 10     0.0000    0.0333
M01          ?    BHZ  e P      c 20230825 2209   34.8837 GAU  2.76e-04 -1.00e+00 -1.00e+00 -1.00e+00    1.0000 >    1.2069    0.0083    1.4973  736.4090 9822.5140   -1.1200    4.0853 342.79 342.8 101.2  9     0.0000    0.0241
M01          ?    BHN  e S      ? 20230825 2209   35.8055 GAU  8.49e-04 -1.00e+00  1.67e+03 -1.00e+00    1.0000 >    2.0559    0.0810    0.4800  736.4090 9822.5140   -1.1200    4.0853 342.79 342.8  94.4  9     0.0000    0.0411
M07          ?    BHZ  i P      c 20230825 2209   35.0412 GAU  5.62e-04 -1.00e+00 -1.00e+00 -1.00e+00    1.0000 >    1.2311    0.1415    0.1057  737.4430 9822.8030   -1.1120    4.1950 357.62 357.6  99.6  9     0.0000    0.0246
M07          ?    BHN  e S      ? 20230825 2209   36.0970 GAU  8.74e-04 -1.00e+00 -1.00e+00 -1.00e+00    1.0000 >    2.0960    0.3324    0.0001  737.4430 9822.8030   -1.1120    4.1950 357.62 357.6  93.6  9     0.0000    0.0419
M12          ?    BHZ  e P      d 20230825 2209   34.8518 GAU  2.17e-03 -1.00e+00 -1.00e+00 -1.00e+00    1.0000 >    1.3625   -0.1794    0.0898  736.8520 9823.3800   -0.9890    4.8295 350.88 350.9  92.3  9     0.0000    0.0273
M12          ?    BHN  e S      ? 20230825 2209   35.7881 GAU  1.49e-03 -1.00e+00 -1.00e+00 -1.00e+00    1.0000 >    2.3073   -0.1879    0.0963  736.8520 9823.3800   -0.9890    4.8295 350.88 350.9  91.5  9     0.0000    0.0461
END_PHASE
END_NLLOC

