NLLOC "./loc/SEML.20230825.220440.grid0" "LOCATED" "Location completed."
PUBLIC_ID None
SIGNATURE "Arham Zakki Edelo - edelo.17034@mhs.its.ac.id   obs:./obs/2023_08.obs   NLLoc:v7.00.10(30Aug2020)   run:28Dec2023 20h09m53"
COMMENT "SEML"
GRID  2001 2001 1001  727 9811 -2  0.01 0.01 0.01 PROB_DENSITY
SEARCH OCTREE nInitial 4851 nEvaluated 20003 smallestNodeSide 0.029762/0.029762/0.028409 oct_tree_integral 9.851420e-02 scatter_volume 9.756887e-02
HYPOCENTER  x 738.533 y 9818.19 z 1.50852  OT 39.3591  ix -1 iy -1 iz -1 MAXIMUM_LIKELIHOOD
GEOGRAPHIC  OT 2023 08 25  22 04 39.359058  Lat 9818.187500 Long 738.532738 Depth 1.508523
QUALITY  Pmax 1.00517e+42 MFmin 46.9739 MFmax 56.5551 RMS 0.0329945 Nphs 14 Gap 333.387 Dist 0.955815 Mamp -9.90 0 Mdur -9.90 0
VPVSRATIO  VpVsRatio 1.67194  Npair 7  Diff 0.593479
STATISTICS  ExpectX 738.481146 Y 9818.020372 Z 1.225121  CovXX 0.185428 XY 0.0598107 XZ 0.0768703 YY 0.0685823 YZ 0.0653225 ZZ 0.163037 EllAz1  168.777 Dip1  20.5162 Len1  0.33501 Az2  280.317 Dip2  44.4546 Len2  0.587806 Len3  1.007188e+00
STAT_GEOG  ExpectLat 9818.020372 Long 738.481146 Depth 1.225121
TRANSFORM  NONE
QML_OriginQuality  assocPhCt 14  usedPhCt 14  assocStaCt -1  usedStaCt 7  depthPhCt -1  stdErr 0.0329945  azGap 333.387  secAzGap 333.387  gtLevel -  minDist 0.955815 maxDist 5.45774 medDist 2.87219
QML_OriginUncertainty  horUnc -1  minHorUnc 0.315927  maxHorUnc 0.695998  azMaxHorUnc 67.1637
QML_ConfidenceEllipsoid  semiMajorAxisLength 1.00719  semiMinorAxisLength 0.33501  semiIntermediateAxisLength 0.587806  majorAxisPlunge 38.4507  majorAxisAzimuth 61.4915  majorAxisRotation 65.6359
FOCALMECH  Hyp  9818.187500 738.532738 1.508523 Mech  0 0 0 mf  0 nObs -1
PHASE ID Ins Cmp On Pha  FM Date     HrMn   Sec     Err  ErrMag    Coda      Amp       Per       PriorWt  >   TTpred    Res       Weight    StaLoc(X  Y         Z)        SDist    SAzim  RAz  RDip RQual    Tcorr       TTerr
M06          ?    BHZ  i P      c 20230825 2204   40.1695 GAU  3.54e-03 -1.00e+00 -1.00e+00 -1.00e+00    1.0000 >    0.7913    0.0192    1.3838  738.3100 9819.1170   -1.3960    0.9558 346.52 346.5 159.5 10     0.0000    0.0158
M06          ?    BHE  e S      ? 20230825 2204   40.7181 GAU  2.44e-04 -1.00e+00 -1.00e+00 -1.00e+00    1.0000 >    1.3474    0.0116    1.3919  738.3100 9819.1170   -1.3960    0.9558 346.52 346.5 158.7 10     0.0000    0.0269
M14          ?    BHZ  e P      c 20230825 2204   40.2738 GAU  1.86e-03 -1.00e+00 -1.00e+00 -1.00e+00    1.0000 >    0.9227   -0.0079    1.5178  737.5530 9820.0110   -1.3980    2.0700 331.75 331.8 139.7 10     0.0000    0.0185
M14          ?    BHE  e S      ? 20230825 2204   40.9197 GAU  4.46e-04 -1.00e+00  3.85e+02 -1.00e+00    1.0000 >    1.5701   -0.0095    1.2740  737.5530 9820.0110   -1.3980    2.0700 331.75 331.8 138.2 10     0.0000    0.0314
M11          ?    BHZ  i P      c 20230825 2204   40.2888 GAU  2.95e-03 -1.00e+00 -1.00e+00 -1.00e+00    1.0000 >    0.9396   -0.0098    1.4796  738.4670 9820.4900   -1.3120    2.3034 358.36 358.4 135.3 10     0.0000    0.0188
M11          ?    BHN  e S      ? 20230825 2204   40.9710 GAU  3.55e-04 -1.00e+00 -1.00e+00 -1.00e+00    1.0000 >    1.5977    0.0142    1.2860  738.4670 9820.4900   -1.3120    2.3034 358.36 358.4 133.5  9     0.0000    0.0320
M09          ?    BHZ  i P      c 20230825 2204   40.3792 GAU  1.19e-03 -1.00e+00  9.07e+01 -1.00e+00    1.0000 >    1.0293   -0.0092    1.4665  737.8820 9820.9850   -1.2700    2.8722 346.91 346.9 127.0  9     0.0000    0.0206
M09          ?    BHN  e S      ? 20230825 2204   41.0963 GAU  2.26e-04 -1.00e+00  4.66e+02 -1.00e+00    1.0000 >    1.7488   -0.0116    1.1935  737.8820 9820.9850   -1.2700    2.8722 346.91 346.9 124.9  9     0.0000    0.0350
M13          ?    BHZ  e P      c 20230825 2204   40.5332 GAU  9.32e-04 -1.00e+00 -1.00e+00 -1.00e+00    1.0000 >    1.1651    0.0091    1.4790  737.1780 9821.5410   -1.2220    3.6168 338.00 338.0 117.7  9     0.0000    0.0233
M13          ?    BHE  e S      ? 20230825 2204   41.3862 GAU  4.00e-04 -1.00e+00 -1.00e+00 -1.00e+00    1.0000 >    1.9761    0.0510    0.7988  737.1780 9821.5410   -1.2220    3.6168 338.00 338.0 115.2  9     0.0000    0.0395
M07          ?    BHZ  i P      c 20230825 2204   40.8901 GAU  1.03e-03 -1.00e+00 -1.00e+00 -1.00e+00    1.0000 >    1.3866    0.1444    0.2062  737.4430 9822.8030   -1.1120    4.7424 346.72 346.7 106.1  9     0.0000    0.0277
M07          ?    BHN  e S      ? 20230825 2204   41.9602 GAU  9.53e-04 -1.00e+00 -1.00e+00 -1.00e+00    1.0000 >    2.3435    0.2576    0.0842  737.4430 9822.8030   -1.1120    4.7424 346.72 346.7 103.3  9     0.0000    0.0469
M12          ?    BHZ  i P      c 20230825 2204   40.9926 GAU  5.39e-04 -1.00e+00 -1.00e+00 -1.00e+00    1.0000 >    1.5281    0.1055    0.2631  736.8520 9823.3800   -0.9890    5.4577 342.06 342.1  99.1  9     0.0000    0.0306
M12          ?    BHN  e S      ? 20230825 2204   42.1347 GAU  5.72e-04 -1.00e+00 -1.00e+00 -1.00e+00    1.0000 >    2.5742    0.2015    0.1756  736.8520 9823.3800   -0.9890    5.4577 342.06 342.1  95.9  9     0.0000    0.0515
END_PHASE
END_NLLOC

