NLLOC "./loc/SEML.20230825.220121.grid0" "LOCATED" "Location completed."
PUBLIC_ID None
SIGNATURE "Arham Zakki Edelo - edelo.17034@mhs.its.ac.id   obs:./obs/2023_08.obs   NLLoc:v7.00.10(30Aug2020)   run:28Dec2023 20h09m46"
COMMENT "SEML"
GRID  2001 2001 1001  727 9811 -2  0.01 0.01 0.01 PROB_DENSITY
SEARCH OCTREE nInitial 4851 nEvaluated 20003 smallestNodeSide 0.029762/0.029762/0.028409 oct_tree_integral 1.595602e-01 scatter_volume 1.587545e-01
HYPOCENTER  x 738.161 y 9818.47 z 0.755682  OT 20.6489  ix -1 iy -1 iz -1 MAXIMUM_LIKELIHOOD
GEOGRAPHIC  OT 2023 08 25  22 01 20.648910  Lat 9818.470238 Long 738.160714 Depth 0.755682
QUALITY  Pmax 6.42003e+41 MFmin 51.0978 MFmax 65.5829 RMS 0.0329989 Nphs 14 Gap 325.477 Dist 0.663767 Mamp -9.90 0 Mdur -9.90 0
VPVSRATIO  VpVsRatio 1.69731  Npair 7  Diff 0.601362
STATISTICS  ExpectX 738.225940 Y 9818.450157 Z 0.791027  CovXX 0.140153 XY 0.0122877 XZ 0.000921325 YY 0.0352261 YZ 0.0114599 ZZ 0.0639287 EllAz1  173.791 Dip1  18.4337 Len1  0.325678 Az2  348.241 Dip2  71.4854 Len2  0.488579 Len3  7.070945e-01
STAT_GEOG  ExpectLat 9818.450157 Long 738.225940 Depth 0.791027
TRANSFORM  NONE
QML_OriginQuality  assocPhCt 14  usedPhCt 14  assocStaCt -1  usedStaCt 7  depthPhCt -1  stdErr 0.0329989  azGap 325.477  secAzGap 325.477  gtLevel -  minDist 0.663767 maxDist 5.08119 medDist 2.53016
QML_OriginUncertainty  horUnc -1  minHorUnc 0.278845  maxHorUnc 0.57063  azMaxHorUnc 83.4091
QML_ConfidenceEllipsoid  semiMajorAxisLength 0.707094  semiMinorAxisLength 0.325678  semiIntermediateAxisLength 0.488579  majorAxisPlunge 1.66951  majorAxisAzimuth 83.2344  majorAxisRotation 18.471
FOCALMECH  Hyp  9818.470238 738.160714 0.755682 Mech  0 0 0 mf  0 nObs -1
PHASE ID Ins Cmp On Pha  FM Date     HrMn   Sec     Err  ErrMag    Coda      Amp       Per       PriorWt  >   TTpred    Res       Weight    StaLoc(X  Y         Z)        SDist    SAzim  RAz  RDip RQual    Tcorr       TTerr
M06          ?    BHZ  i P      c 20230825 2201   21.2924 GAU  7.49e-04 -1.00e+00 -1.00e+00 -1.00e+00    1.0000 >    0.5960    0.0474    0.8302  738.3100 9819.1170   -1.3960    0.6638  13.00  13.0 162.2 10     0.0000    0.0119
M06          ?    BHN  e S      ? 20230825 2201   21.7971 GAU  7.28e-04 -1.00e+00 -1.00e+00 -1.00e+00    1.0000 >    1.0295    0.1188    0.1785  738.3100 9819.1170   -1.3960    0.6638  13.00  13.0 160.8 10     0.0000    0.0206
M14          ?    BHZ  i P      c 20230825 2201   21.3771 GAU  1.03e-03 -1.00e+00 -1.00e+00 -1.00e+00    1.0000 >    0.7187    0.0094    1.3943  737.5530 9820.0110   -1.3980    1.6563 338.47 338.5 141.1 10     0.0000    0.0144
M14          ?    BHN  e S      ? 20230825 2201   21.8798 GAU  1.63e-03 -1.00e+00  3.87e+02 -1.00e+00    1.0000 >    1.2410   -0.0101    1.3625  737.5530 9820.0110   -1.3980    1.6563 338.47 338.5 137.6 10     0.0000    0.0248
M11          ?    BHZ  i P      c 20230825 2201   21.3976 GAU  8.63e-04 -1.00e+00 -1.00e+00 -1.00e+00    1.0000 >    0.7674   -0.0187    1.2768  738.4670 9820.4900   -1.3120    2.0429   8.62   8.6 133.6 10     0.0000    0.0153
M11          ?    BHE  e S      ? 20230825 2201   21.9931 GAU  5.78e-04 -1.00e+00 -1.00e+00 -1.00e+00    1.0000 >    1.3247    0.0195    1.3340  738.4670 9820.4900   -1.3120    2.0429   8.62   8.6 129.1 10     0.0000    0.0265
M09          ?    BHZ  i P      c 20230825 2201   21.4403 GAU  1.88e-03 -1.00e+00  7.78e+01 -1.00e+00    1.0000 >    0.8550   -0.0636    0.3139  737.8820 9820.9850   -1.2700    2.5302 353.68 353.7 126.4 10     0.0000    0.0171
M09          ?    BHE  e S      ? 20230825 2201   22.1059 GAU  4.02e-04 -1.00e+00  3.45e+02 -1.00e+00    1.0000 >    1.4750   -0.0180    1.2455  737.8820 9820.9850   -1.2700    2.5302 353.68 353.7 120.4 10     0.0000    0.0295
M13          ?    BHZ  i P      d 20230825 2201   21.6191 GAU  6.86e-04 -1.00e+00  1.38e+01 -1.00e+00    1.0000 >    0.9967   -0.0265    1.1464  737.1780 9821.5410   -1.2220    3.2242 342.25 342.3 118.8 10     0.0000    0.0199
M13          ?    BHN  e S      ? 20230825 2201   22.4109 GAU  1.74e-04 -1.00e+00 -1.00e+00 -1.00e+00    1.0000 >    1.7174    0.0446    1.0206  737.1780 9821.5410   -1.2220    3.2242 342.25 342.3 110.9 10     0.0000    0.0343
M07          ?    BHZ  e P      d 20230825 2201   21.9032 GAU  7.19e-04 -1.00e+00 -1.00e+00 -1.00e+00    1.0000 >    1.2538    0.0006    1.4144  737.4430 9822.8030   -1.1120    4.3918 350.59 350.6 109.7 10     0.0000    0.0251
M07          ?    BHN  e S      ? 20230825 2201   22.8283 GAU  2.93e-04 -1.00e+00 -1.00e+00 -1.00e+00    1.0000 >    2.1510    0.0284    1.1400  737.4430 9822.8030   -1.1120    4.3918 350.59 350.6 100.1 10     0.0000    0.0430
M12          ?    BHZ  e P      c 20230825 2201   22.0920 GAU  1.11e-03 -1.00e+00 -1.00e+00 -1.00e+00    1.0000 >    1.4067    0.0364    1.1355  736.8520 9823.3800   -0.9890    5.0812 345.07 345.1 105.5 10     0.0000    0.0281
M12          ?    BHN  e S      ? 20230825 2201   23.1961 GAU  6.86e-04 -1.00e+00 -1.00e+00 -1.00e+00    1.0000 >    2.4010    0.1461    0.2074  736.8520 9823.3800   -0.9890    5.0812 345.07 345.1  96.7 10     0.0000    0.0480
END_PHASE
END_NLLOC

