NLLOC "./loc/SEML.20230825.220259.grid0" "LOCATED" "Location completed."
PUBLIC_ID None
SIGNATURE "Arham Zakki Edelo - edelo.17034@mhs.its.ac.id   obs:./obs/2023_08.obs   NLLoc:v7.00.10(30Aug2020)   run:28Dec2023 20h09m50"
COMMENT "SEML"
GRID  2001 2001 1001  727 9811 -2  0.01 0.01 0.01 PROB_DENSITY
SEARCH OCTREE nInitial 4851 nEvaluated 20003 smallestNodeSide 0.014881/0.014881/0.014205 oct_tree_integral 1.899420e-02 scatter_volume 1.890309e-02
HYPOCENTER  x 738.064 y 9818.54 z 0.805398  OT 58.4482  ix -1 iy -1 iz -1 MAXIMUM_LIKELIHOOD
GEOGRAPHIC  OT 2023 08 25  22 02 58.448171  Lat 9818.537202 Long 738.063988 Depth 0.805398
QUALITY  Pmax 3.6554e+93 MFmin 96.4649 MFmax 113.777 RMS 0.0300096 Nphs 26 Gap 277.644 Dist 0.629831 Mamp -9.90 0 Mdur -9.90 0
VPVSRATIO  VpVsRatio 1.88374  Npair 13  Diff 0.632351
STATISTICS  ExpectX 738.089549 Y 9818.517044 Z 0.779364  CovXX 0.0186064 XY -0.00255172 XZ -0.00323036 YY 0.00861304 YZ -0.00179585 ZZ 0.022099 EllAz1  15.9262 Dip1  10.1827 Len1  0.163247 Az2  291.48 Dip2  -28.3145 Len2  0.250245 Len3  2.912414e-01
STAT_GEOG  ExpectLat 9818.517044 Long 738.089549 Depth 0.779364
TRANSFORM  NONE
QML_OriginQuality  assocPhCt 26  usedPhCt 26  assocStaCt -1  usedStaCt 13  depthPhCt -1  stdErr 0.0300096  azGap 277.644  secAzGap 277.644  gtLevel -  minDist 0.629831 maxDist 4.99215 medDist 2.6018
QML_OriginUncertainty  horUnc -1  minHorUnc 0.13564  maxHorUnc 0.210253  azMaxHorUnc 103.526
QML_ConfidenceEllipsoid  semiMajorAxisLength 0.291241  semiMinorAxisLength 0.163247  semiIntermediateAxisLength 0.250245  majorAxisPlunge -59.5898  majorAxisAzimuth 88.1064  majorAxisRotation 217.397
FOCALMECH  Hyp  9818.537202 738.063988 0.805398 Mech  0 0 0 mf  0 nObs -1
PHASE ID Ins Cmp On Pha  FM Date     HrMn   Sec     Err  ErrMag    Coda      Amp       Per       PriorWt  >   TTpred    Res       Weight    StaLoc(X  Y         Z)        SDist    SAzim  RAz  RDip RQual    Tcorr       TTerr
M06          ?    BHZ  i P      c 20230825 2202   59.0573 GAU  1.16e-03 -1.00e+00  4.36e+02 -1.00e+00    1.0000 >    0.6056    0.0035    1.5546  738.3100 9819.1170   -1.3960    0.6298  22.99  23.0 163.5 10     0.0000    0.0121
M06          ?    BHE  i S      ? 20230825 2202   59.5701 GAU  1.29e-03 -1.00e+00  2.46e+02 -1.00e+00    1.0000 >    1.0444    0.0775    0.4557  738.3100 9819.1170   -1.3960    0.6298  22.99  23.0 162.2 10     0.0000    0.0209
M04          ?    BHZ  i P      c 20230825 2202   59.1490 GAU  3.74e-04 -1.00e+00  4.56e+02 -1.00e+00    1.0000 >    0.7022   -0.0014    1.5752  737.1400 9819.2520   -1.5710    1.1682 307.73 307.7 152.9 10     0.0000    0.0140
M04          ?    BHN  i S      ? 20230825 2202   59.5637 GAU  2.28e-03 -1.00e+00  5.21e+02 -1.00e+00    1.0000 >    1.2109   -0.0953    0.1357  737.1400 9819.2520   -1.5710    1.1682 307.73 307.7 150.7 10     0.0000    0.0242
M14          ?    BHZ  i P      c 20230825 2202   59.1650 GAU  2.24e-03 -1.00e+00  6.45e+01 -1.00e+00    1.0000 >    0.7137    0.0031    1.5337  737.5530 9820.0110   -1.3980    1.5599 340.88 340.9 143.5 10     0.0000    0.0143
M14          ?    BHN  e S      ? 20230825 2202   59.6722 GAU  1.06e-03 -1.00e+00  8.13e+02 -1.00e+00    1.0000 >    1.2304   -0.0064    1.4062  737.5530 9820.0110   -1.3980    1.5599 340.88 340.9 140.4 10     0.0000    0.0246
M02          ?    BHZ  e P      c 20230825 2202   59.2189 GAU  8.98e-04 -1.00e+00 -1.00e+00 -1.00e+00    1.0000 >    0.7584    0.0124    1.3593  736.5970 9819.4060   -1.4960    1.7050 300.64 300.6 142.1 10     0.0000    0.0152
M02          ?    BHE  e S      ? 20230825 2202   59.7387 GAU  1.05e-03 -1.00e+00 -1.00e+00 -1.00e+00    1.0000 >    1.3074   -0.0168    1.3252  736.5970 9819.4060   -1.4960    1.7050 300.64 300.6 138.8 10     0.0000    0.0261
M11          ?    BHZ  i P      c 20230825 2202   59.1857 GAU  6.86e-04 -1.00e+00 -1.00e+00 -1.00e+00    1.0000 >    0.7674   -0.0298    1.1870  738.4670 9820.4900   -1.3120    1.9940  11.66  11.7 135.2 10     0.0000    0.0153
M11          ?    BHN  e S      ? 20230825 2202   59.7621 GAU  1.81e-03 -1.00e+00  2.19e+01 -1.00e+00    1.0000 >    1.3224   -0.0085    1.3692  738.4670 9820.4900   -1.3120    1.9940  11.66  11.7 131.0 10     0.0000    0.0264
M09          ?    BHZ  i P      c 20230825 2202   59.2805 GAU  1.51e-03 -1.00e+00  2.80e+02 -1.00e+00    1.0000 >    0.8473   -0.0149    1.4690  737.8820 9820.9850   -1.2700    2.4546 355.75 355.7 128.1 10     0.0000    0.0169
M09          ?    BHE  e S      ? 20230825 2202   59.9375 GAU  8.98e-04 -1.00e+00  4.90e+02 -1.00e+00    1.0000 >    1.4593    0.0301    1.0211  737.8820 9820.9850   -1.2700    2.4546 355.75 355.7 122.7 10     0.0000    0.0292
M03          ?    BHZ  i P      c 20230825 2202   59.4113 GAU  1.09e-03 -1.00e+00 -1.00e+00 -1.00e+00    1.0000 >    0.8892    0.0740    0.4684  736.8800 9820.8540   -1.3350    2.6018 332.93 332.9 127.2 10     0.0000    0.0178
M03          ?    BHN  e S      ? 20230825 2203    0.1569 GAU  3.76e-03 -1.00e+00  1.72e+00 -1.00e+00    1.0000 >    1.5313    0.1774    0.0729  736.8800 9820.8540   -1.3350    2.6018 332.93 332.9 121.6 10     0.0000    0.0306
M13          ?    BHZ  i P      c 20230825 2202   59.4013 GAU  1.86e-03 -1.00e+00 -1.00e+00 -1.00e+00    1.0000 >    0.9824   -0.0292    1.2018  737.1780 9821.5410   -1.2220    3.1317 343.57 343.6 120.3 10     0.0000    0.0196
M13          ?    BHE  e S      ? 20230825 2203    0.1480 GAU  2.46e-03 -1.00e+00 -1.00e+00 -1.00e+00    1.0000 >    1.6900    0.0099    1.2093  737.1780 9821.5410   -1.2220    3.1317 343.57 343.6 113.3 10     0.0000    0.0338
M10          ?    BHZ  e P      c 20230825 2202   59.3987 GAU  4.13e-03 -1.00e+00 -1.00e+00 -1.00e+00    1.0000 >    0.9990   -0.0485    0.7711  736.5490 9821.3650   -1.2200    3.2081 331.82 331.8 119.7 10     0.0000    0.0200
M10          ?    BHN  e S      ? 20230825 2203    0.1279 GAU  1.02e-03 -1.00e+00 -1.00e+00 -1.00e+00    1.0000 >    1.7182   -0.0385    0.9739  736.5490 9821.3650   -1.2200    3.2081 331.82 331.8 112.4 10     0.0000    0.0344
M08          ?    BHZ  i P      d 20230825 2202   59.4963 GAU  2.30e-04 -1.00e+00  5.90e+02 -1.00e+00    1.0000 >    1.0834   -0.0353    1.0696  738.2480 9822.1600   -1.1510    3.6275   2.91   2.9 115.5 10     0.0000    0.0217
M08          ?    BHN  e S      ? 20230825 2203    0.3034 GAU  9.88e-04 -1.00e+00  3.26e+02 -1.00e+00    1.0000 >    1.8610   -0.0059    1.2034  738.2480 9822.1600   -1.1510    3.6275   2.91   2.9 107.4 10     0.0000    0.0372
M01          ?    BHZ  i P      c 20230825 2202   59.7578 GAU  3.35e-03 -1.00e+00  1.44e+02 -1.00e+00    1.0000 >    1.2390    0.0706    0.5232  736.4090 9822.5140   -1.1200    4.3074 337.40 337.4 111.0 10     0.0000    0.0248
M01          ?    BHN  e S      ? 20230825 2203    0.7236 GAU  3.47e-03 -1.00e+00  1.64e+03 -1.00e+00    1.0000 >    2.1229    0.1525    0.1509  736.4090 9822.5140   -1.1200    4.3074 337.40 337.4 102.0 10     0.0000    0.0425
M07          ?    BHZ  i P      d 20230825 2202   59.7016 GAU  2.25e-03 -1.00e+00 -1.00e+00 -1.00e+00    1.0000 >    1.2387    0.0147    1.2527  737.4430 9822.8030   -1.1120    4.3108 351.72 351.7 110.9 10     0.0000    0.0248
M07          ?    BHE  e S      ? 20230825 2203    0.6224 GAU  1.29e-03 -1.00e+00 -1.00e+00 -1.00e+00    1.0000 >    2.1222    0.0520    0.7888  737.4430 9822.8030   -1.1120    4.3108 351.72 351.7 101.9 10     0.0000    0.0424
M12          ?    BHZ  i P      d 20230825 2202   59.8419 GAU  3.24e-03 -1.00e+00 -1.00e+00 -1.00e+00    1.0000 >    1.3883    0.0054    1.3139  736.8520 9823.3800   -0.9890    4.9922 345.95 345.9 106.5 10     0.0000    0.0278
M12          ?    BHE  e S      ? 20230825 2203    0.8890 GAU  3.36e-03 -1.00e+00 -1.00e+00 -1.00e+00    1.0000 >    2.3674    0.0733    0.6081  736.8520 9823.3800   -0.9890    4.9922 345.95 345.9  98.0 10     0.0000    0.0473
END_PHASE
END_NLLOC

