NLLOC "./loc/SEML.20230825.220346.grid0" "LOCATED" "Location completed."
PUBLIC_ID None
SIGNATURE "Arham Zakki Edelo - edelo.17034@mhs.its.ac.id   obs:./obs/2023_08.obs   NLLoc:v7.00.10(30Aug2020)   run:28Dec2023 20h09m52"
COMMENT "SEML"
GRID  2001 2001 1001  727 9811 -2  0.01 0.01 0.01 PROB_DENSITY
SEARCH OCTREE nInitial 4851 nEvaluated 20019 smallestNodeSide 0.014881/0.014881/0.014205 oct_tree_integral 5.147465e-02 scatter_volume 5.147465e-02
HYPOCENTER  x 737.573 y 9818.31 z 1.25994  OT 45.5125  ix -1 iy -1 iz -1 MAXIMUM_LIKELIHOOD
GEOGRAPHIC  OT 2023 08 25  22 03 45.512488  Lat 9818.313988 Long 737.572917 Depth 1.259943
QUALITY  Pmax 6.83424e+42 MFmin 49.6393 MFmax 60.1946 RMS 0.0263459 Nphs 14 Gap 292.677 Dist 1.03309 Mamp -9.90 0 Mdur -9.90 0
VPVSRATIO  VpVsRatio 1.73064  Npair 7  Diff 0.636906
STATISTICS  ExpectX 738.156137 Y 9818.065554 Z 0.737715  CovXX 0.27136 XY -0.0646209 XZ -0.210335 YY 0.0526869 YZ 0.0543651 ZZ 0.192173 EllAz1  92.9388 Dip1  50.6609 Len1  0.250086 Az2  190.202 Dip2  5.91592 Len2  0.353169 Len3  1.278665e+00
STAT_GEOG  ExpectLat 9818.065554 Long 738.156137 Depth 0.737715
TRANSFORM  NONE
QML_OriginQuality  assocPhCt 14  usedPhCt 14  assocStaCt -1  usedStaCt 7  depthPhCt -1  stdErr 0.0263459  azGap 292.677  secAzGap 292.677  gtLevel -  minDist 1.03309 maxDist 5.11705 medDist 2.35253
QML_OriginUncertainty  horUnc -1  minHorUnc 0.283799  maxHorUnc 0.815332  azMaxHorUnc 105.292
QML_ConfidenceEllipsoid  semiMajorAxisLength 1.27867  semiMinorAxisLength 0.250086  semiIntermediateAxisLength 0.353169  majorAxisPlunge -38.7169  majorAxisAzimuth 104.967  majorAxisRotation 91.6608
FOCALMECH  Hyp  9818.313988 737.572917 1.259943 Mech  0 0 0 mf  0 nObs -1
PHASE ID Ins Cmp On Pha  FM Date     HrMn   Sec     Err  ErrMag    Coda      Amp       Per       PriorWt  >   TTpred    Res       Weight    StaLoc(X  Y         Z)        SDist    SAzim  RAz  RDip RQual    Tcorr       TTerr
M04          ?    BHZ  e P      d 20230825 2203   46.3040 GAU  1.05e-03 -1.00e+00  2.04e+03 -1.00e+00    1.0000 >    0.7890    0.0025    1.5915  737.1400 9819.2520   -1.5710    1.0331 335.23 335.2 157.6 10     0.0000    0.0158
M04          ?    BHN  e S      ? 20230825 2203   46.8622 GAU  6.50e-04 -1.00e+00  7.53e+02 -1.00e+00    1.0000 >    1.3485    0.0011    1.3642  737.1400 9819.2520   -1.5710    1.0331 335.23 335.2 156.7 10     0.0000    0.0270
M06          ?    BHZ  i P      c 20230825 2203   46.2674 GAU  5.62e-04 -1.00e+00 -1.00e+00 -1.00e+00    1.0000 >    0.7493    0.0056    1.5562  738.3100 9819.1170   -1.3960    1.0900  42.55  42.5 155.2 10     0.0000    0.0150
M06          ?    BHN  e S      ? 20230825 2203   46.7875 GAU  4.77e-04 -1.00e+00 -1.00e+00 -1.00e+00    1.0000 >    1.2797   -0.0047    1.4084  738.3100 9819.1170   -1.3960    1.0900  42.55  42.5 154.2 10     0.0000    0.0256
M14          ?    BHZ  e P      c 20230825 2203   46.3107 GAU  1.97e-03 -1.00e+00 -1.00e+00 -1.00e+00    1.0000 >    0.8227   -0.0244    1.2284  737.5530 9820.0110   -1.3980    1.6971 359.33 359.3 143.6 10     0.0000    0.0165
M14          ?    BHN  e S      ? 20230825 2203   46.9059 GAU  5.90e-04 -1.00e+00  3.79e+02 -1.00e+00    1.0000 >    1.4047   -0.0113    1.3203  737.5530 9820.0110   -1.3980    1.6971 359.33 359.3 142.1 10     0.0000    0.0281
M11          ?    BHZ  i P      c 20230825 2203   46.3949 GAU  2.05e-03 -1.00e+00 -1.00e+00 -1.00e+00    1.0000 >    0.9070   -0.0247    1.2216  738.4670 9820.4900   -1.3120    2.3525  22.34  22.3 132.1 10     0.0000    0.0181
M11          ?    BHN  e S      ? 20230825 2203   47.0686 GAU  4.18e-04 -1.00e+00 -1.00e+00 -1.00e+00    1.0000 >    1.5471    0.0090    1.2196  738.4670 9820.4900   -1.3120    2.3525  22.34  22.3 129.9 10     0.0000    0.0309
M09          ?    BHZ  i P      c 20230825 2203   46.4786 GAU  1.53e-03 -1.00e+00  1.05e+01 -1.00e+00    1.0000 >    0.9595    0.0066    1.4740  737.8820 9820.9850   -1.2700    2.6888   6.60   6.6 126.7 10     0.0000    0.0192
M09          ?    BHN  e S      ? 20230825 2203   47.1551 GAU  6.24e-04 -1.00e+00  4.65e+02 -1.00e+00    1.0000 >    1.6355    0.0071    1.2040  737.8820 9820.9850   -1.2700    2.6888   6.60   6.6 124.4 10     0.0000    0.0327
M07          ?    BHZ  i P      c 20230825 2203   46.9425 GAU  3.01e-04 -1.00e+00 -1.00e+00 -1.00e+00    1.0000 >    1.3122    0.1178    0.1376  737.4430 9822.8030   -1.1120    4.4909 358.34 358.3 106.4 10     0.0000    0.0262
M07          ?    BHN  e S      ? 20230825 2203   47.9613 GAU  3.91e-04 -1.00e+00 -1.00e+00 -1.00e+00    1.0000 >    2.2243    0.2245    0.0849  737.4430 9822.8030   -1.1120    4.4909 358.34 358.3 103.4 10     0.0000    0.0445
M12          ?    BHZ  e P      c 20230825 2203   47.0957 GAU  2.05e-03 -1.00e+00 -1.00e+00 -1.00e+00    1.0000 >    1.4370    0.1463    0.1526  736.8520 9823.3800   -0.9890    5.1170 351.90 351.9 101.0 10     0.0000    0.0287
M12          ?    BHE  e S      ? 20230825 2203   48.2527 GAU  1.38e-03 -1.00e+00  1.97e+01 -1.00e+00    1.0000 >    2.4270    0.3132    0.0367  736.8520 9823.3800   -0.9890    5.1170 351.90 351.9  98.9 10     0.0000    0.0485
END_PHASE
END_NLLOC

