NLLOC "./loc/SEML.20230828.220858.grid0" "LOCATED" "Location completed."
PUBLIC_ID None
SIGNATURE "Arham Zakki Edelo - edelo.17034@mhs.its.ac.id   obs:./obs/2023_08.obs   NLLoc:v7.00.10(30Aug2020)   run:28Dec2023 20h10m01"
COMMENT "SEML"
GRID  2001 2001 1001  727 9811 -2  0.01 0.01 0.01 PROB_DENSITY
SEARCH OCTREE nInitial 4851 nEvaluated 20019 smallestNodeSide 0.014881/0.014881/0.014205 oct_tree_integral 7.138229e-02 scatter_volume 7.138229e-02
HYPOCENTER  x 737.082 y 9817.58 z -0.274148  OT 57.2856  ix -1 iy -1 iz -1 MAXIMUM_LIKELIHOOD
GEOGRAPHIC  OT 2023 08 28  22 08 57.285625  Lat 9817.584821 Long 737.081845 Depth -0.274148
QUALITY  Pmax 6.54752e+42 MFmin 48.4272 MFmax 58.1515 RMS 0.0182 Nphs 14 Gap 319.014 Dist 1.96365 Mamp -9.90 0 Mdur -9.90 0
VPVSRATIO  VpVsRatio 1.64576  Npair 7  Diff 0.535995
STATISTICS  ExpectX 737.021685 Y 9817.587814 Z -0.368406  CovXX 0.0758317 XY -0.00315671 XZ 0.0601343 YY 0.0211705 YZ 0.0212912 ZZ 0.137013 EllAz1  201.251 Dip1  18.4652 Len1  0.208496 Az2  299.998 Dip2  24.4851 Len2  0.403105 Len3  7.874706e-01
STAT_GEOG  ExpectLat 9817.587814 Long 737.021685 Depth -0.368406
TRANSFORM  NONE
QML_OriginQuality  assocPhCt 14  usedPhCt 14  assocStaCt -1  usedStaCt 7  depthPhCt -1  stdErr 0.0182  azGap 319.014  secAzGap 319.014  gtLevel -  minDist 1.96365 maxDist 5.79973 medDist 3.49306
QML_OriginUncertainty  horUnc -1  minHorUnc 0.219714  maxHorUnc 0.418128  azMaxHorUnc 93.2943
QML_ConfidenceEllipsoid  semiMajorAxisLength 0.787471  semiMinorAxisLength 0.208496  semiIntermediateAxisLength 0.403105  majorAxisPlunge 58.5587  majorAxisAzimuth 78.1468  majorAxisRotation 300.814
FOCALMECH  Hyp  9817.584821 737.081845 -0.274148 Mech  0 0 0 mf  0 nObs -1
PHASE ID Ins Cmp On Pha  FM Date     HrMn   Sec     Err  ErrMag    Coda      Amp       Per       PriorWt  >   TTpred    Res       Weight    StaLoc(X  Y         Z)        SDist    SAzim  RAz  RDip RQual    Tcorr       TTerr
M06          ?    BHZ  i P      d 20230828 2208   58.0845 GAU  1.80e-03 -1.00e+00  1.83e+01 -1.00e+00    1.0000 >    0.6118    0.1871    0.0011  738.3100 9819.1170   -1.3960    1.9637  38.71  38.7 115.2 10     0.0000    0.0122
M06          ?    BHE  e S      ? 20230828 2208   58.6489 GAU  5.20e-04 -1.00e+00 -1.00e+00 -1.00e+00    1.0000 >    1.0661    0.2972    0.0000  738.3100 9819.1170   -1.3960    1.9637  38.71  38.7 118.3 10     0.0000    0.0213
M14          ?    BHZ  e P      c 20230828 2208   58.0142 GAU  8.98e-04 -1.00e+00 -1.00e+00 -1.00e+00    1.0000 >    0.7341   -0.0056    1.5648  737.5530 9820.0110   -1.3980    2.4715  10.99  11.0 108.9 10     0.0000    0.0147
M14          ?    BHE  e S      ? 20230828 2208   58.5794 GAU  3.26e-04 -1.00e+00  4.03e+02 -1.00e+00    1.0000 >    1.2799    0.0139    1.3682  737.5530 9820.0110   -1.3980    2.4715  10.99  11.0 112.8 10     0.0000    0.0256
M11          ?    BHZ  e P      c 20230828 2208   58.2092 GAU  1.72e-03 -1.00e+00 -1.00e+00 -1.00e+00    1.0000 >    0.9117    0.0118    1.4948  738.4670 9820.4900   -1.3120    3.2185  25.49  25.5 101.0 10     0.0000    0.0182
M11          ?    BHE  i S      ? 20230828 2208   58.8627 GAU  1.61e-03 -1.00e+00 -1.00e+00 -1.00e+00    1.0000 >    1.5933   -0.0162    1.1870  738.4670 9820.4900   -1.3120    3.2185  25.49  25.5 105.7 10     0.0000    0.0319
M09          ?    BHZ  i P      c 20230828 2208   58.2546 GAU  3.01e-04 -1.00e+00  5.82e+00 -1.00e+00    1.0000 >    0.9776   -0.0086    1.4642  737.8820 9820.9850   -1.2700    3.4931  13.24  13.2  98.9 10     0.0000    0.0196
M09          ?    BHE  e S      ? 20230828 2208   59.0122 GAU  3.01e-04 -1.00e+00  3.44e+02 -1.00e+00    1.0000 >    1.7107    0.0158    1.2160  737.8820 9820.9850   -1.2700    3.4931  13.24  13.2 103.5 10     0.0000    0.0342
M13          ?    BHZ  e P      c 20230828 2208   58.3851 GAU  5.20e-04 -1.00e+00 -1.00e+00 -1.00e+00    1.0000 >    1.0921    0.0074    1.4883  737.1780 9821.5410   -1.2220    3.9573   1.39   1.4  96.7 10     0.0000    0.0218
M13          ?    BHN  e S      ? 20230828 2208   59.1910 GAU  3.05e-04 -1.00e+00 -1.00e+00 -1.00e+00    1.0000 >    1.9156   -0.0102    1.1532  737.1780 9821.5410   -1.2220    3.9573   1.39   1.4 100.8 10     0.0000    0.0383
M07          ?    BHZ  i P      d 20230828 2208   58.7415 GAU  3.47e-04 -1.00e+00 -1.00e+00 -1.00e+00    1.0000 >    1.4105    0.0454    0.7873  737.4430 9822.8030   -1.1120    5.2307   3.96   4.0  94.0 10     0.0000    0.0282
M07          ?    BHN  e S      ? 20230828 2208   59.8061 GAU  8.40e-05 -1.00e+00 -1.00e+00 -1.00e+00    1.0000 >    2.4898    0.0307    0.9158  737.4430 9822.8030   -1.1120    5.2307   3.96   4.0  95.9 10     0.0000    0.0498
M12          ?    BHZ  e P      d 20230828 2208   58.8139 GAU  2.79e-04 -1.00e+00 -1.00e+00 -1.00e+00    1.0000 >    1.5465   -0.0182    1.1713  736.8520 9823.3800   -0.9890    5.7997 357.73 357.7  93.2 10     0.0000    0.0309
M12          ?    BHE  e S      ? 20230828 2208   59.9143 GAU  1.34e-04 -1.00e+00  5.07e+01 -1.00e+00    1.0000 >    2.7416   -0.1129    0.1880  736.8520 9823.3800   -0.9890    5.7997 357.73 357.7  94.2 10     0.0000    0.0548
END_PHASE
END_NLLOC

