NLLOC "./loc/SEML.20230825.220140.grid0" "LOCATED" "Location completed."
PUBLIC_ID None
SIGNATURE "Arham Zakki Edelo - edelo.17034@mhs.its.ac.id   obs:./obs/2023_08.obs   NLLoc:v7.00.10(30Aug2020)   run:28Dec2023 20h09m47"
COMMENT "SEML"
GRID  2001 2001 1001  727 9811 -2  0.01 0.01 0.01 PROB_DENSITY
SEARCH OCTREE nInitial 4851 nEvaluated 20011 smallestNodeSide 0.007440/0.007440/0.007102 oct_tree_integral 4.944960e-03 scatter_volume 4.944960e-03
HYPOCENTER  x 737.584 y 9818.7 z 0.439631  OT 39.694  ix -1 iy -1 iz -1 MAXIMUM_LIKELIHOOD
GEOGRAPHIC  OT 2023 08 25  22 01 39.694023  Lat 9818.704613 Long 737.584077 Depth 0.439631
QUALITY  Pmax 4.53716e+56 MFmin 67.1136 MFmax 86.296 RMS 0.0202081 Nphs 17 Gap 244.997 Dist 0.704867 Mamp -9.90 0 Mdur -9.90 0
VPVSRATIO  VpVsRatio 1.69488  Npair 8  Diff 0.540031
STATISTICS  ExpectX 737.618800 Y 9818.703979 Z 0.439553  CovXX 0.0125404 XY 0.00128569 XZ 0.00140824 YY 0.00716154 YZ -0.00296343 ZZ 0.00675658 EllAz1  342.667 Dip1  45.6661 Len1  0.112461 Az2  180.525 Dip2  42.9209 Len2  0.187217 Len3  2.137775e-01
STAT_GEOG  ExpectLat 9818.703979 Long 737.618800 Depth 0.439553
TRANSFORM  NONE
QML_OriginQuality  assocPhCt 17  usedPhCt 17  assocStaCt -1  usedStaCt 9  depthPhCt -1  stdErr 0.0202081  azGap 244.997  secAzGap 244.997  gtLevel -  minDist 0.704867 maxDist 4.73235 medDist 1.99177
QML_OriginUncertainty  horUnc -1  minHorUnc 0.125702  maxHorUnc 0.171794  azMaxHorUnc 77.2248
QML_ConfidenceEllipsoid  semiMajorAxisLength 0.213777  semiMinorAxisLength 0.112461  semiIntermediateAxisLength 0.187217  majorAxisPlunge 9.0292  majorAxisAzimuth 82.0274  majorAxisRotation 132.15
FOCALMECH  Hyp  9818.704613 737.584077 0.439631 Mech  0 0 0 mf  0 nObs -1
PHASE ID Ins Cmp On Pha  FM Date     HrMn   Sec     Err  ErrMag    Coda      Amp       Per       PriorWt  >   TTpred    Res       Weight    StaLoc(X  Y         Z)        SDist    SAzim  RAz  RDip RQual    Tcorr       TTerr
M04          ?    BHZ  e S      ? 20230825 2201   40.2979 GAU  2.52e-03 -1.00e+00 -1.00e+00 -1.00e+00    1.0000 >    0.9907   -0.3868    0.0000  737.1400 9819.2520   -1.5710    0.7049 320.95 320.9 159.8 10     0.0000    0.0198
M06          ?    BHZ  i P      c 20230825 2201   40.2174 GAU  4.21e-04 -1.00e+00 -1.00e+00 -1.00e+00    1.0000 >    0.5366   -0.0133    1.3214  738.3100 9819.1170   -1.3960    0.8349  60.40  60.4 154.8 10     0.0000    0.0107
M06          ?    BHN  e S      ? 20230825 2201   40.6410 GAU  2.59e-03 -1.00e+00 -1.00e+00 -1.00e+00    1.0000 >    0.9360    0.0110    1.3706  738.3100 9819.1170   -1.3960    0.8349  60.40  60.4 154.4 10     0.0000    0.0187
M02          ?    BHZ  e P      d 20230825 2201   40.3104 GAU  5.01e-04 -1.00e+00  4.63e+02 -1.00e+00    1.0000 >    0.6084    0.0079    1.4948  736.5970 9819.4060   -1.4960    1.2109 305.40 305.4 147.0 10     0.0000    0.0122
M02          ?    BHN  e S      ? 20230825 2201   40.7453 GAU  2.79e-03 -1.00e+00 -1.00e+00 -1.00e+00    1.0000 >    1.0606   -0.0093    1.3005  736.5970 9819.4060   -1.4960    1.2109 305.40 305.4 146.5 10     0.0000    0.0212
M14          ?    BHZ  e P      c 20230825 2201   40.3147 GAU  4.21e-04 -1.00e+00 -1.00e+00 -1.00e+00    1.0000 >    0.5998    0.0209    1.1988  737.5530 9820.0110   -1.3980    1.3068 358.64 358.6 143.6 10     0.0000    0.0120
M14          ?    BHN  e S      ? 20230825 2201   40.7530 GAU  2.70e-03 -1.00e+00  3.26e+02 -1.00e+00    1.0000 >    1.0462    0.0128    1.3075  737.5530 9820.0110   -1.3980    1.3068 358.64 358.6 143.0 10     0.0000    0.0209
M11          ?    BHZ  e P      c 20230825 2201   40.3177 GAU  2.48e-03 -1.00e+00 -1.00e+00 -1.00e+00    1.0000 >    0.7040   -0.0803    0.2031  738.4670 9820.4900   -1.3120    1.9918  26.31  26.3 129.5 10     0.0000    0.0141
M11          ?    BHN  e S      ? 20230825 2201   40.8274 GAU  8.22e-04 -1.00e+00 -1.00e+00 -1.00e+00    1.0000 >    1.2287   -0.0953    0.1818  738.4670 9820.4900   -1.3120    1.9918  26.31  26.3 128.5 10     0.0000    0.0246
M09          ?    BHZ  i P      c 20230825 2201   40.4404 GAU  3.12e-04 -1.00e+00  1.25e+02 -1.00e+00    1.0000 >    0.7600   -0.0136    1.3000  737.8820 9820.9850   -1.2700    2.2998   7.44   7.4 124.6 10     0.0000    0.0152
M09          ?    BHE  e S      ? 20230825 2201   41.0208 GAU  3.01e-04 -1.00e+00  3.39e+02 -1.00e+00    1.0000 >    1.3268   -0.0000    1.2653  737.8820 9820.9850   -1.2700    2.2998   7.44   7.4 123.3 10     0.0000    0.0265
M13          ?    BHZ  e P      c 20230825 2201   40.5621 GAU  9.98e-04 -1.00e+00 -1.00e+00 -1.00e+00    1.0000 >    0.8774   -0.0094    1.3607  737.1780 9821.5410   -1.2220    2.8653 351.85 351.9 117.7 10     0.0000    0.0175
M13          ?    BHN  e S      ? 20230825 2201   41.1850 GAU  4.88e-04 -1.00e+00 -1.00e+00 -1.00e+00    1.0000 >    1.5324   -0.0414    0.7216  737.1780 9821.5410   -1.2220    2.8653 351.85 351.9 116.0 10     0.0000    0.0306
M07          ?    BHZ  e P      d 20230825 2201   40.8765 GAU  2.42e-03 -1.00e+00 -1.00e+00 -1.00e+00    1.0000 >    1.1575    0.0250    1.0582  737.4430 9822.8030   -1.1120    4.1008 358.03 358.0 108.0 10     0.0000    0.0231
M07          ?    BHE  e S      ? 20230825 2201   41.7593 GAU  4.28e-04 -1.00e+00 -1.00e+00 -1.00e+00    1.0000 >    2.0225    0.0427    0.6945  737.4430 9822.8030   -1.1120    4.1008 358.03 358.0 105.4 10     0.0000    0.0405
M12          ?    BHZ  e P      c 20230825 2201   40.9975 GAU  1.44e-03 -1.00e+00 -1.00e+00 -1.00e+00    1.0000 >    1.3002    0.0033    1.2758  736.8520 9823.3800   -0.9890    4.7324 351.10 351.1 104.3 10     0.0000    0.0260
M12          ?    BHN  e S      ? 20230825 2201   41.9611 GAU  8.84e-04 -1.00e+00 -1.00e+00 -1.00e+00    1.0000 >    2.2618    0.0053    0.9455  736.8520 9823.3800   -0.9890    4.7324 351.10 351.1  67.2 10     0.0000    0.0452
END_PHASE
END_NLLOC

