NLLOC "./loc/SEML.20230829.142251.grid0" "LOCATED" "Location completed."
PUBLIC_ID None
SIGNATURE "Arham Zakki Edelo - edelo.17034@mhs.its.ac.id   obs:./obs/2023_08.obs   NLLoc:v7.00.10(30Aug2020)   run:28Dec2023 20h10m01"
COMMENT "SEML"
GRID  2001 2001 1001  727 9811 -2  0.01 0.01 0.01 PROB_DENSITY
SEARCH OCTREE nInitial 4851 nEvaluated 20003 smallestNodeSide 0.014881/0.014881/0.014205 oct_tree_integral 2.964126e-02 scatter_volume 2.947866e-02
HYPOCENTER  x 737.871 y 9818.91 z 0.40767  OT 51.0321  ix -1 iy -1 iz -1 MAXIMUM_LIKELIHOOD
GEOGRAPHIC  OT 2023 08 29  14 22 51.032129  Lat 9818.909226 Long 737.870536 Depth 0.407670
QUALITY  Pmax 6.7514e+74 MFmin 87.067 MFmax 106.327 RMS 0.0356609 Nphs 22 Gap 226.614 Dist 0.486106 Mamp -9.90 0 Mdur -9.90 0
VPVSRATIO  VpVsRatio 1.72598  Npair 11  Diff 0.616657
STATISTICS  ExpectX 737.879019 Y 9818.883441 Z 0.476342  CovXX 0.0663999 XY 0.00832347 XZ -0.0096405 YY 0.0104431 YZ -0.00513317 ZZ 0.0334171 EllAz1  353.319 Dip1  9.11784 Len1  0.174627 Az2  292.58 Dip2  -71.8221 Len2  0.331556 Len3  4.987931e-01
STAT_GEOG  ExpectLat 9818.883441 Long 737.879019 Depth 0.476342
TRANSFORM  NONE
QML_OriginQuality  assocPhCt 22  usedPhCt 22  assocStaCt -1  usedStaCt 11  depthPhCt -1  stdErr 0.0356609  azGap 226.614  secAzGap 226.614  gtLevel -  minDist 0.486106 maxDist 4.58533 medDist 2.72137
QML_OriginUncertainty  horUnc -1  minHorUnc 0.145711  maxHorUnc 0.394344  azMaxHorUnc 81.7162
QML_ConfidenceEllipsoid  semiMajorAxisLength 0.498793  semiMinorAxisLength 0.174627  semiIntermediateAxisLength 0.331556  majorAxisPlunge -15.5884  majorAxisAzimuth 80.753  majorAxisRotation 168.969
FOCALMECH  Hyp  9818.909226 737.870536 0.407670 Mech  0 0 0 mf  0 nObs -1
PHASE ID Ins Cmp On Pha  FM Date     HrMn   Sec     Err  ErrMag    Coda      Amp       Per       PriorWt  >   TTpred    Res       Weight    StaLoc(X  Y         Z)        SDist    SAzim  RAz  RDip RQual    Tcorr       TTerr
M06          ?    BHZ  i P      d 20230829 1422   51.5874 GAU  6.74e-04 -1.00e+00 -1.00e+00 -1.00e+00    1.0000 >    0.4974    0.0579    0.9921  738.3100 9819.1170   -1.3960    0.4861  64.70  64.7 164.4 10     0.0000    0.0099
M06          ?    BHN  e S      ? 20230829 1422   52.0112 GAU  7.65e-04 -1.00e+00 -1.00e+00 -1.00e+00    1.0000 >    0.8678    0.1113    0.1750  738.3100 9819.1170   -1.3960    0.4861  64.70  64.7 164.2 10     0.0000    0.0174
M04          ?    BHZ  e P      c 20230829 1422   51.6012 GAU  1.68e-03 -1.00e+00 -1.00e+00 -1.00e+00    1.0000 >    0.5705   -0.0014    1.5360  737.1400 9819.2520   -1.5710    0.8070 295.14 295.1 157.1 10     0.0000    0.0114
M04          ?    BHN  e S      ? 20230829 1422   52.0559 GAU  1.62e-03 -1.00e+00  7.38e+02 -1.00e+00    1.0000 >    0.9943    0.0295    1.3390  737.1400 9819.2520   -1.5710    0.8070 295.14 295.1 156.8 10     0.0000    0.0199
M14          ?    BHZ  i P      c 20230829 1422   51.5978 GAU  1.17e-03 -1.00e+00 -1.00e+00 -1.00e+00    1.0000 >    0.5694   -0.0037    1.5001  737.5530 9820.0110   -1.3980    1.1466 343.92 343.9 146.7 10     0.0000    0.0114
M14          ?    BHN  e S      ? 20230829 1422   52.0120 GAU  3.25e-04 -1.00e+00  2.67e+02 -1.00e+00    1.0000 >    0.9933   -0.0134    1.1849  737.5530 9820.0110   -1.3980    1.1466 343.92 343.9 146.1 10     0.0000    0.0199
M02          ?    BHZ  e P      c 20230829 1422   51.7174 GAU  4.16e-04 -1.00e+00 -1.00e+00 -1.00e+00    1.0000 >    0.6247    0.0605    0.9471  736.5970 9819.4060   -1.4960    1.3670 291.31 291.3 143.2 10     0.0000    0.0125
M02          ?    BHN  e S      ? 20230829 1422   52.2958 GAU  9.78e-04 -1.00e+00 -1.00e+00 -1.00e+00    1.0000 >    1.0893    0.1743    0.0584  736.5970 9819.4060   -1.4960    1.3670 291.31 291.3 142.6 10     0.0000    0.0218
M09          ?    BHZ  i P      c 20230829 1422   51.7401 GAU  2.25e-03 -1.00e+00  1.20e+02 -1.00e+00    1.0000 >    0.7082   -0.0002    1.5077  737.8820 9820.9850   -1.2700    2.0758   0.32   0.3 127.0 10     0.0000    0.0142
M09          ?    BHN  e S      ? 20230829 1422   52.3161 GAU  4.21e-04 -1.00e+00  4.53e+02 -1.00e+00    1.0000 >    1.2368    0.0472    1.1446  737.8820 9820.9850   -1.2700    2.0758   0.32   0.3 125.8 10     0.0000    0.0247
M13          ?    BHZ  i P      c 20230829 1422   51.8663 GAU  2.53e-04 -1.00e+00 -1.00e+00 -1.00e+00    1.0000 >    0.8407   -0.0065    1.3687  737.1780 9821.5410   -1.2220    2.7214 345.26 345.3 118.5 10     0.0000    0.0168
M13          ?    BHE  e S      ? 20230829 1422   52.5215 GAU  5.77e-04 -1.00e+00 -1.00e+00 -1.00e+00    1.0000 >    1.4687    0.0206    1.3463  737.1780 9821.5410   -1.2220    2.7214 345.26 345.3 116.8 10     0.0000    0.0294
M10          ?    BHZ  e P      c 20230829 1422   51.8418 GAU  8.62e-04 -1.00e+00 -1.00e+00 -1.00e+00    1.0000 >    0.8558   -0.0461    0.3778  736.5490 9821.3650   -1.2200    2.7888 331.71 331.7 117.9 10     0.0000    0.0171
M10          ?    BHN  e S      ? 20230829 1422   52.5562 GAU  1.62e-03 -1.00e+00 -1.00e+00 -1.00e+00    1.0000 >    1.4950    0.0290    1.3025  736.5490 9821.3650   -1.2200    2.7888 331.71 331.7 116.2 10     0.0000    0.0299
M08          ?    BHZ  e P      c 20230829 1422   51.9030 GAU  1.61e-04 -1.00e+00 -1.00e+00 -1.00e+00    1.0000 >    0.9589   -0.0880    0.1548  738.2480 9822.1600   -1.1510    3.2726   6.62   6.6 112.9 10     0.0000    0.0192
M08          ?    BHE  e S      ? 20230829 1422   52.6246 GAU  1.56e-04 -1.00e+00 -1.00e+00 -1.00e+00    1.0000 >    1.6760   -0.0836    0.2600  738.2480 9822.1600   -1.1510    3.2726   6.62   6.6 110.7 10     0.0000    0.0335
M05          ?    BHZ  e P      d 20230829 1422   52.0679 GAU  3.22e-03 -1.00e+00  3.05e+02 -1.00e+00    1.0000 >    1.0268    0.0090    1.4534  736.2660 9822.0830   -1.1500    3.5563 333.18 333.2 111.0 10     0.0000    0.0205
M05          ?    BHE  e S      ? 20230829 1422   52.8409 GAU  5.05e-04 -1.00e+00 -1.00e+00 -1.00e+00    1.0000 >    1.7946    0.0141    1.2665  736.2660 9822.0830   -1.1500    3.5563 333.18 333.2 108.6 10     0.0000    0.0359
M07          ?    BHZ  i P      d 20230829 1422   52.1704 GAU  5.62e-04 -1.00e+00 -1.00e+00 -1.00e+00    1.0000 >    1.1098    0.0284    1.3529  737.4430 9822.8030   -1.1120    3.9172 353.73 353.7 108.5 10     0.0000    0.0222
M07          ?    BHN  e S      ? 20230829 1422   53.0168 GAU  7.36e-04 -1.00e+00 -1.00e+00 -1.00e+00    1.0000 >    1.9401    0.0446    1.1044  737.4430 9822.8030   -1.1120    3.9172 353.73 353.7 105.8 10     0.0000    0.0388
M12          ?    BHZ  e P      d 20230829 1422   52.3291 GAU  1.71e-03 -1.00e+00 -1.00e+00 -1.00e+00    1.0000 >    1.2613    0.0357    1.2784  736.8520 9823.3800   -0.9890    4.5853 347.17 347.2 104.4 10     0.0000    0.0252
M12          ?    BHE  e S      ? 20230829 1422   53.3600 GAU  1.02e-03 -1.00e+00  4.80e+01 -1.00e+00    1.0000 >    2.2058    0.1221    0.3495  736.8520 9823.3800   -0.9890    4.5853 347.17 347.2  91.7  9     0.0000    0.0441
END_PHASE
END_NLLOC

