NLLOC "./loc/SEML.20230830.054627.grid0" "LOCATED" "Location completed."
PUBLIC_ID None
SIGNATURE "Arham Zakki Edelo - edelo.17034@mhs.its.ac.id   obs:./obs/2023_08.obs   NLLoc:v7.00.10(30Aug2020)   run:28Dec2023 20h10m03"
COMMENT "SEML"
GRID  2001 2001 1001  727 9811 -2  0.01 0.01 0.01 PROB_DENSITY
SEARCH OCTREE nInitial 4851 nEvaluated 20019 smallestNodeSide 0.029762/0.029762/0.028409 oct_tree_integral 7.697770e-02 scatter_volume 7.697770e-02
HYPOCENTER  x 739.158 y 9819.02 z 0.372159  OT 27.0777  ix -1 iy -1 iz -1 MAXIMUM_LIKELIHOOD
GEOGRAPHIC  OT 2023 08 30  05 46 27.077692  Lat 9819.020833 Long 739.157738 Depth 0.372159
QUALITY  Pmax 1.18274e+22 MFmin 31.2099 MFmax 41.3565 RMS 0.0236932 Nphs 8 Gap 300.86 Dist 0.853175 Mamp -9.90 0 Mdur -9.90 0
VPVSRATIO  VpVsRatio 1.70106  Npair 4  Diff 0.410446
STATISTICS  ExpectX 738.866591 Y 9818.898309 Z 0.377812  CovXX 0.323352 XY 0.0784876 XZ -0.0156419 YY 0.0352835 YZ -0.0246371 ZZ 0.120106 EllAz1  346.391 Dip1  10.5742 Len1  0.201924 Az2  318.664 Dip2  -78.0911 Len2  0.655785 Len3  1.104142e+00
STAT_GEOG  ExpectLat 9818.898309 Long 738.866591 Depth 0.377812
TRANSFORM  NONE
QML_OriginQuality  assocPhCt 8  usedPhCt 8  assocStaCt -1  usedStaCt 4  depthPhCt -1  stdErr 0.0236932  azGap 300.86  secAzGap 300.86  gtLevel -  minDist 0.853175 maxDist 4.15272 medDist 1.98277
QML_OriginUncertainty  horUnc -1  minHorUnc 0.187509  maxHorUnc 0.888652  azMaxHorUnc 75.7065
QML_ConfidenceEllipsoid  semiMajorAxisLength 1.10414  semiMinorAxisLength 0.201924  semiIntermediateAxisLength 0.655785  majorAxisPlunge -5.41564  majorAxisAzimuth 75.3772  majorAxisRotation 169.19
FOCALMECH  Hyp  9819.020833 739.157738 0.372159 Mech  0 0 0 mf  0 nObs -1
PHASE ID Ins Cmp On Pha  FM Date     HrMn   Sec     Err  ErrMag    Coda      Amp       Per       PriorWt  >   TTpred    Res       Weight    StaLoc(X  Y         Z)        SDist    SAzim  RAz  RDip RQual    Tcorr       TTerr
M06          ?    BHZ  i P      c 20230830 0546   27.5938 GAU  3.97e-04 -1.00e+00  7.16e+01 -1.00e+00    1.0000 >    0.5230   -0.0069    0.9027  738.3100 9819.1170   -1.3960    0.8532 276.47 276.5 153.5 10     0.0000    0.0105
M06          ?    BHN  e S      ? 20230830 0546   28.0238 GAU  5.78e-04 -1.00e+00  9.09e-01 -1.00e+00    1.0000 >    0.9127    0.0333    1.0455  738.3100 9819.1170   -1.3960    0.8532 276.47 276.5 153.1 10     0.0000    0.0183
M11          ?    BHZ  i P      c 20230830 0546   27.7369 GAU  5.37e-04 -1.00e+00 -1.00e+00 -1.00e+00    1.0000 >    0.6216    0.0376    0.9558  738.4670 9820.4900   -1.3120    1.6234 334.82 334.8 134.6 10     0.0000    0.0124
M11          ?    BHE  e S      ? 20230830 0546   28.1665 GAU  2.04e-04 -1.00e+00 -1.00e+00 -1.00e+00    1.0000 >    1.0855    0.0033    1.0789  738.4670 9820.4900   -1.3120    1.6234 334.82 334.8 133.8 10     0.0000    0.0217
M09          ?    BHZ  i P      c 20230830 0546   27.8398 GAU  5.72e-04 -1.00e+00  1.34e+02 -1.00e+00    1.0000 >    0.7594    0.0027    1.1063  737.8820 9820.9850   -1.2700    2.3421 327.00 327.0 122.8 10     0.0000    0.0152
M09          ?    BHE  e S      ? 20230830 0546   28.4283 GAU  6.42e-05 -1.00e+00  3.81e+02 -1.00e+00    1.0000 >    1.3267    0.0239    1.0710  737.8820 9820.9850   -1.2700    2.3421 327.00 327.0 121.4 10     0.0000    0.0265
M07          ?    BHZ  e P      c 20230830 0546   28.2770 GAU  2.71e-04 -1.00e+00 -1.00e+00 -1.00e+00    1.0000 >    1.1651    0.0343    1.0022  737.4430 9822.8030   -1.1120    4.1527 335.61 335.6 106.7 10     0.0000    0.0233
M07          ?    BHN  e S      ? 20230830 0546   29.1171 GAU  3.25e-04 -1.00e+00 -1.00e+00 -1.00e+00    1.0000 >    2.0374    0.0021    0.8377  737.4430 9822.8030   -1.1120    4.1527 335.61 335.6 103.7 10     0.0000    0.0407
END_PHASE
END_NLLOC

