NLLOC "./loc/SEML.20230825.220228.grid0" "LOCATED" "Location completed."
PUBLIC_ID None
SIGNATURE "Arham Zakki Edelo - edelo.17034@mhs.its.ac.id   obs:./obs/2023_08.obs   NLLoc:v7.00.10(30Aug2020)   run:28Dec2023 20h09m48"
COMMENT "SEML"
GRID  2001 2001 1001  727 9811 -2  0.01 0.01 0.01 PROB_DENSITY
SEARCH OCTREE nInitial 4851 nEvaluated 20011 smallestNodeSide 0.014881/0.014881/0.014205 oct_tree_integral 1.182296e-02 scatter_volume 1.175352e-02
HYPOCENTER  x 738.124 y 9818.54 z 0.819602  OT 28.1427  ix -1 iy -1 iz -1 MAXIMUM_LIKELIHOOD
GEOGRAPHIC  OT 2023 08 25  22 02 28.142700  Lat 9818.537202 Long 738.123512 Depth 0.819602
QUALITY  Pmax 9.89715e+87 MFmin 88.5657 MFmax 104.535 RMS 0.0203819 Nphs 24 Gap 281.816 Dist 0.609051 Mamp -9.90 0 Mdur -9.90 0
VPVSRATIO  VpVsRatio 1.6932  Npair 12  Diff 0.617746
STATISTICS  ExpectX 738.128683 Y 9818.527979 Z 0.812183  CovXX 0.013074 XY 0.00105241 XZ 0.000570387 YY 0.00750505 YZ -0.00246573 ZZ 0.00832201 EllAz1  168.957 Dip1  -39.3635 Len1  0.135988 Az2  352.512 Dip2  -50.5824 Len2  0.191534 Len3  2.164313e-01
STAT_GEOG  ExpectLat 9818.527979 Long 738.128683 Depth 0.812183
TRANSFORM  NONE
QML_OriginQuality  assocPhCt 24  usedPhCt 24  assocStaCt -1  usedStaCt 12  depthPhCt -1  stdErr 0.0203819  azGap 281.816  secAzGap 281.816  gtLevel -  minDist 0.609051 maxDist 5.00694 medDist 2.80439
QML_OriginUncertainty  horUnc -1  minHorUnc 0.12969  maxHorUnc 0.174678  azMaxHorUnc 79.6478
QML_ConfidenceEllipsoid  semiMajorAxisLength 0.216431  semiMinorAxisLength 0.135988  semiIntermediateAxisLength 0.191534  majorAxisPlunge 1.74431  majorAxisAzimuth 80.3883  majorAxisRotation 320.563
FOCALMECH  Hyp  9818.537202 738.123512 0.819602 Mech  0 0 0 mf  0 nObs -1
PHASE ID Ins Cmp On Pha  FM Date     HrMn   Sec     Err  ErrMag    Coda      Amp       Per       PriorWt  >   TTpred    Res       Weight    StaLoc(X  Y         Z)        SDist    SAzim  RAz  RDip RQual    Tcorr       TTerr
M06          ?    BHZ  i P      c 20230825 2202   28.7662 GAU  5.12e-04 -1.00e+00  2.51e+02 -1.00e+00    1.0000 >    0.6076    0.0159    1.2709  738.3100 9819.1170   -1.3960    0.6091  17.83  17.8 164.0 10     0.0000    0.0122
M06          ?    BHN  e S      ? 20230825 2202   29.2033 GAU  3.09e-03 -1.00e+00 -1.00e+00 -1.00e+00    1.0000 >    1.0474    0.0133    1.2419  738.3100 9819.1170   -1.3960    0.6091  17.83  17.8 162.8 10     0.0000    0.0209
M04          ?    BHZ  e P      d 20230825 2202   28.8726 GAU  2.43e-03 -1.00e+00  2.76e+03 -1.00e+00    1.0000 >    0.7111    0.0188    1.2042  737.1400 9819.2520   -1.5710    1.2158 306.01 306.0 152.1 10     0.0000    0.0142
M04          ?    BHN  e S      ? 20230825 2202   29.3553 GAU  1.08e-03 -1.00e+00  7.65e+02 -1.00e+00    1.0000 >    1.2256   -0.0130    1.2003  737.1400 9819.2520   -1.5710    1.2158 306.01 306.0 149.8 10     0.0000    0.0245
M14          ?    BHZ  i P      c 20230825 2202   28.8622 GAU  1.71e-03 -1.00e+00 -1.00e+00 -1.00e+00    1.0000 >    0.7198   -0.0003    1.4227  737.5530 9820.0110   -1.3980    1.5804 338.84 338.8 143.4 10     0.0000    0.0144
M14          ?    BHE  e S      ? 20230825 2202   29.3806 GAU  4.51e-04 -1.00e+00  3.03e+02 -1.00e+00    1.0000 >    1.2402   -0.0023    1.2616  737.5530 9820.0110   -1.3980    1.5804 338.84 338.8 140.2 10     0.0000    0.0248
M02          ?    BHZ  e P      d 20230825 2202   28.8709 GAU  6.74e-04 -1.00e+00  4.84e+02 -1.00e+00    1.0000 >    0.7694   -0.0412    0.6561  736.5970 9819.4060   -1.4960    1.7564 299.65 299.6 141.5 10     0.0000    0.0154
M02          ?    BHN  e S      ? 20230825 2202   29.3507 GAU  2.27e-03 -1.00e+00 -1.00e+00 -1.00e+00    1.0000 >    1.3257   -0.1177    0.0229  736.5970 9819.4060   -1.4960    1.7564 299.65 299.6 138.1 10     0.0000    0.0265
M11          ?    BHZ  i P      c 20230825 2202   28.8984 GAU  8.76e-04 -1.00e+00 -1.00e+00 -1.00e+00    1.0000 >    0.7679   -0.0122    1.3209  738.4670 9820.4900   -1.3120    1.9828   9.98  10.0 135.6 10     0.0000    0.0154
M11          ?    BHN  e S      ? 20230825 2202   29.4556 GAU  1.72e-03 -1.00e+00 -1.00e+00 -1.00e+00    1.0000 >    1.3228   -0.0099    1.1975  738.4670 9820.4900   -1.3120    1.9828   9.98  10.0 131.4 10     0.0000    0.0265
M09          ?    BHZ  i P      c 20230825 2202   28.9840 GAU  2.89e-04 -1.00e+00 -1.00e+00 -1.00e+00    1.0000 >    0.8506   -0.0092    1.3422  737.8820 9820.9850   -1.2700    2.4597 354.37 354.4 128.3 10     0.0000    0.0170
M09          ?    BHE  e S      ? 20230825 2202   29.6309 GAU  4.51e-04 -1.00e+00  4.12e+02 -1.00e+00    1.0000 >    1.4642    0.0240    1.0187  737.8820 9820.9850   -1.2700    2.4597 354.37 354.4 123.0 10     0.0000    0.0293
M13          ?    BHZ  i P      c 20230825 2202   29.1003 GAU  6.07e-04 -1.00e+00 -1.00e+00 -1.00e+00    1.0000 >    0.9880   -0.0304    0.9439  737.1780 9821.5410   -1.2220    3.1491 342.53 342.5 120.4 10     0.0000    0.0198
M13          ?    BHE  e S      ? 20230825 2202   29.8436 GAU  4.51e-04 -1.00e+00 -1.00e+00 -1.00e+00    1.0000 >    1.6988    0.0021    1.1086  737.1780 9821.5410   -1.2220    3.1491 342.53 342.5 113.5 10     0.0000    0.0340
M10          ?    BHZ  i P      c 20230825 2202   29.1384 GAU  9.73e-04 -1.00e+00 -1.00e+00 -1.00e+00    1.0000 >    1.0071   -0.0114    1.2789  736.5490 9821.3650   -1.2200    3.2366 330.89 330.9 119.6 10     0.0000    0.0201
M10          ?    BHE  e S      ? 20230825 2202   29.9013 GAU  1.35e-03 -1.00e+00 -1.00e+00 -1.00e+00    1.0000 >    1.7313    0.0273    0.9370  736.5490 9821.3650   -1.2200    3.2366 330.89 330.9 112.5 10     0.0000    0.0346
M08          ?    BHZ  i P      d 20230825 2202   29.2144 GAU  8.98e-04 -1.00e+00  7.71e+02 -1.00e+00    1.0000 >    1.0844   -0.0128    1.2426  738.2480 9822.1600   -1.1510    3.6249   1.97   2.0 115.7 10     0.0000    0.0217
M08          ?    BHN  e S      ? 20230825 2202   29.9985 GAU  9.88e-04 -1.00e+00  3.28e+02 -1.00e+00    1.0000 >    1.8618   -0.0060    1.0488  738.2480 9822.1600   -1.1510    3.6249   1.97   2.0 107.7 10     0.0000    0.0372
M07          ?    BHZ  e P      d 20230825 2202   29.3857 GAU  1.49e-03 -1.00e+00 -1.00e+00 -1.00e+00    1.0000 >    1.2422    0.0008    1.2621  737.4430 9822.8030   -1.1120    4.3197 350.94 350.9 111.0 10     0.0000    0.0248
M07          ?    BHN  e S      ? 20230825 2202   30.2507 GAU  6.93e-04 -1.00e+00 -1.00e+00 -1.00e+00    1.0000 >    2.1271   -0.0190    0.9170  737.4430 9822.8030   -1.1120    4.3197 350.94 350.9 102.3 10     0.0000    0.0425
M01          ?    BHZ  i P      c 20230825 2202   29.4293 GAU  2.79e-03 -1.00e+00 -1.00e+00 -1.00e+00    1.0000 >    1.2458    0.0408    0.7582  736.4090 9822.5140   -1.1200    4.3306 336.68 336.7 111.0 10     0.0000    0.0249
M01          ?    BHE  e S      ? 20230825 2202   30.3182 GAU  1.12e-03 -1.00e+00  3.70e+02 -1.00e+00    1.0000 >    2.1334    0.0421    0.7393  736.4090 9822.5140   -1.1200    4.3306 336.68 336.7 102.3 10     0.0000    0.0427
M12          ?    BHZ  i P      c 20230825 2202   29.5930 GAU  2.68e-03 -1.00e+00 -1.00e+00 -1.00e+00    1.0000 >    1.3930    0.0573    0.5072  736.8520 9823.3800   -0.9890    5.0069 345.29 345.3 106.7 10     0.0000    0.0279
M12          ?    BHE  e S      ? 20230825 2202   30.6479 GAU  2.90e-03 -1.00e+00 -1.00e+00 -1.00e+00    1.0000 >    2.3743    0.1309    0.0963  736.8520 9823.3800   -0.9890    5.0069 345.29 345.3  98.3 10     0.0000    0.0475
END_PHASE
END_NLLOC

