NLLOC "./loc/SEML.20230830.054704.grid0" "LOCATED" "Location completed."
PUBLIC_ID None
SIGNATURE "Arham Zakki Edelo - edelo.17034@mhs.its.ac.id   obs:./obs/2023_08.obs   NLLoc:v7.00.10(30Aug2020)   run:28Dec2023 20h10m04"
COMMENT "SEML"
GRID  2001 2001 1001  727 9811 -2  0.01 0.01 0.01 PROB_DENSITY
SEARCH OCTREE nInitial 4851 nEvaluated 20011 smallestNodeSide 0.014881/0.014881/0.014205 oct_tree_integral 5.485855e-02 scatter_volume 5.485855e-02
HYPOCENTER  x 739.448 y 9818.69 z 0.521307  OT 3.69061  ix -1 iy -1 iz -1 MAXIMUM_LIKELIHOOD
GEOGRAPHIC  OT 2023 08 30  05 47 3.690605  Lat 9818.686012 Long 739.447917 Depth 0.521307
QUALITY  Pmax 2.94034e+28 MFmin 37.3733 MFmax 45.8694 RMS 0.0208129 Nphs 10 Gap 316.71 Dist 1.2168 Mamp -9.90 0 Mdur -9.90 0
VPVSRATIO  VpVsRatio 1.62771  Npair 5  Diff 0.513568
STATISTICS  ExpectX 738.568676 Y 9818.467417 Z 0.504810  CovXX 0.965437 XY 0.215414 XZ 0.0169708 YY 0.0630522 YZ -0.00133759 ZZ 0.0452527 EllAz1  347.09 Dip1  9.10441 Len1  0.217953 Az2  173.217 Dip2  80.8442 Len2  0.402042 Len3  1.892397e+00
STAT_GEOG  ExpectLat 9818.467417 Long 738.568676 Depth 0.504810
TRANSFORM  NONE
QML_OriginQuality  assocPhCt 10  usedPhCt 10  assocStaCt -1  usedStaCt 5  depthPhCt -1  stdErr 0.0208129  azGap 316.71  secAzGap 316.71  gtLevel -  minDist 1.2168 maxDist 4.57922 medDist 2.31221
QML_OriginUncertainty  horUnc -1  minHorUnc 0.181145  maxHorUnc 1.52732  azMaxHorUnc 77.2393
QML_ConfidenceEllipsoid  semiMajorAxisLength 1.8924  semiMinorAxisLength 0.217953  semiIntermediateAxisLength 0.402042  majorAxisPlunge 0.960903  majorAxisAzimuth 77.2442  majorAxisRotation 170.889
FOCALMECH  Hyp  9818.686012 739.447917 0.521307 Mech  0 0 0 mf  0 nObs -1
PHASE ID Ins Cmp On Pha  FM Date     HrMn   Sec     Err  ErrMag    Coda      Amp       Per       PriorWt  >   TTpred    Res       Weight    StaLoc(X  Y         Z)        SDist    SAzim  RAz  RDip RQual    Tcorr       TTerr
M06          ?    BHZ  e P      c 20230830 0547    4.2969 GAU  4.99e-04 -1.00e+00 -1.00e+00 -1.00e+00    1.0000 >    0.6033    0.0030    1.5246  738.3100 9819.1170   -1.3960    1.2168 290.74 290.7 146.4 10     0.0000    0.0121
M06          ?    BHN  e S      ? 20230830 0547    4.7343 GAU  8.73e-04 -1.00e+00 -1.00e+00 -1.00e+00    1.0000 >    1.0510   -0.0073    1.3439  738.3100 9819.1170   -1.3960    1.2168 290.74 290.7 143.0 10     0.0000    0.0210
M11          ?    BHZ  e P      c 20230830 0547    4.4096 GAU  9.31e-04 -1.00e+00 -1.00e+00 -1.00e+00    1.0000 >    0.7297   -0.0107    1.3820  738.4670 9820.4900   -1.3120    2.0534 331.46 331.5 129.4 10     0.0000    0.0146
M11          ?    BHN  e S      ? 20230830 0547    4.9759 GAU  1.41e-04 -1.00e+00 -1.00e+00 -1.00e+00    1.0000 >    1.2716    0.0137    1.1678  738.4670 9820.4900   -1.3120    2.0534 331.46 331.5 122.8 10     0.0000    0.0254
M14          ?    BHZ  e P      c 20230830 0547    4.3611 GAU  1.24e-03 -1.00e+00 -1.00e+00 -1.00e+00    1.0000 >    0.7978   -0.1274    0.0816  737.5530 9820.0110   -1.3980    2.3122 304.96 305.0 127.0 10     0.0000    0.0160
M14          ?    BHN  e S      ? 20230830 0547    4.9080 GAU  6.02e-04 -1.00e+00  3.72e+02 -1.00e+00    1.0000 >    1.3897   -0.1723    0.0783  737.5530 9820.0110   -1.3980    2.3122 304.96 305.0 119.9 10     0.0000    0.0278
M09          ?    BHZ  i P      d 20230830 0547    4.5841 GAU  1.87e-04 -1.00e+00  2.55e+02 -1.00e+00    1.0000 >    0.8762    0.0173    1.1736  737.8820 9820.9850   -1.2700    2.7816 325.74 325.7 119.6 10     0.0000    0.0175
M09          ?    BHN  e S      ? 20230830 0547    5.2079 GAU  1.60e-04 -1.00e+00  5.15e+02 -1.00e+00    1.0000 >    1.5271   -0.0098    1.1300  737.8820 9820.9850   -1.2700    2.7816 325.74 325.7 109.3 10     0.0000    0.0305
M07          ?    BHZ  e P      c 20230830 0547    4.9601 GAU  3.01e-04 -1.00e+00 -1.00e+00 -1.00e+00    1.0000 >    1.2816   -0.0121    1.1970  737.4430 9822.8030   -1.1120    4.5792 334.03 334.0 105.0 10     0.0000    0.0256
M07          ?    BHN  e S      ? 20230830 0547    5.9110 GAU  1.83e-03 -1.00e+00 -1.00e+00 -1.00e+00    1.0000 >    2.2176    0.0028    0.9211  737.4430 9822.8030   -1.1120    4.5792 334.03 334.0  91.4  9     0.0000    0.0444
END_PHASE
END_NLLOC

