NLLOC "./loc/SEML.20230828.213939.grid0" "LOCATED" "Location completed."
PUBLIC_ID None
SIGNATURE "Arham Zakki Edelo - edelo.17034@mhs.its.ac.id   obs:./obs/2023_08.obs   NLLoc:v7.00.10(30Aug2020)   run:28Dec2023 20h10m00"
COMMENT "SEML"
GRID  2001 2001 1001  727 9811 -2  0.01 0.01 0.01 PROB_DENSITY
SEARCH OCTREE nInitial 4851 nEvaluated 20003 smallestNodeSide 0.014881/0.014881/0.014205 oct_tree_integral 2.379882e-02 scatter_volume 2.379882e-02
HYPOCENTER  x 739.76 y 9819.07 z 0.634943  OT 39.0935  ix -1 iy -1 iz -1 MAXIMUM_LIKELIHOOD
GEOGRAPHIC  OT 2023 08 28  21 39 39.093500  Lat 9819.072917 Long 739.760417 Depth 0.634943
QUALITY  Pmax 3.41723e+28 MFmin 36.1995 MFmax 43.5059 RMS 0.0104098 Nphs 10 Gap 314.129 Dist 1.45109 Mamp -9.90 0 Mdur -9.90 0
VPVSRATIO  VpVsRatio 1.65456  Npair 5  Diff 0.482933
STATISTICS  ExpectX 739.760564 Y 9819.099349 Z 0.614441  CovXX 0.0357697 XY 0.014971 XZ -0.0158547 YY 0.0300692 YZ -0.0192956 ZZ 0.0305403 EllAz1  3.24379 Dip1  45.8798 Len1  0.196948 Az2  299 Dip2  -22.8503 Len2  0.264591 Len3  4.810627e-01
STAT_GEOG  ExpectLat 9819.099349 Long 739.760564 Depth 0.614441
TRANSFORM  NONE
QML_OriginQuality  assocPhCt 10  usedPhCt 10  assocStaCt -1  usedStaCt 5  depthPhCt -1  stdErr 0.0104098  azGap 314.129  secAzGap 314.129  gtLevel -  minDist 1.45109 maxDist 4.61211 medDist 2.68039
QML_OriginUncertainty  horUnc -1  minHorUnc 0.201651  maxHorUnc 0.332816  azMaxHorUnc 50.3897
QML_ConfidenceEllipsoid  semiMajorAxisLength 0.481063  semiMinorAxisLength 0.196948  semiIntermediateAxisLength 0.264591  majorAxisPlunge -35.2959  majorAxisAzimuth 46.3564  majorAxisRotation 100.19
FOCALMECH  Hyp  9819.072917 739.760417 0.634943 Mech  0 0 0 mf  0 nObs -1
PHASE ID Ins Cmp On Pha  FM Date     HrMn   Sec     Err  ErrMag    Coda      Amp       Per       PriorWt  >   TTpred    Res       Weight    StaLoc(X  Y         Z)        SDist    SAzim  RAz  RDip RQual    Tcorr       TTerr
M06          ?    BHZ  i P      c 20230828 2139   39.7546 GAU  7.49e-04 -1.00e+00 -1.00e+00 -1.00e+00    1.0000 >    0.6617   -0.0005    1.5955  738.3100 9819.1170   -1.3960    1.4511 271.74 271.7 143.1 10     0.0000    0.0132
M06          ?    BHE  e S      ? 20230828 2139   40.2444 GAU  2.72e-04 -1.00e+00 -1.00e+00 -1.00e+00    1.0000 >    1.1474    0.0035    1.3615  738.3100 9819.1170   -1.3960    1.4511 271.74 271.7 139.6 10     0.0000    0.0229
M11          ?    BHZ  e P      c 20230828 2139   39.8148 GAU  3.25e-04 -1.00e+00 -1.00e+00 -1.00e+00    1.0000 >    0.7231   -0.0018    1.5651  738.4670 9820.4900   -1.3120    1.9186 317.61 317.6 133.5 10     0.0000    0.0145
M11          ?    BHN  e S      ? 20230828 2139   40.3650 GAU  2.89e-04 -1.00e+00 -1.00e+00 -1.00e+00    1.0000 >    1.2540    0.0175    1.1513  738.4670 9820.4900   -1.3120    1.9186 317.61 317.6 128.6 10     0.0000    0.0251
M09          ?    BHZ  e P      c 20230828 2139   39.9613 GAU  2.61e-04 -1.00e+00  6.81e+01 -1.00e+00    1.0000 >    0.8691   -0.0014    1.5020  737.8820 9820.9850   -1.2700    2.6804 315.51 315.5 122.7 10     0.0000    0.0174
M09          ?    BHN  i S      ? 20230828 2139   40.5629 GAU  1.17e-04 -1.00e+00  4.99e+02 -1.00e+00    1.0000 >    1.5064   -0.0370    0.6895  737.8820 9820.9850   -1.2700    2.6804 315.51 315.5 115.0 10     0.0000    0.0301
M02          ?    BHZ  e P      c 20230828 2139   39.7782 GAU  8.98e-04 -1.00e+00 -1.00e+00 -1.00e+00    1.0000 >    1.0159   -0.3312    0.0000  736.5970 9819.4060   -1.4960    3.1809 276.01 276.0 120.6 10     0.0000    0.0203
M02          ?    BHE  e S      ? 20230828 2139   40.2329 GAU  8.11e-04 -1.00e+00  5.44e+02 -1.00e+00    1.0000 >    1.7596   -0.6203    0.0000  736.5970 9819.4060   -1.4960    3.1809 276.01 276.0 112.2 10     0.0000    0.0352
M05          ?    BHZ  i P      c 20230828 2139   40.4080 GAU  7.76e-04 -1.00e+00  6.04e+01 -1.00e+00    1.0000 >    1.3023    0.0122    1.2179  736.2660 9822.0830   -1.1500    4.6121 310.74 310.7 107.1 10     0.0000    0.0260
M05          ?    BHE  e S      ? 20230828 2139   41.3456 GAU  3.61e-04 -1.00e+00 -1.00e+00 -1.00e+00    1.0000 >    2.2429    0.0091    0.9172  736.2660 9822.0830   -1.1500    4.6121 310.74 310.7  95.5  9     0.0000    0.0449
END_PHASE
END_NLLOC

