NLLOC "./loc/SEML.20230815.183117.grid0" "LOCATED" "Location completed."
PUBLIC_ID None
SIGNATURE "Arham Zakki Edelo - edelo.17034@mhs.its.ac.id   obs:./obs/2023_08.obs   NLLoc:v7.00.10(30Aug2020)   run:28Dec2023 20h09m44"
COMMENT "SEML"
GRID  2001 2001 1001  727 9811 -2  0.01 0.01 0.01 PROB_DENSITY
SEARCH OCTREE nInitial 4851 nEvaluated 20011 smallestNodeSide 0.029762/0.029762/0.028409 oct_tree_integral 6.267858e-01 scatter_volume 6.209638e-01
HYPOCENTER  x 732.253 y 9820.69 z 3.6108  OT 16.0086  ix -1 iy -1 iz -1 MAXIMUM_LIKELIHOOD
GEOGRAPHIC  OT 2023 08 15  18 31 16.008597  Lat 9820.687500 Long 732.252976 Depth 3.610795
QUALITY  Pmax 1.90257e+37 MFmin 37.0225 MFmax 40.9626 RMS 0.0633463 Nphs 14 Gap 315.117 Dist 4.24874 Mamp -9.90 0 Mdur -9.90 0
VPVSRATIO  VpVsRatio 1.64512  Npair 7  Diff 0.469233
STATISTICS  ExpectX 732.075208 Y 9820.874057 Z 3.413906  CovXX 0.442248 XY 0.170818 XZ 0.196766 YY 0.327257 YZ -0.0095252 ZZ 0.442018 EllAz1  133.863 Dip1  -26.3827 Len1  0.709755 Az2  17.0366 Dip2  -42.2964 Len2  1.17132 Len3  1.549496e+00
STAT_GEOG  ExpectLat 9820.874057 Long 732.075208 Depth 3.413906
TRANSFORM  NONE
QML_OriginQuality  assocPhCt 14  usedPhCt 14  assocStaCt -1  usedStaCt 7  depthPhCt -1  stdErr 0.0633463  azGap 315.117  secAzGap 315.117  gtLevel -  minDist 4.24874 maxDist 6.25732 medDist 5.60461
QML_OriginUncertainty  horUnc -1  minHorUnc 0.685852  maxHorUnc 1.13994  azMaxHorUnc 54.3013
QML_ConfidenceEllipsoid  semiMajorAxisLength 1.5495  semiMinorAxisLength 0.709755  semiIntermediateAxisLength 1.17132  majorAxisPlunge 36.2505  majorAxisAzimuth 65.1916  majorAxisRotation 294.483
FOCALMECH  Hyp  9820.687500 732.252976 3.610795 Mech  0 0 0 mf  0 nObs -1
PHASE ID Ins Cmp On Pha  FM Date     HrMn   Sec     Err  ErrMag    Coda      Amp       Per       PriorWt  >   TTpred    Res       Weight    StaLoc(X  Y         Z)        SDist    SAzim  RAz  RDip RQual    Tcorr       TTerr
M05          ?    BHZ  e P      c 20230815 1831   17.5629 GAU  1.61e-03 -1.00e+00  8.20e+01 -1.00e+00    1.0000 >    1.5524    0.0020    1.7530  736.2660 9822.0830   -1.1500    4.2487  70.83  70.8 134.3 10     0.0000    0.0310
M05          ?    BHN  e S      ? 20230815 1831   18.6286 GAU  2.26e-04 -1.00e+00  2.66e+02 -1.00e+00    1.0000 >    2.5997    0.0203    1.4852  736.2660 9822.0830   -1.1500    4.2487  70.83  70.8 133.5 10     0.0000    0.0520
M13          ?    BHZ  e P      c 20230815 1831   18.0702 GAU  3.26e-04 -1.00e+00 -1.00e+00 -1.00e+00    1.0000 >    1.6932    0.3684    0.0744  737.1780 9821.5410   -1.2220    4.9984  80.17  80.2 129.3 10     0.0000    0.0339
M13          ?    BHE  e S      ? 20230815 1831   19.4683 GAU  2.51e-04 -1.00e+00 -1.00e+00 -1.00e+00    1.0000 >    2.8354    0.6243    0.0391  737.1780 9821.5410   -1.2220    4.9984  80.17  80.2 128.5 10     0.0000    0.0567
M12          ?    BHZ  i P      d 20230815 1831   17.6959 GAU  7.55e-04 -1.00e+00 -1.00e+00 -1.00e+00    1.0000 >    1.7030   -0.0158    1.6246  736.8520 9823.3800   -0.9890    5.3292  59.65  59.7 126.0 10     0.0000    0.0341
M12          ?    BHE  e S      ? 20230815 1831   18.8767 GAU  4.33e-04 -1.00e+00  2.81e+01 -1.00e+00    1.0000 >    2.8465    0.0216    1.4279  736.8520 9823.3800   -0.9890    5.3292  59.65  59.7 125.2 10     0.0000    0.0569
M07          ?    BHZ  i P      d 20230815 1831   17.7942 GAU  1.24e-03 -1.00e+00 -1.00e+00 -1.00e+00    1.0000 >    1.7785    0.0071    1.7078  737.4430 9822.8030   -1.1120    5.6046  67.82  67.8 125.0 10     0.0000    0.0356
M07          ?    BHE  e S      ? 20230815 1831   18.9530 GAU  3.61e-04 -1.00e+00 -1.00e+00 -1.00e+00    1.0000 >    2.9745   -0.0301    1.2757  737.4430 9822.8030   -1.1120    5.6046  67.82  67.8 124.2 10     0.0000    0.0595
M09          ?    BHZ  e P      d 20230815 1831   17.8819 GAU  5.75e-04 -1.00e+00  2.95e+02 -1.00e+00    1.0000 >    1.8167    0.0566    1.1651  737.8820 9820.9850   -1.2700    5.6369  86.97  87.0 125.5 10     0.0000    0.0363
M09          ?    BHE  e S      ? 20230815 1831   19.1681 GAU  2.76e-04 -1.00e+00  3.42e+02 -1.00e+00    1.0000 >    3.0417    0.1178    0.5667  737.8820 9820.9850   -1.2700    5.6369  86.97  87.0 124.7 10     0.0000    0.0608
M11          ?    BHZ  e P      d 20230815 1831   18.1897 GAU  1.55e-03 -1.00e+00  1.24e+02 -1.00e+00    1.0000 >    1.9328    0.2482    0.0570  738.4670 9820.4900   -1.3120    6.2172  91.82  91.8 122.5 10     0.0000    0.0387
M11          ?    BHE  e S      ? 20230815 1831   19.7246 GAU  1.36e-03 -1.00e+00 -1.00e+00 -1.00e+00    1.0000 >    3.2354    0.4806    0.0974  738.4670 9820.4900   -1.3120    6.2172  91.82  91.8 121.7 10     0.0000    0.0647
M06          ?    BHZ  e P      c 20230815 1831   17.9522 GAU  9.88e-04 -1.00e+00 -1.00e+00 -1.00e+00    1.0000 >    1.9572   -0.0136    1.5986  738.3100 9819.1170   -1.3960    6.2573 104.54 104.5 122.7 10     0.0000    0.0391
M06          ?    BHE  e S      ? 20230815 1831   19.2434 GAU  1.03e-03 -1.00e+00 -1.00e+00 -1.00e+00    1.0000 >    3.2778   -0.0431    1.1276  738.3100 9819.1170   -1.3960    6.2573 104.54 104.5 121.8 10     0.0000    0.0656
END_PHASE
END_NLLOC

