NLLOC "./loc/SEML.20230829.181433.grid0" "LOCATED" "Location completed."
PUBLIC_ID None
SIGNATURE "Arham Zakki Edelo - edelo.17034@mhs.its.ac.id   obs:./obs/2023_08.obs   NLLoc:v7.00.10(30Aug2020)   run:28Dec2023 20h10m02"
COMMENT "SEML"
GRID  2001 2001 1001  727 9811 -2  0.01 0.01 0.01 PROB_DENSITY
SEARCH OCTREE nInitial 4851 nEvaluated 20019 smallestNodeSide 0.029762/0.029762/0.028409 oct_tree_integral 3.545431e-01 scatter_volume 3.504384e-01
HYPOCENTER  x 735.973 y 9818.25 z -1.9858  OT 32.9485  ix -1 iy -1 iz -1 MAXIMUM_LIKELIHOOD
GEOGRAPHIC  OT 2023 08 29  18 14 32.948464  Lat 9818.247024 Long 735.973214 Depth -1.985795
QUALITY  Pmax 2.69887e+20 MFmin 27.4903 MFmax 34.6895 RMS 0.0243369 Nphs 8 Gap 308.3 Dist 2.49348 Mamp -9.90 0 Mdur -9.90 0
VPVSRATIO  VpVsRatio 1.75265  Npair 4  Diff 0.533543
STATISTICS  ExpectX 736.471897 Y 9817.880031 Z -0.512106  CovXX 0.438003 XY -0.0967465 XZ 0.527977 YY 0.0956488 YZ -0.140304 ZZ 0.890542 EllAz1  192.955 Dip1  -1.28247 Len1  0.497694 Az2  282.08 Dip2  34.294 Len2  0.565129 Len3  2.111951e+00
STAT_GEOG  ExpectLat 9817.880031 Long 736.471897 Depth -0.512106
TRANSFORM  NONE
QML_OriginQuality  assocPhCt 8  usedPhCt 8  assocStaCt -1  usedStaCt 4  depthPhCt -1  stdErr 0.0243369  azGap 308.3  secAzGap 308.3  gtLevel -  minDist 2.49348 maxDist 4.78719 medDist 3.34587
QML_OriginUncertainty  horUnc -1  minHorUnc 0.401823  maxHorUnc 1.03244  azMaxHorUnc 104.737
QML_ConfidenceEllipsoid  semiMajorAxisLength 2.11195  semiMinorAxisLength 0.497694  semiIntermediateAxisLength 0.565129  majorAxisPlunge 55.6751  majorAxisAzimuth 104.834  majorAxisRotation 6.22682
FOCALMECH  Hyp  9818.247024 735.973214 -1.985795 Mech  0 0 0 mf  0 nObs -1
PHASE ID Ins Cmp On Pha  FM Date     HrMn   Sec     Err  ErrMag    Coda      Amp       Per       PriorWt  >   TTpred    Res       Weight    StaLoc(X  Y         Z)        SDist    SAzim  RAz  RDip RQual    Tcorr       TTerr
M06          ?    BHZ  i P      c 20230829 1814   33.6563 GAU  9.32e-04 -1.00e+00 -1.00e+00 -1.00e+00    1.0000 >    0.7043    0.0035    1.5229  738.3100 9819.1170   -1.3960    2.4935  69.58  69.6  76.6 10     0.0000    0.0141
M06          ?    BHN  e S      ? 20230829 1814   34.1655 GAU  2.72e-04 -1.00e+00 -1.00e+00 -1.00e+00    1.0000 >    1.2151    0.0019    1.3699  738.3100 9819.1170   -1.3960    2.4935  69.58  69.6  76.6 10     0.0000    0.0243
M09          ?    BHZ  e P      c 20230829 1814   33.8874 GAU  2.26e-04 -1.00e+00  1.72e+01 -1.00e+00    1.0000 >    0.9383    0.0006    1.4784  737.8820 9820.9850   -1.2700    3.3377  34.88  34.9  77.8 10     0.0000    0.0188
M09          ?    BHE  e S      ? 20230829 1814   34.5525 GAU  4.90e-05 -1.00e+00  3.66e+02 -1.00e+00    1.0000 >    1.6187   -0.0147    1.0996  737.8820 9820.9850   -1.2700    3.3377  34.88  34.9  77.8 10     0.0000    0.0324
M11          ?    BHZ  e P      d 20230829 1814   33.8778 GAU  3.47e-04 -1.00e+00  4.55e+01 -1.00e+00    1.0000 >    0.9404   -0.0111    1.3484  738.4670 9820.4900   -1.3120    3.3541  48.03  48.0  78.6 10     0.0000    0.0188
M11          ?    BHE  e S      ? 20230829 1814   34.6250 GAU  3.80e-04 -1.00e+00 -1.00e+00 -1.00e+00    1.0000 >    1.6222    0.0543    0.6854  738.4670 9820.4900   -1.3120    3.3541  48.03  48.0  78.6 10     0.0000    0.0324
M07          ?    BHZ  e P      c 20230829 1814   34.3649 GAU  1.18e-04 -1.00e+00 -1.00e+00 -1.00e+00    1.0000 >    1.3376    0.0789    0.3690  737.4430 9822.8030   -1.1120    4.7872  17.88  17.9  79.5 10     0.0000    0.0268
M07          ?    BHE  e S      ? 20230829 1814   35.4076 GAU  4.37e-05 -1.00e+00 -1.00e+00 -1.00e+00    1.0000 >    2.3075    0.1516    0.1266  737.4430 9822.8030   -1.1120    4.7872  17.88  17.9  79.5 10     0.0000    0.0462
END_PHASE
END_NLLOC

