NLLOC "./loc/SEML.20230825.220734.grid0" "LOCATED" "Location completed."
PUBLIC_ID None
SIGNATURE "Arham Zakki Edelo - edelo.17034@mhs.its.ac.id   obs:./obs/2023_08.obs   NLLoc:v7.00.10(30Aug2020)   run:28Dec2023 20h09m55"
COMMENT "SEML"
GRID  2001 2001 1001  727 9811 -2  0.01 0.01 0.01 PROB_DENSITY
SEARCH OCTREE nInitial 4851 nEvaluated 20003 smallestNodeSide 0.029762/0.029762/0.028409 oct_tree_integral 1.502564e-01 scatter_volume 1.490707e-01
HYPOCENTER  x 737.759 y 9818.43 z 1.22443  OT 34.0918  ix -1 iy -1 iz -1 MAXIMUM_LIKELIHOOD
GEOGRAPHIC  OT 2023 08 25  22 07 34.091778  Lat 9818.425595 Long 737.758929 Depth 1.224432
QUALITY  Pmax 6.54473e+21 MFmin 27.944 MFmax 36.8805 RMS 0.0181306 Nphs 8 Gap 317.316 Dist 0.884149 Mamp -9.90 0 Mdur -9.90 0
VPVSRATIO  VpVsRatio 1.69172  Npair 4  Diff 0.38913
STATISTICS  ExpectX 737.806402 Y 9818.470651 Z 1.217986  CovXX 0.350297 XY 0.0369888 XZ 0.153224 YY 0.043493 YZ 0.00233459 ZZ 0.11574 EllAz1  152.193 Dip1  -37.7306 Len1  0.30311 Az2  199.593 Dip2  41.1796 Len2  0.438581 Len3  1.230614e+00
STAT_GEOG  ExpectLat 9818.470651 Long 737.806402 Depth 1.217986
TRANSFORM  NONE
QML_OriginQuality  assocPhCt 8  usedPhCt 8  assocStaCt -1  usedStaCt 4  depthPhCt -1  stdErr 0.0181306  azGap 317.316  secAzGap 317.316  gtLevel -  minDist 0.884149 maxDist 4.38879 medDist 2.37241
QML_OriginUncertainty  horUnc -1  minHorUnc 0.29987  maxHorUnc 0.903214  azMaxHorUnc 83.2217
QML_ConfidenceEllipsoid  semiMajorAxisLength 1.23061  semiMinorAxisLength 0.30311  semiIntermediateAxisLength 0.438581  majorAxisPlunge 25.9876  majorAxisAzimuth 84.3511  majorAxisRotation 303.536
FOCALMECH  Hyp  9818.425595 737.758929 1.224432 Mech  0 0 0 mf  0 nObs -1
PHASE ID Ins Cmp On Pha  FM Date     HrMn   Sec     Err  ErrMag    Coda      Amp       Per       PriorWt  >   TTpred    Res       Weight    StaLoc(X  Y         Z)        SDist    SAzim  RAz  RDip RQual    Tcorr       TTerr
M06          ?    BHZ  i P      c 20230825 2207   34.8131 GAU  8.09e-04 -1.00e+00 -1.00e+00 -1.00e+00    1.0000 >    0.7228   -0.0015    1.3155  738.3100 9819.1170   -1.3960    0.8841  38.56  38.6 159.3 10     0.0000    0.0145
M06          ?    BHE  e S      ? 20230825 2207   35.3090 GAU  1.69e-04 -1.00e+00 -1.00e+00 -1.00e+00    1.0000 >    1.2352   -0.0180    1.0735  738.3100 9819.1170   -1.3960    0.8841  38.56  38.6 158.4 10     0.0000    0.0247
M11          ?    BHZ  e P      d 20230825 2207   34.9649 GAU  1.19e-03 -1.00e+00 -1.00e+00 -1.00e+00    1.0000 >    0.8721    0.0010    1.2857  738.4670 9820.4900   -1.3120    2.1825  18.93  18.9 134.1 10     0.0000    0.0174
M11          ?    BHN  e S      ? 20230825 2207   35.5800 GAU  9.24e-05 -1.00e+00 -1.00e+00 -1.00e+00    1.0000 >    1.4885   -0.0003    1.1024  738.4670 9820.4900   -1.3120    2.1825  18.93  18.9 132.0 10     0.0000    0.0298
M09          ?    BHZ  i P      c 20230825 2207   35.0371 GAU  5.20e-04 -1.00e+00  2.74e+01 -1.00e+00    1.0000 >    0.9308    0.0145    1.0955  737.8820 9820.9850   -1.2700    2.5624   2.75   2.8 127.9 10     0.0000    0.0186
M09          ?    BHE  e S      ? 20230825 2207   35.7129 GAU  1.26e-04 -1.00e+00  3.50e+02 -1.00e+00    1.0000 >    1.5876    0.0336    0.7057  737.8820 9820.9850   -1.2700    2.5624   2.75   2.8 125.5 10     0.0000    0.0318
M07          ?    BHZ  e P      c 20230825 2207   35.3430 GAU  4.16e-04 -1.00e+00 -1.00e+00 -1.00e+00    1.0000 >    1.2868   -0.0355    0.7776  737.4430 9822.8030   -1.1120    4.3888 355.87 355.9 106.2 10     0.0000    0.0257
M07          ?    BHE  e S      ? 20230825 2207   36.2281 GAU  1.43e-04 -1.00e+00 -1.00e+00 -1.00e+00    1.0000 >    2.1828   -0.0465    0.6440  737.4430 9822.8030   -1.1120    4.3888 355.87 355.9 103.0 10     0.0000    0.0437
END_PHASE
END_NLLOC

