NLLOC "./loc/SEML.20230830.054728.grid0" "LOCATED" "Location completed."
PUBLIC_ID None
SIGNATURE "Arham Zakki Edelo - edelo.17034@mhs.its.ac.id   obs:./obs/2023_08.obs   NLLoc:v7.00.10(30Aug2020)   run:28Dec2023 20h10m06"
COMMENT "SEML"
GRID  2001 2001 1001  727 9811 -2  0.01 0.01 0.01 PROB_DENSITY
SEARCH OCTREE nInitial 4851 nEvaluated 20003 smallestNodeSide 0.014881/0.014881/0.014205 oct_tree_integral 1.168019e-02 scatter_volume 1.164667e-02
HYPOCENTER  x 738.838 y 9819.03 z 0.308239  OT 28.443  ix -1 iy -1 iz -1 MAXIMUM_LIKELIHOOD
GEOGRAPHIC  OT 2023 08 30  05 47 28.443030  Lat 9819.028274 Long 738.837798 Depth 0.308239
QUALITY  Pmax 7.42629e+43 MFmin 57.6921 MFmax 70.5032 RMS 0.0194986 Nphs 14 Gap 291.741 Dist 0.535203 Mamp -9.90 0 Mdur -9.90 0
VPVSRATIO  VpVsRatio 1.76544  Npair 7  Diff 0.591921
STATISTICS  ExpectX 738.856291 Y 9819.011451 Z 0.290250  CovXX 0.0261598 XY 0.00596494 XZ -0.00927777 YY 0.00755496 YZ -0.00437992 ZZ 0.0118898 EllAz1  358.7 Dip1  30.5662 Len1  0.130604 Az2  309.503 Dip2  -47.8928 Len2  0.167395 Len3  3.404493e-01
STAT_GEOG  ExpectLat 9819.011451 Long 738.856291 Depth 0.290250
TRANSFORM  NONE
QML_OriginQuality  assocPhCt 14  usedPhCt 14  assocStaCt -1  usedStaCt 7  depthPhCt -1  stdErr 0.0194986  azGap 291.741  secAzGap 291.741  gtLevel -  minDist 0.535203 maxDist 4.02418 medDist 1.71247
QML_OriginUncertainty  horUnc -1  minHorUnc 0.115567  maxHorUnc 0.253354  azMaxHorUnc 73.6656
QML_ConfidenceEllipsoid  semiMajorAxisLength 0.340449  semiMinorAxisLength 0.130604  semiIntermediateAxisLength 0.167395  majorAxisPlunge -25.9142  majorAxisAzimuth 72.0237  majorAxisRotation 132.038
FOCALMECH  Hyp  9819.028274 738.837798 0.308239 Mech  0 0 0 mf  0 nObs -1
PHASE ID Ins Cmp On Pha  FM Date     HrMn   Sec     Err  ErrMag    Coda      Amp       Per       PriorWt  >   TTpred    Res       Weight    StaLoc(X  Y         Z)        SDist    SAzim  RAz  RDip RQual    Tcorr       TTerr
M06          ?    BHZ  i P      c 20230830 0547   28.9155 GAU  4.77e-04 -1.00e+00  1.57e+02 -1.00e+00    1.0000 >    0.4764   -0.0040    1.5245  738.3100 9819.1170   -1.3960    0.5352 279.54 279.5 162.0 10     0.0000    0.0095
M06          ?    BHN  e S      ? 20230830 0547   29.2973 GAU  3.01e-04 -1.00e+00 -1.00e+00 -1.00e+00    1.0000 >    0.8319    0.0224    1.2989  738.3100 9819.1170   -1.3960    0.5352 279.54 279.5 161.7 10     0.0000    0.0166
M11          ?    BHZ  e P      c 20230830 0547   29.0393 GAU  2.98e-03 -1.00e+00 -1.00e+00 -1.00e+00    1.0000 >    0.5889    0.0074    1.5661  738.4670 9820.4900   -1.3120    1.5080 345.77 345.8 135.7 10     0.0000    0.0118
M11          ?    BHE  e S      ? 20230830 0547   29.4655 GAU  1.01e-04 -1.00e+00 -1.00e+00 -1.00e+00    1.0000 >    1.0289   -0.0065    1.3025  738.4670 9820.4900   -1.3120    1.5080 345.77 345.8 134.7 10     0.0000    0.0206
M14          ?    BHZ  e P      c 20230830 0547   29.1095 GAU  9.70e-04 -1.00e+00 -1.00e+00 -1.00e+00    1.0000 >    0.6265    0.0400    0.8069  737.5530 9820.0110   -1.3980    1.6175 307.41 307.4 135.0 10     0.0000    0.0125
M14          ?    BHE  e S      ? 20230830 0547   29.5337 GAU  3.35e-04 -1.00e+00  4.07e+02 -1.00e+00    1.0000 >    1.0940   -0.0033    1.3310  737.5530 9820.0110   -1.3980    1.6175 307.41 307.4 134.1 10     0.0000    0.0219
M04          ?    BHZ  e P      c 20230830 0547   28.8655 GAU  1.29e-03 -1.00e+00 -1.00e+00 -1.00e+00    1.0000 >    0.6794   -0.2570    0.0000  737.1400 9819.2520   -1.5710    1.7125 277.51 277.5 136.0 10     0.0000    0.0136
M04          ?    BHE  e S      ? 20230830 0547   29.1746 GAU  1.10e-03 -1.00e+00  3.09e+02 -1.00e+00    1.0000 >    1.1850   -0.4534    0.0000  737.1400 9819.2520   -1.5710    1.7125 277.51 277.5 135.2 10     0.0000    0.0237
M09          ?    BHZ  i P      c 20230830 0547   29.1581 GAU  2.09e-04 -1.00e+00  6.18e+01 -1.00e+00    1.0000 >    0.7148    0.0002    1.5356  737.8820 9820.9850   -1.2700    2.1777 333.97 334.0 123.7 10     0.0000    0.0143
M09          ?    BHE  e S      ? 20230830 0547   29.7234 GAU  2.09e-04 -1.00e+00  3.73e+02 -1.00e+00    1.0000 >    1.2496    0.0308    1.1071  737.8820 9820.9850   -1.2700    2.1777 333.97 334.0 122.2 10     0.0000    0.0250
M13          ?    BHZ  i P      d 20230830 0547   29.3269 GAU  3.90e-04 -1.00e+00  1.70e+02 -1.00e+00    1.0000 >    0.8965   -0.0127    1.1867  737.1780 9821.5410   -1.2220    3.0114 326.55 326.6 114.2 10     0.0000    0.0179
M13          ?    BHN  e S      ? 20230830 0547   30.0102 GAU  2.39e-04 -1.00e+00  2.10e+01 -1.00e+00    1.0000 >    1.5680   -0.0008    1.1685  737.1780 9821.5410   -1.2220    3.0114 326.55 326.6 111.9 10     0.0000    0.0314
M07          ?    BHZ  e P      c 20230830 0547   29.6111 GAU  1.67e-04 -1.00e+00 -1.00e+00 -1.00e+00    1.0000 >    1.1285    0.0395    0.9297  737.4430 9822.8030   -1.1120    4.0242 339.72 339.7 106.3 10     0.0000    0.0226
M07          ?    BHE  e S      ? 20230830 0547   30.5122 GAU  3.10e-04 -1.00e+00 -1.00e+00 -1.00e+00    1.0000 >    1.9752    0.0939    0.2427  737.4430 9822.8030   -1.1120    4.0242 339.72 339.7 102.9 10     0.0000    0.0395
END_PHASE
END_NLLOC

