CISI ? Z i P d 20150213 1614 48.797 GAU 0.0 0.0 806.4773 0.0
CISI ? Z e S ? 20150213 1615 25.506 GAU 0.0 0.0 2032.1433 0.0
MNAI ? Z i P d 20150213 1614 53.185 GAU 0.0 0.0 315.37048 0.0
MNAI ? Z e S ? 20150213 1615 30.866 GAU 0.0 0.0 -1250.0425 0.0
PMBI ? Z e P c 20150213 1615 01.658 GAU 0.0 0.0 3207.1636 0.0
PMBI ? Z e S ? 20150213 1615 47.198 GAU 0.0 0.0 2493.3535 0.0
UGM ? Z e P c 20150213 1615 18.060 GAU 0.0 0.0 -315.59454 0.0
UGM ? Z e S ? 20150213 1616 17.776 GAU 0.0 0.0 26.034111 0.0

CISI ? Z i P c 20150411 1245 31.867 GAU 0.0 0.0 -341.94495 0.0
CISI ? Z e S ? 20150411 1246 09.475 GAU 0.0 0.0 -2404.5815 0.0
PMBI ? Z i P c 20150411 1245 34.563 GAU 0.0 0.0 3043.427 0.0
PMBI ? Z e S ? 20150411 1246 18.450 GAU 0.0 0.0 4215.58 0.0
UGM ? Z i P c 20150411 1246 10.199 GAU 0.0 0.0 784.8522 0.0
UGM ? Z e S ? 20150411 1247 17.742 GAU 0.0 0.0 957.3092 0.0
SMRI ? Z i P c 20150411 1246 09.500 GAU 0.0 0.0 1394.9109 0.0
SMRI ? Z e S ? 20150411 1247 44.797 GAU 0.0 0.0 2450.5652 0.0

CISI ? Z i P c 20150413 1030 36.724 GAU 0.0 0.0 1034.7554 0.0
CISI ? Z e S ? 20150413 1031 17.459 GAU 0.0 0.0 2463.0474 0.0
MNAI ? Z i P d 20150413 1030 13.816 GAU 0.0 0.0 -411.0254 0.0
MNAI ? Z e S ? 20150413 1030 39.185 GAU 0.0 0.0 2673.2427 0.0
PMBI ? Z e P c 20150413 1030 53.111 GAU 0.0 0.0 3920.753 0.0
PMBI ? Z e S ? 20150413 1031 15.884 GAU 0.0 0.0 2480.1128 0.0
UGM ? Z i P c 20150413 1031 12.881 GAU 0.0 0.0 705.7598 0.0
UGM ? Z e S ? 20150413 1032 23.506 GAU 0.0 0.0 1035.3358 0.0

CISI ? Z i P c 20150805 1542 31.838 GAU 0.0 0.0 -2612.162 0.0
CISI ? Z e S ? 20150805 1543 05.281 GAU 0.0 0.0 -3464.353 0.0
PMBI ? Z i P c 20150805 1542 47.858 GAU 0.0 0.0 -63.296585 0.0
PMBI ? Z e S ? 20150805 1543 31.175 GAU 0.0 0.0 -1650.6984 0.0
UGM ? Z i P c 20150805 1543 10.366 GAU 0.0 0.0 1363.4568 0.0
UGM ? Z e S ? 20150805 1545 03.738 GAU 0.0 0.0 915.1053 0.0
SMRI ? Z i P c 20150805 1543 31.563 GAU 0.0 0.0 2887.761 0.0
SMRI ? Z e S ? 20150805 1545 49.620 GAU 0.0 0.0 4653.4795 0.0

CISI ? Z i P c 20150923 1619 46.044 GAU 0.0 0.0 -2185.607 0.0
CISI ? Z e S ? 20150923 1620 31.536 GAU 0.0 0.0 -5107.2983 0.0
PMBI ? Z i P c 20150923 1619 32.711 GAU 0.0 0.0 -951.59045 0.0
PMBI ? Z e S ? 20150923 1620 15.840 GAU 0.0 0.0 -722.83746 0.0
UGM ? Z i P c 20150923 1620 23.886 GAU 0.0 0.0 1600.0338 0.0
UGM ? Z e S ? 20150923 1621 43.066 GAU 0.0 0.0 1042.5311 0.0
SMRI ? Z i P c 20150923 1620 22.670 GAU 0.0 0.0 2546.7524 0.0
SMRI ? Z e S ? 20150923 1621 29.983 GAU 0.0 0.0 -146.6642 0.0

CISI ? Z i P c 20151001 0006 04.185 GAU 0.0 0.0 -2253.7534 0.0
CISI ? Z e S ? 20151001 0006 46.817 GAU 0.0 0.0 -4827.637 0.0
PMBI ? Z i P c 20151001 0005 52.570 GAU 0.0 0.0 610599.4 0.0
PMBI ? Z e S ? 20151001 0006 35.712 GAU 0.0 0.0 647672.75 0.0
UGM ? Z i P c 20151001 0006 42.214 GAU 0.0 0.0 1129.6447 0.0
UGM ? Z e S ? 20151001 0007 57.197 GAU 0.0 0.0 -1401.3615 0.0
SMRI ? Z i P c 20151001 0006 41.685 GAU 0.0 0.0 1065.4078 0.0
SMRI ? Z e S ? 20151001 0008 02.173 GAU 0.0 0.0 2307.799 0.0

CISI ? Z i P c 20151001 0250 56.645 GAU 0.0 0.0 -3242.9272 0.0
CISI ? Z e S ? 20151001 0251 41.751 GAU 0.0 0.0 1666.4028 0.0
PMBI ? Z i P c 20151001 0250 45.069 GAU 0.0 0.0 775211.4 0.0
PMBI ? Z e S ? 20151001 0251 37.015 GAU 0.0 0.0 765265.56 0.0
UGM ? Z i P d 20151001 0251 33.993 GAU 0.0 0.0 2095.4172 0.0
UGM ? Z e S ? 20151001 0252 42.953 GAU 0.0 0.0 -2076.7542 0.0
SMRI ? Z i P c 20151001 0251 32.861 GAU 0.0 0.0 1909.1943 0.0
SMRI ? Z e S ? 20151001 0252 57.728 GAU 0.0 0.0 5741.055 0.0

CISI ? Z i P c 20151104 0615 18.758 GAU 0.0 0.0 -867.3266 0.0
CISI ? Z i S ? 20151104 0615 52.734 GAU 0.0 0.0 -2836.0151 0.0
MNAI ? Z i P c 20151104 0615 24.346 GAU 0.0 0.0 1497.1633 0.0
MNAI ? Z e S ? 20151104 0616 03.027 GAU 0.0 0.0 -5718.8174 0.0
PMBI ? Z e P c 20151104 0615 35.576 GAU 0.0 0.0 2282.1584 0.0
PMBI ? Z e S ? 20151104 0616 33.772 GAU 0.0 0.0 -10721.288 0.0
UGM ? Z i P d 20151104 0615 57.468 GAU 0.0 0.0 621.74664 0.0
UGM ? Z e S ? 20151104 0617 06.013 GAU 0.0 0.0 710.64136 0.0
SMRI ? Z e P c 20151104 0615 58.727 GAU 0.0 0.0 2015.9939 0.0
SMRI ? Z e S ? 20151104 0617 27.987 GAU 0.0 0.0 -3025.0198 0.0

CISI ? Z i P d 20151107 0557 21.482 GAU 0.0 0.0 -3181.0764 0.0
CISI ? Z e S ? 20151107 0557 56.292 GAU 0.0 0.0 -4432.986 0.0
MNAI ? Z i P d 20151107 0557 25.357 GAU 0.0 0.0 -583.8962 0.0
MNAI ? Z e S ? 20151107 0558 25.309 GAU 0.0 0.0 -3693.2607 0.0
PMBI ? Z i P c 20151107 0557 31.305 GAU 0.0 0.0 4439.8506 0.0
PMBI ? Z e S ? 20151107 0558 18.500 GAU 0.0 0.0 674.7418 0.0
UGM ? Z i P c 20151107 0558 00.892 GAU 0.0 0.0 1740.9745 0.0
UGM ? Z e S ? 20151107 0558 57.319 GAU 0.0 0.0 29.463581 0.0
SMRI ? Z i P c 20151107 0557 59.257 GAU 0.0 0.0 2501.581 0.0
SMRI ? Z e S ? 20151107 0559 12.587 GAU 0.0 0.0 2679.073 0.0

MNAI ? Z i P d 20150120 1435 11.463 GAU 0.0 0.0 -4967.227 0.0
MNAI ? Z e S ? 20150120 1435 27.041 GAU 0.0 0.0 141493.56 0.0
PMBI ? Z e P c 20150120 1435 42.083 GAU 0.0 0.0 2047.1547 0.0
PMBI ? Z e S ? 20150120 1436 36.605 GAU 0.0 0.0 -1111.7108 0.0
CISI ? Z i P d 20150120 1436 14.743 GAU 0.0 0.0 615.18036 0.0
CISI ? Z e S ? 20150120 1437 12.882 GAU 0.0 0.0 56.3418 0.0
UGM ? Z i P c 20150120 1436 51.844 GAU 0.0 0.0 167.92325 0.0
UGM ? Z e S ? 20150120 1438 06.224 GAU 0.0 0.0 634.0632 0.0

MNAI ? Z i P c 20150126 1312 33.589 GAU 0.0 0.0 1607.2798 0.0
MNAI ? Z e S ? 20150126 1313 06.091 GAU 0.0 0.0 -2013.9451 0.0
PMBI ? Z e P c 20150126 1312 47.035 GAU 0.0 0.0 3378.1538 0.0
PMBI ? Z e S ? 20150126 1313 20.110 GAU 0.0 0.0 3818.633 0.0
CISI ? Z i P c 20150126 1312 46.276 GAU 0.0 0.0 1127.7532 0.0
CISI ? Z e S ? 20150126 1313 23.431 GAU 0.0 0.0 415.6107 0.0
UGM ? Z i P c 20150126 1313 25.752 GAU 0.0 0.0 421.10483 0.0
UGM ? Z e S ? 20150126 1314 28.095 GAU 0.0 0.0 1522.7427 0.0

MNAI ? Z i P c 20150202 2130 26.251 GAU 0.0 0.0 898.2951 0.0
MNAI ? Z e S ? 20150202 2131 11.054 GAU 0.0 0.0 1222.8988 0.0
PMBI ? Z i P d 20150202 2130 29.456 GAU 0.0 0.0 1999.6464 0.0
PMBI ? Z e S ? 20150202 2131 21.549 GAU 0.0 0.0 -1176.6716 0.0
CISI ? Z i P c 20150202 2130 22.023 GAU 0.0 0.0 2810.147 0.0
CISI ? Z e S ? 20150202 2130 53.848 GAU 0.0 0.0 6761.4634 0.0
UGM ? Z i P d 20150202 2131 00.696 GAU 0.0 0.0 598.9668 0.0
UGM ? Z e S ? 20150202 2132 12.899 GAU 0.0 0.0 -1007.04767 0.0
SMRI ? Z i P d 20150202 2131 15.472 GAU 0.0 0.0 3474.349 0.0
SMRI ? Z e S ? 20150202 2132 34.428 GAU 0.0 0.0 11172.768 0.0

SMRI ? Z e P c 20200217 1212 09.482 GAU 0.0 0.0 2701.941 0.0
SMRI ? Z e S ? 20200217 1213 11.753 GAU 0.0 0.0 3038.2988 0.0
BBJI ? Z i P c 20200217 1212 13.296 GAU 0.0 0.0 -1559.9008 0.0
BBJI ? Z e S ? 20200217 1212 29.649 GAU 0.0 0.0 1315.9442 0.0
MNAI ? Z i P c 20200217 1212 51.432 GAU 0.0 0.0 1581.8745 0.0
MNAI ? Z e S ? 20200217 1213 33.441 GAU 0.0 0.0 2381.6702 0.0
UGM ? Z i P c 20200217 1212 54.516 GAU 0.0 0.0 973.7203 0.0
UGM ? Z e S ? 20200217 1213 43.666 GAU 0.0 0.0 243.98589 0.0

SMRI ? Z e P c 20200310 1408 17.278 GAU 0.0 0.0 2940.806 0.0
SMRI ? Z e S ? 20200310 1410 29.768 GAU 0.0 0.0 21651.318 0.0
BBJI ? Z i P c 20200310 1407 39.143 GAU 0.0 0.0 -1309.3988 0.0
BBJI ? Z e S ? 20200310 1408 31.922 GAU 0.0 0.0 515.4688 0.0
MNAI ? Z i P c 20200310 1406 53.266 GAU 0.0 0.0 57971.78 0.0
MNAI ? Z e S ? 20200310 1407 13.039 GAU 0.0 0.0 150004.34 0.0
UGM ? Z e P c 20200310 1408 20.218 GAU 0.0 0.0 2128.0676 0.0
UGM ? Z e S ? 20200310 1409 42.197 GAU 0.0 0.0 4554.3784 0.0
PMBI ? Z i P c 20200310 1407 20.442 GAU 0.0 0.0 10276.438 0.0
PMBI ? Z e S ? 20200310 1408 01.604 GAU 0.0 0.0 53198.836 0.0

SMRI ? Z i P d 20200425 0444 31.116 GAU 0.0 0.0 -2629.8208 0.0
SMRI ? Z e S ? 20200425 0445 32.337 GAU 0.0 0.0 1483.3925 0.0
BBJI ? Z i P d 20200425 0444 00.121 GAU 0.0 0.0 -5851.175 0.0
BBJI ? Z e S ? 20200425 0444 27.517 GAU 0.0 0.0 -719.98315 0.0
MNAI ? Z i P c 20200425 0444 21.462 GAU 0.0 0.0 28.317158 0.0
MNAI ? Z e S ? 20200425 0445 03.053 GAU 0.0 0.0 2592.2742 0.0
UGM ? Z i P d 20200425 0444 33.516 GAU 0.0 0.0 -812.04877 0.0
UGM ? Z e S ? 20200425 0445 27.692 GAU 0.0 0.0 1585.1162 0.0
PMBI ? Z i P c 20200425 0444 20.017 GAU 0.0 0.0 7466.108 0.0
PMBI ? Z e S ? 20200425 0444 58.917 GAU 0.0 0.0 3443.146 0.0

SMRI ? Z i P c 20200503 0708 12.559 GAU 0.0 0.0 2133.8884 0.0
SMRI ? Z e S ? 20200503 0709 31.291 GAU 0.0 0.0 -1871.7941 0.0
BBJI ? Z i P c 20200503 0707 34.126 GAU 0.0 0.0 -1736.414 0.0
BBJI ? Z e S ? 20200503 0708 11.200 GAU 0.0 0.0 2786.2844 0.0
MNAI ? Z i P c 20200503 0707 27.256 GAU 0.0 0.0 1094.0165 0.0
MNAI ? Z e S ? 20200503 0707 58.315 GAU 0.0 0.0 -7632.4336 0.0
UGM ? Z i P c 20200503 0708 16.594 GAU 0.0 0.0 1093.651 0.0
UGM ? Z e S ? 20200503 0709 11.249 GAU 0.0 0.0 2659.871 0.0
PMBI ? Z i P d 20200503 0707 38.592 GAU 0.0 0.0 -2819.9644 0.0
PMBI ? Z e S ? 20200503 0708 37.482 GAU 0.0 0.0 17093.805 0.0

MNAI ? Z i P d 20190102 1340 58.967 GAU 0.0 0.0 201.45538 0.0
MNAI ? Z e S ? 20190102 1341 28.793 GAU 0.0 0.0 -4977.827 0.0
BBJI ? Z i P c 20190102 1341 23.748 GAU 0.0 0.0 -2247.8394 0.0
BBJI ? Z e S ? 20190102 1342 09.361 GAU 0.0 0.0 -2911.6628 0.0
UGM ? Z e P c 20190102 1342 04.920 GAU 0.0 0.0 -27.602015 0.0
UGM ? Z e S ? 20190102 1343 16.739 GAU 0.0 0.0 849.7279 0.0
PMBI ? Z i P c 20190102 1341 19.379 GAU 0.0 0.0 3387.8103 0.0
PMBI ? Z e S ? 20190102 1342 03.330 GAU 0.0 0.0 2359.1848 0.0

MNAI ? Z i P c 20190112 1205 09.574 GAU 0.0 0.0 2393.1707 0.0
MNAI ? Z e S ? 20190112 1205 43.402 GAU 0.0 0.0 4877.315 0.0
PMBI ? Z i P c 20190112 1205 25.146 GAU 0.0 0.0 4599.4194 0.0
PMBI ? Z e S ? 20190112 1206 16.534 GAU 0.0 0.0 76.76878 0.0
BBJI ? Z i P d 20190112 1205 18.196 GAU 0.0 0.0 -2323.7532 0.0
BBJI ? Z e S ? 20190112 1205 50.183 GAU 0.0 0.0 -3299.9714 0.0
UGM ? Z i P d 20190112 1205 58.790 GAU 0.0 0.0 1250.1915 0.0
UGM ? Z e S ? 20190112 1207 03.575 GAU 0.0 0.0 246.58643 0.0

MNAI ? Z i P d 20190213 2342 52.115 GAU 0.0 0.0 603.35657 0.0
MNAI ? Z e S ? 20190213 2343 32.854 GAU 0.0 0.0 -915.7589 0.0
PMBI ? Z i P c 20190213 2342 56.543 GAU 0.0 0.0 3590.9873 0.0
PMBI ? Z e S ? 20190213 2344 01.577 GAU 0.0 0.0 2619.4238 0.0
BBJI ? Z i P d 20190213 2342 24.430 GAU 0.0 0.0 -4220.785 0.0
BBJI ? Z e S ? 20190213 2342 46.645 GAU 0.0 0.0 -19626.174 0.0
UGM ? Z e P c 20190213 2343 04.578 GAU 0.0 0.0 1070.8688 0.0
UGM ? Z e S ? 20190213 2343 58.782 GAU 0.0 0.0 -734.94653 0.0
SMRI ? Z e P c 20190213 2343 04.388 GAU 0.0 0.0 1752.1589 0.0
SMRI ? Z e S ? 20190213 2343 56.138 GAU 0.0 0.0 1905.1748 0.0

MNAI ? Z e P c 20190512 0852 26.629 GAU 0.0 0.0 297.3944 0.0
MNAI ? Z e S ? 20190512 0852 58.478 GAU 0.0 0.0 5689.765 0.0
PMBI ? Z e P c 20190512 0852 39.030 GAU 0.0 0.0 4016.1038 0.0
PMBI ? Z e S ? 20190512 0853 21.949 GAU 0.0 0.0 3096.907 0.0
BBJI ? Z e P c 20190512 0852 30.992 GAU 0.0 0.0 -2293.1282 0.0
BBJI ? Z e S ? 20190512 0853 06.191 GAU 0.0 0.0 -2532.7322 0.0
SMRI ? Z e P c 20190512 0853 01.421 GAU 0.0 0.0 1684.6958 0.0
SMRI ? Z e S ? 20190512 0853 41.307 GAU 0.0 0.0 1736.7809 0.0

MNAI ? Z i P c 20190728 1426 05.636 GAU 0.0 0.0 631.0303 0.0
MNAI ? Z e S ? 20190728 1426 51.057 GAU 0.0 0.0 2140.3088 0.0
PMBI ? Z i P c 20190728 1426 11.054 GAU 0.0 0.0 966.885 0.0
PMBI ? Z e S ? 20190728 1427 12.524 GAU 0.0 0.0 -264.9595 0.0
BBJI ? Z i P c 20190728 1425 27.277 GAU 0.0 0.0 -1521.0874 0.0
BBJI ? Z e S ? 20190728 1425 45.302 GAU 0.0 0.0 -4459.3213 0.0
UGM ? Z i P c 20190728 1426 07.167 GAU 0.0 0.0 548.68805 0.0
UGM ? Z e S ? 20190728 1426 55.929 GAU 0.0 0.0 -975.5187 0.0
SMRI ? Z i P c 20190728 1426 10.314 GAU 0.0 0.0 1414.1375 0.0
SMRI ? Z e S ? 20190728 1426 59.141 GAU 0.0 0.0 2018.8418 0.0

MNAI ? Z i P d 20190802 1204 18.109 GAU 0.0 0.0 -12284.575 0.0
MNAI ? Z e S ? 20190802 1204 58.506 GAU 0.0 0.0 -335642.0 0.0
PMBI ? Z i P d 20190802 1204 32.267 GAU 0.0 0.0 2469.773 0.0
PMBI ? Z e S ? 20190802 1205 32.599 GAU 0.0 0.0 4583.9385 0.0
BBJI ? Z i P c 20190802 1204 10.417 GAU 0.0 0.0 -28744.164 0.0
BBJI ? Z e S ? 20190802 1204 40.535 GAU 0.0 0.0 58722.867 0.0
UGM ? Z e P c 20190802 1204 50.310 GAU 0.0 0.0 -16326.358 0.0
UGM ? Z e S ? 20190802 1205 52.158 GAU 0.0 0.0 -117029.5 0.0
SMRI ? Z i P d 20190802 1204 51.744 GAU 0.0 0.0 -36554.64 0.0
SMRI ? Z e S ? 20190802 1205 44.467 GAU 0.0 0.0 166370.61 0.0

MNAI ? Z i P c 20190811 0211 54.028 GAU 0.0 0.0 9597.279 0.0
MNAI ? Z e S ? 20190811 0212 22.373 GAU 0.0 0.0 -647.2233 0.0
PMBI ? Z i P c 20190811 0212 19.529 GAU 0.0 0.0 5449.916 0.0
PMBI ? Z e S ? 20190811 0212 46.598 GAU 0.0 0.0 2740.2156 0.0
BBJI ? Z i P c 20190811 0212 19.712 GAU 0.0 0.0 -1823.2975 0.0
BBJI ? Z e S ? 20190811 0213 07.187 GAU 0.0 0.0 312.39615 0.0
UGM ? Z i P c 20190811 0212 59.304 GAU 0.0 0.0 1655.7769 0.0
UGM ? Z e S ? 20190811 0214 15.400 GAU 0.0 0.0 -1365.5878 0.0
SMRI ? Z i P c 20190811 0212 59.623 GAU 0.0 0.0 1643.1829 0.0
SMRI ? Z e S ? 20190811 0214 25.594 GAU 0.0 0.0 -1846.7245 0.0

MNAI ? Z i P c 20190811 0439 46.809 GAU 0.0 0.0 3681.155 0.0
MNAI ? Z e S ? 20190811 0440 13.211 GAU 0.0 0.0 -9220.706 0.0
PMBI ? Z i P c 20190811 0440 07.386 GAU 0.0 0.0 4464.5303 0.0
PMBI ? Z e S ? 20190811 0440 39.114 GAU 0.0 0.0 2957.9944 0.0
BBJI ? Z i P c 20190811 0440 12.192 GAU 0.0 0.0 -2370.5847 0.0
BBJI ? Z e S ? 20190811 0440 59.756 GAU 0.0 0.0 -1764.4717 0.0
UGM ? Z e P c 20190811 0440 52.144 GAU 0.0 0.0 2150.6138 0.0
UGM ? Z e S ? 20190811 0442 08.836 GAU 0.0 0.0 1752.3604 0.0
SMRI ? Z e P d 20190811 0440 53.276 GAU 0.0 0.0 3308.8193 0.0
SMRI ? Z e S ? 20190811 0442 12.851 GAU 0.0 0.0 1602.8422 0.0

MNAI ? Z e P c 20190905 1156 53.643 GAU 0.0 0.0 331.62732 0.0
MNAI ? Z e S ? 20190905 1157 12.287 GAU 0.0 0.0 16070.965 0.0
PMBI ? Z i P c 20190905 1157 14.168 GAU 0.0 0.0 7582.7974 0.0
PMBI ? Z e S ? 20190905 1157 42.024 GAU 0.0 0.0 2667.7432 0.0
BBJI ? Z i P c 20190905 1157 19.712 GAU 0.0 0.0 -2344.04 0.0
BBJI ? Z e S ? 20190905 1158 01.010 GAU 0.0 0.0 -1732.091 0.0
UGM ? Z e P c 20190905 1157 59.924 GAU 0.0 0.0 659.08966 0.0
UGM ? Z e S ? 20190905 1159 12.190 GAU 0.0 0.0 1646.679 0.0
SMRI ? Z e P c 20190905 1156 35.109 GAU 0.0 0.0 848.9421 0.0
SMRI ? Z e S ? 20190905 1157 43.391 GAU 0.0 0.0 623.49615 0.0

MNAI ? Z i P c 20190922 2233 05.948 GAU 0.0 0.0 4002.0479 0.0
MNAI ? Z e S ? 20190922 2233 40.626 GAU 0.0 0.0 -6295.1763 0.0
PMBI ? Z e P c 20190922 2233 31.800 GAU 0.0 0.0 3905.7048 0.0
PMBI ? Z e S ? 20190922 2234 00.765 GAU 0.0 0.0 7391.801 0.0
BBJI ? Z i P c 20190922 2233 39.642 GAU 0.0 0.0 -1216.7167 0.0
BBJI ? Z e S ? 20190922 2234 31.429 GAU 0.0 0.0 -1410.8 0.0
UGM ? Z e P c 20190922 2234 19.107 GAU 0.0 0.0 2087.3784 0.0
UGM ? Z e S ? 20190922 2235 44.945 GAU 0.0 0.0 1497.9061 0.0
SMRI ? Z e P c 20190922 2233 38.404 GAU 0.0 0.0 3420.918 0.0
SMRI ? Z e S ? 20190922 2234 20.197 GAU 0.0 0.0 1369.5011 0.0

MNAI ? Z e P c 20191216 1253 34.986 GAU 0.0 0.0 547.74384 0.0
MNAI ? Z e S ? 20191216 1254 21.375 GAU 0.0 0.0 2392.6304 0.0
BBJI ? Z e P d 20191216 1252 58.851 GAU 0.0 0.0 -3179.6523 0.0
BBJI ? Z e S ? 20191216 1253 18.546 GAU 0.0 0.0 5246.748 0.0
UGM ? Z i P c 20191216 1253 39.220 GAU 0.0 0.0 1147.4406 0.0
UGM ? Z e S ? 20191216 1254 30.609 GAU 0.0 0.0 -288.99872 0.0
SMRI ? Z e P d 20191216 1253 30.253 GAU 0.0 0.0 1581.7709 0.0
SMRI ? Z e S ? 20191216 1254 48.821 GAU 0.0 0.0 1349.8911 0.0

BBJI ? Z i P c 20181201 2236 49.203 GAU 0.0 0.0 -2466.9614 0.0
BBJI ? Z e S ? 20181201 2237 21.036 GAU 0.0 0.0 -2791.468 0.0
MNAI ? Z i P c 20181201 2236 59.953 GAU 0.0 0.0 -178.49065 0.0
MNAI ? Z e S ? 20181201 2237 36.829 GAU 0.0 0.0 -3661.8018 0.0
PMBI ? Z i P c 20181201 2237 09.313 GAU 0.0 0.0 2037.0587 0.0
PMBI ? Z e S ? 20181201 2238 07.259 GAU 0.0 0.0 3620.3691 0.0
UGM ? Z e P c 20181201 2237 33.739 GAU 0.0 0.0 1171.3705 0.0
UGM ? Z e S ? 20181201 2238 31.389 GAU 0.0 0.0 1646.905 0.0
SMRI ? Z e P c 20181201 2237 43.165 GAU 0.0 0.0 2277.3113 0.0
SMRI ? Z e S ? 20181201 2239 11.661 GAU 0.0 0.0 1342.7668 0.0

BBJI ? Z i P c 20180123 0635 20.457 GAU 0.0 0.0 58095.125 0.0
BBJI ? Z e S ? 20180123 0635 38.719 GAU 0.0 0.0 198249.39 0.0
SMRI ? Z e P c 20180123 0635 59.614 GAU 0.0 0.0 3426.5796 0.0
SMRI ? Z e S ? 20180123 0637 05.072 GAU 0.0 0.0 62355.355 0.0
PMBI ? Z i P d 20180123 0636 00.625 GAU 0.0 0.0 3262.8647 0.0
PMBI ? Z e S ? 20180123 0636 59.234 GAU 0.0 0.0 -15971.766 0.0
UGM ? Z i P c 20180123 0636 01.566 GAU 0.0 0.0 -4188.114 0.0
UGM ? Z e S ? 20180123 0636 50.852 GAU 0.0 0.0 -18928.72 0.0

BBJI ? Z i P c 20180124 0633 12.351 GAU 0.0 0.0 1270.2163 0.0
BBJI ? Z e S ? 20180124 0633 31.356 GAU 0.0 0.0 -14050.62 0.0
SMRI ? Z e P c 20180124 0633 47.617 GAU 0.0 0.0 2353.4949 0.0
SMRI ? Z e S ? 20180124 0634 23.333 GAU 0.0 0.0 1573.6584 0.0
PMBI ? Z e P c 20180124 0633 50.784 GAU 0.0 0.0 5145.3174 0.0
PMBI ? Z e S ? 20180124 0634 58.210 GAU 0.0 0.0 1101.3413 0.0
UGM ? Z i P c 20180124 0633 52.701 GAU 0.0 0.0 2747.7332 0.0
UGM ? Z e S ? 20180124 0634 41.897 GAU 0.0 0.0 -14.270343 0.0

BBJI ? Z i P d 20180319 1136 52.849 GAU 0.0 0.0 2186.5278 0.0
BBJI ? Z e S ? 20180319 1137 11.407 GAU 0.0 0.0 5579.7393 0.0
SMRI ? Z i P c 20180319 1137 35.224 GAU 0.0 0.0 3635.7595 0.0
SMRI ? Z e S ? 20180319 1138 40.064 GAU 0.0 0.0 5305.7407 0.0
PMBI ? Z i P c 20180319 1137 35.630 GAU 0.0 0.0 1784.3188 0.0
PMBI ? Z e S ? 20180319 1138 53.052 GAU 0.0 0.0 4475.724 0.0
UGM ? Z i P c 20180319 1137 33.261 GAU 0.0 0.0 1007.27344 0.0
UGM ? Z e S ? 20180319 1138 25.697 GAU 0.0 0.0 -1409.2158 0.0
MNAI ? Z i P c 20180319 1137 31.120 GAU 0.0 0.0 564.26794 0.0
MNAI ? Z e S ? 20180319 1138 15.956 GAU 0.0 0.0 2251.7634 0.0

BBJI ? Z i P c 20180326 2133 48.901 GAU 0.0 0.0 1253.9575 0.0
BBJI ? Z e S ? 20180326 2134 39.040 GAU 0.0 0.0 548.01544 0.0
PMBI ? Z i P c 20180326 2133 31.356 GAU 0.0 0.0 4502.772 0.0
PMBI ? Z e S ? 20180326 2134 46.011 GAU 0.0 0.0 3970.5618 0.0
UGM ? Z i P c 20180326 2134 29.278 GAU 0.0 0.0 -131.49089 0.0
UGM ? Z e S ? 20180326 2135 57.081 GAU 0.0 0.0 1513.8464 0.0
MNAI ? Z i P c 20180326 2133 02.258 GAU 0.0 0.0 4725.691 0.0
MNAI ? Z e S ? 20180326 2133 24.882 GAU 0.0 0.0 -36036.023 0.0

BBJI ? Z i P c 20180408 1605 14.957 GAU 0.0 0.0 1786.7926 0.0
BBJI ? Z e S ? 20180408 1605 55.498 GAU 0.0 0.0 2328.1372 0.0
SMRI ? Z i P c 20180408 1605 54.025 GAU 0.0 0.0 1778.5337 0.0
SMRI ? Z e S ? 20180408 1607 42.271 GAU 0.0 0.0 754.7547 0.0
PMBI ? Z i P c 20180408 1605 12.088 GAU 0.0 0.0 2991.0173 0.0
PMBI ? Z e S ? 20180408 1606 01.416 GAU 0.0 0.0 3353.3423 0.0
UGM ? Z i P c 20180408 1605 55.558 GAU 0.0 0.0 1016.12445 0.0
UGM ? Z e S ? 20180408 1607 04.980 GAU 0.0 0.0 413.06512 0.0
MNAI ? Z i P c 20180408 1604 55.181 GAU 0.0 0.0 -954.357 0.0
MNAI ? Z e S ? 20180408 1605 23.831 GAU 0.0 0.0 4859.361 0.0

BBJI ? Z i P d 20180409 1147 06.580 GAU 0.0 0.0 -895.82367 0.0
BBJI ? Z e S ? 20180409 1147 31.325 GAU 0.0 0.0 -9155.7295 0.0
SMRI ? Z e P c 20180409 1147 46.682 GAU 0.0 0.0 1515.7853 0.0
SMRI ? Z e S ? 20180409 1149 04.131 GAU 0.0 0.0 406.5761 0.0
PMBI ? Z i P c 20180409 1147 36.622 GAU 0.0 0.0 2728.8267 0.0
PMBI ? Z e S ? 20180409 1148 21.069 GAU 0.0 0.0 1528.6234 0.0
UGM ? Z i P c 20180409 1147 47.033 GAU 0.0 0.0 -37.210857 0.0
UGM ? Z e S ? 20180409 1148 47.610 GAU 0.0 0.0 -259.07758 0.0
MNAI ? Z e P c 20180409 1147 30.653 GAU 0.0 0.0 211.04118 0.0
MNAI ? Z e S ? 20180409 1148 10.616 GAU 0.0 0.0 -9463.939 0.0

BBJI ? Z i P c 20180414 1803 00.384 GAU 0.0 0.0 893.43207 0.0
BBJI ? Z e S ? 20180414 1803 48.528 GAU 0.0 0.0 -75.136734 0.0
SMRI ? Z i P c 20180414 1803 48.867 GAU 0.0 0.0 2137.7192 0.0
SMRI ? Z e S ? 20180414 1805 18.803 GAU 0.0 0.0 14972.428 0.0
PMBI ? Z i P c 20180414 1803 15.423 GAU 0.0 0.0 5094.1714 0.0
PMBI ? Z e S ? 20180414 1804 04.123 GAU 0.0 0.0 -7057.5815 0.0
UGM ? Z i P c 20180414 1803 46.421 GAU 0.0 0.0 -991.60016 0.0
UGM ? Z e S ? 20180414 1805 32.461 GAU 0.0 0.0 -1297.6458 0.0

BBJI ? Z i P c 20180509 2126 44.582 GAU 0.0 0.0 1939.8861 0.0
BBJI ? Z e S ? 20180509 2127 18.985 GAU 0.0 0.0 -4248.487 0.0
SMRI ? Z e P c 20180509 2127 22.989 GAU 0.0 0.0 1723.4434 0.0
SMRI ? Z e S ? 20180509 2128 34.916 GAU 0.0 0.0 3981.0188 0.0
PMBI ? Z i P c 20180509 2126 54.185 GAU 0.0 0.0 3669.1177 0.0
PMBI ? Z e S ? 20180509 2127 40.188 GAU 0.0 0.0 -12799.651 0.0
UGM ? Z i P c 20180509 2127 25.255 GAU 0.0 0.0 1267.7252 0.0
UGM ? Z e S ? 20180509 2128 26.255 GAU 0.0 0.0 -1886.5383 0.0
