M06 ? BHZ i P c 20231005 0735 45.50021362 GAU 0.00285177 0.0 -111.40954 0.0
M06 ? BHN i S ? 20231005 0735 45.98548889 GAU 0.00259486 0.0 27.10956 0.0
M04 ? BHZ e P c 20231005 0735 45.54772949 GAU 0.00312764 0.0 -1369.22730 0.0
M04 ? BHN e S ? 20231005 0735 46.02616501 GAU 0.00291360 0.0 719.39197 0.0
M14 ? BHZ e P c 20231005 0735 45.55597305 GAU 0.00218506 0.0 -901.49510 0.0
M14 ? BHE e S ? 20231005 0735 46.04711914 GAU 0.00309406 0.0 552.00000 0.0
M11 ? BHZ e P d 20231005 0735 45.59252167 GAU 0.00225363 0.0 -175.38628 0.0
M11 ? BHN e S ? 20231005 0735 46.09764099 GAU 0.00339422 0.0 -34.35601 0.0
M02 ? BHZ e P d 20231005 0735 45.63083649 GAU 0.00143759 0.0 291.32852 0.0
M02 ? BHN e S ? 20231005 0735 46.15535736 GAU 0.00142308 0.0 -985.89720 0.0
M09 ? BHZ i P c 20231005 0735 45.64861679 GAU 0.00231776 0.0 149.54132 0.0
M09 ? BHN e S ? 20231005 0735 46.20144653 GAU 0.00221772 0.0 495.43780 0.0
M03 ? BHZ e P c 20231005 0735 45.65217209 GAU 0.00201294 0.0 -1449.84190 0.0
M03 ? BHN e S ? 20231005 0735 46.21230698 GAU 0.00248921 0.0 -68.08746 0.0
M13 ? BHZ e P c 20231005 0735 45.82265091 GAU 0.00245869 0.0 -80.23296 0.0
M13 ? BHE e S ? 20231005 0735 46.54117584 GAU 0.00276856 0.0 -75.36942 0.0
M10 ? BHZ e P c 20231005 0735 45.89051437 GAU 0.00311749 0.0 -485.37943 0.0
M10 ? BHE e S ? 20231005 0735 46.66275024 GAU 0.00288918 0.0 -52.00000 0.0
M08 ? BHZ i P c 20231005 0735 45.95032120 GAU 0.00230881 0.0 260.82352 0.0
M08 ? BHN e S ? 20231005 0735 46.76765060 GAU 0.00224694 0.0 317.24270 0.0
M05 ? BHZ i P d 20231005 0735 45.98944473 GAU 0.00211555 0.0 185.52576 0.0
M05 ? BHE e S ? 20231005 0735 46.82923126 GAU 0.00249717 0.0 -184.33339 0.0
M07 ? BHZ i P c 20231005 0735 46.10634995 GAU 0.00267921 0.0 -463.36010 0.0
M07 ? BHE e S ? 20231005 0735 47.02360153 GAU 0.00260430 0.0 -83.84006 0.0

M13 ? BHZ i P c 20231008 0046  2.12625313 GAU 0.00227580 0.0 21.41832 0.0
M13 ? BHN e S ? 20231008 0046  2.44091511 GAU 0.00031197 0.0 -74.13869 0.0
M03 ? BHZ e P d 20231008 0046  2.16341448 GAU 0.00170774 0.0 5067.94040 0.0
M03 ? BHN e S ? 20231008 0046  2.52041698 GAU 0.00074872 0.0 -11.51518 0.0
M09 ? BHZ i P c 20231008 0046  2.16413045 GAU 0.00241434 0.0 173.04530 0.0
M09 ? BHN e S ? 20231008 0046  2.49889159 GAU 0.00324974 0.0 386.65024 0.0
M10 ? BHZ i P d 20231008 0046  2.19030023 GAU 0.00270503 0.0 1284.59640 0.0
M10 ? BHE e S ? 20231008 0046  2.57243061 GAU 0.00243918 0.0 324.28420 0.0
M14 ? BHZ e P d 20231008 0046  2.23983884 GAU 0.00254080 0.0 475.03380 0.0
M14 ? BHN e S ? 20231008 0046  2.61936450 GAU 0.00244162 0.0 403.90976 0.0
M02 ? BHZ i P d 20231008 0046  2.26075363 GAU 0.00234170 0.0 126.77608 0.0
M02 ? BHE e S ? 20231008 0046  2.65395379 GAU 0.00286024 0.0 2483.69500 0.0
M05 ? BHZ i P d 20231008 0046  2.26754498 GAU 0.00249537 0.0 298.54940 0.0
M05 ? BHN e S ? 20231008 0046  2.69583392 GAU 0.00247799 0.0 242.76083 0.0
M11 ? BHZ i P c 20231008 0046  2.27128553 GAU 0.00226612 0.0 -99.52420 0.0
M11 ? BHE e S ? 20231008 0046  2.66993308 GAU 0.00307299 0.0 -97.45175 0.0
M08 ? BHZ i P d 20231008 0046  2.32063866 GAU 0.00028884 0.0 654.11400 0.0
M08 ? BHE e S ? 20231008 0046  2.77836537 GAU 0.00202299 0.0 -829.75653 0.0
M04 ? BHZ e P d 20231008 0046  2.38564396 GAU 0.00367860 0.0 1380.90040 0.0
M04 ? BHE e S ? 20231008 0046  2.89049006 GAU 0.00342370 0.0 415.31152 0.0
M07 ? BHZ i P d 20231008 0046  2.40056562 GAU 0.00239985 0.0 -99.07722 0.0
M07 ? BHE e S ? 20231008 0046  2.92079711 GAU 0.00206937 0.0 -77.57368 0.0
M06 ? BHZ i P c 20231008 0046  2.47731328 GAU 0.00193161 0.0 -111.41997 0.0
M06 ? BHN e S ? 20231008 0046  3.05733275 GAU 0.00081112 0.0 -101.99046 0.0

M03 ? BHZ e P d 20231008 0046 51.15606308 GAU 0.00228142 0.0 81.05834 0.0
M03 ? BHN e S ? 20231008 0046 51.43537903 GAU 0.00273145 0.0 -15.07139 0.0
M09 ? BHZ e P c 20231008 0046 51.35821152 GAU 0.00222504 0.0 -12.77872 0.0
M09 ? BHN e S ? 20231008 0046 51.67718506 GAU 0.00332965 0.0 493.16977 0.0
M13 ? BHZ i P d 20231008 0046 51.41098785 GAU 0.00261914 0.0 201.33803 0.0
M13 ? BHN e S ? 20231008 0046 51.75206375 GAU 0.00286651 0.0 -35.62894 0.0
M10 ? BHZ i P c 20231008 0046 51.42738342 GAU 0.00333787 0.0 -444.32074 0.0
M10 ? BHN e S ? 20231008 0046 51.85417175 GAU 0.00300199 0.0 123.65274 0.0
M02 ? BHZ i P d 20231008 0046 51.48384857 GAU 0.00087347 0.0 -129.99147 0.0
M02 ? BHE e S ? 20231008 0046 51.98583221 GAU 0.00293873 0.0 1242.84050 0.0
M14 ? BHZ i P d 20231008 0046 51.52011871 GAU 0.00186305 0.0 773.95500 0.0
M14 ? BHN e S ? 20231008 0046 51.99248123 GAU 0.00086252 0.0 417.05872 0.0
M05 ? BHZ i P d 20231008 0046 51.56034470 GAU 0.00043330 0.0 267.85068 0.0
M05 ? BHN e S ? 20231008 0046 52.00950623 GAU 0.00056152 0.0 277.87000 0.0
M11 ? BHZ i P d 20231008 0046 51.59280777 GAU 0.00252653 0.0 363.59010 0.0
M11 ? BHN e S ? 20231008 0046 52.04334259 GAU 0.00205212 0.0 -133.53876 0.0
M04 ? BHZ e P c 20231008 0046 51.62412643 GAU 0.00304001 0.0 -1244.19590 0.0
M04 ? BHE e S ? 20231008 0046 52.18108749 GAU 0.00285721 0.0 408.99197 0.0
M07 ? BHZ i P c 20231008 0046 51.64358902 GAU 0.00124199 0.0 -188.62721 0.0
M07 ? BHN e S ? 20231008 0046 52.20838547 GAU 0.00052408 0.0 -85.54624 0.0
M08 ? BHZ i P c 20231008 0046 51.65887451 GAU 0.00043325 0.0 -532.34186 0.0
M08 ? BHN e S ? 20231008 0046 52.22802353 GAU 0.00067580 0.0 332.62620 0.0
M06 ? BHZ i P c 20231008 0046 51.77230453 GAU 0.00217340 0.0 -157.56229 0.0
M06 ? BHE e S ? 20231008 0046 52.39476013 GAU 0.00202538 0.0 -88.68031 0.0

M06 ? BHZ i P d 20231009 1200 57.91917419 GAU 0.00332347 0.0 37.32407 0.0
M06 ? BHE e S ? 20231009 1200 58.43556976 GAU 0.00250683 0.0 -42.19215 0.0
M14 ? BHZ e P c 20231009 1200 57.97666931 GAU 0.00287932 0.0 -757.79820 0.0
M14 ? BHN e S ? 20231009 1200 58.50682068 GAU 0.00199951 0.0 442.98297 0.0
M04 ? BHZ e S ? 20231009 1200 57.98590469 GAU 0.00236681 0.0 2201.35670 0.0
M04 ? BHN e S ? 20231009 1200 58.53011322 GAU 0.00051993 0.0 800.57760 0.0
M02 ? BHZ e P d 20231009 1200 58.04556656 GAU 0.00050548 0.0 -450.64902 0.0
M02 ? BHE e S ? 20231009 1200 58.60422897 GAU 0.00112299 0.0 -3032.66430 0.0
M11 ? BHZ i P c 20231009 1200 58.05599213 GAU 0.00969018 0.0 -366.70786 0.0
M11 ? BHN e S ? 20231009 1200 58.61593246 GAU 0.00324493 0.0 -119.12784 0.0
M09 ? BHZ i P c 20231009 1200 58.06577682 GAU 0.00422084 0.0 51.00000 0.0
M09 ? BHE e S ? 20231009 1200 58.66360474 GAU 0.00278113 0.0 317.07680 0.0
M10 ? BHZ e P c 20231009 1200 58.12362671 GAU 0.00296822 0.0 -1443.91110 0.0
M10 ? BHN e S ? 20231009 1200 58.71987534 GAU 0.00253393 0.0 -22.13232 0.0
M05 ? BHZ e P d 20231009 1200 58.30400467 GAU 0.00289519 0.0 327.40454 0.0
M05 ? BHN e S ? 20231009 1200 59.09506607 GAU 0.00297243 0.0 282.00000 0.0
M08 ? BHZ i P c 20231009 1200 58.39756012 GAU 0.00200572 0.0 -277.57388 0.0
M08 ? BHN e S ? 20231009 1200 59.22439575 GAU 0.00248205 0.0 335.81525 0.0
M07 ? BHZ i P d 20231009 1200 58.50577545 GAU 0.00221908 0.0 -312.17004 0.0
M07 ? BHE e S ? 20231009 1200 59.40613556 GAU 0.00333719 0.0 -126.92284 0.0
M12 ? BHZ i P c 20231009 1200 58.62259293 GAU 0.00252651 0.0 -880.71460 0.0
M12 ? BHE e S ? 20231009 1200 59.64281464 GAU 0.00227127 0.0 135.00000 0.0

M06 ? BHZ i P d 20231009 1310 29.50265884 GAU 0.00238321 0.0 -0.27132 0.0
M06 ? BHN e S ? 20231009 1310 30.08032036 GAU 0.00216747 0.0 -70.00000 0.0
M11 ? BHZ i P d 20231009 1310 29.53768349 GAU 0.00232868 0.0 105.36852 0.0
M11 ? BHE e S ? 20231009 1310 30.13467789 GAU 0.00248942 0.0 -94.18060 0.0
M09 ? BHZ i P d 20231009 1310 29.65724945 GAU 0.00288874 0.0 228.10623 0.0
M09 ? BHE i S ? 20231009 1310 30.37826538 GAU 0.00260532 0.0 369.78174 0.0
M13 ? BHZ i P c 20231009 1310 29.80535698 GAU 0.00064686 0.0 64.02892 0.0
M13 ? BHN i S ? 20231009 1310 30.63675690 GAU 0.00049912 0.0 -112.00000 0.0
M07 ? BHZ i P c 20231009 1310 30.10033417 GAU 0.00247315 0.0 -421.77173 0.0
M07 ? BHE e S ? 20231009 1310 31.08761597 GAU 0.00356354 0.0 -118.15521 0.0
M05 ? BHZ e P d 20231009 1310 30.12822914 GAU 0.00255069 0.0 235.00000 0.0
M05 ? BHN e S ? 20231009 1310 31.16394806 GAU 0.00015962 0.0 260.12668 0.0
M12 ? BHZ i P d 20231009 1310 30.26394272 GAU 0.00247375 0.0 -524.90674 0.0
M12 ? BHE e S ? 20231009 1310 31.38535309 GAU 0.00218005 0.0 73.38419 0.0

M14 ? BHZ e P c 20231010 0852 48.15450668 GAU 0.00217354 0.0 -506.38745 0.0
M14 ? BHN e S ? 20231010 0852 48.67312622 GAU 0.00292298 0.0 398.12863 0.0
M11 ? BHZ e P c 20231010 0852 48.19754410 GAU 0.00097037 0.0 -416.51440 0.0
M11 ? BHN e S ? 20231010 0852 48.72613144 GAU 0.00133554 0.0 -44.00000 0.0
M13 ? BHZ e P c 20231010 0852 48.40885925 GAU 0.00067387 0.0 -452.58970 0.0
M13 ? BHE e S ? 20231010 0852 49.08422089 GAU 0.00080855 0.0 -42.48766 0.0
M07 ? BHZ e P c 20231010 0852 48.75553894 GAU 0.00253420 0.0 -664.62335 0.0
M07 ? BHE e S ? 20231010 0852 49.71007156 GAU 0.00207691 0.0 -58.98742 0.0
M05 ? BHZ e P d 20231010 0852 48.76839066 GAU 0.00235159 0.0 378.70618 0.0
M05 ? BHN e S ? 20231010 0852 49.74519730 GAU 0.00220380 0.0 282.50700 0.0

M06 ? BHZ i P c 20231012 0208 52.56098557 GAU 0.00246922 0.0 -289.13720 0.0
M06 ? BHN e S ? 20231012 0208 53.11425400 GAU 0.00306900 0.0 -65.52092 0.0
M11 ? BHZ e P c 20231012 0208 52.60316086 GAU 0.00201217 0.0 -160.32246 0.0
M11 ? BHN e S ? 20231012 0208 53.19593430 GAU 0.00209821 0.0 -98.12246 0.0
M04 ? BHZ e P c 20231012 0208 52.61138535 GAU 0.00203920 0.0 -945.37420 0.0
M04 ? BHN e S ? 20231012 0208 53.17641830 GAU 0.00292855 0.0 802.30237 0.0
M02 ? BHZ i P c 20231012 0208 52.70221329 GAU 0.00221885 0.0 -1908.77230 0.0
M02 ? BHN e S ? 20231012 0208 53.38346863 GAU 0.00311847 0.0 540.53760 0.0
M09 ? BHZ e P c 20231012 0208 52.83222198 GAU 0.00297003 0.0 62.76362 0.0
M09 ? BHE e S ? 20231012 0208 53.61731720 GAU 0.00210091 0.0 369.58500 0.0
M13 ? BHZ e P c 20231012 0208 52.96282196 GAU 0.00256246 0.0 -237.25182 0.0
M13 ? BHN e S ? 20231012 0208 53.84541702 GAU 0.00240633 0.0 -97.42161 0.0
M05 ? BHZ i P d 20231012 0208 53.12357330 GAU 0.00316748 0.0 363.48233 0.0
M05 ? BHN e S ? 20231012 0208 54.09407806 GAU 0.00212815 0.0 259.00000 0.0
M07 ? BHZ e P d 20231012 0208 53.29945755 GAU 0.00213332 0.0 378.82587 0.0
M07 ? BHN e S ? 20231012 0208 54.43724442 GAU 0.00203651 0.0 -75.22282 0.0

M06 ? BHZ i P c 20231012 0225 54.49601364 GAU 0.00287058 0.0 -25.25040 0.0
M06 ? BHE e S ? 20231012 0225 54.94586945 GAU 0.00261615 0.0 -65.06470 0.0
M14 ? BHZ e P c 20231012 0225 54.60442352 GAU 0.00298707 0.0 -1032.30330 0.0
M14 ? BHN e S ? 20231012 0225 55.17425156 GAU 0.00241446 0.0 344.69934 0.0
M11 ? BHZ e P c 20231012 0225 54.61477280 GAU 0.00245376 0.0 -224.61986 0.0
M11 ? BHE e S ? 20231012 0225 55.10574341 GAU 0.00250561 0.0 -94.62907 0.0
M04 ? BHZ e P c 20231012 0225 54.64890289 GAU 0.00211585 0.0 -1749.45890 0.0
M04 ? BHE e S ? 20231012 0225 55.25442505 GAU 0.00218564 0.0 340.31473 0.0
M02 ? BHZ i P c 20231012 0225 54.68277740 GAU 0.00293859 0.0 -823.23410 0.0
M02 ? BHE e S ? 20231012 0225 55.24478912 GAU 0.00295528 0.0 -643.91504 0.0
M09 ? BHZ i P c 20231012 0225 54.83838272 GAU 0.00333448 0.0 143.61392 0.0
M09 ? BHN e S ? 20231012 0225 55.57116699 GAU 0.00203724 0.0 479.54500 0.0
M13 ? BHZ i P d 20231012 0225 54.97444153 GAU 0.00267612 0.0 176.97125 0.0
M13 ? BHN e S ? 20231012 0225 55.85706329 GAU 0.00236166 0.0 -86.70149 0.0
M05 ? BHZ i P d 20231012 0225 55.09021759 GAU 0.00242998 0.0 301.74980 0.0
M05 ? BHN e S ? 20231012 0225 56.00223541 GAU 0.00211644 0.0 289.55530 0.0
M08 ? BHZ i P c 20231012 0225 55.19720078 GAU 0.00237006 0.0 -136.81078 0.0
M08 ? BHE e S ? 20231012 0225 56.19694901 GAU 0.00200305 0.0 -870.40300 0.0
M07 ? BHZ i P d 20231012 0225 55.24304199 GAU 0.00229572 0.0 461.40010 0.0
M07 ? BHN e S ? 20231012 0225 56.25691223 GAU 0.00372770 0.0 -77.65987 0.0

M04 ? BHZ e P c 20231012 0226 45.11087799 GAU 0.00377156 0.0 -28.19308 0.0
M04 ? BHN e S ? 20231012 0226 45.59843445 GAU 0.00267330 0.0 830.39600 0.0
M06 ? BHZ i P c 20231012 0226 45.11573410 GAU 0.00561762 0.0 -310.89523 0.0
M06 ? BHE e S ? 20231012 0226 45.59399414 GAU 0.00201131 0.0 -49.96713 0.0
M11 ? BHZ e P d 20231012 0226 45.27229691 GAU 0.00242040 0.0 82.55179 0.0
M11 ? BHE e S ? 20231012 0226 45.97541428 GAU 0.00400478 0.0 -126.82084 0.0
M14 ? BHZ e P c 20231012 0226 45.27601624 GAU 0.00124200 0.0 -756.20940 0.0
M14 ? BHN e S ? 20231012 0226 46.02771378 GAU 0.00107813 0.0 292.31270 0.0
M09 ? BHZ i P c 20231012 0226 45.42893219 GAU 0.00245524 0.0 -79.55090 0.0
M09 ? BHN e S ? 20231012 0226 46.17882156 GAU 0.00286848 0.0 470.16302 0.0
M13 ? BHZ e P c 20231012 0226 45.70481873 GAU 0.00269698 0.0 -253.65300 0.0
M13 ? BHN e S ? 20231012 0226 46.68641663 GAU 0.00222575 0.0 -94.37417 0.0
M05 ? BHZ i P c 20231012 0226 45.77429199 GAU 0.00225349 0.0 -41.54711 0.0
M05 ? BHE e S ? 20231012 0226 46.76524734 GAU 0.00236825 0.0 -160.05399 0.0
M08 ? BHZ e P d 20231012 0226 45.79522324 GAU 0.00107312 0.0 619.57446 0.0
M08 ? BHN e S ? 20231012 0226 46.88331223 GAU 0.00006187 0.0 293.31897 0.0
M07 ? BHZ i P d 20231012 0226 45.83995056 GAU 0.00341211 0.0 613.82850 0.0
M07 ? BHE e S ? 20231012 0226 46.93091965 GAU 0.00201417 0.0 -116.49095 0.0

M06 ? BHZ i P c 20231012 0733 36.38623428 GAU 0.00280814 0.0 -58.63971 0.0
M06 ? BHE e S ? 20231012 0733 36.84577942 GAU 0.00180172 0.0 -14.70426 0.0
M11 ? BHZ i P d 20231012 0733 36.51118088 GAU 0.00268279 0.0 79.64544 0.0
M11 ? BHE e S ? 20231012 0733 37.15662766 GAU 0.00260914 0.0 -91.09978 0.0
M13 ? BHZ e P c 20231012 0733 36.79459000 GAU 0.00291941 0.0 -242.07341 0.0
M13 ? BHN e S ? 20231012 0733 37.64419174 GAU 0.00257610 0.0 -47.79537 0.0
M05 ? BHZ e P c 20231012 0733 36.99843216 GAU 0.00207674 0.0 19.61198 0.0
M05 ? BHN e S ? 20231012 0733 37.88558197 GAU 0.00010077 0.0 290.82578 0.0
M07 ? BHZ e P d 20231012 0733 37.10078049 GAU 0.00034664 0.0 87.35109 0.0
M07 ? BHE e S ? 20231012 0733 38.08454514 GAU 0.00009330 0.0 -85.95887 0.0

M14 ? BHZ e P d 20231012 0735 27.38681412 GAU 0.00201201 0.0 583.30130 0.0
M14 ? BHE e S ? 20231012 0735 27.86348915 GAU 0.00276255 0.0 405.52124 0.0
M06 ? BHZ i P c 20231012 0735 27.44321060 GAU 0.00044921 0.0 -88.93642 0.0
M06 ? BHE e S ? 20231012 0735 27.96169662 GAU 0.00296668 0.0 -17.71827 0.0
M11 ? BHZ e P c 20231012 0735 27.51013756 GAU 0.00309045 0.0 -309.47880 0.0
M11 ? BHN e S ? 20231012 0735 28.06324387 GAU 0.00019347 0.0 -54.18801 0.0
M13 ? BHZ i P c 20231012 0735 27.69593430 GAU 0.00205844 0.0 -240.66481 0.0
M13 ? BHN e S ? 20231012 0735 28.35573387 GAU 0.00211540 0.0 -67.90709 0.0
M05 ? BHZ e P c 20231012 0735 27.90098000 GAU 0.00239150 0.0 108.24152 0.0
M05 ? BHN e S ? 20231012 0735 28.76698685 GAU 0.00221878 0.0 273.39900 0.0
M07 ? BHZ i P c 20231012 0735 28.10995865 GAU 0.00044715 0.0 55.55928 0.0
M07 ? BHN e S ? 20231012 0735 29.13776016 GAU 0.00056329 0.0 -49.00000 0.0

M06 ? BHZ i P c 20231012 0744 21.86076736 GAU 0.00216309 0.0 -61.22787 0.0
M06 ? BHE i S ? 20231012 0744 22.35620689 GAU 0.00339707 0.0 -5.06242 0.0
M04 ? BHZ e P c 20231012 0744 21.87401962 GAU 0.00222509 0.0 -1459.39440 0.0
M04 ? BHN e S ? 20231012 0744 22.42315865 GAU 0.00336218 0.0 761.33090 0.0
M14 ? BHZ i P c 20231012 0744 21.93397331 GAU 0.00321933 0.0 -245.13641 0.0
M14 ? BHE e S ? 20231012 0744 22.47555351 GAU 0.00208842 0.0 449.07507 0.0
M11 ? BHZ e P c 20231012 0744 21.94639969 GAU 0.00257538 0.0 -315.38623 0.0
M11 ? BHN e S ? 20231012 0744 22.48686028 GAU 0.00383185 0.0 -71.77322 0.0
M09 ? BHZ i P c 20231012 0744 21.96804619 GAU 0.00218178 0.0 51.99539 0.0
M09 ? BHE e S ? 20231012 0744 22.58145905 GAU 0.00279095 0.0 365.56012 0.0
M13 ? BHZ e P d 20231012 0744 22.11516953 GAU 0.00393395 0.0 315.61188 0.0
M13 ? BHE e S ? 20231012 0744 22.79636574 GAU 0.00271343 0.0 -130.30430 0.0
M05 ? BHZ e P c 20231012 0744 22.38732719 GAU 0.00348749 0.0 209.34770 0.0
M05 ? BHN e S ? 20231012 0744 23.30417442 GAU 0.00194127 0.0 271.93130 0.0

M06 ? BHZ i P c 20231014 0824 31.28368759 GAU 0.00361561 0.0 -241.42523 0.0
M06 ? BHN e S ? 20231014 0824 31.77819252 GAU 0.00259275 0.0 -24.89263 0.0
M11 ? BHZ e P c 20231014 0824 31.34904289 GAU 0.00230044 0.0 -187.43692 0.0
M11 ? BHN e S ? 20231014 0824 31.91925812 GAU 0.00027078 0.0 -52.42855 0.0
M14 ? BHZ i P c 20231014 0824 31.39865494 GAU 0.00268279 0.0 -384.69415 0.0
M14 ? BHN e S ? 20231014 0824 32.00529480 GAU 0.00253718 0.0 342.00000 0.0
M09 ? BHZ i P c 20231014 0824 31.45286560 GAU 0.00129377 0.0 175.28975 0.0
M09 ? BHN e S ? 20231014 0824 32.08855057 GAU 0.00211942 0.0 493.10007 0.0
M13 ? BHZ i P c 20231014 0824 31.55634117 GAU 0.00237122 0.0 -266.71863 0.0
M13 ? BHE e S ? 20231014 0824 32.24356461 GAU 0.00218562 0.0 -25.80694 0.0
M10 ? BHZ e P c 20231014 0824 31.64899445 GAU 0.00204924 0.0 833.75604 0.0
M10 ? BHE e S ? 20231014 0824 32.42491150 GAU 0.00469168 0.0 -51.98561 0.0
M05 ? BHZ e P c 20231014 0824 31.77925491 GAU 0.00202623 0.0 -247.27350 0.0
M05 ? BHE e S ? 20231014 0824 32.66351318 GAU 0.00206531 0.0 -128.09248 0.0

M06 ? BHZ i P c 20231014 1032 46.99433517 GAU 0.00294279 0.0 -211.27895 0.0
M06 ? BHN e S ? 20231014 1032 47.52309799 GAU 0.00280977 0.0 -21.70503 0.0
M11 ? BHZ e P c 20231014 1032 47.06240082 GAU 0.00382686 0.0 -264.26712 0.0
M11 ? BHN e S ? 20231014 1032 47.68260956 GAU 0.00090565 0.0 -35.31444 0.0
M14 ? BHZ e P c 20231014 1032 47.07162857 GAU 0.00201866 0.0 -571.88500 0.0
M14 ? BHE e S ? 20231014 1032 47.68292999 GAU 0.00299187 0.0 454.70170 0.0
M13 ? BHZ e P d 20231014 1032 47.33456802 GAU 0.00201212 0.0 238.33203 0.0
M13 ? BHN e S ? 20231014 1032 48.07710266 GAU 0.00234256 0.0 -33.07000 0.0
M08 ? BHZ e P d 20231014 1032 47.36333847 GAU 0.00265506 0.0 450.39270 0.0
M08 ? BHN e S ? 20231014 1032 48.19216537 GAU 0.00205082 0.0 318.62363 0.0
M07 ? BHZ e P d 20231014 1032 47.48246002 GAU 0.00295658 0.0 465.36180 0.0
M07 ? BHE e S ? 20231014 1032 48.38438797 GAU 0.00256166 0.0 -46.86531 0.0
M05 ? BHZ e P d 20231014 1032 47.49250793 GAU 0.00261280 0.0 284.54193 0.0
M05 ? BHN e S ? 20231014 1032 48.37353516 GAU 0.00240315 0.0 297.99524 0.0

M06 ? BHZ i P c 20231014 1631 41.64619827 GAU 0.00257557 0.0 -90.71117 0.0
M06 ? BHN e S ? 20231014 1631 42.09321594 GAU 0.00256705 0.0 -57.59419 0.0
M11 ? BHZ e P d 20231014 1631 41.79764175 GAU 0.00259279 0.0 104.90032 0.0
M11 ? BHN e S ? 20231014 1631 42.37884903 GAU 0.00377137 0.0 -105.12768 0.0
M09 ? BHZ i P c 20231014 1631 41.85579681 GAU 0.00223132 0.0 126.78600 0.0
M09 ? BHE e S ? 20231014 1631 42.48931885 GAU 0.00090550 0.0 381.60110 0.0
M13 ? BHZ i P c 20231014 1631 41.92089081 GAU 0.00260664 0.0 -292.61966 0.0
M13 ? BHE e S ? 20231014 1631 42.53889084 GAU 0.00228559 0.0 -167.73335 0.0
M08 ? BHZ e P c 20231014 1631 42.12098694 GAU 0.00219685 0.0 -154.97473 0.0
M08 ? BHE e S ? 20231014 1631 42.88799286 GAU 0.00249354 0.0 -853.71640 0.0
M07 ? BHZ i P d 20231014 1631 42.14612198 GAU 0.00386684 0.0 414.96664 0.0
M07 ? BHE e S ? 20231014 1631 42.95168304 GAU 0.00301220 0.0 -106.42308 0.0
M05 ? BHZ i P c 20231014 1631 42.30038834 GAU 0.00210173 0.0 106.44740 0.0
M05 ? BHE e S ? 20231014 1631 43.25717545 GAU 0.00212699 0.0 -153.89775 0.0
M12 ? BHZ i P c 20231014 1631 42.40428925 GAU 0.00235936 0.0 -710.18280 0.0
M12 ? BHN e S ? 20231014 1631 43.38569641 GAU 0.00263541 0.0 -98.00000 0.0

M14 ? BHZ e P c 20231017 0813 57.60456085 GAU 0.00340879 0.0 -1985.41310 0.0
M14 ? BHN e S ? 20231017 0813 58.22869110 GAU 0.00359469 0.0 413.00000 0.0
M02 ? BHZ e P d 20231017 0813 57.60800934 GAU 0.00086280 0.0 1112.29110 0.0
M02 ? BHE e S ? 20231017 0813 58.20180130 GAU 0.00248058 0.0 -2974.64970 0.0
M06 ? BHZ i P c 20231017 0813 57.60812759 GAU 0.00206746 0.0 44.96504 0.0
M06 ? BHN e S ? 20231017 0813 58.19773102 GAU 0.00305587 0.0 50.69809 0.0
M04 ? BHZ e P c 20231017 0813 57.68696213 GAU 0.00351238 0.0 -3372.75170 0.0
M04 ? BHE e S ? 20231017 0813 58.33156967 GAU 0.00291317 0.0 338.84576 0.0
M11 ? BHZ e P d 20231017 0813 57.69645691 GAU 0.00290016 0.0 109.14374 0.0
