M06 ? BHZ i P c 20230401 1145  3.35196590 GAU 0.00278151 0.0 151.25157 0.0
M06 ? BHN e S ? 20230401 1145  4.99611378 GAU 0.00192258 0.0 -130.80916 0.0
M04 ? BHZ i P c 20230401 1145  3.40877247 GAU 0.00324522 0.0 -1554.61570 0.0
M04 ? BHN e S ? 20230401 1145  5.01792049 GAU 0.00130413 0.0 545.34424 0.0
M02 ? BHZ i P d 20230401 1145  3.45722842 GAU 0.00244008 0.0 -589.40350 0.0
M02 ? BHN e S ? 20230401 1145  5.06317091 GAU 0.00115225 0.0 -18937.20000 0.0
M14 ? BHZ i P c 20230401 1145  3.47367811 GAU 0.00279501 0.0 169.26752 0.0
M14 ? BHE e S ? 20230401 1145  5.20596695 GAU 0.00206143 0.0 283.39526 0.0
M11 ? BHZ i P c 20230401 1145  3.54378843 GAU 0.00521125 0.0 -364.38885 0.0
M11 ? BHN e S ? 20230401 1145  5.30882978 GAU 0.00192251 0.0 -168.31667 0.0
M09 ? BHZ i P c 20230401 1145  3.66298652 GAU 0.00480639 0.0 148.34888 0.0
M09 ? BHE e S ? 20230401 1145  5.54865646 GAU 0.00147932 0.0 384.98130 0.0
M13 ? BHZ i P c 20230401 1145  3.77481294 GAU 0.00115896 0.0 -61.04400 0.0
M13 ? BHN e S ? 20230401 1145  5.66103792 GAU 0.00205904 0.0 -32.71971 0.0
M10 ? BHZ e P c 20230401 1145  3.78384209 GAU 0.00511506 0.0 346.71240 0.0
M10 ? BHE e S ? 20230401 1145  5.65679169 GAU 0.00413566 0.0 -60.78404 0.0
M05 ? BHZ i P d 20230401 1145  3.92490339 GAU 0.00326112 0.0 124.88581 0.0
M05 ? BHE e S ? 20230401 1145  5.99921894 GAU 0.00111260 0.0 -262.31003 0.0
M01 ? BHZ e P c 20230401 1145  3.94254136 GAU 0.00200261 0.0 -1410.44740 0.0
M01 ? BHE e S ? 20230401 1145  6.02113485 GAU 0.00553697 0.0 362.25232 0.0
M08 ? BHZ e P c 20230401 1145  3.96510816 GAU 0.00333758 0.0 -162.17854 0.0
M08 ? BHN e S ? 20230401 1145  5.92347717 GAU 0.00160958 0.0 226.86412 0.0
M12 ? BHZ e P d 20230401 1145  4.15405130 GAU 0.00192254 0.0 -493.38086 0.0
M12 ? BHE e S ? 20230401 1145  6.31576729 GAU 0.00354247 0.0 140.29742 0.0

M06 ? BHZ i P d 20230404 2116 12.92191792 GAU 0.00073365 0.0 -109.87618 0.0
M06 ? BHN e S ? 20230404 2116 13.45660877 GAU 0.00055326 0.0 -113.73692 0.0
M14 ? BHZ i P d 20230404 2116 13.06224251 GAU 0.00433721 0.0 646.39590 0.0
M14 ? BHE e S ? 20230404 2116 13.54755020 GAU 0.00204361 0.0 337.08755 0.0
M11 ? BHZ i P c 20230404 2116 13.09844685 GAU 0.00231792 0.0 -414.00000 0.0
M11 ? BHE i S ? 20230404 2116 13.66471863 GAU 0.02411044 0.0 -140.28363 0.0
M02 ? BHZ i P d 20230404 2116 13.11729717 GAU 0.00553673 0.0 243.88630 0.0
M02 ? BHE e S ? 20230404 2116 13.68711948 GAU 0.00174820 0.0 375.73782 0.0
M09 ? BHZ i P c 20230404 2116 13.12793636 GAU 0.00320425 0.0 46.81736 0.0
M09 ? BHN e S ? 20230404 2116 13.82200050 GAU 0.00305402 0.0 453.24100 0.0
M13 ? BHZ i P c 20230404 2116 13.29958630 GAU 0.00154523 0.0 -236.50075 0.0
M13 ? BHE i S ? 20230404 2116 14.02401924 GAU 0.00216850 0.0 -198.31407 0.0
M05 ? BHZ e P c 20230404 2116 13.54718208 GAU 0.00830511 0.0 165.38712 0.0
M05 ? BHE e S ? 20230404 2116 14.54617405 GAU 0.00664443 0.0 -179.66891 0.0
M08 ? BHZ i P d 20230404 2116 13.59478474 GAU 0.00174422 0.0 220.02525 0.0
M08 ? BHE e S ? 20230404 2116 14.42441750 GAU 0.00333710 0.0 -886.39760 0.0
M12 ? BHZ i P c 20230404 2116 13.78355217 GAU 0.00240318 0.0 -485.69604 0.0
M12 ? BHE e S ? 20230404 2116 14.98257542 GAU 0.00225354 0.0 17.49723 0.0

M06 ? BHZ i P d 20230404 2117 39.61212921 GAU 0.00123399 0.0 -100.52020 0.0
M06 ? BHE i S ? 20230404 2117 40.18667603 GAU 0.00135809 0.0 -107.66961 0.0
M14 ? BHZ e P c 20230404 2117 39.69374847 GAU 0.00231802 0.0 -138.80235 0.0
M14 ? BHN e S ? 20230404 2117 40.23766708 GAU 0.00092284 0.0 334.30276 0.0
M11 ? BHZ e P c 20230404 2117 39.75634766 GAU 0.00185427 0.0 -255.41720 0.0
M11 ? BHN i S ? 20230404 2117 40.37908554 GAU 0.00288383 0.0 -109.65591 0.0
M09 ? BHZ e P c 20230404 2117 39.84582901 GAU 0.00253338 0.0 20.88704 0.0
M09 ? BHE e S ? 20230404 2117 40.58261108 GAU 0.00093154 0.0 349.00000 0.0

M14 ? BHZ e P c 20230404 2119 38.33819962 GAU 0.00384495 0.0 -289.89868 0.0
M14 ? BHE e S ? 20230404 2119 38.80607605 GAU 0.00346078 0.0 393.09380 0.0
M06 ? BHZ i P d 20230404 2119 38.39083862 GAU 0.00090607 0.0 -120.62106 0.0
M06 ? BHN i S ? 20230404 2119 38.92361832 GAU 0.00193154 0.0 -98.75518 0.0
M11 ? BHZ e P c 20230404 2119 38.57632446 GAU 0.00216391 0.0 -213.00000 0.0
M11 ? BHE e S ? 20230404 2119 39.16288757 GAU 0.00314336 0.0 -130.38185 0.0
M09 ? BHZ e P d 20230404 2119 38.66685486 GAU 0.00229887 0.0 205.36554 0.0
M09 ? BHE e S ? 20230404 2119 39.30733490 GAU 0.00240638 0.0 343.28406 0.0
M05 ? BHZ e P c 20230404 2119 39.07627869 GAU 0.00231802 0.0 99.65850 0.0
M05 ? BHN e S ? 20230404 2119 40.05784988 GAU 0.00135332 0.0 255.03430 0.0

M06 ? BHZ i P d 20230404 2120  8.57175922 GAU 0.00069388 0.0 -56.57800 0.0
M06 ? BHE e S ? 20230404 2120  9.05797958 GAU 0.00139078 0.0 -118.86166 0.0
M14 ? BHZ e P c 20230404 2120  8.73652077 GAU 0.00347702 0.0 -621.64530 0.0
M14 ? BHN e S ? 20230404 2120  9.32853889 GAU 0.00135307 0.0 337.00000 0.0
M11 ? BHZ e P c 20230404 2120  8.76306629 GAU 0.00270693 0.0 -260.97223 0.0
M11 ? BHE e S ? 20230404 2120  9.36801910 GAU 0.00268764 0.0 -127.16624 0.0
M09 ? BHZ e P c 20230404 2120  8.80599785 GAU 0.00152581 0.0 13.67065 0.0
M09 ? BHE e S ? 20230404 2120  9.47733879 GAU 0.00097875 0.0 343.17288 0.0

M06 ? BHZ i P d 20230404 2121 24.71279907 GAU 0.00043753 0.0 -623.43040 0.0
M06 ? BHN i S ? 20230404 2121 25.24074745 GAU 0.00322320 0.0 -108.30341 0.0
M04 ? BHZ e P d 20230404 2121 24.74279022 GAU 0.00150261 0.0 743.35004 0.0
M04 ? BHE e S ? 20230404 2121 25.15073204 GAU 0.00098576 0.0 312.10007 0.0
M02 ? BHZ e P d 20230404 2121 24.84775352 GAU 0.00124677 0.0 880.36700 0.0
M02 ? BHN e S ? 20230404 2121 25.33602905 GAU 0.00164693 0.0 -1419.35330 0.0
M14 ? BHZ i P d 20230404 2121 24.85166168 GAU 0.00211024 0.0 1644.24130 0.0
M14 ? BHE e S ? 20230404 2121 25.29028702 GAU 0.00188259 0.0 528.60406 0.0
M11 ? BHZ i P d 20230404 2121 24.87189865 GAU 0.00202631 0.0 -75.29488 0.0
M11 ? BHE i S ? 20230404 2121 25.45182991 GAU 0.02114996 0.0 -141.00000 0.0
M09 ? BHZ i P c 20230404 2121 24.90331459 GAU 0.00461417 0.0 45.30696 0.0
M09 ? BHE e S ? 20230404 2121 25.60466766 GAU 0.00101417 0.0 358.82020 0.0
M10 ? BHZ e P c 20230404 2121 25.00102043 GAU 0.00461402 0.0 -359.55230 0.0
M10 ? BHN e S ? 20230404 2121 25.51861954 GAU 0.00574102 0.0 -15.31654 0.0
M13 ? BHZ i P c 20230404 2121 25.06498718 GAU 0.00302729 0.0 -305.07430 0.0
M13 ? BHN e S ? 20230404 2121 25.76230621 GAU 0.00276850 0.0 -137.68070 0.0
M08 ? BHZ i P c 20230404 2121 25.37705040 GAU 0.00125395 0.0 -274.33502 0.0
M08 ? BHN e S ? 20230404 2121 26.36361694 GAU 0.00093132 0.0 254.04434 0.0
M05 ? BHZ i P c 20230404 2121 25.39433670 GAU 0.00130538 0.0 245.79727 0.0
M05 ? BHE e S ? 20230404 2121 26.38562012 GAU 0.00071370 0.0 -183.73976 0.0
M12 ? BHZ i P c 20230404 2121 25.55036736 GAU 0.00185424 0.0 -520.06793 0.0
M12 ? BHE e S ? 20230404 2121 26.58739662 GAU 0.00128774 0.0 43.92167 0.0

M06 ? BHZ i P d 20230404 2121 38.58827972 GAU 0.00133202 0.0 -96.60433 0.0
M06 ? BHN i S ? 20230404 2121 39.11647415 GAU 0.00354097 0.0 -95.00000 0.0
M14 ? BHZ e P c 20230404 2121 38.71630859 GAU 0.00220176 0.0 -395.92392 0.0
M14 ? BHE e S ? 20230404 2121 39.28045273 GAU 0.00267073 0.0 440.00354 0.0
M11 ? BHZ e P d 20230404 2121 38.72132874 GAU 0.00200239 0.0 74.75722 0.0
M11 ? BHE i S ? 20230404 2121 39.31570053 GAU 0.00755169 0.0 -126.32410 0.0
M09 ? BHZ i P d 20230404 2121 38.87325668 GAU 0.00121977 0.0 142.16423 0.0
M09 ? BHE e S ? 20230404 2121 39.59159088 GAU 0.00309047 0.0 350.28220 0.0

M06 ? BHZ i P d 20230404 2121 53.54442978 GAU 0.00143295 0.0 -169.70883 0.0
M06 ? BHE i S ? 20230404 2121 54.11492538 GAU 0.00163969 0.0 -105.85145 0.0
M14 ? BHZ i P c 20230404 2121 53.55731964 GAU 0.00320413 0.0 -589.15600 0.0
M14 ? BHE e S ? 20230404 2121 53.96905518 GAU 0.00132772 0.0 384.14935 0.0
M11 ? BHZ e P c 20230404 2121 53.71176910 GAU 0.00166117 0.0 -124.05220 0.0
M11 ? BHE i S ? 20230404 2121 54.35675430 GAU 0.00240321 0.0 -134.00000 0.0
M09 ? BHZ i P c 20230404 2121 53.76516724 GAU 0.00193160 0.0 -13.36237 0.0
M09 ? BHE e S ? 20230404 2121 54.46395874 GAU 0.00320413 0.0 348.22460 0.0
M13 ? BHZ i P c 20230404 2121 53.98627090 GAU 0.00091412 0.0 -512.31726 0.0
M13 ? BHN e S ? 20230404 2121 54.92544174 GAU 0.00231791 0.0 -120.11887 0.0
M08 ? BHZ i P c 20230404 2121 54.33745956 GAU 0.00158052 0.0 41.26993 0.0
M08 ? BHN e S ? 20230404 2121 55.31819153 GAU 0.00310424 0.0 307.72550 0.0

M04 ? BHZ e P c 20230404 2121 55.55242538 GAU 0.00213567 0.0 -1077.90260 0.0
M04 ? BHN e S ? 20230404 2121 56.14764404 GAU 0.00130418 0.0 692.75323 0.0
M06 ? BHZ i P d 20230404 2121 55.61916733 GAU 0.00046851 0.0 257.44226 0.0
M06 ? BHN i S ? 20230404 2121 56.12924957 GAU 0.00480645 0.0 -106.42499 0.0
M11 ? BHZ i P c 20230404 2121 55.67386246 GAU 0.00346046 0.0 -523.22253 0.0
M11 ? BHE i S ? 20230404 2121 56.38668060 GAU 0.00664470 0.0 -117.40796 0.0
M14 ? BHZ i P c 20230404 2121 55.68609619 GAU 0.00257538 0.0 -506.39767 0.0
M14 ? BHE e S ? 20230404 2121 56.23247147 GAU 0.00093152 0.0 271.63177 0.0
M09 ? BHZ i P d 20230404 2121 55.90151215 GAU 0.00185352 0.0 438.98303 0.0
M09 ? BHE i S ? 20230404 2121 56.60894394 GAU 0.00278151 0.0 321.94160 0.0
M13 ? BHZ i P c 20230404 2121 55.99438858 GAU 0.00193160 0.0 -236.65200 0.0
M13 ? BHN e S ? 20230404 2121 56.91937637 GAU 0.00187789 0.0 -138.15740 0.0
M08 ? BHZ i P c 20230404 2121 56.31940460 GAU 0.00157977 0.0 -50.19140 0.0
M08 ? BHN i S ? 20230404 2121 57.38366318 GAU 0.00167640 0.0 308.69284 0.0

M06 ? BHZ e P c 20230404 2122  4.44402933 GAU 0.00074519 0.0 -277.85956 0.0
M06 ? BHE i S ? 20230404 2122  5.02359343 GAU 0.00127252 0.0 -115.84702 0.0
M11 ? BHZ e P c 20230404 2122  4.57594728 GAU 0.00212465 0.0 -432.22300 0.0
M11 ? BHE i S ? 20230404 2122  5.23793650 GAU 0.01587834 0.0 -130.78816 0.0
M09 ? BHZ i P c 20230404 2122  4.66645718 GAU 0.00118945 0.0 24.47412 0.0
M09 ? BHE i S ? 20230404 2122  5.36707878 GAU 0.00085303 0.0 342.07712 0.0
M05 ? BHZ e P c 20230404 2122  4.99903774 GAU 0.00175517 0.0 43.80121 0.0
M05 ? BHN e S ? 20230404 2122  5.98827076 GAU 0.00425029 0.0 264.76862 0.0

M06 ? BHZ i P c 20230407 0628 12.88156414 GAU 0.00053694 0.0 88.34612 0.0
M06 ? BHE i S ? 20230407 0628 13.46817112 GAU 0.00080484 0.0 83.50769 0.0
M14 ? BHZ i P c 20230407 0628 12.95865250 GAU 0.00231775 0.0 -373.29623 0.0
M14 ? BHE e S ? 20230407 0628 13.43260098 GAU 0.00059692 0.0 373.26352 0.0
M11 ? BHZ i P c 20230407 0628 13.05058384 GAU 0.00139065 0.0 -378.69702 0.0
M11 ? BHN i S ? 20230407 0628 13.68128586 GAU 0.00111255 0.0 -13.75567 0.0
M09 ? BHZ i P c 20230407 0628 13.14601898 GAU 0.00156488 0.0 192.17407 0.0
M09 ? BHN e S ? 20230407 0628 13.96017361 GAU 0.00255282 0.0 551.61520 0.0
M13 ? BHZ i P c 20230407 0628 13.26957130 GAU 0.00154520 0.0 -26.82565 0.0
M13 ? BHN e S ? 20230407 0628 13.99381924 GAU 0.00067422 0.0 12.05296 0.0
M08 ? BHZ i P c 20230407 0628 13.41052723 GAU 0.00177798 0.0 208.64497 0.0
M08 ? BHN e S ? 20230407 0628 14.39812279 GAU 0.00077626 0.0 354.02585 0.0
M05 ? BHZ i P c 20230407 0628 13.60406590 GAU 0.00254119 0.0 36.18510 0.0
M05 ? BHE e S ? 20230407 0628 14.65809345 GAU 0.00141949 0.0 -132.94168 0.0

M08 ? BHZ i P d 20230413 0027 13.80325699 GAU 0.00190328 0.0 348.19006 0.0
M08 ? BHE e S ? 20230413 0027 15.01059723 GAU 0.00282029 0.0 -893.00134 0.0
M05 ? BHZ i P d 20230413 0027 13.82018661 GAU 0.00089109 0.0 242.41002 0.0
M05 ? BHE e S ? 20230413 0027 15.03944397 GAU 0.00116382 0.0 -195.55885 0.0
M10 ? BHZ e P c 20230413 0027 13.87070847 GAU 0.00600830 0.0 129.26222 0.0
M10 ? BHE e S ? 20230413 0027 15.08506203 GAU 0.00608596 0.0 -128.05766 0.0
M13 ? BHZ e P d 20230413 0027 13.89373970 GAU 0.00120390 0.0 -65.63971 0.0
M13 ? BHN e S ? 20230413 0027 15.13414669 GAU 0.00166897 0.0 -99.79256 0.0
M09 ? BHZ i P c 20230413 0027 14.00018787 GAU 0.00327846 0.0 42.50338 0.0
M09 ? BHN e S ? 20230413 0027 15.34032345 GAU 0.00158341 0.0 448.88437 0.0
M11 ? BHZ e P d 20230413 0027 14.06579399 GAU 0.00293223 0.0 20.26375 0.0
M11 ? BHE e S ? 20230413 0027 15.44482231 GAU 0.00720964 0.0 -129.66568 0.0
M02 ? BHZ i P d 20230413 0027 14.08067894 GAU 0.00179699 0.0 -319.50458 0.0
M02 ? BHN e S ? 20230413 0027 15.41183567 GAU 0.00294866 0.0 -2902.71830 0.0
M06 ? BHZ i P c 20230413 0027 14.31458282 GAU 0.00220775 0.0 -107.86400 0.0
M06 ? BHE e S ? 20230413 0027 15.93174553 GAU 0.00316782 0.0 -69.47898 0.0

M06 ? BHZ e P c 20230414 0358  8.74486065 GAU 0.01107393 0.0 84.54680 0.0
M06 ? BHN e S ? 20230414 0358  9.99900436 GAU 0.00244364 0.0 52.99670 0.0
M04 ? BHZ e P d 20230414 0358  8.79909039 GAU 0.00262686 0.0 709.52760 0.0
M04 ? BHN e S ? 20230414 0358  9.79982185 GAU 0.00155493 0.0 729.33594 0.0
M02 ? BHZ e P d 20230414 0358  8.86077404 GAU 0.00154069 0.0 665.27026 0.0
M02 ? BHE e S ? 20230414 0358 10.04398727 GAU 0.00101150 0.0 3740.36300 0.0
M09 ? BHZ e P d 20230414 0358  9.20684433 GAU 0.00095734 0.0 193.97955 0.0
M09 ? BHN e S ? 20230414 0358 10.57250118 GAU 0.00242205 0.0 490.08090 0.0
M11 ? BHZ e P c 20230414 0358  9.23524094 GAU 0.00807423 0.0 -398.23386 0.0
M11 ? BHE e S ? 20230414 0358 10.46355820 GAU 0.00576753 0.0 -25.64490 0.0
M13 ? BHZ e P c 20230414 0358  9.69798088 GAU 0.00185867 0.0 -587.36340 0.0
M13 ? BHE e S ? 20230414 0358 11.02087498 GAU 0.00414212 0.0 -42.63019 0.0
M10 ? BHZ e P c 20230414 0358  9.73852444 GAU 0.00245791 0.0 68.88824 0.0
M10 ? BHN e S ? 20230414 0358 11.81126404 GAU 0.00426828 0.0 -85.42481 0.0
M12 ? BHZ e P c 20230414 0358 10.34129047 GAU 0.00234953 0.0 -1565.23650 0.0
M12 ? BHN e S ? 20230414 0358 12.69378662 GAU 0.00543017 0.0 -223.41600 0.0

M05 ? BHZ i P d 20230414 0551 21.21063042 GAU 0.00039951 0.0 -47.72362 0.0
M05 ? BHN e S ? 20230414 0551 21.55029488 GAU 0.00240326 0.0 220.11581 0.0
M13 ? BHZ i P d 20230414 0551 21.28023911 GAU 0.00278162 0.0 265.11493 0.0
M13 ? BHE i S ? 20230414 0551 21.65128326 GAU 0.00108663 0.0 -36.04064 0.0
M10 ? BHZ e P d 20230414 0551 21.28609467 GAU 0.00045588 0.0 1243.53250 0.0
M10 ? BHN e S ? 20230414 0551 21.71914101 GAU 0.00089426 0.0 107.34864 0.0
M09 ? BHZ i P d 20230414 0551 21.48803902 GAU 0.00240320 0.0 164.44353 0.0
M09 ? BHN e S ? 20230414 0551 21.97750092 GAU 0.00110044 0.0 509.87888 0.0
M11 ? BHZ e P c 20230414 0551 21.67513847 GAU 0.00187788 0.0 -131.87250 0.0
M11 ? BHN e S ? 20230414 0551 22.35148621 GAU 0.00105627 0.0 -45.82975 0.0
M06 ? BHZ e P c 20230414 0551 21.93612862 GAU 0.00640714 0.0 3.53394 0.0
M06 ? BHN e S ? 20230414 0551 22.78815651 GAU 0.00139068 0.0 -16.00000 0.0

M05 ? BHZ i P d 20230414 0551 26.28315735 GAU 0.00032344 0.0 -39.35842 0.0
M05 ? BHN e S ? 20230414 0551 26.63491631 GAU 0.00333841 0.0 256.25730 0.0
M13 ? BHZ e P c 20230414 0551 26.31499100 GAU 0.00333841 0.0 -70.60606 0.0
M13 ? BHN e S ? 20230414 0551 26.69553947 GAU 0.00193146 0.0 6.21942 0.0
M10 ? BHZ e P c 20230414 0551 26.32089233 GAU 0.00383607 0.0 -338.62220 0.0
M10 ? BHN e S ? 20230414 0551 26.71851921 GAU 0.00245922 0.0 -37.75628 0.0
M09 ? BHZ e P c 20230414 0551 26.51663971 GAU 0.00278142 0.0 90.00000 0.0
M09 ? BHN e S ? 20230414 0551 27.04752350 GAU 0.00186713 0.0 518.00000 0.0

M09 ? BHZ e P c 20230418 0336 11.28293800 GAU 0.00534028 0.0 -15.31599 0.0
M09 ? BHN e S ? 20230418 0336 12.39092445 GAU 0.00175273 0.0 480.00000 0.0
M11 ? BHZ e P d 20230418 0336 11.54255009 GAU 0.00424931 0.0 44.36281 0.0
M11 ? BHE e S ? 20230418 0336 12.86591053 GAU 0.00202300 0.0 -111.70206 0.0
M02 ? BHZ e P c 20230418 0336 11.68039894 GAU 0.00119796 0.0 -1383.84580 0.0
M02 ? BHE e S ? 20230418 0336 13.08124924 GAU 0.00139751 0.0 -932.54920 0.0
M06 ? BHZ e P d 20230418 0336 11.76001167 GAU 0.00166106 0.0 98.97993 0.0
M06 ? BHN e S ? 20230418 0336 13.21061611 GAU 0.00400536 0.0 -54.85892 0.0

