M06 ? BHZ i P d 20230506 0637 14.59171295 GAU 0.00061366 0.0 -80.69611 0.0
M06 ? BHN e S ? 20230506 0637 15.04983807 GAU 0.00204882 0.0 -48.77541 0.0
M11 ? BHZ e P d 20230506 0637 14.92813778 GAU 0.00299355 0.0 232.58604 0.0
M11 ? BHN i S ? 20230506 0637 15.40290833 GAU 0.00794279 0.0 -73.21388 0.0
M14 ? BHZ e P d 20230506 0637 15.09765434 GAU 0.00191224 0.0 470.50380 0.0
M14 ? BHN e S ? 20230506 0637 15.67025852 GAU 0.00150941 0.0 -29.93601 0.0
M05 ? BHZ e P c 20230506 0637 15.85567474 GAU 0.00326393 0.0 101.43335 0.0
M05 ? BHN e S ? 20230506 0637 17.10386086 GAU 0.00019207 0.0 283.86190 0.0

M06 ? BHZ i P d 20230515 1726 40.51380157 GAU 0.00084371 0.0 20.91794 0.0
M06 ? BHE e S ? 20230515 1726 41.02119827 GAU 0.00051995 0.0 -111.68208 0.0
M11 ? BHZ e P d 20230515 1726 40.59540176 GAU 0.00080487 0.0 -231.79652 0.0
M11 ? BHN i S ? 20230515 1726 41.17374802 GAU 0.00039511 0.0 -84.13084 0.0
M09 ? BHZ e P c 20230515 1726 40.74628067 GAU 0.00320308 0.0 18.18549 0.0
M09 ? BHE i S ? 20230515 1726 41.36268997 GAU 0.00026371 0.0 367.67740 0.0
M13 ? BHZ e P c 20230515 1726 40.80651093 GAU 0.00086021 0.0 -242.87654 0.0
M13 ? BHE i S ? 20230515 1726 41.44746399 GAU 0.00076270 0.0 -164.22388 0.0
M12 ? BHZ i P c 20230515 1726 41.27456284 GAU 0.00066440 0.0 -668.80020 0.0
M12 ? BHE e S ? 20230515 1726 42.35099792 GAU 0.00015043 0.0 52.72311 0.0

M06 ? BHZ i P d 20230515 1732 31.09790993 GAU 0.00071131 0.0 -71.94628 0.0
M06 ? BHN i S ? 20230515 1732 31.61174011 GAU 0.00159564 0.0 -89.46931 0.0
M11 ? BHZ i P d 20230515 1732 31.16284370 GAU 0.00241662 0.0 20.22454 0.0
M11 ? BHN i S ? 20230515 1732 31.75888252 GAU 0.00199160 0.0 -87.00000 0.0
M09 ? BHZ i P c 20230515 1732 31.32785988 GAU 0.00316671 0.0 103.37820 0.0
M09 ? BHE i S ? 20230515 1732 31.94384384 GAU 0.00155254 0.0 362.16452 0.0
M13 ? BHZ i P d 20230515 1732 31.38851166 GAU 0.00333777 0.0 7.42923 0.0
M13 ? BHE i S ? 20230515 1732 32.12894058 GAU 0.00184123 0.0 -165.00000 0.0
M05 ? BHZ i P c 20230515 1732 31.72080040 GAU 0.00296471 0.0 113.01073 0.0
M05 ? BHE e S ? 20230515 1732 32.68502045 GAU 0.00348525 0.0 -179.56808 0.0
M12 ? BHZ e P c 20230515 1732 31.89801407 GAU 0.00455770 0.0 -555.79570 0.0
M12 ? BHE e S ? 20230515 1732 32.99884796 GAU 0.01075141 0.0 52.33221 0.0

M06 ? BHZ i P c 20230519 2249 49.21588516 GAU 0.00128423 0.0 -143.24693 0.0
M06 ? BHN i S ? 20230519 2249 49.76548767 GAU 0.00081732 0.0 -133.46162 0.0
M14 ? BHZ e P c 20230519 2249 49.24120712 GAU 0.00289752 0.0 -380.33514 0.0
M14 ? BHE e S ? 20230519 2249 49.82957458 GAU 0.00187789 0.0 397.38020 0.0
M11 ? BHZ i P c 20230519 2249 49.35289764 GAU 0.00333756 0.0 -325.98987 0.0
M11 ? BHE e S ? 20230519 2249 50.00025940 GAU 0.00093606 0.0 -77.11042 0.0
M09 ? BHZ i P c 20230519 2249 49.45802689 GAU 0.00125267 0.0 136.68344 0.0
M09 ? BHE e S ? 20230519 2249 50.25749207 GAU 0.00082799 0.0 307.73600 0.0
M13 ? BHZ e P c 20230519 2249 49.54164124 GAU 0.00820935 0.0 -165.37334 0.0
M13 ? BHE e S ? 20230519 2249 50.37596893 GAU 0.00223548 0.0 -160.07147 0.0
M08 ? BHZ e P d 20230519 2249 49.68992615 GAU 0.00415272 0.0 212.90862 0.0
M08 ? BHE e S ? 20230519 2249 50.64322281 GAU 0.00269355 0.0 -878.00446 0.0
M05 ? BHZ e P d 20230519 2249 49.84043884 GAU 0.00267020 0.0 298.38184 0.0
M05 ? BHE e S ? 20230519 2249 50.87445450 GAU 0.00160965 0.0 -166.81389 0.0
M01 ? BHZ i P d 20230519 2249 49.95974731 GAU 0.00073200 0.0 400.41083 0.0
M01 ? BHE e S ? 20230519 2249 51.03773880 GAU 0.00149759 0.0 456.00000 0.0

M06 ? BHZ i P c 20230519 2254 49.74641800 GAU 0.00278136 0.0 -233.35645 0.0
M06 ? BHE i S ? 20230519 2254 50.26992798 GAU 0.00034528 0.0 -101.41663 0.0
M11 ? BHZ e P c 20230519 2254 49.83451843 GAU 0.00160958 0.0 -304.55795 0.0
M11 ? BHN e S ? 20230519 2254 50.39970016 GAU 0.00028975 0.0 -113.99322 0.0
M09 ? BHZ i P c 20230519 2254 49.98062897 GAU 0.00185544 0.0 69.59525 0.0
M09 ? BHE e S ? 20230519 2254 50.70821762 GAU 0.00026414 0.0 349.04758 0.0
M13 ? BHZ e P d 20230519 2254 50.13551712 GAU 0.00120490 0.0 -159.82228 0.0
M13 ? BHN e S ? 20230519 2254 50.93187714 GAU 0.00027631 0.0 -117.04015 0.0
M05 ? BHZ e P c 20230519 2254 50.17493439 GAU 0.00056153 0.0 110.17424 0.0
M05 ? BHE e S ? 20230519 2254 51.02857590 GAU 0.00027564 0.0 -161.30672 0.0

M06 ? BHZ i P c 20230519 2254 54.23075485 GAU 0.00086251 0.0 -251.25935 0.0
M06 ? BHE e S ? 20230519 2254 54.73168564 GAU 0.00027160 0.0 -80.09954 0.0
M11 ? BHZ e P c 20230519 2254 54.35175705 GAU 0.00128774 0.0 -374.20663 0.0
M11 ? BHE e S ? 20230519 2254 54.93162155 GAU 0.00205555 0.0 -135.69810 0.0
M09 ? BHZ i P c 20230519 2254 54.43984604 GAU 0.00333774 0.0 71.02986 0.0
M09 ? BHE e S ? 20230519 2254 55.09442139 GAU 0.00038592 0.0 368.87560 0.0
M13 ? BHZ e P c 20230519 2254 54.50849915 GAU 0.00244319 0.0 -428.98074 0.0
M13 ? BHN e S ? 20230519 2254 55.19255447 GAU 0.00027580 0.0 -137.79580 0.0
M05 ? BHZ e P c 20230519 2254 54.81291962 GAU 0.00195234 0.0 19.47604 0.0
M05 ? BHN e S ? 20230519 2254 55.71406174 GAU 0.00018053 0.0 255.04942 0.0

M03 ? BHZ e P d 20230525 0357 56.65114212 GAU 0.00278141 0.0 2078.54660 0.0
M03 ? BHE e S ? 20230525 0357 57.89738083 GAU 0.00337896 0.0 18.83902 0.0
M05 ? BHZ e P c 20230525 0357 56.70012283 GAU 0.00384502 0.0 26.68171 0.0
M05 ? BHE e S ? 20230525 0357 58.00220108 GAU 0.00689305 0.0 150.00000 0.0
M12 ? BHZ e P d 20230525 0357 56.72724915 GAU 0.00275718 0.0 -705.25116 0.0
M12 ? BHE e S ? 20230525 0357 57.97027206 GAU 0.00278155 0.0 -447.59506 0.0
M01 ? BHZ e P d 20230525 0357 56.74546432 GAU 0.00480619 0.0 305.08743 0.0
M01 ? BHN e S ? 20230525 0357 58.08547592 GAU 0.00134139 0.0 2073.00440 0.0
M10 ? BHZ e P d 20230525 0357 56.77950668 GAU 0.00529323 0.0 1000.13245 0.0
M10 ? BHN e S ? 20230525 0357 58.07041550 GAU 0.00400523 0.0 -246.16103 0.0
M13 ? BHZ i P d 20230525 0357 56.82279205 GAU 0.00363257 0.0 -278.82318 0.0
M13 ? BHE e S ? 20230525 0357 58.16657639 GAU 0.00320401 0.0 -709.32740 0.0
M08 ? BHZ i P d 20230525 0357 56.86547852 GAU 0.00128021 0.0 -75.56919 0.0
M08 ? BHE e S ? 20230525 0357 58.26885605 GAU 0.00270415 0.0 -1289.20570 0.0
M09 ? BHZ i P d 20230525 0357 56.94537354 GAU 0.00215711 0.0 93.20594 0.0
M09 ? BHN e S ? 20230525 0357 58.40653610 GAU 0.00253160 0.0 112.88026 0.0
M14 ? BHZ i P d 20230525 0357 56.94642639 GAU 0.00333764 0.0 572.48083 0.0
M14 ? BHE e S ? 20230525 0357 58.38337326 GAU 0.00447099 0.0 686.64800 0.0
M02 ? BHZ i P c 20230525 0357 56.97580338 GAU 0.00227716 0.0 -285.96463 0.0
M02 ? BHN e S ? 20230525 0357 58.41014481 GAU 0.00333794 0.0 13190.91000 0.0
M11 ? BHZ e P d 20230525 0357 56.99322128 GAU 0.00270435 0.0 208.13084 0.0
M11 ? BHN e S ? 20230525 0357 58.47246552 GAU 0.00464368 0.0 -444.24298 0.0
M06 ? BHZ e P d 20230525 0357 57.14197159 GAU 0.00297560 0.0 -232.33806 0.0
M06 ? BHE e S ? 20230525 0357 58.73138809 GAU 0.00345179 0.0 317.08832 0.0

M10 ? BHZ e P c 20230525 0358 42.77013397 GAU 0.00289732 0.0 784.20746 0.0
M10 ? BHN e S ? 20230525 0358 43.76072693 GAU 0.00154705 0.0 -21.00000 0.0
M05 ? BHZ e P d 20230525 0358 42.88531113 GAU 0.00251555 0.0 392.55414 0.0
M05 ? BHN e S ? 20230525 0358 43.97208405 GAU 0.00137360 0.0 308.40564 0.0
M12 ? BHZ e P c 20230525 0358 42.88827896 GAU 0.00321930 0.0 -804.20680 0.0
M12 ? BHE e S ? 20230525 0358 43.96131134 GAU 0.00290635 0.0 257.66790 0.0
M13 ? BHZ e P c 20230525 0358 42.97469330 GAU 0.00104809 0.0 -387.60272 0.0
M13 ? BHE e S ? 20230525 0358 44.12091827 GAU 0.00225357 0.0 -40.81251 0.0
M08 ? BHZ i P d 20230525 0358 42.99407196 GAU 0.00200261 0.0 343.50580 0.0
M08 ? BHE e S ? 20230525 0358 44.12673187 GAU 0.00074518 0.0 -814.04810 0.0
M09 ? BHZ e P c 20230525 0358 43.09812164 GAU 0.00363128 0.0 -89.53709 0.0
M09 ? BHN e S ? 20230525 0358 44.35153580 GAU 0.00079461 0.0 508.01224 0.0
M02 ? BHZ i P d 20230525 0358 43.11986923 GAU 0.00077626 0.0 302.31274 0.0
M02 ? BHE e S ? 20230525 0358 44.38642883 GAU 0.00111779 0.0 -2133.93600 0.0
M06 ? BHZ e P d 20230525 0358 43.26259613 GAU 0.00213365 0.0 -124.98315 0.0
M06 ? BHE e S ? 20230525 0358 44.62996292 GAU 0.00234412 0.0 -38.85367 0.0
M11 ? BHZ e P c 20230525 0358 43.29433060 GAU 0.00323322 0.0 -465.71582 0.0
M11 ? BHN e S ? 20230525 0358 44.71643066 GAU 0.00178415 0.0 -80.98708 0.0
M14 ? BHZ e P c 20230525 0358 43.43791199 GAU 0.00217348 0.0 -942.65027 0.0
M14 ? BHE e S ? 20230525 0358 44.92101288 GAU 0.00071873 0.0 366.16052 0.0

M06 ? BHZ i P d 20230527 1541 24.67059326 GAU 0.00077626 0.0 -173.73910 0.0
M06 ? BHE e S ? 20230527 1541 25.19696808 GAU 0.00056155 0.0 -114.00000 0.0
M09 ? BHZ e P c 20230527 1541 24.78084183 GAU 0.00388120 0.0 16.00000 0.0
M09 ? BHE e S ? 20230527 1541 25.43994522 GAU 0.00181785 0.0 349.00000 0.0
M11 ? BHZ e P d 20230527 1541 24.88962364 GAU 0.00094861 0.0 30.44957 0.0
M11 ? BHN i S ? 20230527 1541 25.50996208 GAU 0.00268275 0.0 -95.89780 0.0
M08 ? BHZ e P d 20230527 1541 25.27257919 GAU 0.00031904 0.0 308.58880 0.0
M08 ? BHE e S ? 20230527 1541 26.15834618 GAU 0.00018138 0.0 -854.17590 0.0
M05 ? BHZ e P d 20230527 1541 25.72770309 GAU 0.00269523 0.0 340.92685 0.0
M05 ? BHE e S ? 20230527 1541 27.05131531 GAU 0.00348758 0.0 -164.82260 0.0

M06 ? BHZ i P d 20230527 1542  9.29939651 GAU 0.00160973 0.0 -201.14017 0.0
M06 ? BHE i S ? 20230527 1542  9.82650185 GAU 0.00056142 0.0 -140.30824 0.0
M14 ? BHZ e P c 20230527 1542  9.35051537 GAU 0.00129374 0.0 -771.07780 0.0
M14 ? BHN e S ? 20230527 1542  9.92091084 GAU 0.00045120 0.0 399.29248 0.0
M11 ? BHZ e P d 20230527 1542  9.48517323 GAU 0.00141943 0.0 -192.47452 0.0
M11 ? BHN i S ? 20230527 1542 10.13975334 GAU 0.00158127 0.0 -83.52728 0.0
M09 ? BHZ i P c 20230527 1542  9.53751183 GAU 0.00275301 0.0 131.74185 0.0
M09 ? BHE e S ? 20230527 1542 10.18512344 GAU 0.00079904 0.0 380.42900 0.0
M13 ? BHZ i P c 20230527 1542  9.55280399 GAU 0.00109547 0.0 -287.85214 0.0
M13 ? BHE e S ? 20230527 1542 10.20469284 GAU 0.00065003 0.0 -179.00000 0.0
M08 ? BHZ i P d 20230527 1542  9.78524494 GAU 0.00044343 0.0 354.66700 0.0
M08 ? BHE e S ? 20230527 1542 10.64363098 GAU 0.00021397 0.0 -882.90790 0.0
M05 ? BHZ e P d 20230527 1542  9.80277061 GAU 0.00104695 0.0 248.57751 0.0
M05 ? BHN e S ? 20230527 1542 10.72480965 GAU 0.00025637 0.0 260.03650 0.0
M12 ? BHZ i P c 20230527 1542 10.07212448 GAU 0.00050435 0.0 -565.93463 0.0
M12 ? BHE e S ? 20230527 1542 11.18094158 GAU 0.00116667 0.0 71.66480 0.0

M02 ? BHZ e P c 20230528 1227  7.85219860 GAU 0.00262049 0.0 -1472.74950 0.0
M02 ? BHE e S ? 20230528 1227  8.59144688 GAU 0.00141980 0.0 -1905.93600 0.0
M06 ? BHZ e P d 20230528 1227  7.89226770 GAU 0.00127275 0.0 -12.64737 0.0
M06 ? BHN e S ? 20230528 1227  8.59106636 GAU 0.00068632 0.0 -71.67001 0.0
M11 ? BHZ e P c 20230528 1227  8.45927715 GAU 0.00231784 0.0 -199.72147 0.0
M11 ? BHN e S ? 20230528 1227  9.61854649 GAU 0.00025274 0.0 -76.14784 0.0
M09 ? BHZ e P d 20230528 1227  8.69395256 GAU 0.00018864 0.0 173.62123 0.0
M09 ? BHE e S ? 20230528 1227  9.95440006 GAU 0.00161729 0.0 355.00000 0.0

M06 ? BHZ i P d 20230528 1849 16.59631157 GAU 0.00108315 0.0 -67.72849 0.0
M06 ? BHN e S ? 20230528 1849 16.86616516 GAU 0.00300929 0.0 -90.16317 0.0
M14 ? BHZ e P c 20230528 1849 16.67083359 GAU 0.00527965 0.0 -493.37885 0.0
M14 ? BHE e S ? 20230528 1849 17.01392746 GAU 0.00166382 0.0 385.66290 0.0
M09 ? BHZ e P d 20230528 1849 16.73727417 GAU 0.00086100 0.0 186.10379 0.0
M09 ? BHE e S ? 20230528 1849 17.11822891 GAU 0.00693206 0.0 357.96494 0.0
M05 ? BHZ i P d 20230528 1849 16.78270912 GAU 0.00329291 0.0 164.51971 0.0
M05 ? BHN i S ? 20230528 1849 17.20234871 GAU 0.00129984 0.0 278.00000 0.0

