M06 ? BHZ i P c 20230704 1919 49.03427505 GAU 0.00099358 0.0 42.87258 0.0
M06 ? BHE e S ? 20230704 1919 49.45629501 GAU 0.00090545 0.0 -65.84491 0.0
M04 ? BHZ e P d 20230704 1919 49.08251190 GAU 0.00093577 0.0 1843.84790 0.0
M04 ? BHN e S ? 20230704 1919 49.57176590 GAU 0.00053903 0.0 769.46160 0.0
M14 ? BHZ e P c 20230704 1919 49.11264038 GAU 0.00156494 0.0 -114.21018 0.0
M14 ? BHN e S ? 20230704 1919 49.58452988 GAU 0.00115063 0.0 317.80463 0.0
M11 ? BHZ i P c 20230704 1919 49.19819260 GAU 0.00257557 0.0 -212.79854 0.0
M11 ? BHN i S ? 20230704 1919 49.75201035 GAU 0.00089829 0.0 -79.00000 0.0
M09 ? BHZ i P c 20230704 1919 49.28172302 GAU 0.00047136 0.0 111.65935 0.0
M09 ? BHE e S ? 20230704 1919 49.88709641 GAU 0.00023115 0.0 342.10840 0.0

M08 ? BHZ i P d 20230704 2156  8.73097801 GAU 0.00018915 0.0 448.96408 0.0
M08 ? BHN e S ? 20230704 2156  9.63170147 GAU 0.00027570 0.0 333.67484 0.0
M11 ? BHZ e P c 20230704 2156  8.89376163 GAU 0.00229395 0.0 -265.82965 0.0
M11 ? BHN e S ? 20230704 2156  9.80376339 GAU 0.00106456 0.0 -77.11910 0.0
M05 ? BHZ i P d 20230704 2156  8.91098022 GAU 0.00225391 0.0 76.54600 0.0
M05 ? BHN e S ? 20230704 2156  9.88044834 GAU 0.00052409 0.0 277.85233 0.0
M09 ? BHZ i P c 20230704 2156  8.91492176 GAU 0.00080860 0.0 344.74182 0.0
M09 ? BHN e S ? 20230704 2156  9.93881798 GAU 0.00060010 0.0 459.06085 0.0
M06 ? BHZ i P c 20230704 2156  9.03067398 GAU 0.00278151 0.0 -55.11658 0.0
M06 ? BHN e S ? 20230704 2156 10.10242176 GAU 0.00389427 0.0 -6.87176 0.0
M14 ? BHZ i P d 20230704 2156  9.10504913 GAU 0.00089845 0.0 988.71710 0.0
M14 ? BHE e S ? 20230704 2156 10.26063824 GAU 0.00079422 0.0 381.43182 0.0

M05 ? BHZ e P d 20230705 0017 42.33009338 GAU 0.00450698 0.0 740.20557 0.0
M05 ? BHN e S ? 20230705 0017 42.72669601 GAU 0.00081593 0.0 301.51100 0.0
M02 ? BHZ e P d 20230705 0017 42.36324692 GAU 0.00063880 0.0 713.66125 0.0
M02 ? BHN e S ? 20230705 0017 42.80755234 GAU 0.00142024 0.0 -4726.60600 0.0
M14 ? BHZ e P c 20230705 0017 42.72005463 GAU 0.00100467 0.0 36.56300 0.0
M14 ? BHN e S ? 20230705 0017 43.44270706 GAU 0.00157397 0.0 319.80942 0.0
M09 ? BHZ e P d 20230705 0017 42.77661896 GAU 0.00097033 0.0 413.22460 0.0
M09 ? BHN e S ? 20230705 0017 43.36766815 GAU 0.00108794 0.0 509.88837 0.0
M06 ? BHZ e P c 20230705 0017 42.85331726 GAU 0.00429222 0.0 -424.51196 0.0
M06 ? BHE e S ? 20230705 0017 43.69916916 GAU 0.00090561 0.0 -46.02935 0.0
M12 ? BHZ e P d 20230705 0017 42.88950348 GAU 0.00043327 0.0 265.66680 0.0
M12 ? BHN e S ? 20230705 0017 43.66585922 GAU 0.00140150 0.0 -88.00243 0.0
M11 ? BHZ e P d 20230705 0017 42.93905640 GAU 0.00114567 0.0 320.43884 0.0
M11 ? BHN e S ? 20230705 0017 43.87187958 GAU 0.00093149 0.0 -134.03615 0.0

M06 ? BHZ e P c 20230707 2024 55.54799271 GAU 0.00163186 0.0 -312.05070 0.0
M06 ? BHE e S ? 20230707 2024 56.46157455 GAU 0.00027327 0.0 -98.60829 0.0
M11 ? BHZ e P c 20230707 2024 55.57643127 GAU 0.00298066 0.0 -236.98279 0.0
M11 ? BHN e S ? 20230707 2024 56.54739380 GAU 0.00037611 0.0 -96.10252 0.0
M09 ? BHZ e P c 20230707 2024 55.81525421 GAU 0.00214620 0.0 62.51870 0.0
M09 ? BHE e S ? 20230707 2024 56.92652893 GAU 0.00024071 0.0 347.14630 0.0
M05 ? BHZ e P d 20230707 2024 55.82415771 GAU 0.00089425 0.0 216.49336 0.0
M05 ? BHE e S ? 20230707 2024 56.96609116 GAU 0.00012188 0.0 -154.09890 0.0

M06 ? BHZ e P d 20230708 1221 35.44110107 GAU 0.00067383 0.0 -16.16643 0.0
M06 ? BHE e S ? 20230708 1221 36.70466232 GAU 0.00370855 0.0 -67.54881 0.0
M09 ? BHZ e P d 20230708 1221 35.70177078 GAU 0.00235528 0.0 125.45341 0.0
M09 ? BHN e S ? 20230708 1221 37.03899002 GAU 0.00244484 0.0 483.65870 0.0
M05 ? BHZ e P d 20230708 1221 36.02019119 GAU 0.00263550 0.0 330.50690 0.0
M05 ? BHN e S ? 20230708 1221 37.72822952 GAU 0.00333718 0.0 258.77527 0.0
M08 ? BHZ e P c 20230708 1221 36.06037903 GAU 0.00021664 0.0 -330.87920 0.0
M08 ? BHE e S ? 20230708 1221 37.76525879 GAU 0.00028834 0.0 -837.40160 0.0

M02 ? BHZ i P c 20230714 2338 10.94925785 GAU 0.00077627 0.0 -1345.19430 0.0
M02 ? BHE e S ? 20230714 2338 11.59706116 GAU 0.00037260 0.0 15063.95700 0.0
M14 ? BHZ e P c 20230714 2338 10.96305656 GAU 0.00193160 0.0 -454.61215 0.0
M14 ? BHE e S ? 20230714 2338 11.48479748 GAU 0.00088161 0.0 397.58792 0.0
M04 ? BHZ e P c 20230714 2338 11.03418159 GAU 0.00266411 0.0 -776.31900 0.0
M04 ? BHN e S ? 20230714 2338 11.56866074 GAU 0.00111787 0.0 717.65200 0.0
M11 ? BHZ e P c 20230714 2338 11.08092785 GAU 0.00251133 0.0 -191.08281 0.0
M11 ? BHN i P c 20230714 2338 11.74536419 GAU 0.00062895 0.0 -114.71489 0.0
M10 ? BHZ e P d 20230714 2338 11.12662983 GAU 0.00288383 0.0 1085.96560 0.0
M10 ? BHN e S ? 20230714 2338 11.94367599 GAU 0.00092345 0.0 -32.98965 0.0
M13 ? BHZ i P d 20230714 2338 11.35561180 GAU 0.00067070 0.0 -29.83595 0.0
M13 ? BHE e S ? 20230714 2338 12.18948936 GAU 0.00064989 0.0 -175.15110 0.0
M09 ? BHZ i P d 20230714 2338 11.41801739 GAU 0.00193153 0.0 113.18560 0.0
M09 ? BHE e S ? 20230714 2338 12.32037449 GAU 0.00103231 0.0 337.49484 0.0
M06 ? BHZ e P d 20230714 2338 11.46744537 GAU 0.00080481 0.0 -54.15111 0.0
M06 ? BHN e S ? 20230714 2338 12.46358395 GAU 0.00267022 0.0 -113.00000 0.0
M05 ? BHZ i P c 20230714 2338 11.51255798 GAU 0.00111766 0.0 1.54687 0.0
M05 ? BHN e S ? 20230714 2338 12.51377392 GAU 0.00122833 0.0 245.00000 0.0
M07 ? BHZ e P c 20230714 2338 11.64666176 GAU 0.00335111 0.0 -223.00931 0.0
M07 ? BHE e S ? 20230714 2338 12.69903660 GAU 0.00063782 0.0 -152.00000 0.0

M06 ? BHZ i P d 20230715 0202 49.86834335 GAU 0.00089426 0.0 -58.66595 0.0
M06 ? BHN i S ? 20230715 0202 50.36381531 GAU 0.00074533 0.0 -59.33106 0.0
M04 ? BHZ e P c 20230715 0202 49.97223282 GAU 0.00068104 0.0 731.55410 0.0
M04 ? BHN e S ? 20230715 0202 50.44948196 GAU 0.00124198 0.0 822.98175 0.0
M14 ? BHZ i P c 20230715 0202 50.01035309 GAU 0.00170711 0.0 574.03460 0.0
M14 ? BHE e S ? 20230715 0202 50.46058655 GAU 0.00041592 0.0 459.99966 0.0
M11 ? BHZ e P c 20230715 0202 50.06914902 GAU 0.00347676 0.0 -393.89667 0.0
M11 ? BHN e S ? 20230715 0202 50.71810532 GAU 0.00066548 0.0 -94.66043 0.0
M09 ? BHZ i P c 20230715 0202 50.16336823 GAU 0.00245932 0.0 51.29472 0.0
M09 ? BHE e S ? 20230715 0202 50.77115631 GAU 0.00076581 0.0 377.90200 0.0
M13 ? BHZ i P c 20230715 0202 50.26443100 GAU 0.00043124 0.0 -223.93288 0.0
M13 ? BHE e S ? 20230715 0202 50.93832779 GAU 0.00027577 0.0 -147.78694 0.0
M05 ? BHZ e P c 20230715 0202 50.37299347 GAU 0.00324503 0.0 61.60379 0.0
M05 ? BHE e S ? 20230715 0202 51.22829437 GAU 0.00012797 0.0 -154.33449 0.0
M07 ? BHZ e P c 20230715 0202 50.49382782 GAU 0.00097328 0.0 -253.95493 0.0
M07 ? BHE e S ? 20230715 0202 51.41665268 GAU 0.00039115 0.0 -97.10696 0.0

M06 ? BHZ i P d 20230715 0205 40.47132111 GAU 0.00089423 0.0 -813.93195 0.0
M06 ? BHN i S ? 20230715 0205 40.96278381 GAU 0.00030331 0.0 208.06516 0.0
M04 ? BHZ e P d 20230715 0205 40.49226761 GAU 0.00270435 0.0 1737.45130 0.0
M04 ? BHN e S ? 20230715 0205 40.97781754 GAU 0.00086252 0.0 1030.21640 0.0
M14 ? BHZ i P c 20230715 0205 40.57682800 GAU 0.00182571 0.0 729.84950 0.0
M14 ? BHN e S ? 20230715 0205 41.04610062 GAU 0.00082360 0.0 -112.18130 0.0
M02 ? BHZ i P d 20230715 0205 40.60895538 GAU 0.00187794 0.0 -525.94696 0.0
M02 ? BHE e S ? 20230715 0205 41.13272095 GAU 0.00139724 0.0 -4262.94700 0.0
M11 ? BHZ i P c 20230715 0205 40.66331482 GAU 0.00400536 0.0 255.97876 0.0
M11 ? BHN e S ? 20230715 0205 41.27549744 GAU 0.00366195 0.0 -8.66307 0.0
M03 ? BHZ e P c 20230715 0205 40.67417145 GAU 0.00116798 0.0 -3345.79470 0.0
M03 ? BHN e S ? 20230715 0205 41.29294586 GAU 0.00379178 0.0 -167.44269 0.0
M09 ? BHZ i P c 20230715 0205 40.74362183 GAU 0.00100005 0.0 201.18796 0.0
M09 ? BHE e S ? 20230715 0205 41.37538910 GAU 0.00062888 0.0 708.28735 0.0
M05 ? BHZ e P d 20230715 0205 40.82828140 GAU 0.00089423 0.0 61.88981 0.0
M05 ? BHN e S ? 20230715 0205 41.61527252 GAU 0.00160962 0.0 201.52720 0.0
M10 ? BHZ i P c 20230715 0205 40.83052063 GAU 0.00389397 0.0 -263.34055 0.0
M10 ? BHN e S ? 20230715 0205 41.45534515 GAU 0.00380032 0.0 -99.00000 0.0
M13 ? BHZ i P c 20230715 0205 40.86015701 GAU 0.00051749 0.0 -116.91296 0.0
M13 ? BHN e S ? 20230715 0205 41.60178375 GAU 0.00143753 0.0 -127.24204 0.0
M08 ? BHZ i P d 20230715 0205 40.99966812 GAU 0.00071873 0.0 292.26794 0.0
M08 ? BHE e S ? 20230715 0205 41.82758331 GAU 0.00089841 0.0 -706.14950 0.0
M07 ? BHZ i P d 20230715 0205 41.17750931 GAU 0.00222518 0.0 -309.40323 0.0
M07 ? BHN e S ? 20230715 0205 42.10441589 GAU 0.00228736 0.0 143.11440 0.0
M01 ? BHZ i P d 20230715 0205 41.19363403 GAU 0.00224578 0.0 1233.54790 0.0
M01 ? BHN e S ? 20230715 0205 42.07350922 GAU 0.00134764 0.0 1613.58080 0.0
M12 ? BHZ i P d 20230715 0205 41.26013184 GAU 0.00127845 0.0 -596.02380 0.0
M12 ? BHE e S ? 20230715 0205 42.26670074 GAU 0.00067767 0.0 39.06158 0.0

M05 ? BHZ e P c 20230715 0425 33.34039688 GAU 0.00187791 0.0 86.85719 0.0
M05 ? BHE e S ? 20230715 0425 33.96829987 GAU 0.00043126 0.0 -137.22742 0.0
M10 ? BHZ e P c 20230715 0425 33.44219971 GAU 0.00731406 0.0 282.74670 0.0
M10 ? BHN e S ? 20230715 0425 34.02872467 GAU 0.00210240 0.0 -17.02138 0.0
M13 ? BHZ e P c 20230715 0425 33.52927780 GAU 0.00093149 0.0 -166.09510 0.0
M13 ? BHN e S ? 20230715 0425 34.22584534 GAU 0.00023620 0.0 21.72087 0.0
M06 ? BHZ e P c 20230715 0425 33.83277893 GAU 0.00090565 0.0 -137.99100 0.0
M06 ? BHN e S ? 20230715 0425 34.78821182 GAU 0.00079346 0.0 -12.00000 0.0

M13 ? BHZ e P d 20230715 0436 19.14756393 GAU 0.00071860 0.0 58.84221 0.0
M13 ? BHN e S ? 20230715 0436 19.43290138 GAU 0.00057191 0.0 6.24446 0.0
M05 ? BHZ i P c 20230715 0436 19.38083458 GAU 0.00187788 0.0 52.28399 0.0
M05 ? BHN e S ? 20230715 0436 19.74766541 GAU 0.00044920 0.0 294.86380 0.0
M10 ? BHZ e P d 20230715 0436 19.40049553 GAU 0.00160958 0.0 2021.32390 0.0
M10 ? BHN e S ? 20230715 0436 19.71627808 GAU 0.00089849 0.0 102.74811 0.0
M06 ? BHZ e P c 20230715 0436 20.16835403 GAU 0.00161382 0.0 5.95365 0.0
M06 ? BHN e S ? 20230715 0436 21.18412781 GAU 0.00097477 0.0 -17.00000 0.0

M06 ? BHZ i P c 20230715 0927  7.28800058 GAU 0.00064995 0.0 -141.50290 0.0
M06 ? BHN e S ? 20230715 0927  7.75010729 GAU 0.00027570 0.0 -70.90796 0.0
M14 ? BHZ i P c 20230715 0927  7.29357290 GAU 0.00150012 0.0 -233.04944 0.0
M14 ? BHE e S ? 20230715 0927  7.76472664 GAU 0.00071874 0.0 420.00000 0.0
M11 ? BHZ e P c 20230715 0927  7.39756203 GAU 0.00109613 0.0 -152.28618 0.0
M11 ? BHN e S ? 20230715 0927  7.94201469 GAU 0.00062391 0.0 -83.79803 0.0
M09 ? BHZ e P c 20230715 0927  7.45384169 GAU 0.00029603 0.0 86.29738 0.0
M09 ? BHE e S ? 20230715 0927  8.04236603 GAU 0.00018156 0.0 384.73196 0.0

M06 ? BHZ i P c 20230715 0929 55.74429321 GAU 0.00030329 0.0 334.38144 0.0
M06 ? BHE i S ? 20230715 0929 56.19378281 GAU 0.00079513 0.0 102.52007 0.0
M04 ? BHZ e P c 20230715 0929 55.82075882 GAU 0.00333758 0.0 -513.88350 0.0
M04 ? BHN e S ? 20230715 0929 56.31089783 GAU 0.00075454 0.0 522.27370 0.0
M14 ? BHZ i P c 20230715 0929 55.85015488 GAU 0.00077621 0.0 54.98439 0.0
M14 ? BHE e S ? 20230715 0929 56.38527679 GAU 0.00090562 0.0 389.96850 0.0
M11 ? BHZ i P c 20230715 0929 55.88820267 GAU 0.00134138 0.0 -128.68730 0.0
M11 ? BHN e S ? 20230715 0929 56.49855423 GAU 0.00139723 0.0 21.00000 0.0
M02 ? BHZ e P c 20230715 0929 55.91217804 GAU 0.00150940 0.0 -2515.16280 0.0
M02 ? BHN e S ? 20230715 0929 56.44193268 GAU 0.00097333 0.0 -9349.04700 0.0
M09 ? BHZ i P c 20230715 0929 55.99101639 GAU 0.00193160 0.0 235.70964 0.0
M09 ? BHE e S ? 20230715 0929 56.57650375 GAU 0.00217339 0.0 264.51065 0.0
M13 ? BHZ i P c 20230715 0929 56.10530090 GAU 0.00512331 0.0 -170.46553 0.0
M13 ? BHE e S ? 20230715 0929 56.75458145 GAU 0.00284453 0.0 -205.27744 0.0
M10 ? BHZ i P d 20230715 0929 56.13893127 GAU 0.00924283 0.0 4941.31350 0.0
M10 ? BHN e S ? 20230715 0929 56.82147217 GAU 0.00116986 0.0 -102.00000 0.0
M08 ? BHZ i P d 20230715 0929 56.21685410 GAU 0.00053906 0.0 616.63310 0.0
M08 ? BHN e S ? 20230715 0929 56.99237823 GAU 0.00056150 0.0 364.01273 0.0
M03 ? BHZ e P c 20230715 0929 56.37139511 GAU 0.00062890 0.0 -5627.04250 0.0
M03 ? BHE e S ? 20230715 0929 57.21325684 GAU 0.00072782 0.0 164.53516 0.0
M01 ? BHZ i P d 20230715 0929 56.43860245 GAU 0.00204935 0.0 1736.41150 0.0
M01 ? BHN e S ? 20230715 0929 57.36780930 GAU 0.00286261 0.0 1725.82970 0.0
M05 ? BHZ i P c 20230715 0929 56.44215393 GAU 0.00225540 0.0 -298.15518 0.0
M05 ? BHN e S ? 20230715 0929 57.30162430 GAU 0.00132297 0.0 294.78265 0.0
M12 ? BHZ i P d 20230715 0929 56.52908325 GAU 0.00130403 0.0 -600.67053 0.0
M12 ? BHE e S ? 20230715 0929 57.50408173 GAU 0.00247962 0.0 259.95776 0.0

M06 ? BHZ i P c 20230715 0930  3.34050345 GAU 0.00081021 0.0 -81.75514 0.0
M06 ? BHE e S ? 20230715 0930  3.78619528 GAU 0.00111782 0.0 22.80719 0.0
M04 ? BHZ e P c 20230715 0930  3.40580678 GAU 0.00178852 0.0 486.86060 0.0
M04 ? BHN e S ? 20230715 0930  3.90520358 GAU 0.00097026 0.0 737.20526 0.0
M14 ? BHZ i P d 20230715 0930  3.48585987 GAU 0.00152744 0.0 1054.91760 0.0
M14 ? BHE i S ? 20230715 0930  3.98835158 GAU 0.00047638 0.0 470.60388 0.0
M11 ? BHZ i P c 20230715 0930  3.50622559 GAU 0.00082356 0.0 179.46733 0.0
M11 ? BHN e S ? 20230715 0930  4.06936693 GAU 0.00124199 0.0 -78.94606 0.0
M02 ? BHZ e P c 20230715 0930  3.55304193 GAU 0.00116796 0.0 -2294.04420 0.0
M02 ? BHE e S ? 20230715 0930  4.09547091 GAU 0.00170735 0.0 -1783.80940 0.0
M09 ? BHZ i P c 20230715 0930  3.58180404 GAU 0.00103499 0.0 -16.07978 0.0
M09 ? BHE e S ? 20230715 0930  4.17638063 GAU 0.00065074 0.0 351.00000 0.0
M10 ? BHZ e P c 20230715 0930  3.58536959 GAU 0.00278131 0.0 1169.24390 0.0
M10 ? BHN e S ? 20230715 0930  4.25621367 GAU 0.00132910 0.0 10.65498 0.0
M13 ? BHZ e P c 20230715 0930  3.71591830 GAU 0.00081112 0.0 1.54242 0.0
M13 ? BHE e S ? 20230715 0930  4.35973310 GAU 0.00133944 0.0 -116.60999 0.0
M05 ? BHZ e P d 20230715 0930  4.08468723 GAU 0.00308693 0.0 605.41187 0.0
M05 ? BHE e S ? 20230715 0930  5.05891085 GAU 0.00048898 0.0 -148.11827 0.0
M12 ? BHZ e P c 20230715 0930  4.21737289 GAU 0.00456059 0.0 -914.17993 0.0
M12 ? BHE e S ? 20230715 0930  5.31017733 GAU 0.00353977 0.0 250.57452 0.0

M06 ? BHZ i P c 20230715 0930 28.09549713 GAU 0.00027528 0.0 87.84610 0.0
M06 ? BHN e S ? 20230715 0930 28.50456047 GAU 0.00155256 0.0 -120.93258 0.0
M04 ? BHZ e P c 20230715 0930 28.16057968 GAU 0.00204934 0.0 -2472.65060 0.0
M04 ? BHN i S ? 20230715 0930 28.64360619 GAU 0.00295734 0.0 622.42840 0.0
M14 ? BHZ i P c 20230715 0930 28.17611122 GAU 0.00258766 0.0 -1256.08480 0.0
M14 ? BHE i S ? 20230715 0930 28.75900459 GAU 0.00052410 0.0 527.50885 0.0
M02 ? BHZ e P c 20230715 0930 28.18259621 GAU 0.00509917 0.0 -1505.19140 0.0
M02 ? BHN e S ? 20230715 0930 28.77152443 GAU 0.00223564 0.0 4883.54540 0.0
M11 ? BHZ i P c 20230715 0930 28.25076485 GAU 0.00077624 0.0 56.16369 0.0
M11 ? BHN i S ? 20230715 0930 28.84879494 GAU 0.00133188 0.0 9.68576 0.0
M09 ? BHZ i P c 20230715 0930 28.33380508 GAU 0.00088004 0.0 276.00555 0.0
M09 ? BHE e S ? 20230715 0930 28.92054176 GAU 0.00119586 0.0 272.44890 0.0
M03 ? BHZ i P c 20230715 0930 28.33861542 GAU 0.00231784 0.0 -2214.46240 0.0
M03 ? BHN e S ? 20230715 0930 28.94323349 GAU 0.00257534 0.0 119.94748 0.0
M13 ? BHZ i P c 20230715 0930 28.46133232 GAU 0.00123836 0.0 -81.01228 0.0
M13 ? BHE e S ? 20230715 0930 29.09542656 GAU 0.00257528 0.0 -156.92746 0.0
M10 ? BHZ e P c 20230715 0930 28.53709412 GAU 0.00168185 0.0 -454.88904 0.0
M10 ? BHE e S ? 20230715 0930 29.23896408 GAU 0.00139723 0.0 15.32555 0.0
M08 ? BHZ e P d 20230715 0930 28.56439018 GAU 0.00025996 0.0 417.81668 0.0
M08 ? BHN e S ? 20230715 0930 29.45013809 GAU 0.00186311 0.0 400.15744 0.0
M05 ? BHZ i P d 20230715 0930 28.76627541 GAU 0.00186302 0.0 117.93595 0.0
M05 ? BHN e S ? 20230715 0930 29.65029526 GAU 0.00321934 0.0 309.79736 0.0
M01 ? BHZ e P c 20230715 0930 28.79827309 GAU 0.00134140 0.0 -897.81170 0.0
M01 ? BHN e S ? 20230715 0930 29.81474495 GAU 0.00186295 0.0 1749.75920 0.0
M12 ? BHZ i P d 20230715 0930 28.88013840 GAU 0.00167668 0.0 -857.30597 0.0
M12 ? BHE e S ? 20230715 0930 29.92972946 GAU 0.00294168 0.0 270.99000 0.0

M06 ? BHZ i P c 20230715 0931 40.27544785 GAU 0.00053738 0.0 -117.90987 0.0
M06 ? BHN e S ? 20230715 0931 40.70456314 GAU 0.00020057 0.0 -42.32946 0.0
M11 ? BHZ i P c 20230715 0931 40.42658234 GAU 0.00112301 0.0 -273.12122 0.0
M11 ? BHE e S ? 20230715 0931 40.93841934 GAU 0.00080855 0.0 -87.00000 0.0
M09 ? BHZ i P c 20230715 0931 40.52964020 GAU 0.00077630 0.0 178.44144 0.0
M09 ? BHE e S ? 20230715 0931 41.14661026 GAU 0.00106292 0.0 383.64984 0.0
M13 ? BHZ e P c 20230715 0931 40.61820221 GAU 0.00094826 0.0 -458.36170 0.0
M13 ? BHN e S ? 20230715 0931 41.25677490 GAU 0.00074635 0.0 -52.90941 0.0

M02 ? BHZ e P c 20230717 1504 33.84997177 GAU 0.00338410 0.0 -1288.94890 0.0
M02 ? BHE e S ? 20230717 1504 34.19189072 GAU 0.00189744 0.0 -873.49915 0.0
M09 ? BHZ e P d 20230717 1504 34.09611511 GAU 0.00137953 0.0 207.26726 0.0
M09 ? BHN e S ? 20230717 1504 34.62491989 GAU 0.00034370 0.0 495.78735 0.0
M05 ? BHZ e P d 20230717 1504 34.14426804 GAU 0.00365408 0.0 393.20862 0.0
M05 ? BHN e S ? 20230717 1504 34.71752930 GAU 0.00256056 0.0 285.39438 0.0
M13 ? BHZ i P c 20230717 1504 34.18877792 GAU 0.00086250 0.0 -280.13394 0.0
M13 ? BHN e S ? 20230717 1504 34.78784561 GAU 0.00161094 0.0 -78.48871 0.0
M11 ? BHZ e P c 20230717 1504 34.20521545 GAU 0.00480627 0.0 -108.56335 0.0
M11 ? BHE e S ? 20230717 1504 34.81737518 GAU 0.00093146 0.0 -103.03515 0.0
M07 ? BHZ e P c 20230717 1504 34.51920700 GAU 0.00059924 0.0 -245.16718 0.0
M07 ? BHE e S ? 20230717 1504 35.33977127 GAU 0.00012885 0.0 -137.85600 0.0

M06 ? BHZ i P c 20230719 0205 31.84431839 GAU 0.00111781 0.0 50.22150 0.0
M06 ? BHN e S ? 20230719 0205 32.30278778 GAU 0.00192422 0.0 -72.75649 0.0
M02 ? BHZ i P d 20230719 0205 31.88384438 GAU 0.00225338 0.0 -13.77357 0.0
M02 ? BHE e S ? 20230719 0205 32.33312988 GAU 0.00118618 0.0 -932.53110 0.0
M14 ? BHZ i P c 20230719 0205 31.93473053 GAU 0.00178843 0.0 -36.72648 0.0
M14 ? BHN e S ? 20230719 0205 32.39245224 GAU 0.00172535 0.0 281.61070 0.0
M11 ? BHZ i P c 20230719 0205 31.93585205 GAU 0.00295105 0.0 -61.77010 0.0
M11 ? BHN e S ? 20230719 0205 32.45378113 GAU 0.00880946 0.0 -54.52484 0.0
M04 ? BHZ e P d 20230719 0205 31.94932938 GAU 0.00114966 0.0 1494.97030 0.0
M04 ? BHN e S ? 20230719 0205 32.40241623 GAU 0.00161752 0.0 629.44620 0.0
M09 ? BHZ i P c 20230719 0205 32.03203964 GAU 0.00377332 0.0 93.47737 0.0
M09 ? BHE e S ? 20230719 0205 32.60060883 GAU 0.00089860 0.0 308.39777 0.0
M13 ? BHZ e P c 20230719 0205 32.17848587 GAU 0.00142311 0.0 45.40140 0.0
M13 ? BHN e S ? 20230719 0205 32.87479019 GAU 0.00082379 0.0 -119.05902 0.0
M08 ? BHZ e P d 20230719 0205 32.24193954 GAU 0.00028885 0.0 646.34200 0.0
M08 ? BHE e S ? 20230719 0205 32.87826538 GAU 0.00060174 0.0 -877.39170 0.0
M10 ? BHZ e P c 20230719 0205 32.25260925 GAU 0.00309015 0.0 -298.56668 0.0
M10 ? BHE e S ? 20230719 0205 32.96883011 GAU 0.00069323 0.0 -167.85864 0.0
M05 ? BHZ i P d 20230719 0205 32.40121841 GAU 0.00152738 0.0 883.71990 0.0
M05 ? BHE e S ? 20230719 0205 33.24831772 GAU 0.00049911 0.0 -138.31620 0.0
M07 ? BHZ e P d 20230719 0205 32.45534897 GAU 0.00077624 0.0 1536.91330 0.0
M07 ? BHN e S ? 20230719 0205 33.28916550 GAU 0.00232881 0.0 -86.00000 0.0
M12 ? BHZ e P c 20230719 0205 32.63272095 GAU 0.00294976 0.0 -687.17070 0.0
M12 ? BHE e S ? 20230719 0205 33.62708664 GAU 0.00063694 0.0 26.00000 0.0

M06 ? BHZ i P c 20230719 0218 48.45888901 GAU 0.00087350 0.0 -142.04380 0.0
M06 ? BHN e S ? 20230719 0218 48.96691132 GAU 0.00116800 0.0 -86.54887 0.0
M04 ? BHZ e P c 20230719 0218 48.54217529 GAU 0.00127254 0.0 -646.58740 0.0
M04 ? BHN e S ? 20230719 0218 49.06182861 GAU 0.00125767 0.0 743.58997 0.0
M14 ? BHZ i P c 20230719 0218 48.55474854 GAU 0.00183692 0.0 -366.63547 0.0
