M06 ? BHZ e P c 20230911 0212 37.76182556 GAU 0.00349634 0.0 -54.44687 0.0
M06 ? BHE e S ? 20230911 0212 39.73982239 GAU 0.00193629 0.0 -85.00000 0.0
M09 ? BHZ e P c 20230911 0212 38.01729965 GAU 0.00064692 0.0 17.48924 0.0
M09 ? BHN e S ? 20230911 0212 40.13758469 GAU 0.00082362 0.0 469.41890 0.0
M11 ? BHZ e P c 20230911 0212 38.07358551 GAU 0.00112301 0.0 -403.00000 0.0
M11 ? BHE e S ? 20230911 0212 40.19684982 GAU 0.00143748 0.0 -168.35048 0.0
M13 ? BHZ e P c 20230911 0212 38.18434525 GAU 0.00024238 0.0 -593.98600 0.0
M13 ? BHE e S ? 20230911 0212 40.50809479 GAU 0.00034663 0.0 -155.75337 0.0
M14 ? BHZ e P d 20230911 0212 38.20793915 GAU 0.00201824 0.0 846.12780 0.0
M14 ? BHE e S ? 20230911 0212 40.50354004 GAU 0.00106065 0.0 335.99472 0.0
M07 ? BHZ e P c 20230911 0212 38.36146927 GAU 0.00132399 0.0 -509.25735 0.0
M07 ? BHE e S ? 20230911 0212 40.72772217 GAU 0.00082360 0.0 -64.01565 0.0
M05 ? BHZ e P c 20230911 0212 38.37495804 GAU 0.00664337 0.0 33.35464 0.0
M05 ? BHN e S ? 20230911 0212 40.71797562 GAU 0.00137536 0.0 238.00000 0.0
M08 ? BHZ e P c 20230911 0212 38.46141052 GAU 0.00020059 0.0 -451.26215 0.0
M08 ? BHN e S ? 20230911 0212 40.93740082 GAU 0.00112352 0.0 289.30716 0.0
M12 ? BHZ e P c 20230911 0212 38.78945160 GAU 0.00129921 0.0 -230.89000 0.0
M12 ? BHE e S ? 20230911 0212 41.47402573 GAU 0.00120949 0.0 10.00000 0.0

M06 ? BHZ e P c 20230911 0217 45.69499207 GAU 0.00140161 0.0 -174.00340 0.0
M06 ? BHN e S ? 20230911 0217 47.72420502 GAU 0.00116793 0.0 -69.54776 0.0
M09 ? BHZ e P c 20230911 0217 46.18876266 GAU 0.00223565 0.0 204.84274 0.0
M09 ? BHN e S ? 20230911 0217 48.54975891 GAU 0.00029260 0.0 482.31780 0.0
M11 ? BHZ e P c 20230911 0217 46.20577240 GAU 0.00181554 0.0 -302.59607 0.0
M11 ? BHE e S ? 20230911 0217 48.50758743 GAU 0.00151308 0.0 -125.00000 0.0
M08 ? BHZ e P c 20230911 0217 46.32072830 GAU 0.00021575 0.0 -176.55972 0.0
M08 ? BHN e S ? 20230911 0217 48.87427139 GAU 0.00029821 0.0 302.26370 0.0
M05 ? BHZ e P d 20230911 0217 46.65511322 GAU 0.00199240 0.0 372.73615 0.0
M05 ? BHN e S ? 20230911 0217 49.34436798 GAU 0.00087920 0.0 287.99173 0.0
M07 ? BHZ e P c 20230911 0217 46.77687454 GAU 0.00043327 0.0 -503.17206 0.0
M07 ? BHN e S ? 20230911 0217 49.61567688 GAU 0.00098249 0.0 -55.97603 0.0
M12 ? BHZ e P d 20230911 0217 46.96010971 GAU 0.00119788 0.0 28.51105 0.0
M12 ? BHE e S ? 20230911 0217 49.88259888 GAU 0.00063424 0.0 28.11696 0.0

M06 ? BHZ i P c 20230911 0219 38.24630356 GAU 0.00170766 0.0 -204.71872 0.0
M06 ? BHN e S ? 20230911 0219 40.05119324 GAU 0.00043326 0.0 -41.00262 0.0
M14 ? BHZ e P c 20230911 0219 38.63230515 GAU 0.00119788 0.0 -370.53050 0.0
M14 ? BHE e S ? 20230911 0219 40.76224136 GAU 0.00048581 0.0 398.15010 0.0
M11 ? BHZ i P d 20230911 0219 38.67016983 GAU 0.00298080 0.0 159.84830 0.0
M11 ? BHE e S ? 20230911 0219 40.81646347 GAU 0.00064685 0.0 -123.74409 0.0
M03 ? BHZ e P c 20230911 0219 38.67514801 GAU 0.00089841 0.0 -3653.28900 0.0
M03 ? BHN e S ? 20230911 0219 40.77050018 GAU 0.00123914 0.0 -192.24193 0.0
M09 ? BHZ e P d 20230911 0219 38.68702698 GAU 0.00156058 0.0 331.56160 0.0
M09 ? BHN e S ? 20230911 0219 40.84948730 GAU 0.00080877 0.0 458.57810 0.0
M13 ? BHZ e P d 20230911 0219 38.80461121 GAU 0.00186312 0.0 44.50616 0.0
M13 ? BHE e S ? 20230911 0219 40.99726105 GAU 0.00118588 0.0 -142.00000 0.0
M05 ? BHZ i P c 20230911 0219 38.85301208 GAU 0.00161721 0.0 2.24509 0.0
M05 ? BHN e S ? 20230911 0219 41.08852005 GAU 0.00017412 0.0 263.10074 0.0
M07 ? BHZ i P c 20230911 0219 39.00954437 GAU 0.00051151 0.0 -520.99220 0.0
M07 ? BHE e S ? 20230911 0219 41.34382629 GAU 0.00041539 0.0 -63.46193 0.0
M12 ? BHZ e P d 20230911 0219 39.33808517 GAU 0.00114601 0.0 35.69943 0.0
M12 ? BHE e S ? 20230911 0219 41.93305969 GAU 0.00032650 0.0 26.83903 0.0

M06 ? BHZ i P c 20230911 0235 22.23873520 GAU 0.00155251 0.0 -233.66435 0.0
M06 ? BHN e S ? 20230911 0235 24.18055153 GAU 0.00248397 0.0 -3.68957 0.0
M14 ? BHZ e P c 20230911 0235 22.27106667 GAU 0.00240446 0.0 -1135.54140 0.0
M14 ? BHE e S ? 20230911 0235 24.22049332 GAU 0.00056449 0.0 368.28210 0.0
M11 ? BHZ e P c 20230911 0235 22.62568283 GAU 0.00242196 0.0 -276.64297 0.0
M11 ? BHE e S ? 20230911 0235 24.83106995 GAU 0.00162082 0.0 -131.86618 0.0
M09 ? BHZ e P c 20230911 0235 22.62966156 GAU 0.00530305 0.0 128.35742 0.0
M09 ? BHN e S ? 20230911 0235 24.84996796 GAU 0.00149209 0.0 480.06396 0.0
M08 ? BHZ e P c 20230911 0235 22.66260719 GAU 0.00044838 0.0 -274.85593 0.0
M08 ? BHE e S ? 20230911 0235 24.92769241 GAU 0.00024071 0.0 -867.99870 0.0
M07 ? BHZ e P c 20230911 0235 22.82199097 GAU 0.00540792 0.0 -542.51135 0.0
M07 ? BHE e S ? 20230911 0235 25.21337509 GAU 0.00150333 0.0 -76.31699 0.0
M05 ? BHZ e P c 20230911 0235 22.82933998 GAU 0.00470101 0.0 -220.34764 0.0
M05 ? BHN e S ? 20230911 0235 25.22231293 GAU 0.00075920 0.0 302.83774 0.0
M12 ? BHZ e P c 20230911 0235 23.27815437 GAU 0.00386319 0.0 -473.21100 0.0
M12 ? BHN e S ? 20230911 0235 26.00471115 GAU 0.00192638 0.0 -188.23935 0.0

M06 ? BHZ e P c 20230911 0247  1.30327106 GAU 0.00287803 0.0 -283.37770 0.0
M06 ? BHE e S ? 20230911 0247  3.47990799 GAU 0.00116804 0.0 10.00000 0.0
M11 ? BHZ e P d 20230911 0247  1.61380661 GAU 0.00142289 0.0 0.92123 0.0
M11 ? BHN e S ? 20230911 0247  3.97392559 GAU 0.00170770 0.0 -125.26220 0.0
M09 ? BHZ e P c 20230911 0247  1.69265091 GAU 0.00160039 0.0 -90.13229 0.0
M09 ? BHE e S ? 20230911 0247  4.16629171 GAU 0.00040116 0.0 356.08215 0.0
M13 ? BHZ e P c 20230911 0247  1.78672588 GAU 0.00139271 0.0 -439.34510 0.0
M13 ? BHN e S ? 20230911 0247  4.36622000 GAU 0.00060655 0.0 -41.82093 0.0
M08 ? BHZ e P c 20230911 0247  1.84929931 GAU 0.00012188 0.0 -238.03668 0.0
M08 ? BHE e S ? 20230911 0247  4.42574930 GAU 0.00037478 0.0 -864.65930 0.0
M05 ? BHZ e P c 20230911 0247  2.02716708 GAU 0.00196085 0.0 -68.11092 0.0
M05 ? BHE e S ? 20230911 0247  4.72622061 GAU 0.00056085 0.0 -171.00000 0.0
M07 ? BHZ e P c 20230911 0247  2.04934955 GAU 0.00084337 0.0 -454.57635 0.0
M07 ? BHN e S ? 20230911 0247  4.82172060 GAU 0.00029493 0.0 -38.89440 0.0

M06 ? BHZ i P c 20230913 1518 58.79689407 GAU 0.00194061 0.0 -431.11072 0.0
M06 ? BHE e S ? 20230913 1518 59.23656082 GAU 0.00149005 0.0 -138.99706 0.0
M11 ? BHZ e P d 20230913 1518 58.95755768 GAU 0.00050261 0.0 200.96005 0.0
M11 ? BHN e S ? 20230913 1518 59.48733139 GAU 0.00028886 0.0 -102.03436 0.0
M09 ? BHZ i P c 20230913 1518 59.00333023 GAU 0.00077975 0.0 76.93484 0.0
M09 ? BHE e S ? 20230913 1518 59.61182022 GAU 0.00031692 0.0 339.13397 0.0
M13 ? BHZ e P c 20230913 1518 59.14518738 GAU 0.00037510 0.0 -357.87158 0.0
M13 ? BHE e S ? 20230913 1518 59.79627228 GAU 0.00060656 0.0 -196.00000 0.0
M07 ? BHZ e P c 20230913 1518 59.51108551 GAU 0.00089839 0.0 -597.00000 0.0
M07 ? BHE e S ? 20230913 1518 60.47229767 GAU 0.00024664 0.0 -132.81943 0.0

M06 ? BHZ i P d 20230914 1601  7.64024782 GAU 0.00089841 0.0 -83.90947 0.0
M06 ? BHN i S ? 20230914 1601  8.15242863 GAU 0.00074866 0.0 -53.42125 0.0
M14 ? BHZ e P c 20230914 1601  7.69480658 GAU 0.00148051 0.0 -655.81490 0.0
M14 ? BHN e S ? 20230914 1601  8.17904091 GAU 0.00068631 0.0 326.56177 0.0
M11 ? BHZ i P d 20230914 1601  7.75443220 GAU 0.00181126 0.0 57.97685 0.0
M11 ? BHE e S ? 20230914 1601  8.27363491 GAU 0.00077991 0.0 -123.46738 0.0
M09 ? BHZ e P c 20230914 1601  7.86657619 GAU 0.00178854 0.0 79.56735 0.0
M09 ? BHN e S ? 20230914 1601  8.48580551 GAU 0.00032597 0.0 500.39580 0.0
M13 ? BHZ e P d 20230914 1601  8.03951645 GAU 0.00150938 0.0 58.85943 0.0
M13 ? BHE e S ? 20230914 1601  8.78623772 GAU 0.00057378 0.0 -167.67645 0.0
M05 ? BHZ e P c 20230914 1601  8.32187176 GAU 0.00062392 0.0 51.54119 0.0
M05 ? BHE e S ? 20230914 1601  9.30126190 GAU 0.00033090 0.0 -153.08679 0.0
M07 ? BHZ i P d 20230914 1601  8.32555771 GAU 0.00033431 0.0 -413.71912 0.0
M07 ? BHE e S ? 20230914 1601  9.30247021 GAU 0.00015720 0.0 -104.32023 0.0

M06 ? BHZ i P d 20230914 1601 17.07521629 GAU 0.00214618 0.0 -113.83068 0.0
M06 ? BHN i S ? 20230914 1601 17.62029648 GAU 0.00062391 0.0 -66.00000 0.0
M11 ? BHZ i P d 20230914 1601 17.21912384 GAU 0.00089839 0.0 -99.25567 0.0
M11 ? BHE e S ? 20230914 1601 17.76536179 GAU 0.00105581 0.0 -100.43938 0.0
M14 ? BHZ e P d 20230914 1601 17.28041267 GAU 0.00061302 0.0 558.75600 0.0
M14 ? BHN e S ? 20230914 1601 17.82927704 GAU 0.00034655 0.0 312.03854 0.0
M09 ? BHZ i P c 20230914 1601 17.29251480 GAU 0.00059895 0.0 58.32958 0.0
M09 ? BHE e S ? 20230914 1601 17.99822617 GAU 0.00005248 0.0 351.10703 0.0
M07 ? BHZ i P c 20230914 1601 17.78412819 GAU 0.00062891 0.0 -475.79446 0.0
M07 ? BHN e S ? 20230914 1601 18.80227280 GAU 0.00004665 0.0 -75.95863 0.0

M06 ? BHZ i P d 20230914 1601 25.53498840 GAU 0.00260791 0.0 -84.09048 0.0
M06 ? BHN e S ? 20230914 1601 26.05172157 GAU 0.00062117 0.0 -53.78499 0.0
M14 ? BHZ e P c 20230914 1601 25.60049248 GAU 0.00186299 0.0 -410.05970 0.0
M14 ? BHN e S ? 20230914 1601 26.20000839 GAU 0.00024666 0.0 265.57290 0.0
M11 ? BHZ e P c 20230914 1601 25.71040916 GAU 0.00120511 0.0 -349.43730 0.0
M11 ? BHE i S ? 20230914 1601 26.26785851 GAU 0.00089414 0.0 -102.00000 0.0
M09 ? BHZ i P d 20230914 1601 25.82220268 GAU 0.00046802 0.0 229.04450 0.0
M09 ? BHE e S ? 20230914 1601 26.53382111 GAU 0.00056139 0.0 364.74810 0.0
M13 ? BHZ i P c 20230914 1601 25.83797264 GAU 0.00097029 0.0 -446.70170 0.0
M13 ? BHN e S ? 20230914 1601 26.59638596 GAU 0.00032496 0.0 -109.92302 0.0
M05 ? BHZ e P d 20230914 1601 26.25943756 GAU 0.00140159 0.0 305.78900 0.0
M05 ? BHE e S ? 20230914 1601 27.30763817 GAU 0.00086252 0.0 -176.00000 0.0
M07 ? BHZ i P c 20230914 1601 26.26296425 GAU 0.00031197 0.0 -554.31500 0.0
M07 ? BHE e S ? 20230914 1601 27.27476311 GAU 0.00042122 0.0 -117.00000 0.0
M12 ? BHZ e P c 20230914 1601 26.33082581 GAU 0.00047661 0.0 -781.60510 0.0
M12 ? BHE e S ? 20230914 1601 27.43032455 GAU 0.00045577 0.0 70.00000 0.0

M06 ? BHZ i P d 20230914 1604  0.01842236 GAU 0.00108672 0.0 -0.54392 0.0
M06 ? BHN e S ? 20230914 1604  0.59803003 GAU 0.00027867 0.0 -84.73282 0.0
M14 ? BHZ e P d 20230914 1604  0.04588769 GAU 0.00174749 0.0 901.04535 0.0
M14 ? BHN e S ? 20230914 1604  0.65366507 GAU 0.00047642 0.0 339.26470 0.0
M11 ? BHZ e P c 20230914 1604  0.11883789 GAU 0.00371524 0.0 -526.38670 0.0
M11 ? BHN e S ? 20230914 1604  0.78977710 GAU 0.00226868 0.0 -92.67818 0.0
M09 ? BHZ e P d 20230914 1604  0.46843922 GAU 0.00235662 0.0 171.78532 0.0
M09 ? BHN e S ? 20230914 1604  1.36469138 GAU 0.00324619 0.0 490.31918 0.0

M06 ? BHZ i P d 20230914 1604  8.67934895 GAU 0.00051994 0.0 -193.55232 0.0
M06 ? BHE e S ? 20230914 1604  9.19009209 GAU 0.00097026 0.0 -145.88283 0.0
M02 ? BHZ e P d 20230914 1604  8.72248459 GAU 0.00047663 0.0 1697.57370 0.0
M02 ? BHN e S ? 20230914 1604  9.22490215 GAU 0.00332094 0.0 -1735.80640 0.0
M04 ? BHZ e P d 20230914 1604  8.74436188 GAU 0.00161721 0.0 2338.48500 0.0
M04 ? BHN e S ? 20230914 1604  9.22937965 GAU 0.00171170 0.0 745.68365 0.0
M14 ? BHZ i P d 20230914 1604  8.82430267 GAU 0.00056328 0.0 -18.78025 0.0
M14 ? BHN e S ? 20230914 1604  9.28142071 GAU 0.00149080 0.0 453.97522 0.0
M11 ? BHZ i P d 20230914 1604  8.83841705 GAU 0.00062394 0.0 -76.43694 0.0
M11 ? BHE i S ? 20230914 1604  9.39626312 GAU 0.00232922 0.0 -74.00000 0.0
M09 ? BHZ i P d 20230914 1604  8.95955181 GAU 0.00155221 0.0 183.66727 0.0
M09 ? BHN e S ? 20230914 1604  9.52125072 GAU 0.00134814 0.0 525.00000 0.0
M13 ? BHZ i P d 20230914 1604  9.09128094 GAU 0.00107225 0.0 214.90590 0.0
M13 ? BHN e S ? 20230914 1604  9.84725666 GAU 0.00020892 0.0 -88.42246 0.0
M01 ? BHZ i P d 20230914 1604  9.21894550 GAU 0.00463561 0.0 207.35709 0.0
M01 ? BHE e S ? 20230914 1604  9.97399712 GAU 0.00534010 0.0 515.34800 0.0
M07 ? BHZ i P d 20230914 1604  9.35129356 GAU 0.00050548 0.0 -379.72330 0.0
M07 ? BHN e S ? 20230914 1604 10.25238132 GAU 0.00060659 0.0 -71.99636 0.0
M05 ? BHZ i P d 20230914 1604  9.42032814 GAU 0.00124714 0.0 488.16476 0.0
M05 ? BHE e S ? 20230914 1604 10.51923656 GAU 0.00025279 0.0 -179.81834 0.0
M12 ? BHZ e P c 20230914 1604  9.48643494 GAU 0.00088245 0.0 -720.78070 0.0
M12 ? BHE e S ? 20230914 1604 10.56071186 GAU 0.00074872 0.0 89.00000 0.0

M14 ? BHZ e P d 20230914 1607 37.44114685 GAU 0.00312982 0.0 1013.68585 0.0
M14 ? BHN e S ? 20230914 1607 37.99929428 GAU 0.00056325 0.0 338.06952 0.0
M11 ? BHZ e P d 20230914 1607 37.45984268 GAU 0.00602615 0.0 -34.59449 0.0
M11 ? BHN e S ? 20230914 1607 38.04184341 GAU 0.00093166 0.0 -105.51419 0.0
M04 ? BHZ e P c 20230914 1607 37.46048737 GAU 0.00083864 0.0 -1586.39640 0.0
M04 ? BHN e S ? 20230914 1607 38.03490829 GAU 0.00064602 0.0 709.54346 0.0
M06 ? BHZ i P d 20230914 1607 37.46052170 GAU 0.00134135 0.0 31.62775 0.0
M06 ? BHE i S ? 20230914 1607 38.04702377 GAU 0.00043327 0.0 -73.18539 0.0
M09 ? BHZ e P c 20230914 1607 37.66734695 GAU 0.00254564 0.0 124.49316 0.0
M09 ? BHE e S ? 20230914 1607 38.37960434 GAU 0.00074839 0.0 356.06985 0.0
M13 ? BHZ e P c 20230914 1607 37.75732803 GAU 0.00069325 0.0 -422.27786 0.0
M13 ? BHN e S ? 20230914 1607 38.52078247 GAU 0.00062393 0.0 -111.83775 0.0

M06 ? BHZ i P d 20230914 1607 43.61546707 GAU 0.00082356 0.0 -695.79675 0.0
M06 ? BHN e S ? 20230914 1607 44.09763718 GAU 0.00077610 0.0 -33.00000 0.0
M14 ? BHZ e P c 20230914 1607 43.70864868 GAU 0.00380049 0.0 -513.61900 0.0
M14 ? BHE e S ? 20230914 1607 44.12514114 GAU 0.00045132 0.0 382.29913 0.0
M04 ? BHZ e P c 20230914 1607 43.72621536 GAU 0.00183306 0.0 -1273.06150 0.0
M04 ? BHN e S ? 20230914 1607 44.18369293 GAU 0.00036107 0.0 820.81150 0.0
M11 ? BHZ e P d 20230914 1607 43.78229523 GAU 0.00163324 0.0 -328.54480 0.0
M11 ? BHE i S ? 20230914 1607 44.32065201 GAU 0.00098831 0.0 -89.43903 0.0
M09 ? BHZ e P d 20230914 1607 43.89072418 GAU 0.00165806 0.0 260.57162 0.0
M09 ? BHE e S ? 20230914 1607 44.53729248 GAU 0.00044266 0.0 337.58234 0.0
M13 ? BHZ e P c 20230914 1607 43.98287964 GAU 0.00097333 0.0 -491.43256 0.0
M13 ? BHE e S ? 20230914 1607 44.67832947 GAU 0.00018864 0.0 -170.80371 0.0

M06 ? BHZ i P d 20230914 1610 57.84182358 GAU 0.00025997 0.0 -40.33855 0.0
M06 ? BHE e S ? 20230914 1610 58.35891342 GAU 0.00057670 0.0 -96.00000 0.0
M09 ? BHZ e P c 20230914 1610 58.08962250 GAU 0.00074869 0.0 75.41664 0.0
M09 ? BHN i S ? 20230914 1610 58.65287399 GAU 0.00016794 0.0 492.79540 0.0
M11 ? BHZ e P d 20230914 1610 58.10401917 GAU 0.00141499 0.0 58.13749 0.0
M11 ? BHN i S ? 20230914 1610 58.64902496 GAU 0.00025989 0.0 -87.21138 0.0
M07 ? BHZ i P c 20230914 1610 58.57250595 GAU 0.00068631 0.0 -463.02887 0.0
M07 ? BHN e S ? 20230914 1610 59.59012222 GAU 0.00013301 0.0 -74.90659 0.0

M06 ? BHZ i P d 20230914 1611 12.96914577 GAU 0.00134139 0.0 -73.07958 0.0
M06 ? BHN e S ? 20230914 1611 13.43152237 GAU 0.00033422 0.0 -83.77786 0.0
M11 ? BHZ e P c 20230914 1611 13.15452003 GAU 0.00183276 0.0 -419.33557 0.0
M11 ? BHN i S ? 20230914 1611 13.78143120 GAU 0.00034660 0.0 -90.00214 0.0
M09 ? BHZ e P c 20230914 1611 13.42014503 GAU 0.00029251 0.0 45.10718 0.0
M09 ? BHE e S ? 20230914 1611 14.23024940 GAU 0.00023173 0.0 374.93253 0.0
M07 ? BHZ e P c 20230914 1611 13.64272308 GAU 0.00041602 0.0 -498.07407 0.0
M07 ? BHE e S ? 20230914 1611 14.59960079 GAU 0.00020200 0.0 -107.18638 0.0

M06 ? BHZ i P d 20230914 1611 18.72914124 GAU 0.00046916 0.0 -188.33376 0.0
M06 ? BHE e S ? 20230914 1611 19.26900673 GAU 0.00098129 0.0 -84.48998 0.0
M11 ? BHZ e P c 20230914 1611 18.89745522 GAU 0.00245805 0.0 -261.26395 0.0
M11 ? BHN i S ? 20230914 1611 19.54291916 GAU 0.00012189 0.0 -89.01550 0.0
M09 ? BHZ e P c 20230914 1611 18.96717072 GAU 0.00005831 0.0 23.66632 0.0
M09 ? BHE e S ? 20230914 1611 19.67091370 GAU 0.00013019 0.0 357.16806 0.0
M07 ? BHZ e P c 20230914 1611 19.57012367 GAU 0.00033098 0.0 -517.65500 0.0
M07 ? BHE e S ? 20230914 1611 20.69986343 GAU 0.00015919 0.0 -106.01342 0.0

M06 ? BHZ i P c 20230914 1623 26.01444054 GAU 0.00310548 0.0 5293.94500 0.0
M06 ? BHE e S ? 20230914 1623 26.44598961 GAU 0.00140133 0.0 27187.64000 0.0
M04 ? BHZ i P c 20230914 1623 26.11295509 GAU 0.00124198 0.0 20504.07000 0.0
M04 ? BHN e S ? 20230914 1623 26.60217094 GAU 0.00172010 0.0 -10383.90100 0.0
M14 ? BHZ i P c 20230914 1623 26.13017654 GAU 0.00178875 0.0 291.50165 0.0
M14 ? BHE e S ? 20230914 1623 26.63131714 GAU 0.00057587 0.0 -9301.00800 0.0
M02 ? BHZ i P d 20230914 1623 26.15282059 GAU 0.00556300 0.0 -6287.62160 0.0
M02 ? BHE i S ? 20230914 1623 26.69723511 GAU 0.00142311 0.0 -383581.97000 0.0
M11 ? BHZ i P c 20230914 1623 26.19896889 GAU 0.00231784 0.0 24351.03000 0.0
M11 ? BHN i S ? 20230914 1623 26.79625130 GAU 0.00540870 0.0 5155.76400 0.0
M09 ? BHZ i P c 20230914 1623 26.28117371 GAU 0.00370883 0.0 3703.73400 0.0
M09 ? BHE e S ? 20230914 1623 26.90174675 GAU 0.00071874 0.0 -6926.91700 0.0
M03 ? BHZ i P d 20230914 1623 26.33538437 GAU 0.00311438 0.0 -9782.66500 0.0
M03 ? BHE e S ? 20230914 1623 26.99488831 GAU 0.00424951 0.0 -15386.62900 0.0
M13 ? BHZ i P c 20230914 1623 26.39931679 GAU 0.00199331 0.0 2050.51500 0.0
M13 ? BHE e S ? 20230914 1623 27.10408783 GAU 0.00167673 0.0 -121.81579 0.0
M10 ? BHZ i P c 20230914 1623 26.43465042 GAU 0.00389407 0.0 4028.77600 0.0
M10 ? BHN e S ? 20230914 1623 27.17546463 GAU 0.00272539 0.0 7563.92300 0.0
M05 ? BHZ e P c 20230914 1623 26.64322090 GAU 0.00672879 0.0 -49489.89500 0.0
M05 ? BHN e S ? 20230914 1623 27.56081009 GAU 0.00119791 0.0 -4347.59330 0.0
M01 ? BHZ i P c 20230914 1623 26.64899063 GAU 0.00222513 0.0 4324.94300 0.0
M01 ? BHE e S ? 20230914 1623 27.57074928 GAU 0.00347664 0.0 3987.92070 0.0
M07 ? BHZ i P d 20230914 1623 26.72168541 GAU 0.00241448 0.0 -9530.40500 0.0
M07 ? BHE e S ? 20230914 1623 27.69971848 GAU 0.00226517 0.0 -1907.42470 0.0
M12 ? BHZ i P d 20230914 1623 26.81567574 GAU 0.00370854 0.0 -7228.94870 0.0
M12 ? BHE e S ? 20230914 1623 27.87931824 GAU 0.00741916 0.0 -6666.68550 0.0

M06 ? BHZ i P c 20230914 1623 34.55979919 GAU 0.00515092 0.0 74566.23000 0.0
M06 ? BHE e S ? 20230914 1623 35.07602310 GAU 0.00426965 0.0 3423.85230 0.0
M04 ? BHZ e P c 20230914 1623 34.66641998 GAU 0.00243221 0.0 -18830.22500 0.0
M04 ? BHE e S ? 20230914 1623 35.19136429 GAU 0.00151221 0.0 -996.11664 0.0
M14 ? BHZ e P c 20230914 1623 34.72253799 GAU 0.00186304 0.0 -12147.14300 0.0
M14 ? BHN e S ? 20230914 1623 35.17412949 GAU 0.00496989 0.0 -708.72894 0.0
M11 ? BHZ e P d 20230914 1623 34.76987457 GAU 0.00788091 0.0 3008.14040 0.0
M11 ? BHN i S ? 20230914 1623 35.44933701 GAU 0.00588959 0.0 -2465.59420 0.0
M02 ? BHZ e P c 20230914 1623 34.77445984 GAU 0.00201838 0.0 -37454.00800 0.0
M02 ? BHE e S ? 20230914 1623 35.38349533 GAU 0.00150943 0.0 66143.66000 0.0
M03 ? BHZ e P c 20230914 1623 34.85881424 GAU 0.00602658 0.0 -10922.08600 0.0
M03 ? BHE e S ? 20230914 1623 35.59511948 GAU 0.01435090 0.0 -1728.22670 0.0
M09 ? BHZ e P c 20230914 1623 34.86609268 GAU 0.00223564 0.0 -5630.13670 0.0
M09 ? BHE e S ? 20230914 1623 35.51467133 GAU 0.00237186 0.0 1872.62660 0.0
M10 ? BHZ e P c 20230914 1623 34.96550369 GAU 0.00222380 0.0 -73110.54000 0.0
M10 ? BHE e S ? 20230914 1623 35.83941650 GAU 0.00461524 0.0 -1566.92580 0.0
M13 ? BHZ e P c 20230914 1623 34.98288345 GAU 0.00321933 0.0 5399.14160 0.0
M13 ? BHN e S ? 20230914 1623 35.71335983 GAU 0.00154556 0.0 -508.93375 0.0
M01 ? BHZ e P d 20230914 1623 35.12623215 GAU 0.00720917 0.0 16565.33200 0.0
M01 ? BHE e S ? 20230914 1623 35.95737076 GAU 0.00238254 0.0 -628.76040 0.0
M07 ? BHZ e P c 20230914 1623 35.35031509 GAU 0.00206998 0.0 -28389.95700 0.0
M07 ? BHE e S ? 20230914 1623 36.36853027 GAU 0.00217348 0.0 -681.00000 0.0
M12 ? BHZ e P c 20230914 1623 35.42794418 GAU 0.00347689 0.0 -19772.01800 0.0
M12 ? BHE e S ? 20230914 1623 36.58588791 GAU 0.00442321 0.0 508.28577 0.0

M06 ? BHZ i P c 20230914 1623 53.42692566 GAU 0.00041593 0.0 -825.45220 0.0
M06 ? BHN e S ? 20230914 1623 53.94832230 GAU 0.00098827 0.0 221.77740 0.0
