M01 ? BHZ e P d 20230810 2225 13.75856209 GAU 0.00089130 0.0 254.65619 0.0
M01 ? BHN e S ? 20230810 2225 14.86459732 GAU 0.00183469 0.0 1724.66810 0.0
M10 ? BHZ e P c 20230810 2225 13.80072498 GAU 0.00223563 0.0 -296.38455 0.0
M10 ? BHN e S ? 20230810 2225 14.97555542 GAU 0.00149038 0.0 0.00000 0.0
M05 ? BHZ e P c 20230810 2225 13.81242180 GAU 0.00285167 0.0 197.81297 0.0
M05 ? BHE e S ? 20230810 2225 15.00449944 GAU 0.00312932 0.0 -178.76233 0.0
M13 ? BHZ i P d 20230810 2225 13.82162285 GAU 0.00062390 0.0 308.27924 0.0
M13 ? BHN e S ? 20230810 2225 14.97059059 GAU 0.00116436 0.0 -150.38268 0.0
M07 ? BHZ e P d 20230810 2225 13.85437489 GAU 0.00075474 0.0 -260.93604 0.0
M07 ? BHN e S ? 20230810 2225 15.01321793 GAU 0.00074871 0.0 -102.79598 0.0
M12 ? BHZ e P c 20230810 2225 13.85741806 GAU 0.00139721 0.0 -629.98550 0.0
M12 ? BHN e S ? 20230810 2225 15.05286598 GAU 0.00160971 0.0 -96.00000 0.0
M08 ? BHZ i P c 20230810 2225 13.90458775 GAU 0.00013059 0.0 -416.50320 0.0
M08 ? BHE e S ? 20230810 2225 15.16524506 GAU 0.00155253 0.0 -893.29486 0.0
M02 ? BHZ i P c 20230810 2225 13.91538048 GAU 0.00111777 0.0 -2508.64800 0.0
M02 ? BHE e S ? 20230810 2225 15.13419533 GAU 0.00126724 0.0 -1022.25930 0.0
M09 ? BHZ i P d 20230810 2225 13.96197605 GAU 0.00357700 0.0 269.18980 0.0
M09 ? BHE e S ? 20230810 2225 15.25160980 GAU 0.00093625 0.0 324.00000 0.0
M14 ? BHZ i P d 20230810 2225 13.96968460 GAU 0.00482876 0.0 519.62634 0.0
M14 ? BHN e S ? 20230810 2225 15.20620060 GAU 0.00052410 0.0 317.38920 0.0
M04 ? BHZ i P d 20230810 2225 13.99905109 GAU 0.00326031 0.0 717.21500 0.0
M04 ? BHN e S ? 20230810 2225 15.29582500 GAU 0.00154941 0.0 741.31970 0.0
M11 ? BHZ i P c 20230810 2225 14.08799076 GAU 0.00695352 0.0 -621.65600 0.0
M11 ? BHN e S ? 20230810 2225 15.44892025 GAU 0.00226405 0.0 -118.13792 0.0
M06 ? BHZ i P d 20230810 2225 14.11718464 GAU 0.00044923 0.0 -151.88933 0.0
M06 ? BHN e S ? 20230810 2225 15.49880791 GAU 0.00265897 0.0 -116.56052 0.0

M05 ? BHZ e P c 20230815 1831 17.56294250 GAU 0.00160961 0.0 82.01760 0.0
M05 ? BHN e S ? 20230815 1831 18.62860680 GAU 0.00022567 0.0 266.41266 0.0
M12 ? BHZ i P d 20230815 1831 17.69587326 GAU 0.00075470 0.0 -510.20210 0.0
M12 ? BHE e S ? 20230815 1831 18.87671661 GAU 0.00043330 0.0 28.06336 0.0
M07 ? BHZ i P d 20230815 1831 17.79418564 GAU 0.00124105 0.0 -193.69312 0.0
M07 ? BHE e S ? 20230815 1831 18.95299339 GAU 0.00036106 0.0 -133.00000 0.0
M09 ? BHZ e P d 20230815 1831 17.88193703 GAU 0.00057515 0.0 295.01218 0.0
M09 ? BHE e S ? 20230815 1831 19.16808128 GAU 0.00027582 0.0 342.03934 0.0
M06 ? BHZ e P c 20230815 1831 17.95222282 GAU 0.00098824 0.0 -313.54364 0.0
M06 ? BHE e S ? 20230815 1831 19.24336052 GAU 0.00102862 0.0 -91.00000 0.0
M13 ? BHZ e P c 20230815 1831 18.07023811 GAU 0.00032597 0.0 -831.78370 0.0
M13 ? BHE e S ? 20230815 1831 19.46831703 GAU 0.00025074 0.0 -187.79391 0.0
M11 ? BHZ e P d 20230815 1831 18.18968773 GAU 0.00155252 0.0 123.65684 0.0
M11 ? BHE e S ? 20230815 1831 19.72458458 GAU 0.00135514 0.0 -128.76529 0.0

M13 ? BHZ e P d 20230821 2043 16.32485771 GAU 0.00055445 0.0 15.72625 0.0
M13 ? BHN e S ? 20230821 2043 17.36849213 GAU 0.00067700 0.0 -139.51389 0.0
M09 ? BHZ e P c 20230821 2043 16.32398033 GAU 0.00335323 0.0 91.71945 0.0
M09 ? BHE e S ? 20230821 2043 17.38829994 GAU 0.00085420 0.0 337.44995 0.0
M05 ? BHZ e P d 20230821 2043 16.32423782 GAU 0.00111782 0.0 197.92888 0.0
M05 ? BHE e S ? 20230821 2043 17.39989471 GAU 0.00018212 0.0 -187.70377 0.0
M07 ? BHZ e P c 20230821 2043 16.34644127 GAU 0.00152757 0.0 -191.81734 0.0
M07 ? BHE e S ? 20230821 2043 17.44116974 GAU 0.00092266 0.0 -139.00000 0.0
M11 ? BHZ e P c 20230821 2043 16.39012718 GAU 0.00113116 0.0 -373.25580 0.0
M11 ? BHE e S ? 20230821 2043 17.49431610 GAU 0.00060658 0.0 -139.91557 0.0
M12 ? BHZ e P d 20230821 2043 16.44490623 GAU 0.00043326 0.0 -401.30582 0.0
M12 ? BHN e S ? 20230821 2043 17.60100937 GAU 0.00113572 0.0 -105.00000 0.0
M08 ? BHZ e P d 20230821 2043 16.47945786 GAU 0.00048143 0.0 663.84390 0.0
M08 ? BHN e S ? 20230821 2043 17.64597511 GAU 0.00024279 0.0 262.40814 0.0
M06 ? BHZ e P c 20230821 2043 16.55870247 GAU 0.00072812 0.0 -237.05139 0.0
M06 ? BHE e S ? 20230821 2043 17.79092216 GAU 0.00056787 0.0 -129.09859 0.0

M10 ? BHZ e P d 20230822 1037 24.70942307 GAU 0.00164112 0.0 1094.80310 0.0
M10 ? BHN e S ? 20230822 1037 25.28803635 GAU 0.00201526 0.0 -47.00000 0.0
M13 ? BHZ e P c 20230822 1037 24.83032799 GAU 0.00097031 0.0 -725.97720 0.0
M13 ? BHE e S ? 20230822 1037 25.47733688 GAU 0.00056316 0.0 -129.13030 0.0
M05 ? BHZ i P c 20230822 1037 24.89624405 GAU 0.00270415 0.0 98.30534 0.0
M05 ? BHN e S ? 20230822 1037 25.62915611 GAU 0.00082358 0.0 254.90050 0.0
M09 ? BHZ e P c 20230822 1037 24.96263885 GAU 0.00020895 0.0 24.75074 0.0
M09 ? BHN e S ? 20230822 1037 25.74592018 GAU 0.00016521 0.0 486.08760 0.0
M11 ? BHZ e P c 20230822 1037 25.17197990 GAU 0.00084138 0.0 -256.40964 0.0
M11 ? BHE e S ? 20230822 1037 26.06457520 GAU 0.00027582 0.0 -103.98628 0.0
M06 ? BHZ i P d 20230822 1037 25.49287033 GAU 0.00294971 0.0 -1.45302 0.0
M06 ? BHE e S ? 20230822 1037 26.64894867 GAU 0.00201203 0.0 -66.02399 0.0

M06 ? BHZ i P c 20230825 2200  3.75418544 GAU 0.00058929 0.0 -233.05467 0.0
M06 ? BHN e S ? 20230825 2200  4.30914068 GAU 0.00015959 0.0 -113.92287 0.0
M14 ? BHZ e P d 20230825 2200  3.85278249 GAU 0.00062133 0.0 624.82470 0.0
M14 ? BHE e S ? 20230825 2200  4.48284769 GAU 0.00126065 0.0 401.15234 0.0
M11 ? BHZ e P d 20230825 2200  3.89431000 GAU 0.00320365 0.0 77.86035 0.0
M11 ? BHN e S ? 20230825 2200  4.55025864 GAU 0.00011910 0.0 -119.95615 0.0
M09 ? BHZ e P c 20230825 2200  3.95070386 GAU 0.00044932 0.0 26.30647 0.0
M09 ? BHN e S ? 20230825 2200  4.64676476 GAU 0.00011783 0.0 490.94016 0.0

M06 ? BHZ i P c 20230825 2201 21.29236221 GAU 0.00074871 0.0 -30.95622 0.0
M06 ? BHN e S ? 20230825 2201 21.79713440 GAU 0.00072789 0.0 -82.01592 0.0
M14 ? BHZ i P c 20230825 2201 21.37706566 GAU 0.00102508 0.0 -503.76035 0.0
M14 ? BHN e S ? 20230825 2201 21.87975883 GAU 0.00162569 0.0 387.08182 0.0
M11 ? BHZ i P c 20230825 2201 21.39758682 GAU 0.00086252 0.0 -165.00000 0.0
M11 ? BHE e S ? 20230825 2201 21.99306297 GAU 0.00057768 0.0 -141.67357 0.0
M09 ? BHZ i P c 20230825 2201 21.44028854 GAU 0.00187788 0.0 77.81337 0.0
M09 ? BHE e S ? 20230825 2201 22.10593414 GAU 0.00040203 0.0 345.03650 0.0
M13 ? BHZ i P d 20230825 2201 21.61905289 GAU 0.00068630 0.0 13.78151 0.0
M13 ? BHN e S ? 20230825 2201 22.41091919 GAU 0.00017413 0.0 -131.89433 0.0
M07 ? BHZ e P d 20230825 2201 21.90323830 GAU 0.00071875 0.0 -218.34280 0.0
M07 ? BHN e S ? 20230825 2201 22.82831955 GAU 0.00029253 0.0 -89.84568 0.0
M12 ? BHZ e P c 20230825 2201 22.09202194 GAU 0.00111145 0.0 -630.19100 0.0
M12 ? BHN e S ? 20230825 2201 23.19607735 GAU 0.00068631 0.0 -132.53117 0.0

M06 ? BHZ e P c 20230825 2201 30.32436752 GAU 0.00260826 0.0 -91.13754 0.0
M06 ? BHE e S ? 20230825 2201 30.94942474 GAU 0.00048132 0.0 -90.70410 0.0
M14 ? BHZ e P c 20230825 2201 30.35677147 GAU 0.00121116 0.0 -748.25030 0.0
M14 ? BHE e S ? 20230825 2201 30.90418816 GAU 0.00057769 0.0 395.28973 0.0
M11 ? BHZ e P d 20230825 2201 30.49773598 GAU 0.00321917 0.0 60.39938 0.0
M11 ? BHN e S ? 20230825 2201 31.28241158 GAU 0.00104815 0.0 -98.52756 0.0
M09 ? BHZ e P c 20230825 2201 30.51917076 GAU 0.00097033 0.0 -3.00000 0.0
M09 ? BHE e S ? 20230825 2201 31.30454826 GAU 0.00016123 0.0 367.68542 0.0
M13 ? BHZ e P d 20230825 2201 30.74661446 GAU 0.00046797 0.0 199.53680 0.0
M13 ? BHN e S ? 20230825 2201 31.69476509 GAU 0.00020794 0.0 -134.83481 0.0
M07 ? BHZ e P c 20230825 2201 31.08638382 GAU 0.00160822 0.0 -295.35666 0.0
M07 ? BHE e S ? 20230825 2201 32.19809723 GAU 0.00043002 0.0 -133.99217 0.0
M12 ? BHZ e P c 20230825 2201 31.25385094 GAU 0.00097329 0.0 -594.60785 0.0
M12 ? BHE e S ? 20230825 2201 32.53321457 GAU 0.00030335 0.0 20.72124 0.0

M06 ? BHZ i P c 20230825 2201 40.21739578 GAU 0.00042122 0.0 -283.47363 0.0
M06 ? BHN e S ? 20230825 2201 40.64101791 GAU 0.00258760 0.0 -71.00000 0.0
M04 ? BHZ e S ? 20230825 2201 40.29793549 GAU 0.00252291 0.0 -564.89360 0.0
M04 ? BHN e S ? 20230825 2201 40.72696304 GAU 0.00093583 0.0 742.21436 0.0
M02 ? BHZ e P d 20230825 2201 40.31036377 GAU 0.00050149 0.0 462.96652 0.0
M02 ? BHN e S ? 20230825 2201 40.74534988 GAU 0.00279436 0.0 -2015.07020 0.0
M14 ? BHZ e P c 20230825 2201 40.31468964 GAU 0.00042124 0.0 -134.89194 0.0
M14 ? BHN e S ? 20230825 2201 40.75304794 GAU 0.00269542 0.0 326.28930 0.0
M11 ? BHZ e P c 20230825 2201 40.31773758 GAU 0.00248416 0.0 -755.51810 0.0
M11 ? BHN e S ? 20230825 2201 40.82742310 GAU 0.00082151 0.0 -136.86523 0.0
M09 ? BHZ i P c 20230825 2201 40.44043732 GAU 0.00031195 0.0 124.60928 0.0
M09 ? BHE e S ? 20230825 2201 41.02084351 GAU 0.00030089 0.0 339.24440 0.0
M13 ? BHZ e P c 20230825 2201 40.56206894 GAU 0.00099828 0.0 -381.00000 0.0
M13 ? BHN e S ? 20230825 2201 41.18501663 GAU 0.00048755 0.0 -137.57811 0.0
M07 ? BHZ e P d 20230825 2201 40.87649155 GAU 0.00242183 0.0 -237.97658 0.0
M07 ? BHE e S ? 20230825 2201 41.75928879 GAU 0.00042790 0.0 -145.88297 0.0
M12 ? BHZ e P c 20230825 2201 40.99747467 GAU 0.00143752 0.0 -703.55240 0.0
M12 ? BHN e S ? 20230825 2201 41.96112823 GAU 0.00088378 0.0 -139.47507 0.0

M06 ? BHZ i P c 20230825 2202 24.59127808 GAU 0.00074890 0.0 -221.96956 0.0
M06 ? BHN e S ? 20230825 2202 25.05424881 GAU 0.00029017 0.0 -105.21376 0.0
M14 ? BHZ e P c 20230825 2202 24.61627769 GAU 0.00039715 0.0 -398.92566 0.0
M14 ? BHE e S ? 20230825 2202 25.11920547 GAU 0.00035105 0.0 383.46063 0.0
M11 ? BHZ i P c 20230825 2202 24.70316887 GAU 0.00093590 0.0 -210.43721 0.0
M11 ? BHN e S ? 20230825 2202 25.23304367 GAU 0.00070388 0.0 -123.48128 0.0
M09 ? BHZ i P c 20230825 2202 24.73055077 GAU 0.00090566 0.0 -89.96822 0.0
M09 ? BHE e S ? 20230825 2202 25.30760193 GAU 0.00021115 0.0 366.77164 0.0
M13 ? BHZ e P d 20230825 2202 24.96661758 GAU 0.00047658 0.0 53.53839 0.0
M13 ? BHN e S ? 20230825 2202 25.71918488 GAU 0.00016553 0.0 -138.95042 0.0

M06 ? BHZ i P c 20230825 2202 28.76621437 GAU 0.00051152 0.0 250.61423 0.0
M06 ? BHN e S ? 20230825 2202 29.20332336 GAU 0.00309057 0.0 -26.97884 0.0
M14 ? BHZ i P c 20230825 2202 28.86219025 GAU 0.00170710 0.0 -536.81464 0.0
M14 ? BHE e S ? 20230825 2202 29.38064766 GAU 0.00045130 0.0 303.17358 0.0
M02 ? BHZ e P d 20230825 2202 28.87088585 GAU 0.00067382 0.0 484.39950 0.0
M02 ? BHN e S ? 20230825 2202 29.35074425 GAU 0.00227056 0.0 -5849.42200 0.0
M04 ? BHZ e P d 20230825 2202 28.87260246 GAU 0.00242586 0.0 2755.23780 0.0
M04 ? BHN e S ? 20230825 2202 29.35532570 GAU 0.00107819 0.0 764.67535 0.0
M11 ? BHZ i P c 20230825 2202 28.89840698 GAU 0.00087572 0.0 -30.49573 0.0
M11 ? BHN e S ? 20230825 2202 29.45562363 GAU 0.00172499 0.0 -59.91429 0.0
M09 ? BHZ i P c 20230825 2202 28.98403549 GAU 0.00028881 0.0 -13.73174 0.0
M09 ? BHE e S ? 20230825 2202 29.63094139 GAU 0.00045135 0.0 412.24463 0.0
M13 ? BHZ i P c 20230825 2202 29.10033989 GAU 0.00060652 0.0 -390.00000 0.0
M13 ? BHE e S ? 20230825 2202 29.84360123 GAU 0.00045134 0.0 -241.94759 0.0
M10 ? BHZ i P c 20230825 2202 29.13840866 GAU 0.00097333 0.0 -480.34424 0.0
M10 ? BHE e S ? 20230825 2202 29.90129662 GAU 0.00134768 0.0 -143.31073 0.0
M08 ? BHZ i P d 20230825 2202 29.21437073 GAU 0.00089845 0.0 771.31040 0.0
M08 ? BHN e S ? 20230825 2202 29.99848938 GAU 0.00098786 0.0 327.80010 0.0
M07 ? BHZ e P d 20230825 2202 29.38569450 GAU 0.00148775 0.0 -227.24664 0.0
M07 ? BHN e S ? 20230825 2202 30.25070953 GAU 0.00069312 0.0 -41.73680 0.0
M01 ? BHZ i P c 20230825 2202 29.42930412 GAU 0.00279455 0.0 -887.38930 0.0
M01 ? BHE e S ? 20230825 2202 30.31820488 GAU 0.00112299 0.0 370.00000 0.0
M12 ? BHZ i P c 20230825 2202 29.59299469 GAU 0.00268259 0.0 -1003.34370 0.0
M12 ? BHE e S ? 20230825 2202 30.64785004 GAU 0.00289701 0.0 -10.41332 0.0

M14 ? BHZ e P d 20230825 2202 42.93716049 GAU 0.00139734 0.0 650.93670 0.0
M14 ? BHE e S ? 20230825 2202 43.48949051 GAU 0.00037311 0.0 391.20276 0.0
M06 ? BHZ i P c 20230825 2202 42.95038223 GAU 0.00263930 0.0 -327.00000 0.0
M06 ? BHE e S ? 20230825 2202 43.48663712 GAU 0.00031344 0.0 -94.49906 0.0
M11 ? BHZ e P c 20230825 2202 42.98888016 GAU 0.00246774 0.0 -458.04730 0.0
M11 ? BHE e S ? 20230825 2202 43.54425812 GAU 0.00037380 0.0 -142.85638 0.0
M09 ? BHZ e P c 20230825 2202 43.19782257 GAU 0.00107807 0.0 -76.60420 0.0
M09 ? BHN e S ? 20230825 2202 43.83227539 GAU 0.00022568 0.0 489.81085 0.0
M13 ? BHZ e P d 20230825 2202 43.33736420 GAU 0.00081108 0.0 158.82414 0.0
M13 ? BHE e S ? 20230825 2202 44.06819153 GAU 0.00098763 0.0 -175.52502 0.0
M07 ? BHZ e P d 20230825 2202 43.58774567 GAU 0.00090552 0.0 -185.98285 0.0
M07 ? BHE e S ? 20230825 2202 44.59741211 GAU 0.00016440 0.0 -121.10920 0.0
M12 ? BHZ i P c 20230825 2202 43.77910995 GAU 0.00139718 0.0 -655.59454 0.0
M12 ? BHN e S ? 20230825 2202 44.87337494 GAU 0.00115207 0.0 -102.00000 0.0

M02 ? BHZ e P c 20230825 2202 52.06852341 GAU 0.00093590 0.0 -1718.44190 0.0
M02 ? BHN e S ? 20230825 2202 52.50287247 GAU 0.00187769 0.0 -1192.65550 0.0
M06 ? BHZ i P c 20230825 2202 52.12692642 GAU 0.00098830 0.0 -257.36667 0.0
M06 ? BHE e S ? 20230825 2202 52.57088089 GAU 0.00032820 0.0 -92.74052 0.0
M14 ? BHZ e P c 20230825 2202 52.18373489 GAU 0.00209649 0.0 -891.53120 0.0
M14 ? BHN e S ? 20230825 2202 52.70333481 GAU 0.00089868 0.0 315.43027 0.0
M11 ? BHZ i P c 20230825 2202 52.23212814 GAU 0.00232890 0.0 -183.64490 0.0
M11 ? BHE e S ? 20230825 2202 52.80458450 GAU 0.00046948 0.0 -144.00000 0.0
M09 ? BHZ i P c 20230825 2202 52.31237793 GAU 0.00057768 0.0 27.74500 0.0
M09 ? BHE e S ? 20230825 2202 52.97113419 GAU 0.00020891 0.0 351.14950 0.0
M13 ? BHZ e P d 20230825 2202 52.46643066 GAU 0.00038309 0.0 145.22957 0.0
M13 ? BHN e S ? 20230825 2202 53.20422745 GAU 0.00029255 0.0 -137.99240 0.0
M01 ? BHZ i P c 20230825 2202 52.72769165 GAU 0.00019154 0.0 -788.84033 0.0
M01 ? BHN e S ? 20230825 2202 53.65372467 GAU 0.00056266 0.0 1719.82950 0.0
M07 ? BHZ i P c 20230825 2202 52.80426407 GAU 0.00042119 0.0 -311.12415 0.0
M07 ? BHN e S ? 20230825 2202 53.79909134 GAU 0.00026997 0.0 -91.90984 0.0
M12 ? BHZ e P c 20230825 2202 52.96911240 GAU 0.00013995 0.0 -651.65857 0.0
M12 ? BHN e S ? 20230825 2202 54.04653549 GAU 0.00098586 0.0 -129.58684 0.0

M06 ? BHZ i P c 20230825 2202 59.05727005 GAU 0.00116445 0.0 435.52203 0.0
M06 ? BHE i S ? 20230825 2202 59.57006454 GAU 0.00129368 0.0 246.34929 0.0
M04 ? BHZ i P c 20230825 2202 59.14904022 GAU 0.00037434 0.0 456.38467 0.0
M04 ? BHN i S ? 20230825 2202 59.56373596 GAU 0.00228232 0.0 521.19257 0.0
M14 ? BHZ i P c 20230825 2202 59.16501617 GAU 0.00223599 0.0 64.54962 0.0
M14 ? BHN e S ? 20230825 2202 59.67220306 GAU 0.00106068 0.0 813.39130 0.0
M11 ? BHZ i P c 20230825 2202 59.18573761 GAU 0.00068632 0.0 -143.49150 0.0
M11 ? BHN e S ? 20230825 2202 59.76209259 GAU 0.00181132 0.0 21.87831 0.0
M02 ? BHZ e P c 20230825 2202 59.21890640 GAU 0.00089849 0.0 -2567.36100 0.0
M02 ? BHE e S ? 20230825 2202 59.73868942 GAU 0.00104820 0.0 -1615.85350 0.0
M09 ? BHZ i P c 20230825 2202 59.28051376 GAU 0.00150936 0.0 279.81950 0.0
M09 ? BHE e S ? 20230825 2202 59.93751907 GAU 0.00089845 0.0 489.62000 0.0
M10 ? BHZ e P c 20230825 2202 59.39867020 GAU 0.00413186 0.0 -917.45715 0.0
M10 ? BHN e S ? 20230825 2202 60.12791772 GAU 0.00101839 0.0 -177.30942 0.0
M13 ? BHZ i P c 20230825 2202 59.40130234 GAU 0.00186299 0.0 -13.81963 0.0
M13 ? BHE e S ? 20230825 2202 60.14799500 GAU 0.00245922 0.0 -295.93860 0.0
M03 ? BHZ i P c 20230825 2202 59.41133499 GAU 0.00109186 0.0 -6200.07300 0.0
M03 ? BHN e S ? 20230825 2202 60.15689850 GAU 0.00375605 0.0 1.71521 0.0
M08 ? BHZ i P d 20230825 2202 59.49626923 GAU 0.00022984 0.0 589.80430 0.0
M08 ? BHN e S ? 20230825 2202 60.30335817 GAU 0.00098832 0.0 326.24870 0.0
M07 ? BHZ i P d 20230825 2202 59.70156479 GAU 0.00225363 0.0 -441.97012 0.0
M07 ? BHE e S ? 20230825 2202 60.62240601 GAU 0.00129369 0.0 -223.97664 0.0
M01 ? BHZ i P c 20230825 2202 59.75775528 GAU 0.00335344 0.0 143.59456 0.0
M01 ? BHN e S ? 20230825 2202 60.72359085 GAU 0.00347494 0.0 1642.96150 0.0
M12 ? BHZ i P d 20230825 2202 59.84191132 GAU 0.00324465 0.0 -629.96326 0.0
M12 ? BHE e S ? 20230825 2202 60.88895798 GAU 0.00336483 0.0 -83.18555 0.0

M06 ? BHZ i P c 20230825 2203 20.21045685 GAU 0.00097329 0.0 -280.14990 0.0
M06 ? BHE e S ? 20230825 2203 20.56822395 GAU 0.00058371 0.0 -135.16571 0.0
M11 ? BHZ e P c 20230825 2203 20.31930542 GAU 0.00103499 0.0 -347.00000 0.0
M11 ? BHN e S ? 20230825 2203 20.65463829 GAU 0.00024070 0.0 -116.81811 0.0
M09 ? BHZ e P c 20230825 2203 20.45142937 GAU 0.00099829 0.0 61.63659 0.0
M09 ? BHE e S ? 20230825 2203 20.96042252 GAU 0.00013931 0.0 347.19333 0.0
M07 ? BHZ e P c 20230825 2203 21.00933075 GAU 0.00043328 0.0 -255.20235 0.0
M07 ? BHN e S ? 20230825 2203 21.87219429 GAU 0.00011034 0.0 -89.98474 0.0

M06 ? BHZ i P c 20230825 2203 25.51977921 GAU 0.00186295 0.0 -366.25308 0.0
M06 ? BHN e S ? 20230825 2203 25.97459793 GAU 0.00104798 0.0 -117.56021 0.0
M14 ? BHZ e P c 20230825 2203 25.55827713 GAU 0.00149742 0.0 -253.89586 0.0
M14 ? BHN e S ? 20230825 2203 26.02169037 GAU 0.00093587 0.0 343.05093 0.0
M11 ? BHZ e P c 20230825 2203 25.62857437 GAU 0.00149039 0.0 -117.26670 0.0
M11 ? BHE e S ? 20230825 2203 26.14005470 GAU 0.00015954 0.0 -122.07993 0.0
M09 ? BHZ e P c 20230825 2203 25.72226715 GAU 0.00106527 0.0 44.42367 0.0
M09 ? BHE e S ? 20230825 2203 26.32261848 GAU 0.00021897 0.0 361.87573 0.0

M06 ? BHZ i P c 20230825 2203 28.10093880 GAU 0.00073557 0.0 -312.28644 0.0
M06 ? BHN e S ? 20230825 2203 28.55553818 GAU 0.00155242 0.0 -120.00000 0.0
M11 ? BHZ e P c 20230825 2203 28.23135567 GAU 0.00060660 0.0 -257.72670 0.0
M11 ? BHN e S ? 20230825 2203 28.73139191 GAU 0.00125768 0.0 -113.00000 0.0
M09 ? BHZ e P c 20230825 2203 28.40885162 GAU 0.00053449 0.0 -4.77298 0.0
M09 ? BHE e S ? 20230825 2203 29.04147530 GAU 0.00048936 0.0 350.07904 0.0
M07 ? BHZ e P d 20230825 2203 28.87983704 GAU 0.00186290 0.0 -160.94069 0.0
M07 ? BHN e S ? 20230825 2203 29.87140465 GAU 0.00024123 0.0 -79.07121 0.0

M06 ? BHZ e P c 20230825 2203 33.10832977 GAU 0.00081114 0.0 -336.29352 0.0
M06 ? BHE e S ? 20230825 2203 33.57057571 GAU 0.00089847 0.0 -146.25555 0.0
M14 ? BHZ e P c 20230825 2203 33.27972412 GAU 0.00260825 0.0 -186.07544 0.0
M14 ? BHN e S ? 20230825 2203 33.86330414 GAU 0.00045134 0.0 327.24066 0.0
M09 ? BHZ e P c 20230825 2203 33.32143021 GAU 0.00090562 0.0 22.51028 0.0
M09 ? BHE e S ? 20230825 2203 34.03033447 GAU 0.00064979 0.0 360.97525 0.0
M11 ? BHZ i P c 20230825 2203 33.35165024 GAU 0.00056323 0.0 -430.58612 0.0
M11 ? BHN e S ? 20230825 2203 33.94537735 GAU 0.00084607 0.0 -93.00000 0.0
M13 ? BHZ e P c 20230825 2203 33.58425903 GAU 0.00054157 0.0 -652.78674 0.0
M13 ? BHE e S ? 20230825 2203 34.32292557 GAU 0.00056766 0.0 -202.00000 0.0
M07 ? BHZ e P c 20230825 2203 33.89386368 GAU 0.00074869 0.0 -332.11032 0.0
M07 ? BHN e S ? 20230825 2203 34.91629410 GAU 0.00041790 0.0 -88.79903 0.0
M12 ? BHZ e P c 20230825 2203 33.93039322 GAU 0.00081109 0.0 -618.00120 0.0
M12 ? BHN e S ? 20230825 2203 35.04444885 GAU 0.00062390 0.0 -130.00000 0.0

M06 ? BHZ i P c 20230825 2203 46.26737213 GAU 0.00056152 0.0 -115.42011 0.0
M06 ? BHN e S ? 20230825 2203 46.78747940 GAU 0.00047654 0.0 -127.82075 0.0
M04 ? BHZ e P d 20230825 2203 46.30398560 GAU 0.00105054 0.0 2044.94250 0.0
M04 ? BHN e S ? 20230825 2203 46.86216354 GAU 0.00064980 0.0 753.00000 0.0
M14 ? BHZ e P c 20230825 2203 46.31074524 GAU 0.00197419 0.0 -668.00000 0.0
M14 ? BHN e S ? 20230825 2203 46.90585327 GAU 0.00059036 0.0 378.50613 0.0
M11 ? BHZ i P c 20230825 2203 46.39487457 GAU 0.00204926 0.0 -323.44843 0.0
M11 ? BHN e S ? 20230825 2203 47.06859589 GAU 0.00041798 0.0 -123.77253 0.0
M09 ? BHZ i P c 20230825 2203 46.47859573 GAU 0.00152744 0.0 10.54435 0.0
