PDB05 ? XN1 e P c 20180524 2244 23.02776 GAU 0.0 0.0 -0.051238146 0.0
PDB05 ? XN1 e S ? 20180524 2244 23.02924 GAU 0.0 0.0 -0.05172303 0.0
PDB06 ? XN1 e P c 20180524 2244 23.02781 GAU 3.9402992E-5 0.0 -0.050760414 0.0
PDB06 ? XN1 e S ? 20180524 2244 23.02927 GAU 0.0 0.0 -0.05156508 0.0
PDB04 ? XN1 e P c 20180524 2244 23.02821 GAU 0.1 0.0 -0.05123315 0.0
PDB04 ? XN1 e S ? 20180524 2244 23.02935 GAU 0.0 0.0 -0.051138587 0.0
PDB07 ? XN1 e P c 20180524 2244 23.02823 GAU 0.0 0.0 -0.051659603 0.0
PDB07 ? XN1 e S ? 20180524 2244 23.02948 GAU 0.0 0.0 -0.051411554 0.0
OT10 ? XN1 e P c 20180524 2244 23.02861 GAU 2.5611947E-4 0.0 -0.053429652 0.0
OT10 ? XN1 e S ? 20180524 2244 23.02922 GAU 0.0 0.0 -0.052255943 0.0
OT08 ? XN1 e P c 20180524 2244 23.02871 GAU 0.0 0.0 -0.051016714 0.0
OT08 ? XN1 e S ? 20180524 2244 23.02933 GAU 0.0 0.0 -0.04823514 0.0
OT09 ? XN1 e P c 20180524 2244 23.02874 GAU 0.0 0.0 -0.054055836 0.0
OT09 ? XN1 e S ? 20180524 2244 23.02917 GAU 0.0 0.0 -0.057368312 0.0
PDB02 ? XN1 e P c 20180524 2244 23.02874 GAU 0.0 0.0 -0.051550813 0.0
PDB02 ? XN1 e S ? 20180524 2244 23.02960 GAU 0.0 0.0 -0.05149138 0.0
OT07 ? XN1 e P c 20180524 2244 23.02876 GAU 0.0 0.0 -0.076815985 0.0
OT07 ? XN1 e S ? 20180524 2244 23.02944 GAU 0.0 0.0 -0.07593221 0.0
OT11 ? XN1 e P c 20180524 2244 23.02884 GAU 0.0 0.0 -0.05784487 0.0
OT11 ? XN1 e S ? 20180524 2244 23.02957 GAU 0.0 0.0 -0.058228068 0.0
OT06 ? XN1 e P c 20180524 2244 23.02914 GAU 0.0 0.0 -0.06594511 0.0
OT06 ? XN1 e S ? 20180524 2244 23.03001 GAU 0.0 0.0 -0.06528477 0.0
PDB03 ? XN1 e P c 20180524 2244 23.02925 GAU 0.0 0.0 -0.05148863 0.0
PDB03 ? XN1 e S ? 20180524 2244 23.02996 GAU 0.0 0.0 -0.05124876 0.0
OT05 ? XN1 e P c 20180524 2244 23.02939 GAU 0.0 0.0 -0.060491536 0.0
OT05 ? XN1 e S ? 20180524 2244 23.03039 GAU 0.0 0.0 -0.057214413 0.0
OT16 ? XNZ e P c 20180524 2244 23.02947 GAU 0.0 0.0 4.145794E-4 0.0
OT16 ? XNZ e S ? 20180524 2244 23.03040 GAU 0.0 0.0 -0.0026105158 0.0
PDB4 ? XNZ e P c 20180524 2244 23.02953 GAU 0.0 0.0 -0.0087627405 0.0
PDB4 ? XNZ e S ? 20180524 2244 23.03035 GAU 0.0 0.0 -0.009448828 0.0
PDB08 ? XN1 e P c 20180524 2244 23.02954 GAU 0.0 0.0 -0.050895408 0.0
PDB08 ? XN1 e S ? 20180524 2244 23.03086 GAU 0.0 0.0 -0.05186624 0.0
PDB01 ? XN1 e P c 20180524 2244 23.02963 GAU 0.0 0.0 -0.050730783 0.0
PDB01 ? XN1 e S ? 20180524 2244 23.03066 GAU 0.0 0.0 -0.051447436 0.0
OT04 ? XN1 e P c 20180524 2244 23.02971 GAU 0.0 0.0 -0.039877906 0.0
OT04 ? XN1 e S ? 20180524 2244 23.03079 GAU 0.0 0.0 -0.03018993 0.0
PDB09 ? XN1 e P c 20180524 2244 23.02982 GAU 0.0 0.0 -0.052695327 0.0
PDB09 ? XN1 e S ? 20180524 2244 23.03119 GAU 0.0 0.0 -0.052944146 0.0
OT03 ? XN1 e P c 20180524 2244 23.03002 GAU 0.0 0.0 -0.03696518 0.0
OT03 ? XN1 e S ? 20180524 2244 23.03116 GAU 0.0 0.0 -0.03873715 0.0
PDB10 ? XN1 e P c 20180524 2244 23.03011 GAU 0.0 0.0 -0.052405056 0.0
PDB10 ? XN1 e S ? 20180524 2244 23.03179 GAU 0.0 0.0 -0.05237901 0.0
PDT1 ? XNZ e P c 20180524 2244 23.03035 GAU 0.0 0.0 -0.019896224 0.0
PDT1 ? XNZ e S ? 20180524 2244 23.03172 GAU 0.0 0.0 -0.01975458 0.0
OT02 ? XN1 e P c 20180524 2244 23.03044 GAU 0.0 0.0 -0.043736212 0.0
OT02 ? XN1 e S ? 20180524 2244 23.03158 GAU 0.0 0.0 -0.044800054 0.0
PDB11 ? XN1 e P c 20180524 2244 23.03056 GAU 0.0 0.0 -0.05236848 0.0
PDB11 ? XN1 e S ? 20180524 2244 23.03265 GAU 0.0 0.0 -0.053340185 0.0
OT01 ? XN1 e P c 20180524 2244 23.03061 GAU 0.0 0.0 -0.06543456 0.0
OT01 ? XN1 e S ? 20180524 2244 23.03201 GAU 0.0 0.0 -0.059429873 0.0
PST10 ? XNZ e P c 20180524 2244 23.03085 GAU 0.0 0.0 0.019308716 0.0
PST10 ? XNZ e S ? 20180524 2244 23.03247 GAU 0.0 0.0 0.018901747 0.0
PDB3 ? XNZ e P c 20180524 2244 23.03092 GAU 0.0 0.0 -0.01674404 0.0
PDB3 ? XNZ e S ? 20180524 2244 23.03321 GAU 0.0 0.0 -0.01726078 0.0
PST12 ? XNZ e P c 20180524 2244 23.03109 GAU 0.0 0.0 0.019523099 0.0
PST12 ? XNZ e S ? 20180524 2244 23.03320 GAU 0.0 0.0 0.017284658 0.0
OB13 ? XNZ e P c 20180524 2244 23.03135 GAU 0.0 0.0 -0.008703686 0.0
OB13 ? XNZ e S ? 20180524 2244 23.03333 GAU 0.0 0.0 -0.008801298 0.0
PSB9 ? XNZ e P c 20180524 2244 23.03142 GAU 0.0 0.0 0.017269308 0.0
PSB9 ? XNZ e S ? 20180524 2244 23.03326 GAU 0.0 0.0 0.01694679 0.0
PSB7 ? XNZ e P c 20180524 2244 23.03144 GAU 0.0 0.0 0.0052079326 0.0
PSB7 ? XNZ e S ? 20180524 2244 23.03330 GAU 0.0 0.0 0.00522807 0.0
PDB6 ? XNZ e P c 20180524 2244 23.03192 GAU 0.0 0.0 0.012962638 0.0
PDB6 ? XNZ e S ? 20180524 2244 23.03354 GAU 0.0 0.0 0.0128793055 0.0
OB15 ? XNZ e P c 20180524 2244 23.03276 GAU 0.0 0.0 -0.003084409 0.0
OB15 ? XNZ e S ? 20180524 2244 23.03548 GAU 0.0 0.0 -0.0030503331 0.0

