OT09 ? XN1 e P c 20180524 2244 22.86530 GAU 0.0 0.0 -0.030677693 0.0
OT09 ? XN1 e S ? 20180524 2244 22.86591 GAU 0.0 0.0 -0.03287354 0.0
OT10 ? XN1 e P c 20180524 2244 22.86538 GAU 0.0 0.0 -0.07842532 0.0
OT10 ? XN1 e S ? 20180524 2244 22.86570 GAU 0.0 0.0 -0.07943928 0.0
OT08 ? XN1 e P c 20180524 2244 22.86556 GAU 0.0 0.0 -0.047055494 0.0
OT08 ? XN1 e S ? 20180524 2244 22.86612 GAU 0.0 0.0 -0.04725918 0.0
OT11 ? XN1 e P c 20180524 2244 22.86559 GAU 0.0 0.0 -0.06574629 0.0
OT11 ? XN1 e S ? 20180524 2244 22.86591 GAU 0.0 0.0 -0.06825435 0.0
OT07 ? XN1 e P c 20180524 2244 22.86603 GAU 0.0 0.0 -0.0448621 0.0
OT07 ? XN1 e S ? 20180524 2244 22.86666 GAU 0.0 0.0 -0.046107672 0.0
OT06 ? XN1 e P c 20180524 2244 22.86652 GAU 0.0 0.0 -0.051831678 0.0
OT06 ? XN1 e S ? 20180524 2244 22.86721 GAU 0.0 0.0 -0.055095017 0.0
OT16 ? XNZ e P c 20180524 2244 22.86655 GAU 0.0 0.0 -3.2935728E-4 0.0
OT16 ? XNZ e S ? 20180524 2244 22.86718 GAU 0.0 0.0 -4.5684076E-4 0.0
OT05 ? XN1 e P c 20180524 2244 22.86683 GAU 0.0 0.0 -0.048328005 0.0
OT05 ? XN1 e S ? 20180524 2244 22.86763 GAU 0.0 0.0 -0.047091845 0.0
PDB04 ? XN1 e P c 20180524 2244 22.86685 GAU 0.0 0.0 -0.05134725 0.0
PDB04 ? XN1 e S ? 20180524 2244 22.86765 GAU 0.0 0.0 -0.051065397 0.0
PDB4 ? XNZ e P c 20180524 2244 22.86692 GAU 0.0 0.0 -0.00814298 0.0
PDB4 ? XNZ e S ? 20180524 2244 22.86757 GAU 0.0 0.0 -0.008960856 0.0
PDB05 ? XN1 e P c 20180524 2244 22.86692 GAU 0.0 0.0 -0.05081073 0.0
PDB05 ? XN1 e S ? 20180524 2244 22.86777 GAU 0.0 0.0 -0.050922245 0.0
PDB02 ? XN1 e P c 20180524 2244 22.86699 GAU 0.0 0.0 -0.051315907 0.0
PDB02 ? XN1 e S ? 20180524 2244 22.86760 GAU 0.0 0.0 -0.05157695 0.0
PDB06 ? XN1 e P c 20180524 2244 22.86709 GAU 0.0 0.0 -0.050853234 0.0
PDB06 ? XN1 e S ? 20180524 2244 22.86808 GAU 0.0 0.0 -0.050757237 0.0
PDB07 ? XN1 e P c 20180524 2244 22.86717 GAU 0.0 0.0 -0.05123391 0.0
PDB07 ? XN1 e S ? 20180524 2244 22.86827 GAU 0.0 0.0 -0.051160365 0.0
OT04 ? XN1 e P c 20180524 2244 22.86724 GAU 0.0 0.0 -0.07421831 0.0
OT04 ? XN1 e S ? 20180524 2244 22.86825 GAU 0.0 0.0 -0.08908433 0.0
PDB01 ? XN1 e P c 20180524 2244 22.86726 GAU 0.0 0.0 -0.05056259 0.0
PDB01 ? XN1 e S ? 20180524 2244 22.86777 GAU 0.0 0.0 -0.050846096 0.0
OT03 ? XN1 e P c 20180524 2244 22.86730 GAU 0.0 0.0 -0.05781636 0.0
OT03 ? XN1 e S ? 20180524 2244 22.86880 GAU 0.0 0.0 -0.05916302 0.0
PDB03 ? XN1 e P c 20180524 2244 22.86730 GAU 0.0 0.0 -0.051313806 0.0
PDB03 ? XN1 e S ? 20180524 2244 22.86771 GAU 0.0 0.0 -0.051447492 0.0
PDB08 ? XN1 e P c 20180524 2244 22.86742 GAU 0.0 0.0 -0.051485926 0.0
PDB08 ? XN1 e S ? 20180524 2244 22.86926 GAU 0.0 0.0 -0.05113391 0.0
PDB09 ? XN1 e P c 20180524 2244 22.86763 GAU 0.0 0.0 -0.052805897 0.0
PDB09 ? XN1 e S ? 20180524 2244 22.86913 GAU 0.0 0.0 -0.05265096 0.0
OT02 ? XN1 e P c 20180524 2244 22.86769 GAU 0.0 0.0 -0.048343334 0.0
OT02 ? XN1 e S ? 20180524 2244 22.86920 GAU 0.0 0.0 -0.046090636 0.0
PDB10 ? XN1 e P c 20180524 2244 22.86793 GAU 0.0 0.0 -0.05232873 0.0
PDB10 ? XN1 e S ? 20180524 2244 22.86986 GAU 0.0 0.0 -0.05237357 0.0
PDT1 ? XNZ e P c 20180524 2244 22.86797 GAU 0.0 0.0 -0.020033332 0.0
PDT1 ? XNZ e S ? 20180524 2244 22.86955 GAU 0.0 0.0 -0.01886354 0.0
OT01 ? XN1 e P c 20180524 2244 22.86798 GAU 0.0 0.0 -0.0055249957 0.0
OT01 ? XN1 e S ? 20180524 2244 22.86961 GAU 0.0 0.0 -0.0075299824 0.0
PST12 ? XNZ e P c 20180524 2244 22.86823 GAU 0.0 0.0 0.0192183 0.0
PST12 ? XNZ e S ? 20180524 2244 22.86988 GAU 0.0 0.0 0.02064625 0.0
PDB11 ? XN1 e P c 20180524 2244 22.86830 GAU 0.0 0.0 -0.052507862 0.0
PDB11 ? XN1 e S ? 20180524 2244 22.87052 GAU 0.0 0.0 -0.052393153 0.0
PSB9 ? XNZ e P c 20180524 2244 22.86841 GAU 0.0 0.0 0.017322233 0.0
PSB9 ? XNZ e S ? 20180524 2244 22.87039 GAU 0.0 0.0 0.017031955 0.0
PST10 ? XNZ e P c 20180524 2244 22.86846 GAU 0.0 0.0 0.01864689 0.0
PST10 ? XNZ e S ? 20180524 2244 22.87049 GAU 0.0 0.0 0.01905614 0.0
OB13 ? XNZ e P c 20180524 2244 22.86874 GAU 0.0 0.0 -0.0086880205 0.0
OB13 ? XNZ e S ? 20180524 2244 22.87053 GAU 0.0 0.0 -0.00891187 0.0
PDB3 ? XNZ e P c 20180524 2244 22.86890 GAU 0.0 0.0 -0.016372157 0.0
PDB3 ? XNZ e S ? 20180524 2244 22.87036 GAU 0.0 0.0 -0.01687796 0.0
PDB6 ? XNZ e P c 20180524 2244 22.86905 GAU 0.0 0.0 0.012968032 0.0
PDB6 ? XNZ e S ? 20180524 2244 22.87032 GAU 0.0 0.0 0.012964753 0.0
PSB7 ? XNZ e P c 20180524 2244 22.86934 GAU 0.0 0.0 0.004598606 0.0
PSB7 ? XNZ e S ? 20180524 2244 22.87112 GAU 0.0 0.0 0.0051412787 0.0
OB15 ? XNZ e P c 20180524 2244 22.87019 GAU 0.0 0.0 -0.0029483833 0.0
OB15 ? XNZ e S ? 20180524 2244 22.87307 GAU 0.0 0.0 -0.0032438082 0.0

