PDB04 ? XN1 e P c 20180524 2243 10.03994 GAU 0.0 0.0 -0.050900366 0.0
PDB04 ? XN1 e S ? 20180524 2243 10.04035 GAU 0.0 0.0 -0.05080859 0.0
PDB03 ? XN1 e P c 20180524 2243 10.03996 GAU 0.0 0.0 -0.05102379 0.0
PDB03 ? XN1 e S ? 20180524 2243 10.04035 GAU 0.0 0.0 -0.052691936 0.0
PDB02 ? XN1 e P c 20180524 2243 10.04004 GAU 0.0 0.0 -0.050758015 0.0
PDB02 ? XN1 e S ? 20180524 2243 10.04070 GAU 0.0 0.0 -0.051992107 0.0
PDB05 ? XN1 e P c 20180524 2243 10.04009 GAU 0.0 0.0 -0.050164245 0.0
PDB05 ? XN1 e S ? 20180524 2243 10.04051 GAU 0.0 0.0 -0.0504531 0.0
PDB4 ? XNZ e P c 20180524 2243 10.04010 GAU 0.0 0.0 -0.0076837977 0.0
PDB4 ? XNZ e S ? 20180524 2243 10.04057 GAU 0.0 0.0 -0.017011464 0.0
PDB01 ? XN1 e P c 20180524 2243 10.04035 GAU 0.0 0.0 -0.051490232 0.0
PDB01 ? XN1 e S ? 20180524 2243 10.04101 GAU 0.0 0.0 -0.05051084 0.0
PDB06 ? XN1 e P c 20180524 2243 10.04037 GAU 0.0 0.0 -0.051112857 0.0
PDB06 ? XN1 e S ? 20180524 2243 10.04088 GAU 0.0 0.0 -0.051991206 0.0
OT09 ? XN1 e P c 20180524 2243 10.04045 GAU 0.0 0.0 -0.05344317 0.0
OT09 ? XN1 e S ? 20180524 2243 10.04135 GAU 0.0 0.0 -0.050039995 0.0
OT08 ? XN1 e P c 20180524 2243 10.04048 GAU 0.0 0.0 -0.05373892 0.0
OT08 ? XN1 e S ? 20180524 2243 10.04146 GAU 0.0 0.0 -0.05509965 0.0
PDB07 ? XN1 e P c 20180524 2243 10.04050 GAU 0.0 0.0 -0.051656753 0.0
PDB07 ? XN1 e S ? 20180524 2243 10.04139 GAU 0.0 0.0 -0.0511989 0.0
OT11 ? XN1 e P c 20180524 2243 10.04053 GAU 0.0 0.0 -0.049548276 0.0
OT11 ? XN1 e S ? 20180524 2243 10.04138 GAU 0.0 0.0 -0.047737498 0.0
OT07 ? XN1 e P c 20180524 2243 10.04070 GAU 0.0 0.0 -0.046657626 0.0
OT07 ? XN1 e S ? 20180524 2243 10.04161 GAU 0.0 0.0 -0.05174493 0.0
OT06 ? XN1 e P c 20180524 2243 10.04077 GAU 6.8382074E-6 0.0 -0.06109132 0.0
OT06 ? XN1 e S ? 20180524 2243 10.04182 GAU 0.0 0.0 -0.053749446 0.0
OT16 ? XNZ e P c 20180524 2243 10.04079 GAU 0.0 0.0 -0.0026166204 0.0
OT16 ? XNZ e S ? 20180524 2243 10.04204 GAU 0.0 0.0 -6.966792E-4 0.0
PDB08 ? XN1 e P c 20180524 2243 10.04084 GAU 0.0 0.0 -0.05115846 0.0
PDB08 ? XN1 e S ? 20180524 2243 10.04196 GAU 0.0 0.0 -0.051279996 0.0
OT05 ? XN1 e P c 20180524 2243 10.04105 GAU 0.0 0.0 -0.06718655 0.0
OT05 ? XN1 e S ? 20180524 2243 10.04213 GAU 0.0 0.0 -0.068897985 0.0
PDB09 ? XN1 e P c 20180524 2243 10.04120 GAU 0.0 0.0 -0.052075896 0.0
PDB09 ? XN1 e S ? 20180524 2243 10.04264 GAU 0.0 0.0 -0.052754153 0.0
OT04 ? XN1 e P c 20180524 2243 10.04129 GAU 0.0 0.0 -0.017519742 0.0
OT04 ? XN1 e S ? 20180524 2243 10.04259 GAU 0.0 0.0 -0.031662364 0.0
OT18 ? XNZ e P c 20180524 2243 10.04131 GAU 0.0 0.0 -0.004443004 0.0
OT18 ? XNZ e S ? 20180524 2243 10.04215 GAU 1.1820898E-5 0.0 -0.0051480415 0.0
PDB10 ? XN1 e P c 20180524 2243 10.04143 GAU 0.0 0.0 -0.052717928 0.0
PDB10 ? XN1 e S ? 20180524 2243 10.04281 GAU 0.0 0.0 -0.05202145 0.0
OT03 ? XN1 e P c 20180524 2243 10.04157 GAU 0.0 0.0 -0.05653798 0.0
OT03 ? XN1 e S ? 20180524 2243 10.04300 GAU 0.0 0.0 -0.055389084 0.0
PDT1 ? XNZ e P c 20180524 2243 10.04206 GAU 0.0 0.0 -0.019770209 0.0
PDT1 ? XNZ e S ? 20180524 2243 10.04393 GAU 0.0 0.0 -0.018954014 0.0
OB13 ? XNZ e P c 20180524 2243 10.04209 GAU 0.0 0.0 -0.008405745 0.0
OB13 ? XNZ e S ? 20180524 2243 10.04350 GAU 0.0 0.0 -0.007953087 0.0
OT02 ? XN1 e P c 20180524 2243 10.04210 GAU 0.0 0.0 -0.048246536 0.0
OT02 ? XN1 e S ? 20180524 2243 10.04347 GAU 0.0 0.0 -0.050000057 0.0
OT01 ? XN1 e P c 20180524 2243 10.04218 GAU 0.0 0.0 -0.04125272 0.0
OT01 ? XN1 e S ? 20180524 2243 10.04378 GAU 0.0 0.0 -0.03712026 0.0
PST12 ? XNZ e P c 20180524 2243 10.04245 GAU 0.0 0.0 0.018649265 0.0
PST12 ? XNZ e S ? 20180524 2243 10.04414 GAU 0.0 0.0 0.018490301 0.0
PSB9 ? XNZ e P c 20180524 2243 10.04252 GAU 1.4185078E-5 0.0 0.017020583 0.0
PSB9 ? XNZ e S ? 20180524 2243 10.04448 GAU 0.0 0.0 0.017194703 0.0
PST10 ? XNZ e P c 20180524 2243 10.04271 GAU 0.0 0.0 0.018276807 0.0
PST10 ? XNZ e S ? 20180524 2243 10.04413 GAU 8.208957E-6 0.0 0.016747935 0.0
PSB7 ? XNZ e P c 20180524 2243 10.04283 GAU 0.0 0.0 0.004963053 0.0
PSB7 ? XNZ e S ? 20180524 2243 10.04560 GAU 0.0 0.0 0.004297964 0.0
PDB3 ? XNZ e P c 20180524 2243 10.04288 GAU 0.0 0.0 -0.016730992 0.0
PDB3 ? XNZ e S ? 20180524 2243 10.04377 GAU 0.0 0.0 -0.016586661 0.0
PDB6 ? XNZ e P c 20180524 2243 10.04311 GAU 0.0 0.0 0.012548499 0.0
PDB6 ? XNZ e S ? 20180524 2243 10.04563 GAU 0.0 0.0 0.013501576 0.0
OB15 ? XNZ e P c 20180524 2243 10.04412 GAU 2.3652554E-5 0.0 -0.002653431 0.0
OB15 ? XNZ e S ? 20180524 2243 10.04597 GAU 0.0 0.0 -0.003097965 0.0


