M01 ? BHZ e P c 20220201 0953 53.87492752 GAU 0.0 0.0 -3911.61450 0.0
M01 ? BHN e S ? 20220201 0953 54.01062012 GAU 0.0 0.0 94.54335 0.0
M03 ? BHZ e P c 20220201 0953 53.97679520 GAU 0.0 0.0 2422.76170 0.0
M03 ? BHN e S ? 20220201 0953 54.14646530 GAU 0.0 0.0 3402.33700 0.0
M13 ? BHZ e P c 20220201 0953 54.72200012 GAU 0.0 0.0 -2198.42110 0.0
M13 ? BHN i S d 20220201 0953 54.93972015 GAU 0.0 0.0 350.86105 0.0
M11 ? BHZ e P c 20220201 0953 56.84841156 GAU 0.0 0.0 -918.73230 0.0
M11 ? BHN i S d 20220201 0953 57.14002609 GAU 0.0 0.0 1333.14870 0.0

M02 ? BHZ e P c 20220201 1011 28.00666618 GAU 0.0 0.0 -6120.23100 0.0
M02 ? BHN i S d 20220201 1011 28.19857216 GAU 0.0 0.0 -25156.25200 0.0
M03 ? BHZ e P c 20220201 1011 30.30282211 GAU 0.0 0.0 -899.55273 0.0
M03 ? BHN e S ? 20220201 1011 30.56946754 GAU 0.0 0.0 -6616.14940 0.0
M06 ? BHZ e P c 20220201 1011 30.67968941 GAU 0.0 0.0 -834.73460 0.0
M06 ? BHN e S c 20220201 1011 30.97182846 GAU 0.0 0.0 -2568.26050 0.0
M11 ? BHZ e P c 20220201 1011 32.49087524 GAU 0.0 0.0 -124.39498 0.0
M11 ? BHN i S d 20220201 1011 32.87899399 GAU 0.0 0.0 -531.71576 0.0

M02 ? BHZ e P c 20220201 1025 47.08670044 GAU 0.0 0.0 1040.89010 0.0
M02 ? BHN e S ? 20220201 1025 47.25049973 GAU 0.0 0.0 -13401.42500 0.0
M10 ? BHZ e P c 20220201 1025 48.44267654 GAU 0.0 0.0 3306.24540 0.0
M10 ? BHN e S ? 20220201 1025 48.72279358 GAU 0.0 0.0 -2108.69900 0.0
M06 ? BHZ e P c 20220201 1025 48.46277618 GAU 0.0 0.0 1770.95840 0.0
M06 ? BHN i S c 20220201 1025 48.76262665 GAU 0.0 0.0 -1534.12370 0.0
M11 ? BHZ e P c 20220201 1025 49.63074493 GAU 0.0 0.0 1508.52450 0.0
M11 ? BHN e S ? 20220201 1025 50.08116913 GAU 0.0 0.0 -1898.82000 0.0

M14 ? BHZ i P c 20220202 0842 40.08263016 GAU 0.0 0.0 -830.94727 0.0
M14 ? BHN e S c 20220202 0842 40.51021576 GAU 0.0 0.0 -1216.39420 0.0
M06 ? BHZ i P c 20220202 0842 40.24880981 GAU 0.0 0.0 -54.44774 0.0
M06 ? BHN i S c 20220202 0842 40.77975464 GAU 0.0 0.0 -2586.25500 0.0
M11 ? BHZ i P c 20220202 0842 40.37863159 GAU 0.0 0.0 351.34637 0.0
M11 ? BHN i S c 20220202 0842 40.98445511 GAU 0.0 0.0 -503.80060 0.0
M02 ? BHZ e P c 20220202 0842 40.42367172 GAU 0.0 0.0 1461.78740 0.0
M02 ? BHN i S d 20220202 0842 41.05466461 GAU 0.0 0.0 -1765.38890 0.0
M13 ? BHZ i P d 20220202 0842 40.63779068 GAU 0.0 0.0 490.06934 0.0
M13 ? BHN e S ? 20220202 0842 41.58760452 GAU 0.0 0.0 -4125.88100 0.0

M06 ? BHZ i P c 20220202 0843 25.12247086 GAU 0.0 0.0 51.96553 0.0
M06 ? BHN i S c 20220202 0843 25.61350060 GAU 0.0 0.0 2056.20240 0.0
M14 ? BHZ i P c 20220202 0843 25.20617294 GAU 0.0 0.0 -922.00370 0.0
M14 ? BHN i S d 20220202 0843 25.78721809 GAU 0.0 0.0 -20097.15800 0.0
M11 ? BHZ i P c 20220202 0843 25.24601173 GAU 0.0 0.0 -296.33273 0.0
M11 ? BHN i S c 20220202 0843 25.86692047 GAU 0.0 0.0 -736.26690 0.0
M02 ? BHZ e P c 20220202 0843 25.26536369 GAU 0.0 0.0 502.20508 0.0
M02 ? BHN i S d 20220202 0843 25.86299896 GAU 0.0 0.0 5465.12100 0.0
M13 ? BHZ i P c 20220202 0843 25.48286057 GAU 0.0 0.0 -209.39386 0.0
M13 ? BHN i S c 20220202 0843 26.45150948 GAU 0.0 0.0 -4817.65670 0.0

M08 ? BHZ e P c 20220202 1612 53.31634903 GAU 0.0 0.0 -186.63478 0.0
M08 ? BHN e S c 20220202 1612 53.62732697 GAU 0.0 0.0 -745.32410 0.0
M11 ? BHZ e P c 20220202 1612 53.77098465 GAU 0.0 0.0 -493.87198 0.0
M11 ? BHN i S d 20220202 1612 54.10976028 GAU 0.0 0.0 882.52730 0.0
M06 ? BHZ e P c 20220202 1612 55.42102814 GAU 0.0 0.0 78.46661 0.0
M06 ? BHN e S ? 20220202 1612 55.92998886 GAU 0.0 0.0 -1185.22050 0.0
M05 ? BHZ e P c 20220202 1612 58.16494370 GAU 0.0 0.0 182.96413 0.0
M05 ? BHN i S d 20220202 1612 59.04209900 GAU 0.0 0.0 91.42162 0.0

M15 ? BHZ e P c 20220202 1627 27.12168694 GAU 0.0 0.0 -1004.11500 0.0
M15 ? BHN i S c 20220202 1627 27.34191513 GAU 0.0 0.0 -215.71169 0.0
M11 ? BHZ e P c 20220202 1627 28.24285507 GAU 0.0 0.0 -487.34310 0.0
M11 ? BHN e S c 20220202 1627 28.56182480 GAU 0.0 0.0 -291.72552 0.0
M06 ? BHZ e P c 20220202 1627 29.26751137 GAU 0.0 0.0 -343.50470 0.0
M06 ? BHN e S ? 20220202 1627 29.63624573 GAU 0.0 0.0 -279.85630 0.0
M13 ? BHZ e P c 20220202 1627 31.51941872 GAU 0.0 0.0 -625.41980 0.0
M13 ? BHN i S c 20220202 1627 31.99115944 GAU 0.0 0.0 -907.02594 0.0

M05 ? BHZ e P c 20220202 1632 52.42190170 GAU 0.0 0.0 354.26940 0.0
M05 ? BHN e S c 20220202 1632 52.80431366 GAU 0.0 0.0 -2305.46220 0.0
M10 ? BHZ e P c 20220202 1632 52.90326309 GAU 0.0 0.0 -786.55140 0.0
M10 ? BHN e S ? 20220202 1632 53.40571594 GAU 0.0 0.0 -1959.83680 0.0
M13 ? BHZ e P c 20220202 1632 53.82007980 GAU 0.0 0.0 -350.21674 0.0
M13 ? BHN e S c 20220202 1632 54.46127319 GAU 0.0 0.0 -0.05653 0.0
M11 ? BHZ e P c 20220202 1632 56.18906403 GAU 0.0 0.0 15.61488 0.0
M11 ? BHN i S c 20220202 1632 57.11042786 GAU 0.0 0.0 -809.75670 0.0

M13 ? BHZ e P c 20220202 1827 55.09303665 GAU 0.0 0.0 1329.76400 0.0
M13 ? BHN i S c 20220202 1827 55.36966324 GAU 0.0 0.0 223.53363 0.0
M11 ? BHZ e P c 20220202 1827 55.09660339 GAU 0.0 0.0 -465.91556 0.0
M11 ? BHN e S ? 20220202 1827 55.36741638 GAU 0.0 0.0 -47.40033 0.0
M05 ? BHZ i P c 20220202 1827 55.65515137 GAU 0.0 0.0 -379.19534 0.0
M05 ? BHN e S ? 20220202 1827 55.92885208 GAU 0.0 0.0 134.29874 0.0
M06 ? BHZ e P c 20220202 1827 58.64880371 GAU 0.0 0.0 259.66815 0.0
M06 ? BHN i S d 20220202 1827 58.93453979 GAU 0.0 0.0 421.37097 0.0

M05 ? BHZ e P c 20220203 1124 45.11576080 GAU 0.0 0.0 -105.29356 0.0
M05 ? BHN i S c 20220203 1124 45.34526825 GAU 0.0 0.0 572.53940 0.0
M06 ? BHZ e P c 20220203 1124 49.45173264 GAU 0.0 0.0 -294.74356 0.0
M06 ? BHN e S c 20220203 1124 49.89313507 GAU 0.0 0.0 342.28342 0.0
M11 ? BHZ i P d 20220203 1124 49.48624420 GAU 0.0 0.0 118.34493 0.0
M11 ? BHN i S d 20220203 1124 49.99541855 GAU 0.0 0.0 -290.86707 0.0
M08 ? BHZ i P d 20220203 1124 49.61577988 GAU 0.0 0.0 266.67416 0.0
M08 ? BHN e S ? 20220203 1124 50.14220810 GAU 0.0 0.0 -398.50186 0.0

M08 ? BHZ e P c 20220203 1824 44.91970062 GAU 0.0 0.0 49.08185 0.0
M08 ? BHN e P c 20220203 1824 45.14325333 GAU 0.0 0.0 -754.24115 0.0
M13 ? BHZ e P c 20220203 1824 48.65512085 GAU 0.0 0.0 -352.41684 0.0
M13 ? BHN i S d 20220203 1824 49.00629807 GAU 0.0 0.0 -53.90035 0.0
M05 ? BHZ e P c 20220203 1824 49.66470718 GAU 0.0 0.0 82.51802 0.0
M05 ? BHN e S ? 20220203 1824 49.98848343 GAU 0.0 0.0 -47.45336 0.0
M06 ? BHZ e P c 20220203 1824 50.75674438 GAU 0.0 0.0 -252.11096 0.0
M06 ? BHN i S d 20220203 1824 51.12508392 GAU 0.0 0.0 260.22845 0.0

M11 ? BHZ e P c 20220203 2129 40.30478668 GAU 0.0 0.0 -248.47412 0.0
M11 ? BHN e S ? 20220203 2129 40.60369873 GAU 0.0 0.0 353.47678 0.0
M13 ? BHZ i P d 20220203 2129 42.27781296 GAU 0.0 0.0 -13.53224 0.0
M13 ? BHN i S c 20220203 2129 42.61771011 GAU 0.0 0.0 -668.95710 0.0
M03 ? BHZ e P c 20220203 2129 44.02798080 GAU 0.0 0.0 176.90694 0.0
M03 ? BHN e S ? 20220203 2129 44.39878845 GAU 0.0 0.0 -3381.16460 0.0
M05 ? BHZ e P c 20220203 2129 44.31646347 GAU 0.0 0.0 351.18726 0.0
M05 ? BHN i S d 20220203 2129 44.70529175 GAU 0.0 0.0 748.35320 0.0

M02 ? BHZ e P c 20220204 0723 49.06238174 GAU 0.0 0.0 -544.83200 0.0
M02 ? BHN i S d 20220204 0723 50.07504654 GAU 0.0 0.0 -1717.62120 0.0
M14 ? BHZ e P c 20220204 0723 49.08457184 GAU 0.0 0.0 55.43589 0.0
M14 ? BHN e S ? 20220204 0723 50.12219238 GAU 0.0 0.0 648.04870 0.0
M06 ? BHZ e P c 20220204 0723 49.28043365 GAU 0.0 0.0 47.39373 0.0
M06 ? BHN i S d 20220204 0723 50.39155579 GAU 0.0 0.0 -236.45453 0.0
M11 ? BHZ e P c 20220204 0723 49.31839752 GAU 0.0 0.0 -542.41440 0.0
M11 ? BHN i S c 20220204 0723 50.45996475 GAU 0.0 0.0 -985.35144 0.0

M05 ? BHZ e P c 20220213 1555 29.43566322 GAU 0.0 0.0 -6.36227 0.0
M05 ? BHN i S c 20220213 1555 30.96842384 GAU 0.0 0.0 -96.62503 0.0
M13 ? BHZ e P c 20220213 1555 29.49584198 GAU 0.0 0.0 -283.00850 0.0
M13 ? BHN e S ? 20220213 1555 31.06718826 GAU 0.0 0.0 -378.19284 0.0
M08 ? BHZ i P c 20220213 1555 29.74223709 GAU 0.0 0.0 49.32641 0.0
M08 ? BHN i S c 20220213 1555 31.45533752 GAU 0.0 0.0 -263.04486 0.0
M11 ? BHZ e P c 20220213 1555 29.90470123 GAU 0.0 0.0 -461.25900 0.0
M11 ? BHN e S ? 20220213 1555 31.86357307 GAU 0.0 0.0 165.76622 0.0

M06 ? BHZ i P c 20220213 2045 28.11198425 GAU 0.0 0.0 111.90321 0.0
M06 ? BHN i S d 20220213 2045 29.30772209 GAU 0.0 0.0 -2589.98410 0.0
M11 ? BHZ e P c 20220213 2045 28.40939331 GAU 0.0 0.0 -1.37642 0.0
M11 ? BHN e S ? 20220213 2045 29.82259369 GAU 0.0 0.0 2558.10720 0.0
M13 ? BHZ e P c 20220213 2045 28.57690620 GAU 0.0 0.0 188.88434 0.0
M13 ? BHN i S c 20220213 2045 30.17517853 GAU 0.0 0.0 -795.88880 0.0
M08 ? BHZ e P c 20220213 2045 28.85284424 GAU 0.0 0.0 160.51578 0.0
M08 ? BHN i S d 20220213 2045 30.59300804 GAU 0.0 0.0 -224.93188 0.0

M04 ? BHZ e P c 20220213 2052 35.62838745 GAU 0.0 0.0 -3358.59720 0.0
M04 ? BHN e S ? 20220213 2052 37.15457153 GAU 0.0 0.0 -499.23892 0.0
M06 ? BHZ e P c 20220213 2052 35.89332581 GAU 0.0 0.0 53.93344 0.0
M06 ? BHN e S c 20220213 2052 37.71339417 GAU 0.0 0.0 -867.64020 0.0
M02 ? BHZ e P c 20220213 2052 36.18409348 GAU 0.0 0.0 -1535.52420 0.0
M02 ? BHN e S ? 20220213 2052 38.16669846 GAU 0.0 0.0 -3644.87500 0.0
M13 ? BHZ e P c 20220213 2052 36.46810913 GAU 0.0 0.0 17.34271 0.0
M13 ? BHN e S ? 20220213 2052 38.66428375 GAU 0.0 0.0 624.53235 0.0
M08 ? BHZ e P c 20220213 2052 36.75194931 GAU 0.0 0.0 219.30396 0.0
M08 ? BHN e S ? 20220213 2052 39.24874115 GAU 0.0 0.0 -829.80927 0.0

M06 ? BHZ e P c 20220213 2055 59.48365784 GAU 0.0 0.0 -498.79490 0.0
M06 ? BHN i S d 20220213 2056  0.74811888 GAU 0.0 0.0 760.63324 0.0
M04 ? BHZ e P d 20220213 2055 59.51846695 GAU 0.0 0.0 190.01878 0.0
M04 ? BHN i S d 20220213 2056  0.75764036 GAU 0.0 0.0 -5624.07800 0.0
M02 ? BHZ e P c 20220213 2055 59.55602646 GAU 0.0 0.0 -881.73680 0.0
M02 ? BHN e S ? 20220213 2056  0.74254614 GAU 0.0 0.0 -6574.88670 0.0
M14 ? BHZ e P c 20220213 2055 59.56859207 GAU 0.0 0.0 568.15216 0.0
M14 ? BHN i S c 20220213 2056  0.79833740 GAU 0.0 0.0 3912.29660 0.0
M11 ? BHZ e P d 20220213 2055 59.73454285 GAU 0.0 0.0 -367.29788 0.0
M11 ? BHN i S d 20220213 2056  1.18113816 GAU 0.0 0.0 729.76250 0.0
M13 ? BHZ e P c 20220213 2055 59.93253326 GAU 0.0 0.0 -543.36240 0.0
M13 ? BHN i S d 20220213 2056  1.60968292 GAU 0.0 0.0 556.13324 0.0
M05 ? BHZ e P c 20220213 2056  0.20282154 GAU 0.0 0.0 -753.97490 0.0
M05 ? BHN e S c 20220213 2056  1.97429228 GAU 0.0 0.0 -2189.30790 0.0
M08 ? BHZ e P c 20220213 2056  0.28363112 GAU 0.0 0.0 104.19348 0.0
M08 ? BHN i S d 20220213 2056  2.16261601 GAU 0.0 0.0 132.00397 0.0

M06 ? BHZ i P c 20220216 0856 17.76451874 GAU 0.0 0.0 467.40134 0.0
M06 ? BHN i S c 20220216 0856 18.27553368 GAU 0.0 0.0 -29708.03500 0.0
M04 ? BHZ i P c 20220216 0856 17.84549332 GAU 0.0 0.0 -247.99747 0.0
M04 ? BHN i S c 20220216 0856 18.35285568 GAU 0.0 0.0 -3646.68430 0.0
M14 ? BHZ i P c 20220216 0856 17.90278625 GAU 0.0 0.0 15149.77700 0.0
M14 ? BHN e S ? 20220216 0856 18.63363647 GAU 0.0 0.0 -72110.99000 0.0
M11 ? BHZ i P c 20220216 0856 17.90789986 GAU 0.0 0.0 72.53084 0.0
M11 ? BHN i S c 20220216 0856 18.57649231 GAU 0.0 0.0 -28003.65400 0.0
M02 ? BHZ i P d 20220216 0856 17.93013000 GAU 0.0 0.0 4641.22200 0.0
M02 ? BHN i S d 20220216 0856 18.49568176 GAU 0.0 0.0 87127.31000 0.0
M03 ? BHZ i P d 20220216 0856 18.08889389 GAU 0.0 0.0 -178.35120 0.0
M03 ? BHN e S ? 20220216 0856 18.98275566 GAU 0.0 0.0 -26.54373 0.0
M13 ? BHZ i P c 20220216 0856 18.12590027 GAU 0.0 0.0 -180.84203 0.0
M13 ? BHN e S ? 20220216 0856 18.95240402 GAU 0.0 0.0 3889.80790 0.0
M10 ? BHZ i P c 20220216 0856 18.24390030 GAU 0.0 0.0 1620.54500 0.0
M10 ? BHN e S ? 20220216 0856 19.18157005 GAU 0.0 0.0 48248.13300 0.0
M08 ? BHZ i P d 20220216 0856 18.24962234 GAU 0.0 0.0 199.63983 0.0
M08 ? BHN i S c 20220216 0856 19.25794411 GAU 0.0 0.0 -2704.50170 0.0
M05 ? BHZ i P c 20220216 0856 18.41399956 GAU 0.0 0.0 -2983.77610 0.0
M05 ? BHN i S c 20220216 0856 19.46785736 GAU 0.0 0.0 -2339.11470 0.0

M06 ? BHZ i P c 20220216 0856 49.07779694 GAU 0.0 0.0 7728.81540 0.0
M06 ? BHN i S c 20220216 0856 49.59153366 GAU 0.0 0.0 60249.91400 0.0
M04 ? BHZ i P c 20220216 0856 49.20858002 GAU 0.0 0.0 -3911.37620 0.0
M04 ? BHN e S c 20220216 0856 49.63348007 GAU 0.0 0.0 -44286.38000 0.0
M11 ? BHZ i P c 20220216 0856 49.22960663 GAU 0.0 0.0 -422.89877 0.0
M11 ? BHN i S c 20220216 0856 49.88643265 GAU 0.0 0.0 -17644.34800 0.0
M02 ? BHZ i P d 20220216 0856 49.26380157 GAU 0.0 0.0 3658.14330 0.0
M02 ? BHN i S d 20220216 0856 49.82969666 GAU 0.0 0.0 23213.62000 0.0
M03 ? BHZ i P d 20220216 0856 49.38666153 GAU 0.0 0.0 -226.72041 0.0
M03 ? BHN e S ? 20220216 0856 50.28321075 GAU 0.0 0.0 -4011.26200 0.0
M13 ? BHZ i P c 20220216 0856 49.45922852 GAU 0.0 0.0 1126.93440 0.0
M13 ? BHN i S d 20220216 0856 50.32887268 GAU 0.0 0.0 -34419.21500 0.0
M10 ? BHZ i P c 20220216 0856 49.53572464 GAU 0.0 0.0 2063.51660 0.0
M10 ? BHN i S d 20220216 0856 50.49319839 GAU 0.0 0.0 44041.90000 0.0
M08 ? BHZ i P d 20220216 0856 49.55584335 GAU 0.0 0.0 -11.26390 0.0
M08 ? BHN i S d 20220216 0856 50.58885956 GAU 0.0 0.0 3268.37940 0.0
M05 ? BHZ i P c 20220216 0856 49.76593018 GAU 0.0 0.0 -1856.57260 0.0
M05 ? BHN i S c 20220216 0856 50.83168411 GAU 0.0 0.0 16667.38900 0.0
M12 ? BHZ i P d 20220216 0856 49.89527512 GAU 0.0 0.0 -1251.55530 0.0
M12 ? BHN i S d 20220216 0856 51.48696899 GAU 0.0 0.0 10448.92900 0.0

M10 ? BHZ e P c 20220216 0948 36.60788345 GAU 0.0 0.0 2470.53740 0.0
M10 ? BHN i S d 20220216 0948 38.78672028 GAU 0.0 0.0 1079.30790 0.0
M06 ? BHZ i P c 20220216 0948 36.39419937 GAU 0.0 0.0 758.44180 0.0
M06 ? BHN i S c 20220216 0948 38.25097656 GAU 0.0 0.0 6263.09670 0.0
M11 ? BHZ e P c 20220216 0948 36.42637253 GAU 0.0 0.0 -158.64731 0.0
M11 ? BHN i S c 20220216 0948 38.48806000 GAU 0.0 0.0 -2677.79350 0.0
M04 ? BHZ e P c 20220216 0948 36.42778015 GAU 0.0 0.0 5907.74100 0.0
M04 ? BHN e S c 20220216 0948 38.39524460 GAU 0.0 0.0 -7486.13600 0.0
M02 ? BHZ i P d 20220216 0948 36.48243713 GAU 0.0 0.0 2151.85990 0.0
M02 ? BHN i S d 20220216 0948 38.38879395 GAU 0.0 0.0 871.48773 0.0
M03 ? BHZ i P c 20220216 0948 36.56275558 GAU 0.0 0.0 -1057.81760 0.0
M03 ? BHN e S ? 20220216 0948 38.58222580 GAU 0.0 0.0 2115.94780 0.0
M13 ? BHZ i P c 20220216 0948 36.63697815 GAU 0.0 0.0 37.80373 0.0
M13 ? BHN e S ? 20220216 0948 38.72908401 GAU 0.0 0.0 -102.23137 0.0
M05 ? BHZ i P c 20220216 0948 36.77879333 GAU 0.0 0.0 276.45276 0.0
M05 ? BHN i S c 20220216 0948 39.10299301 GAU 0.0 0.0 1137.91710 0.0

M06 ? BHZ i P d 20220217 0930 22.73499680 GAU 0.0 0.0 61.21916 0.0
M06 ? BHN e S ? 20220217 0930 23.20936584 GAU 0.0 0.0 2237.11180 0.0
M14 ? BHZ i P c 20220217 0930 22.80726814 GAU 0.0 0.0 -730.76044 0.0
M14 ? BHN e S ? 20220217 0930 23.30386162 GAU 0.0 0.0 -904.38446 0.0
M11 ? BHZ e P d 20220217 0930 22.89761162 GAU 0.0 0.0 -158.81142 0.0
M11 ? BHN i S d 20220217 0930 23.58647728 GAU 0.0 0.0 2268.18920 0.0
M08 ? BHZ e P c 20220217 0930 23.26049423 GAU 0.0 0.0 115.08253 0.0
M08 ? BHN e S c 20220217 0930 24.55288506 GAU 0.0 0.0 -4896.54300 0.0

M06 ? BHZ i P d 20220217 0930 26.93172264 GAU 0.0 0.0 15.48426 0.0
M06 ? BHN e S ? 20220217 0930 27.46464157 GAU 0.0 0.0 -1918.12300 0.0
M14 ? BHZ i S d 20220217 0930 27.03494835 GAU 0.0 0.0 -44.05813 0.0
M14 ? BHN e S ? 20220217 0930 27.48164368 GAU 0.0 0.0 -2680.91600 0.0
M11 ? BHZ e P c 20220217 0930 27.10619545 GAU 0.0 0.0 -770.17267 0.0
M11 ? BHN i S d 20220217 0930 27.79842758 GAU 0.0 0.0 -1976.83570 0.0
M08 ? BHZ i P d 20220217 0930 27.54856682 GAU 0.0 0.0 971.30340 0.0
M08 ? BHN i S d 20220217 0930 28.73030663 GAU 0.0 0.0 228.72081 0.0

M06 ? BHZ i P c 20220219 2003 46.67533112 GAU 0.0 0.0 -404.61850 0.0
M06 ? BHN i S c 20220219 2003 47.20263672 GAU 0.0 0.0 -1378.79320 0.0
M11 ? BHZ i P d 20220219 2003 46.83576965 GAU 0.0 0.0 424.30905 0.0
M11 ? BHN i S d 20220219 2003 47.47461319 GAU 0.0 0.0 685.26500 0.0
M08 ? BHZ i P c 20220219 2003 47.19390869 GAU 0.0 0.0 253.00000 0.0
M08 ? BHN i S c 20220219 2003 48.21456146 GAU 0.0 0.0 -1562.43320 0.0
M05 ? BHZ i P c 20220219 2003 47.33741760 GAU 0.0 0.0 -47.83076 0.0
M05 ? BHN i S c 20220219 2003 48.24330139 GAU 0.0 0.0 -942.15030 0.0

M11 ? BHZ i P d 20220228 1303 42.95367432 GAU 0.0 0.0 -38.50971 0.0
M11 ? BHN e S ? 20220228 1303 44.79335403 GAU 0.0 0.0 -294.09820 0.0
M06 ? BHZ i P d 20220228 1303 43.00193787 GAU 0.0 0.0 988.27594 0.0
M06 ? BHN e S ? 20220228 1303 45.01568604 GAU 0.0 0.0 -2128.41900 0.0
M12 ? BHZ e P c 20220228 1303 43.02901077 GAU 0.0 0.0 -610.81696 0.0
M12 ? BHN e S ? 20220228 1303 44.94635773 GAU 0.0 0.0 -1103.06190 0.0
M05 ? BHZ i P d 20220228 1303 43.06637192 GAU 0.0 0.0 176.33736 0.0
M05 ? BHN e S ? 20220228 1303 45.15419006 GAU 0.0 0.0 -1443.11190 0.0
M10 ? BHZ i P c 20220228 1303 43.16926956 GAU 0.0 0.0 524.01090 0.0
M10 ? BHN e S ? 20220228 1303 45.15470886 GAU 0.0 0.0 -4166.63960 0.0

