PDT1 ? XNZ e P c 20180524 2243 10.04206 GAU 0.0 0.0 -0.019770209 0.0
PDT1 ? XNZ e S ? 20180524 2243 10.04393 GAU 0.0 0.0 -0.018954014 0.0
OB13 ? XNZ e P c 20180524 2243 10.04209 GAU 0.0 0.0 -0.008405745 0.0
OB13 ? XNZ e S ? 20180524 2243 10.04350 GAU 0.0 0.0 -0.007953087 0.0
PT12 ? XNZ e P c 20180524 2243 10.04245 GAU 0.0 0.0 0.018649265 0.0
PT12 ? XNZ e S ? 20180524 2243 10.04414 GAU 0.0 0.0 0.018490301 0.0
PSB9 ? XNZ e P c 20180524 2243 10.04252 GAU 1.4185078E-5 0.0 0.017020583 0.0
PSB9 ? XNZ e S ? 20180524 2243 10.04448 GAU 0.0 0.0 0.017194703 0.0
PT10 ? XNZ e P c 20180524 2243 10.04271 GAU 0.0 0.0 0.018276807 0.0
PT10 ? XNZ e S ? 20180524 2243 10.04413 GAU 8.208957E-6 0.0 0.016747935 0.0
PSB7 ? XNZ e P c 20180524 2243 10.04283 GAU 0.0 0.0 0.004963053 0.0
PSB7 ? XNZ e S ? 20180524 2243 10.04560 GAU 0.0 0.0 0.004297964 0.0
OB15 ? XNZ e P c 20180524 2243 10.04412 GAU 2.3652554E-5 0.0 -0.002653431 0.0
OB15 ? XNZ e S ? 20180524 2243 10.04597 GAU 0.0 0.0 -0.003097965 0.0


