PDB01 ? XN1 e P c 20180524 2238 45.43489 GAU 0.0 0.0 42729.047 0.0
PDB01 ? XN1 e S c 20180524 2238 45.43608 GAU 0.0 0.0 21435.547 0.0
PDB03 ? XN1 e P c 20180524 2238 45.43508 GAU 0.0 0.0 -0.051867966 0.0
PDB03 ? XN1 e S c 20180524 2238 45.43559 GAU 0.0 0.0 -0.052293815 0.0
PDB02 ? XN1 e P c 20180524 2238 45.43516 GAU 0.0 0.0 -0.052068233 0.0
PDB02 ? XN1 e S c 20180524 2238 45.43580 GAU 0.0 0.0 -0.051460862 0.0
PDB05 ? XN1 e P c 20180524 2238 45.43534 GAU 0.0 0.0 -0.05242633 0.0
PDB05 ? XN1 e S ? 20180524 2238 45.43579 GAU 0.0 0.0 -0.051989272 0.0
PDB04 ? XN1 e P c 20180524 2238 45.43543 GAU 0.0 0.0 -0.05184128 0.0
PDB04 ? XN1 e S ? 20180524 2238 45.43587 GAU 0.0 0.0 -0.051656112 0.0
PDB4 ? XNZ e P c 20180524 2238 45.43568 GAU 0.0 0.0 -0.007890206 0.0
PDB4 ? XNZ e S ? 20180524 2238 45.43622 GAU 0.0 0.0 -0.010480929 0.0
OT16 ? XNZ e P c 20180524 2238 45.43644 GAU 0.0 0.0 -5.3162687E-4 0.0
OT16 ? XNZ e S ? 20180524 2238 45.43774 GAU 0.0 0.0 0.0013884343 0.0
PST12 ? XNZ e P c 20180524 2238 45.43784 GAU 0.0 0.0 0.019556599 0.0
PST12 ? XNZ e S ? 20180524 2238 45.43819 GAU 0.0 0.0 0.019968614 0.0
PSB9 ? XNZ e P c 20180524 2238 45.43981 GAU 9.850748E-5 0.0 0.017452898 0.0
PSB9 ? XNZ e S ? 20180524 2238 45.44020 GAU 0.0 0.0 0.017538358 0.0

OT07 ? XN1 e P c 20180524 2238 54.47797 GAU 2.0522393E-4 0.0 -0.049962506 0.0
OT07 ? XN1 e S ? 20180524 2238 54.47858 GAU 0.0 0.0 -0.047904633 0.0
OT16 ? XNZ e P c 20180524 2238 54.47818 GAU 0.0 0.0 -1.1963071E-4 0.0
OT16 ? XNZ e S ? 20180524 2238 54.47901 GAU 0.0 0.0 -1.2171455E-4 0.0
PDB4 ? XNZ e P c 20180524 2238 54.47865 GAU 0.0 0.0 -0.008315442 0.0
PDB4 ? XNZ e S ? 20180524 2238 54.47961 GAU 0.0 0.0 -0.0080480585 0.0
PDT1 ? XNZ e P c 20180524 2238 54.47892 GAU 8.2746286E-5 0.0 -0.019204903 0.0
PDT1 ? XNZ e S ? 20180524 2238 54.48027 GAU 0.0 0.0 -0.019847503 0.0
OT04 ? XN1 e P c 20180524 2238 54.47899 GAU 0.0 0.0 -0.054287586 0.0
OT04 ? XN1 e S ? 20180524 2238 54.47998 GAU 0.0 0.0 -0.053376753 0.0
PDB04 ? XN1 e P c 20180524 2238 54.47947 GAU 0.0 0.0 -0.050748713 0.0
PDB04 ? XN1 e S ? 20180524 2238 54.48178 GAU 0.0 0.0 -0.050020386 0.0
PDB05 ? XN1 e P c 20180524 2238 54.47950 GAU 3.2341978E-4 0.0 -0.0505817 0.0
PDB05 ? XN1 e S ? 20180524 2238 54.48185 GAU 0.0 0.0 -0.051044308 0.0
PDB03 ? XN1 e P c 20180524 2238 54.47953 GAU 0.0 0.0 -0.050580207 0.0
PDB03 ? XN1 e S ? 20180524 2238 54.48231 GAU 0.0 0.0 -0.050653756 0.0

PDB07 ? XN1 e P c 20180524 2238 58.64180 GAU 0.0 0.0 -0.052917954 0.0
PDB07 ? XN1 e S ? 20180524 2238 58.64241 GAU 0.0 0.0 -0.053124383 0.0
PDB06 ? XN1 e P c 20180524 2238 58.64242 GAU 0.0 0.0 -0.052543428 0.0
PDB06 ? XN1 e S ? 20180524 2238 58.64291 GAU 0.0 0.0 -0.05271793 0.0
PDB08 ? XN1 e P c 20180524 2238 58.64245 GAU 0.0 0.0 -0.05267134 0.0
PDB08 ? XN1 e S ? 20180524 2238 58.64322 GAU 0.0 0.0 -0.05285957 0.0
PDB05 ? XN1 e P c 20180524 2238 58.64253 GAU 0.0 0.0 -0.05282524 0.0
PDB05 ? XN1 e S ? 20180524 2238 58.64304 GAU 0.0 0.0 -0.05296682 0.0
PDB09 ? XN1 e P c 20180524 2238 58.64255 GAU 0.0 0.0 -0.054154072 0.0
PDB09 ? XN1 e S ? 20180524 2238 58.64334 GAU 0.0 0.0 -0.054220546 0.0
PDB4 ? XNZ e P c 20180524 2238 58.64317 GAU 0.0 0.0 -0.0074197236 0.0
PDB4 ? XNZ e S ? 20180524 2238 58.64394 GAU 0.0 0.0 -0.008122693 0.0
PSB7 ? XNZ e P c 20180524 2238 58.64337 GAU 0.0 0.0 0.0053143012 0.0
PSB7 ? XNZ e S ? 20180524 2238 58.64412 GAU 0.0 0.0 0.0051449006 0.0
OT16 ? XNZ e P c 20180524 2238 58.64351 GAU 0.0 0.0 -9.5168594E-4 0.0
OT16 ? XNZ e S ? 20180524 2238 58.64494 GAU 0.0 0.0 -0.001928783 0.0
PDB3 ? XNZ e P c 20180524 2238 58.64377 GAU 0.0 0.0 -0.01638733 0.0
PDB3 ? XNZ e S ? 20180524 2238 58.64538 GAU 0.0 0.0 -0.016627375 0.0

PDB05 ? XN1 e P c 20180524 2239 04.35149 GAU 0.0 0.0 -0.05168216 0.0
PDB05 ? XN1 e S ? 20180524 2239 04.35189 GAU 0.0 0.0 -0.050765 0.0
PDB06 ? XN1 e P c 20180524 2239 04.35155 GAU 0.0 0.0 -0.051779825 0.0
PDB06 ? XN1 e S ? 20180524 2239 04.35219 GAU 0.0 0.0 -0.053519562 0.0
PDB04 ? XN1 e P c 20180524 2239 04.35157 GAU 0.0 0.0 -0.051600575 0.0
PDB04 ? XN1 e S ? 20180524 2239 04.35206 GAU 0.0 0.0 -0.051091593 0.0
PDB07 ? XN1 e P c 20180524 2239 04.35167 GAU 2.1913355E-4 0.0 -0.052070145 0.0
PDB07 ? XN1 e S ? 20180524 2239 04.35197 GAU 0.0 0.0 -0.05228751 0.0
PDB4 ? XNZ e P c 20180524 2239 04.35202 GAU 0.0 0.0 -0.008125861 0.0
PDB4 ? XNZ e S ? 20180524 2239 04.35240 GAU 0.0 0.0 -0.007416997 0.0
OB13 ? XNZ e P c 20180524 2239 04.35349 GAU 0.0 0.0 -0.008503522 0.0
OB13 ? XNZ e S ? 20180524 2239 04.35477 GAU 0.0 0.0 -0.008884435 0.0

OT09 ? XN1 e P c 20180524 2239 10.15768 GAU 0.0 0.0 -0.051314376 0.0
OT09 ? XN1 e S ? 20180524 2239 10.15816 GAU 0.0 0.0 -0.05257363 0.0
OT08 ? XN1 e P c 20180524 2239 10.15775 GAU 0.0 0.0 -0.05368689 0.0
OT08 ? XN1 e S ? 20180524 2239 10.15840 GAU 0.0 0.0 -0.052163057 0.0
PDB04 ? XN1 e P c 20180524 2239 10.15816 GAU 0.0 0.0 -0.05129109 0.0
PDB04 ? XN1 e S ? 20180524 2239 10.15917 GAU 0.0 0.0 -0.052126817 0.0
PDB05 ? XN1 e P c 20180524 2239 10.15823 GAU 0.0 0.0 -0.05194853 0.0
PDB05 ? XN1 e S ? 20180524 2239 10.15900 GAU 0.0 0.0 -0.05153895 0.0
PDB06 ? XN1 e P c 20180524 2239 10.15832 GAU 0.0 0.0 -0.051724087 0.0
PDB06 ? XN1 e S ? 20180524 2239 10.15916 GAU 0.0 0.0 -0.051309843 0.0
PDB03 ? XN1 e P c 20180524 2239 10.15834 GAU 0.0 0.0 -0.05187372 0.0
PDB03 ? XN1 e S ? 20180524 2239 10.15922 GAU 0.0 0.0 -0.052520886 0.0
OT16 ? XNZ e P c 20180524 2239 10.15835 GAU 0.0 0.0 -0.0017585384 0.0
OT16 ? XNZ e S ? 20180524 2239 10.15898 GAU 0.0 0.0 -0.0023834337 0.0
PDB4 ? XNZ e P c 20180524 2239 10.15844 GAU 0.0 0.0 -0.008296039 0.0
PDB4 ? XNZ e S ? 20180524 2239 10.15946 GAU 0.0 0.0 -0.009289399 0.0
PDB07 ? XN1 e P c 20180524 2239 10.15858 GAU 0.0 0.0 -0.051677365 0.0
PDB07 ? XN1 e S ? 20180524 2239 10.15919 GAU 0.0 0.0 -0.051541444 0.0
PDB01 ? XN1 e P c 20180524 2239 10.15877 GAU 0.0 0.0 -0.05154833 0.0
PDB01 ? XN1 e S ? 20180524 2239 10.15970 GAU 0.0 0.0 -0.051012367 0.0
PDT1 ? XNZ e P c 20180524 2239 10.15913 GAU 0.0 0.0 -0.02022268 0.0
PDT1 ? XNZ e S ? 20180524 2239 10.16025 GAU 0.0 0.0 -0.019412637 0.0
PST10 ? XNZ e P c 20180524 2239 10.15968 GAU 0.0 0.0 0.0178234 0.0
PST10 ? XNZ e S ? 20180524 2239 10.16153 GAU 0.0 0.0 0.018896505 0.0
OB15 ? XNZ e P c 20180524 2239 10.16175 GAU 9.929555E-5 0.0 -0.0025570416 0.0
OB15 ? XNZ e S ? 20180524 2239 10.16462 GAU 0.0 0.0 -0.0023701065 0.0

OT10 ? XN1 e P c 20180524 2239 18.75764 GAU 7.883154E-5 0.0 -0.08063405 0.0
OT10 ? XN1 e S ? 20180524 2239 18.75792 GAU 0.0 0.0 -0.085168995 0.0
OT11 ? XN1 e P c 20180524 2239 18.75788 GAU 0.0 0.0 -0.0601804 0.0
OT11 ? XN1 e S ? 20180524 2239 18.75822 GAU 0.0 0.0 -0.05781272 0.0
OT08 ? XN1 e P c 20180524 2239 18.75795 GAU 0.0 0.0 -0.052253958 0.0
OT08 ? XN1 e S ? 20180524 2239 18.75845 GAU 0.0 0.0 -0.053165905 0.0
OT07 ? XN1 e P c 20180524 2239 18.75842 GAU 0.0 0.0 -0.054756097 0.0
OT07 ? XN1 e S ? 20180524 2239 18.75900 GAU 0.0 0.0 -0.053589676 0.0
OT05 ? XN1 e P c 20180524 2239 18.75895 GAU 0.0 0.0 -0.051670734 0.0
OT05 ? XN1 e S ? 20180524 2239 18.75982 GAU 0.0 0.0 -0.053479616 0.0
OT04 ? XN1 e P c 20180524 2239 18.75918 GAU 0.0 0.0 -0.05337788 0.0
OT04 ? XN1 e S ? 20180524 2239 18.76020 GAU 0.0 0.0 -0.055234928 0.0
PDB4 ? XNZ e P c 20180524 2239 18.75944 GAU 0.0 0.0 -0.008014944 0.0
PDB4 ? XNZ e S ? 20180524 2239 18.76058 GAU 0.0 0.0 -0.0068786764 0.0
PDB02 ? XN1 e P c 20180524 2239 18.75990 GAU 0.0 0.0 -0.052809317 0.0
PDB02 ? XN1 e S ? 20180524 2239 18.76070 GAU 0.0 0.0 -0.05172428 0.0
PDT1 ? XNZ e P c 20180524 2239 18.75991 GAU 3.8312128E-4 0.0 -0.018968435 0.0
PDT1 ? XNZ e S ? 20180524 2239 18.76105 GAU 0.0 0.0 -0.019534456 0.0
PDB03 ? XN1 e P c 20180524 2239 18.76019 GAU 0.0 0.0 -0.052819036 0.0
PDB03 ? XN1 e S ? 20180524 2239 18.76075 GAU 0.0 0.0 -0.053432144 0.0
PSB9 ? XNZ e P c 20180524 2239 18.76086 GAU 0.0 0.0 0.01702402 0.0
PSB9 ? XNZ e S ? 20180524 2239 18.76302 GAU 0.0 0.0 0.017398857 0.0
PST12 ? XNZ e P c 20180524 2239 18.76094 GAU 0.0 0.0 0.01888954 0.0
PST12 ? XNZ e S ? 20180524 2239 18.76241 GAU 0.0 0.0 0.019137971 0.0
PST10 ? XNZ e P c 20180524 2239 18.76153 GAU 0.0 0.0 0.018672949 0.0
PST10 ? XNZ e S ? 20180524 2239 18.76225 GAU 0.0 0.0 0.018722018 0.0
PSB7 ? XNZ e P c 20180524 2239 18.76337 GAU 0.0 0.0 0.0054723746 0.0
PSB7 ? XNZ e S ? 20180524 2239 18.76444 GAU 0.0 0.0 0.0050488175 0.0

PDB04 ? XN1 e P c 20180524 2239 21.93188 GAU 0.0 0.0 -0.050985288 0.0
PDB04 ? XN1 e S ? 20180524 2239 21.93319 GAU 0.0 0.0 -0.050862025 0.0
PDB06 ? XN1 e P c 20180524 2239 21.93188 GAU 0.0 0.0 -0.05094409 0.0
PDB06 ? XN1 e S ? 20180524 2239 21.93272 GAU 0.0 0.0 -0.050685685 0.0
PDB05 ? XN1 e P c 20180524 2239 21.93220 GAU 0.0 0.0 -0.05067319 0.0
PDB05 ? XN1 e S ? 20180524 2239 21.93313 GAU 0.0 0.0 -0.051907606 0.0
PDB4 ? XNZ e P c 20180524 2239 21.93311 GAU 4.2555234E-4 0.0 -0.008292366 0.0
PDB4 ? XNZ e S ? 20180524 2239 21.93387 GAU 0.0 0.0 -0.007293804 0.0
OT16 ? XNZ e P c 20180524 2239 21.93428 GAU 0.0 0.0 6.0483115E-4 0.0
OT16 ? XNZ e S ? 20180524 2239 21.93529 GAU 0.0 0.0 -0.001110225 0.0

OT16 ? XNZ e P c 20180524 2239 28.31101 GAU 6.099583E-4 0.0 -0.0014698808 0.0
OT16 ? XNZ e S ? 20180524 2239 28.31222 GAU 0.0 0.0 -2.781977E-4 0.0
OT08 ? XN1 e P c 20180524 2239 28.31139 GAU 0.0 0.0 -0.050396968 0.0
OT08 ? XN1 e S ? 20180524 2239 28.31198 GAU 0.0 0.0 -0.047903 0.0
PDB4 ? XNZ e P c 20180524 2239 28.31243 GAU 0.0 0.0 -0.007846693 0.0
PDB4 ? XNZ e S ? 20180524 2239 28.31306 GAU 0.0 0.0 -0.007447874 0.0
PDB03 ? XN1 e P c 20180524 2239 28.31269 GAU 0.0 0.0 -0.04982575 0.0
PDB03 ? XN1 e S ? 20180524 2239 28.31300 GAU 0.0 0.0 -0.04994563 0.0
PDB02 ? XN1 e P c 20180524 2239 28.31276 GAU 0.0 0.0 -0.049487375 0.0
PDB02 ? XN1 e S ? 20180524 2239 28.31319 GAU 0.0 0.0 -0.049250457 0.0
PDT1 ? XNZ e P c 20180524 2239 28.31326 GAU 0.0 0.0 -0.019373305 0.0
PDT1 ? XNZ e S ? 20180524 2239 28.31441 GAU 0.0 0.0 -0.019553216 0.0
PSB7 ? XNZ e P c 20180524 2239 28.31439 GAU 0.0 0.0 0.0052681076 0.0
PSB7 ? XNZ e S ? 20180524 2239 28.31661 GAU 0.0 0.0 0.005505772 0.0

PDB4 ? XNZ e P c 20180524 2239 28.45466 GAU 0.0 0.0 -0.008480247 0.0
PDB4 ? XNZ e S ? 20180524 2239 28.45519 GAU 0.0 0.0 -0.007685206 0.0
PDB03 ? XN1 e P c 20180524 2239 28.45458 GAU 0.0 0.0 -0.050701514 0.0
PDB03 ? XN1 e S ? 20180524 2239 28.45509 GAU 0.0 0.0 -0.050440665 0.0
PDB02 ? XN1 e P c 20180524 2239 28.45486 GAU 0.0 0.0 -0.049927328 0.0
PDB02 ? XN1 e S ? 20180524 2239 28.45539 GAU 0.0 0.0 -0.04965827 0.0
PDB05 ? XN1 e P c 20180524 2239 28.45412 GAU 0.0 0.0 -0.050456837 0.0
PDB05 ? XN1 e S ? 20180524 2239 28.45496 GAU 0.0 0.0 -0.050229475 0.0
PDB04 ? XN1 e P c 20180524 2239 28.45442 GAU 2.3641797E-4 0.0 -0.050471436 0.0
PDB04 ? XN1 e S ? 20180524 2239 28.45488 GAU 0.0 0.0 -0.050349392 0.0
PDB07 ? XN1 e P c 20180524 2239 28.45455 GAU 0.0 0.0 -0.049957294 0.0
PDB07 ? XN1 e S ? 20180524 2239 28.45551 GAU 0.0 0.0 -0.050226472 0.0
PDB01 ? XN1 e P c 20180524 2239 28.45521 GAU 0.0 0.0 -0.05123582 0.0
PDB01 ? XN1 e S ? 20180524 2239 28.45561 GAU 0.0 0.0 -0.05035334 0.0
PSB9 ? XNZ e P c 20180524 2239 28.45694 GAU 0.0 0.0 0.01791728 0.0
PSB9 ? XNZ e S ? 20180524 2239 28.45845 GAU 0.0 0.0 0.017762156 0.0

PDB05 ? XN1 e P c 20180524 2239 36.30241 GAU 0.0 0.0 -0.052314598 0.0
PDB05 ? XN1 e S ? 20180524 2239 36.30298 GAU 0.0 0.0 -0.052928217 0.0
PDB06 ? XN1 e P c 20180524 2239 36.30244 GAU 0.0 0.0 -0.052031618 0.0
PDB06 ? XN1 e S ? 20180524 2239 36.30282 GAU 0.0 0.0 -0.052154407 0.0
PDB07 ? XN1 e P c 20180524 2239 36.30244 GAU 0.0 0.0 -0.052091632 0.0
PDB07 ? XN1 e S ? 20180524 2239 36.30300 GAU 0.0 0.0 -0.052339207 0.0
PDB04 ? XN1 e P c 20180524 2239 36.30267 GAU 0.0 0.0 -0.05129103 0.0
PDB04 ? XN1 e S ? 20180524 2239 36.30321 GAU 0.0 0.0 -0.051690884 0.0
PDB08 ? XN1 e P c 20180524 2239 36.30278 GAU 0.0 0.0 -0.051840212 0.0
PDB08 ? XN1 e S ? 20180524 2239 36.30355 GAU 0.0 0.0 -0.05179451 0.0
PDB03 ? XN1 e P c 20180524 2239 36.30299 GAU 0.0 0.0 -0.052692864 0.0
PDB03 ? XN1 e S ? 20180524 2239 36.30354 GAU 0.0 0.0 -0.05223582 0.0
PDB4 ? XNZ e P c 20180524 2239 36.30311 GAU 0.0 0.0 -0.0075075077 0.0
PDB4 ? XNZ e S ? 20180524 2239 36.30395 GAU 0.0 0.0 -0.008299823 0.0
OT16 ? XNZ e P c 20180524 2239 36.30387 GAU 0.0 0.0 -0.001095396 0.0
OT16 ? XNZ e S ? 20180524 2239 36.30502 GAU 0.0 0.0 0.0015757501 0.0
OB13 ? XNZ e P c 20180524 2239 36.30427 GAU 0.0 0.0 -0.0086281095 0.0
OB13 ? XNZ e S ? 20180524 2239 36.30585 GAU 0.0 0.0 -0.009162712 0.0

PDB05 ? XN1 e P c 20180524 2240 00.28198 GAU 0.0 0.0 -0.05065862 0.0
PDB05 ? XN1 e S ? 20180524 2240 00.28245 GAU 0.0 0.0 -0.04998375 0.0
PDB06 ? XN1 e P c 20180524 2240 00.28175 GAU 0.0 0.0 -0.05038024 0.0
PDB06 ? XN1 e S ? 20180524 2240 00.28230 GAU 0.0 0.0 -0.051078476 0.0
PDB07 ? XN1 e P c 20180524 2240 00.28172 GAU 0.0 0.0 -0.050270952 0.0
PDB07 ? XN1 e S ? 20180524 2240 00.28210 GAU 0.0 0.0 -0.05028159 0.0
PDB08 ? XN1 e P c 20180524 2240 00.28131 GAU 9.850653E-5 0.0 -0.050642494 0.0
PDB08 ? XN1 e S ? 20180524 2240 00.28194 GAU 0.0 0.0 -0.050775576 0.0
PDB4 ? XNZ e P c 20180524 2240 00.28264 GAU 4.5313442E-4 0.0 -0.0085995495 0.0
PDB4 ? XNZ e S ? 20180524 2240 00.28334 GAU 0.0 0.0 -0.0072189304 0.0
OT16 ? XNZ e P c 20180524 2240 00.28394 GAU 0.0 0.0 -0.0011197687 0.0
OT16 ? XNZ e S ? 20180524 2240 00.28461 GAU 0.0 0.0 -2.603978E-5 0.0
OB13 ? XNZ e P c 20180524 2240 00.28392 GAU 0.0 0.0 -0.008921662 0.0
OB13 ? XNZ e S ? 20180524 2240 00.28507 GAU 0.0 0.0 -0.010426214 0.0

PDB05 ? XN1 e P c 20180524 2240 15.84667 GAU 7.524877E-5 0.0 -0.05170928 0.0
PDB05 ? XN1 e S ? 20180524 2240 15.84769 GAU 0.0 0.0 -0.052186415 0.0
OT08 ? XN1 e P c 20180524 2240 15.84675 GAU 0.0 0.0 -0.052663863 0.0
OT08 ? XN1 e S ? 20180524 2240 15.84727 GAU 0.0 0.0 -0.05281654 0.0
OT10 ? XN1 e P c 20180524 2240 15.84679 GAU 0.0 0.0 -0.0497389 0.0
OT10 ? XN1 e S ? 20180524 2240 15.84713 GAU 2.462687E-5 0.0 -0.05372972 0.0
PDB4 ? XNZ e P c 20180524 2240 15.84689 GAU 0.0 0.0 -0.00795114 0.0
PDB4 ? XNZ e S ? 20180524 2240 15.84759 GAU 0.0 0.0 -0.0060669496 0.0
PDB04 ? XN1 e P c 20180524 2240 15.84707 GAU 0.0 0.0 -0.05116323 0.0
PDB04 ? XN1 e S ? 20180524 2240 15.84794 GAU 0.0 0.0 -0.050709333 0.0
PDB06 ? XN1 e P c 20180524 2240 15.84719 GAU 5.910449E-5 0.0 -0.05106249 0.0
PDB06 ? XN1 e S ? 20180524 2240 15.84801 GAU 0.0 0.0 -0.051448792 0.0
PDB02 ? XN1 e P c 20180524 2240 15.84726 GAU 0.0 0.0 -0.05166789 0.0
PDB02 ? XN1 e S ? 20180524 2240 15.84783 GAU 0.0 0.0 -0.049661957 0.0
PDB03 ? XN1 e P c 20180524 2240 15.84728 GAU 0.0 0.0 -0.052073877 0.0
PDB03 ? XN1 e S ? 20180524 2240 15.84805 GAU 0.0 0.0 -0.052769836 0.0
OT16 ? XNZ e P c 20180524 2240 15.84733 GAU 0.0 0.0 1.8858517E-4 0.0
OT16 ? XNZ e S ? 20180524 2240 15.84818 GAU 0.0 0.0 -0.002571072 0.0
PDB01 ? XN1 e P c 20180524 2240 15.84735 GAU 0.0 0.0 -0.0519133 0.0
PDB01 ? XN1 e S ? 20180524 2240 15.84838 GAU 0.0 0.0 -0.052069124 0.0
PDT1 ? XNZ e P c 20180524 2240 15.84865 GAU 0.0 0.0 -0.020171985 0.0
PDT1 ? XNZ e S ? 20180524 2240 15.84997 GAU 0.0 0.0 -0.01904293 0.0
PST12 ? XNZ e P c 20180524 2240 15.84901 GAU 0.0 0.0 0.020425558 0.0
PST12 ? XNZ e S ? 20180524 2240 15.85118 GAU 0.0 0.0 0.01952849 0.0
PSB9 ? XNZ e P c 20180524 2240 15.84921 GAU 0.0 0.0 0.018227365 0.0
PSB9 ? XNZ e S ? 20180524 2240 15.85124 GAU 0.0 0.0 0.017605769 0.0

PDB06 ? XN1 e P c 20180524 2240 25.82979 GAU 0.0 0.0 -0.05157471 0.0
PDB06 ? XN1 e S ? 20180524 2240 25.83028 GAU 0.0 0.0 -0.051223923 0.0
PDB04 ? XN1 e P c 20180524 2240 25.82997 GAU 0.0 0.0 -0.051053427 0.0
PDB04 ? XN1 e S ? 20180524 2240 25.83031 GAU 0.0 0.0 -0.052216686 0.0
PDB4 ? XNZ e P c 20180524 2240 25.83053 GAU 0.0 0.0 -0.008148138 0.0
PDB4 ? XNZ e S ? 20180524 2240 25.83120 GAU 0.0 0.0 -0.0049679424 0.0
OB13 ? XNZ e P c 20180524 2240 25.83213 GAU 0.0 0.0 -0.008233219 0.0
OB13 ? XNZ e S ? 20180524 2240 25.83345 GAU 0.0 0.0 -0.0083574345 0.0
PSB9 ? XNZ e P c 20180524 2240 25.83288 GAU 0.0 0.0 0.017199326 0.0
PSB9 ? XNZ e S ? 20180524 2240 25.83500 GAU 0.0 0.0 0.016534254 0.0

PDB04 ? XN1 e P c 20180524 2240 29.70277 GAU 0.0 0.0 -0.050629012 0.0
PDB04 ? XN1 e S ? 20180524 2240 29.70350 GAU 0.0 0.0 -0.050812002 0.0
PDB05 ? XN1 e P c 20180524 2240 29.70286 GAU 0.0 0.0 -0.050715704 0.0
PDB05 ? XN1 e S ? 20180524 2240 29.70332 GAU 0.0 0.0 -0.050445914 0.0
PDB06 ? XN1 e P c 20180524 2240 29.70321 GAU 0.0 0.0 -0.05039264 0.0
PDB06 ? XN1 e S ? 20180524 2240 29.70368 GAU 0.0 0.0 -0.051552 0.0
PDB08 ? XN1 e P c 20180524 2240 29.70346 GAU 0.0 0.0 -0.05063794 0.0
PDB08 ? XN1 e S ? 20180524 2240 29.70427 GAU 0.0 0.0 -0.05045617 0.0
PDB4 ? XNZ e P c 20180524 2240 29.70379 GAU 0.0 0.0 -0.008517448 0.0
PDB4 ? XNZ e S ? 20180524 2240 29.70466 GAU 0.0 0.0 -0.008175375 0.0
PDB10 ? XN1 e P c 20180524 2240 29.70412 GAU 0.0 0.0 -0.052153572 0.0
PDB10 ? XN1 e S ? 20180524 2240 29.70520 GAU 0.0 0.0 -0.05163846 0.0
OT16 ? XNZ e P c 20180524 2240 29.70466 GAU 0.0 0.0 0.0013395643 0.0
OT16 ? XNZ e S ? 20180524 2240 29.70544 GAU 0.0 0.0 1.07407104E-4 0.0
OB13 ? XNZ e P c 20180524 2240 29.70515 GAU 0.0 0.0 -0.008207571 0.0
OB13 ? XNZ e S ? 20180524 2240 29.70662 GAU 0.0 0.0 -0.007855203 0.0
PDT1 ? XNZ e P c 20180524 2240 29.70542 GAU 0.0 0.0 -0.018899975 0.0
PDT1 ? XNZ ? ? ? 20180524 2240 29.70547 GAU 0.0 0.0 -0.02068654 0.0
PDT1 ? XNZ e S ? 20180524 2240 29.70700 GAU 0.0 0.0 -0.019281482 0.0

PDB06 ? XN1 e P c 20180524 2240 25.82993 GAU 0.0 0.0 -0.051498372 0.0
PDB06 ? XN1 e S ? 20180524 2240 25.83030 GAU 0.0 0.0 -0.05084256 0.0
PDB04 ? XN1 e P c 20180524 2240 25.83016 GAU 0.0 0.0 -0.05149043 0.0
PDB04 ? XN1 e S ? 20180524 2240 25.83058 GAU 0.0 0.0 -0.050448105 0.0
PDB4 ? XNZ e P c 20180524 2240 25.83052 GAU 0.0 0.0 -0.009417451 0.0
PDB4 ? XNZ e S ? 20180524 2240 25.83111 GAU 0.0 0.0 -0.00669976 0.0
PSB9 ? XNZ e P c 20180524 2240 25.83296 GAU 0.0 0.0 0.01703038 0.0
PSB9 ? XNZ e S ? 20180524 2240 25.83494 GAU 0.0 0.0 0.017423082 0.0

PDB06 ? XN1 e P c 20180524 2240 33.00346 GAU 0.0 0.0 -0.051038533 0.0
PDB06 ? XN1 e S ? 20180524 2240 33.00386 GAU 0.0 0.0 -0.049196538 0.0
PDB05 ? XN1 e P c 20180524 2240 33.00353 GAU 0.0 0.0 -0.050366145 0.0
PDB05 ? XN1 e S ? 20180524 2240 33.00389 GAU 0.0 0.0 -0.049925365 0.0
PDB03 ? XN1 e P c 20180524 2240 33.00361 GAU 0.0 0.0 -0.051614553 0.0
PDB03 ? XN1 e S ? 20180524 2240 33.00452 GAU 0.0 0.0 -0.05178382 0.0
PDB07 ? XN1 e P c 20180524 2240 33.00361 GAU 0.0 0.0 -0.051204383 0.0
PDB07 ? XN1 e S ? 20180524 2240 33.00414 GAU 0.0 0.0 -0.052479684 0.0
PDB04 ? XN1 e P c 20180524 2240 33.00363 GAU 0.0 0.0 -0.05129862 0.0
PDB04 ? XN1 e S ? 20180524 2240 33.00415 GAU 0.0 0.0 -0.049512617 0.0
PDB08 ? XN1 e P c 20180524 2240 33.00388 GAU 0.0 0.0 -0.050282657 0.0
PDB08 ? XN1 e S ? 20180524 2240 33.00453 GAU 0.0 0.0 -0.05045832 0.0
PDB4 ? XNZ e P c 20180524 2240 33.00406 GAU 0.0 0.0 -0.008227557 0.0
PDB4 ? XNZ e S ? 20180524 2240 33.00465 GAU 6.8407976E-6 0.0 -0.009460591 0.0

PDB05 ? XN1 e P c 20180524 2240 33.36859 GAU 0.0 0.0 -0.050885398 0.0
PDB05 ? XN1 e S ? 20180524 2240 33.36962 GAU 0.0 0.0 -0.050694782 0.0
PDB4 ? XNZ e P c 20180524 2240 33.36895 GAU 0.0 0.0 -0.008571192 0.0
PDB4 ? XNZ e S ? 20180524 2240 33.36982 GAU 0.0 0.0 -0.008437219 0.0
PDB06 ? XN1 e P c 20180524 2240 33.36898 GAU 0.0 0.0 -0.05059831 0.0
PDB06 ? XN1 e S ? 20180524 2240 33.36967 GAU 0.0 0.0 -0.050225273 0.0
PDB04 ? XN1 e P c 20180524 2240 33.36912 GAU 0.0 0.0 -0.050990805 0.0
PDB04 ? XN1 e S ? 20180524 2240 33.36976 GAU 0.0 0.0 -0.05013371 0.0
OT07 ? XN1 e P c 20180524 2240 33.37007 GAU 0.0 0.0 -0.049057458 0.0
OT07 ? XN1 e S ? 20180524 2240 33.37102 GAU 0.0 0.0 -0.047236696 0.0
OT16 ? XNZ e P c 20180524 2240 33.37051 GAU 0.0 0.0 -0.0010729162 0.0
OT16 ? XNZ e S ? 20180524 2240 33.37163 GAU 0.0 0.0 -3.7203077E-4 0.0
OB13 ? XNZ e P c 20180524 2240 33.37088 GAU 0.0 0.0 -0.00895521 0.0
OB13 ? XNZ e S ? 20180524 2240 33.37247 GAU 0.0 0.0 -0.008227325 0.0

PDB05 ? XN1 e P c 20180524 2240 37.68626 GAU 0.0 0.0 -0.052291404 0.0
PDB05 ? XN1 e S ? 20180524 2240 37.68690 GAU 0.0 0.0 -0.052416977 0.0
PDB06 ? XN1 e P c 20180524 2240 37.68657 GAU 0.0 0.0 -0.052693784 0.0
PDB06 ? XN1 e S ? 20180524 2240 37.68694 GAU 0.0 0.0 -0.05240393 0.0
PDB4 ? XNZ e P c 20180524 2240 37.68689 GAU 0.0 0.0 -0.008171381 0.0
