M09 ? BHZ e P c 20230101 0546 05.50515223 GAU 0.0102848355 0.0 121.78956 0.0
M09 ? BHN e S ? 20230101 0546 06.13387537 GAU 0.008610923 0.0 504.4053 0.0
M06 ? BHZ e P c 20230101 0546 05.42867517 GAU 0.008611067 0.0 -93.50989 0.0
M06 ? BHN e S ? 20230101 0546 06.14726353 GAU 0.01377789 0.0 -50.400642 0.0
M11 ? BHZ e P c 20230101 0546 05.50173950 GAU 0.020092033 0.0 -19.999441 0.0
M11 ? BHN e S ? 20230101 0546 05.90509510 GAU 0.023808107 0.0 -30.24657 0.0
